<?xml version="1.0" encoding="UTF-8"?>
<gpx creator="StravaGPX" version="1.1" xmlns="http://www.topografix.com/GPX/1/1" xmlns:xsi="http://www.w3.org/2001/XMLSchema-instance" xsi:schemaLocation="http://www.topografix.com/GPX/1/1 http://www.topografix.com/GPX/1/1/gpx.xsd">
 <metadata>
  <name>Turawa dookoła</name>
  <author>
   <name>Patryk Jankowski</name>
   <link href="https://www.strava.com/athletes/71535837"/>
  </author>
  <copyright author="OpenStreetMap contributors">
   <year>2020</year>
   <license>https://www.openstreetmap.org/copyright</license>
  </copyright>
  <link href="https://www.strava.com/routes/3372927527431367806"/>
 </metadata>
 <trk>
  <name>Turawa dookoła</name>
  <link href="https://www.strava.com/routes/3372927527431367806"/>
  <type>gravel_biking</type>
  <trkseg>
   <trkpt lat="50.682100000000005" lon="17.947470000000003">
    <ele>176.35</ele>
   </trkpt>
   <trkpt lat="50.68291000000001" lon="17.94736">
    <ele>176.42000000000002</ele>
   </trkpt>
   <trkpt lat="50.68296" lon="17.94732">
    <ele>176.42000000000002</ele>
   </trkpt>
   <trkpt lat="50.68314" lon="17.94687">
    <ele>176.53000000000003</ele>
   </trkpt>
   <trkpt lat="50.68388400993519" lon="17.947631951671156">
    <ele>176.66</ele>
   </trkpt>
   <trkpt lat="50.68462801490318" lon="17.94839392750559">
    <ele>176.48000000000002</ele>
   </trkpt>
   <trkpt lat="50.68537201490369" lon="17.949155927504574">
    <ele>175.19</ele>
   </trkpt>
   <trkpt lat="50.68611600993643" lon="17.94991795166933">
    <ele>174.04000000000002</ele>
   </trkpt>
   <trkpt lat="50.68686" lon="17.950680000000002">
    <ele>173.22</ele>
   </trkpt>
   <trkpt lat="50.686910000000005" lon="17.950580000000002">
    <ele>173.19</ele>
   </trkpt>
   <trkpt lat="50.687110000000004" lon="17.950770000000002">
    <ele>173.08</ele>
   </trkpt>
   <trkpt lat="50.68719" lon="17.95083">
    <ele>173.03</ele>
   </trkpt>
   <trkpt lat="50.687290000000004" lon="17.950860000000002">
    <ele>173.03</ele>
   </trkpt>
   <trkpt lat="50.687400000000004" lon="17.95083">
    <ele>172.97</ele>
   </trkpt>
   <trkpt lat="50.68783500082216" lon="17.950465003172532">
    <ele>173.34000000000003</ele>
   </trkpt>
   <trkpt lat="50.68827" lon="17.950100000000003">
    <ele>173.87000000000003</ele>
   </trkpt>
   <trkpt lat="50.688970001501346" lon="17.949520008602367">
    <ele>173.62000000000003</ele>
   </trkpt>
   <trkpt lat="50.68967000000001" lon="17.94894">
    <ele>173.91</ele>
   </trkpt>
   <trkpt lat="50.690030001358124" lon="17.94947999602234">
    <ele>172.43000000000004</ele>
   </trkpt>
   <trkpt lat="50.69039" lon="17.950020000000002">
    <ele>171.06</ele>
   </trkpt>
   <trkpt lat="50.690740000000005" lon="17.95043">
    <ele>169.26000000000002</ele>
   </trkpt>
   <trkpt lat="50.69120333801284" lon="17.951169985373834">
    <ele>167.65</ele>
   </trkpt>
   <trkpt lat="50.69166667134105" lon="17.951909985365436">
    <ele>165.91</ele>
   </trkpt>
   <trkpt lat="50.692130000000006" lon="17.952650000000002">
    <ele>164.09</ele>
   </trkpt>
   <trkpt lat="50.69245" lon="17.95307">
    <ele>163.36</ele>
   </trkpt>
   <trkpt lat="50.69243" lon="17.95313">
    <ele>163.53</ele>
   </trkpt>
   <trkpt lat="50.69309000872325" lon="17.953843959816062">
    <ele>162.47</ele>
   </trkpt>
   <trkpt lat="50.69375001308561" lon="17.95455793972374">
    <ele>162.18</ele>
   </trkpt>
   <trkpt lat="50.69441001308685" lon="17.95527193972394">
    <ele>162.42000000000002</ele>
   </trkpt>
   <trkpt lat="50.695070008726766" lon="17.955985959817575">
    <ele>163.11</ele>
   </trkpt>
   <trkpt lat="50.695730000000005" lon="17.9567">
    <ele>163.38000000000002</ele>
   </trkpt>
   <trkpt lat="50.696180000000005" lon="17.957230000000003">
    <ele>162.77</ele>
   </trkpt>
   <trkpt lat="50.69623000000001" lon="17.9573">
    <ele>162.77</ele>
   </trkpt>
   <trkpt lat="50.69623000000001" lon="17.957430000000002">
    <ele>162.12</ele>
   </trkpt>
   <trkpt lat="50.69655" lon="17.95786">
    <ele>160.0</ele>
   </trkpt>
   <trkpt lat="50.696670000000005" lon="17.95815">
    <ele>159.67000000000002</ele>
   </trkpt>
   <trkpt lat="50.69689" lon="17.95849">
    <ele>159.60000000000002</ele>
   </trkpt>
   <trkpt lat="50.69693" lon="17.95851">
    <ele>159.64000000000001</ele>
   </trkpt>
   <trkpt lat="50.69697000000001" lon="17.9585">
    <ele>159.64000000000001</ele>
   </trkpt>
   <trkpt lat="50.69704" lon="17.95842">
    <ele>159.88000000000002</ele>
   </trkpt>
   <trkpt lat="50.69709" lon="17.95839">
    <ele>159.88000000000002</ele>
   </trkpt>
   <trkpt lat="50.697120000000005" lon="17.95839">
    <ele>160.13000000000002</ele>
   </trkpt>
   <trkpt lat="50.69729" lon="17.95859">
    <ele>161.14000000000001</ele>
   </trkpt>
   <trkpt lat="50.69735000000001" lon="17.95857">
    <ele>161.14000000000001</ele>
   </trkpt>
   <trkpt lat="50.69812" lon="17.959280000000003">
    <ele>163.04000000000002</ele>
   </trkpt>
   <trkpt lat="50.69852" lon="17.95979">
    <ele>161.92000000000002</ele>
   </trkpt>
   <trkpt lat="50.69858000000001" lon="17.96011">
    <ele>157.44000000000003</ele>
   </trkpt>
   <trkpt lat="50.698570000000004" lon="17.960320000000003">
    <ele>157.44000000000003</ele>
   </trkpt>
   <trkpt lat="50.698800000000006" lon="17.96092">
    <ele>154.25000000000003</ele>
   </trkpt>
   <trkpt lat="50.69881" lon="17.96103">
    <ele>154.24</ele>
   </trkpt>
   <trkpt lat="50.69888" lon="17.96121">
    <ele>154.24</ele>
   </trkpt>
   <trkpt lat="50.698840000000004" lon="17.96129">
    <ele>154.24</ele>
   </trkpt>
   <trkpt lat="50.69877" lon="17.96134">
    <ele>154.3</ele>
   </trkpt>
   <trkpt lat="50.698640000000005" lon="17.961470000000002">
    <ele>154.3</ele>
   </trkpt>
   <trkpt lat="50.69865" lon="17.961460000000002">
    <ele>154.3</ele>
   </trkpt>
   <trkpt lat="50.698420000000006" lon="17.961720000000003">
    <ele>154.37</ele>
   </trkpt>
   <trkpt lat="50.698220000000006" lon="17.96199">
    <ele>154.53</ele>
   </trkpt>
   <trkpt lat="50.698150000000005" lon="17.96218">
    <ele>154.56</ele>
   </trkpt>
   <trkpt lat="50.69829000000001" lon="17.962570000000003">
    <ele>154.56</ele>
   </trkpt>
   <trkpt lat="50.698633343553134" lon="17.96366331730576">
    <ele>155.27</ele>
   </trkpt>
   <trkpt lat="50.698976676880505" lon="17.96475665061978">
    <ele>156.05</ele>
   </trkpt>
   <trkpt lat="50.69932000000001" lon="17.965850000000003">
    <ele>155.96</ele>
   </trkpt>
   <trkpt lat="50.69948" lon="17.9663">
    <ele>156.15</ele>
   </trkpt>
   <trkpt lat="50.69957" lon="17.96664">
    <ele>156.16000000000003</ele>
   </trkpt>
   <trkpt lat="50.69955" lon="17.96695">
    <ele>156.10000000000002</ele>
   </trkpt>
   <trkpt lat="50.69935" lon="17.967660000000002">
    <ele>155.89</ele>
   </trkpt>
   <trkpt lat="50.69934000000001" lon="17.96777">
    <ele>155.89</ele>
   </trkpt>
   <trkpt lat="50.699360000000006" lon="17.96805">
    <ele>155.86</ele>
   </trkpt>
   <trkpt lat="50.69942" lon="17.96852">
    <ele>156.06</ele>
   </trkpt>
   <trkpt lat="50.699620010536734" lon="17.969629990514324">
    <ele>156.52</ele>
   </trkpt>
   <trkpt lat="50.69982001053355" lon="17.97073999049647">
    <ele>156.52</ele>
   </trkpt>
   <trkpt lat="50.70002" lon="17.97185">
    <ele>156.71</ele>
   </trkpt>
   <trkpt lat="50.70002" lon="17.971870000000003">
    <ele>156.71</ele>
   </trkpt>
   <trkpt lat="50.700190007126594" lon="17.972783326661332">
    <ele>156.74</ele>
   </trkpt>
   <trkpt lat="50.7003600071173" lon="17.97369665994456">
    <ele>157.03</ele>
   </trkpt>
   <trkpt lat="50.70053000000001" lon="17.974610000000002">
    <ele>156.98000000000002</ele>
   </trkpt>
   <trkpt lat="50.70047" lon="17.974680000000003">
    <ele>157.10000000000002</ele>
   </trkpt>
   <trkpt lat="50.70063000943493" lon="17.97572999285908">
    <ele>157.56</ele>
   </trkpt>
   <trkpt lat="50.70079000943864" lon="17.976779992883284">
    <ele>157.76000000000002</ele>
   </trkpt>
   <trkpt lat="50.700950000000006" lon="17.97783">
    <ele>158.17000000000002</ele>
   </trkpt>
   <trkpt lat="50.70104500254001" lon="17.978599998472934">
    <ele>158.23000000000002</ele>
   </trkpt>
   <trkpt lat="50.70114" lon="17.979370000000003">
    <ele>158.22</ele>
   </trkpt>
   <trkpt lat="50.70130000385394" lon="17.98031999672163">
    <ele>158.57000000000002</ele>
   </trkpt>
   <trkpt lat="50.701460000000004" lon="17.981270000000002">
    <ele>158.5</ele>
   </trkpt>
   <trkpt lat="50.70167001497788" lon="17.982593321464307">
    <ele>158.44000000000003</ele>
   </trkpt>
   <trkpt lat="50.701880014975366" lon="17.983916654781435">
    <ele>158.44000000000003</ele>
   </trkpt>
   <trkpt lat="50.702090000000005" lon="17.98524">
    <ele>158.67000000000002</ele>
   </trkpt>
   <trkpt lat="50.70226500491099" lon="17.98630999609274">
    <ele>158.68</ele>
   </trkpt>
   <trkpt lat="50.70244" lon="17.98738">
    <ele>158.20000000000002</ele>
   </trkpt>
   <trkpt lat="50.702490000000004" lon="17.987550000000002">
    <ele>158.09</ele>
   </trkpt>
   <trkpt lat="50.70264" lon="17.98786">
    <ele>158.08</ele>
   </trkpt>
   <trkpt lat="50.70299000000001" lon="17.98884">
    <ele>158.44000000000003</ele>
   </trkpt>
   <trkpt lat="50.70319500218628" lon="17.989564996611474">
    <ele>158.3</ele>
   </trkpt>
   <trkpt lat="50.7034" lon="17.99029">
    <ele>158.05</ele>
   </trkpt>
   <trkpt lat="50.70367" lon="17.990910000000003">
    <ele>158.07000000000002</ele>
   </trkpt>
   <trkpt lat="50.703915001900796" lon="17.991574996550725">
    <ele>158.08</ele>
   </trkpt>
   <trkpt lat="50.70416" lon="17.992240000000002">
    <ele>158.0</ele>
   </trkpt>
   <trkpt lat="50.70447" lon="17.99301">
    <ele>157.85999999999999</ele>
   </trkpt>
   <trkpt lat="50.704760001376926" lon="17.99355999675591">
    <ele>157.54000000000002</ele>
   </trkpt>
   <trkpt lat="50.70505000000001" lon="17.994110000000003">
    <ele>157.52</ele>
   </trkpt>
   <trkpt lat="50.705600000029165" lon="17.994124999824816">
    <ele>157.63000000000002</ele>
   </trkpt>
   <trkpt lat="50.70615" lon="17.99414">
    <ele>157.89</ele>
   </trkpt>
   <trkpt lat="50.706210000000006" lon="17.99416">
    <ele>157.89</ele>
   </trkpt>
   <trkpt lat="50.70626000000001" lon="17.99415">
    <ele>157.89</ele>
   </trkpt>
   <trkpt lat="50.70653" lon="17.99415">
    <ele>158.04000000000002</ele>
   </trkpt>
   <trkpt lat="50.706520000000005" lon="17.99415">
    <ele>158.04000000000002</ele>
   </trkpt>
   <trkpt lat="50.70712000001203" lon="17.994159999744237">
    <ele>157.91000000000003</ele>
   </trkpt>
   <trkpt lat="50.707720000023215" lon="17.994169999744418">
    <ele>157.76000000000002</ele>
   </trkpt>
   <trkpt lat="50.70832000000001" lon="17.99418">
    <ele>157.96</ele>
   </trkpt>
   <trkpt lat="50.708560000000006" lon="17.994210000000002">
    <ele>158.08</ele>
   </trkpt>
   <trkpt lat="50.70866" lon="17.99418">
    <ele>158.08</ele>
   </trkpt>
   <trkpt lat="50.70947333335039" lon="17.99419666608866">
    <ele>158.07000000000002</ele>
   </trkpt>
   <trkpt lat="50.71028666669838" lon="17.994213332755614">
    <ele>158.27</ele>
   </trkpt>
   <trkpt lat="50.7111" lon="17.99423">
    <ele>158.62</ele>
   </trkpt>
   <trkpt lat="50.711360000000006" lon="17.99427">
    <ele>158.81</ele>
   </trkpt>
   <trkpt lat="50.711420000000004" lon="17.994200000000003">
    <ele>158.85000000000002</ele>
   </trkpt>
   <trkpt lat="50.7115" lon="17.994220000000002">
    <ele>158.85000000000002</ele>
   </trkpt>
   <trkpt lat="50.711800000000004" lon="17.99423">
    <ele>159.18</ele>
   </trkpt>
   <trkpt lat="50.71227500039455" lon="17.994549996728136">
    <ele>159.29000000000002</ele>
   </trkpt>
   <trkpt lat="50.71275000000001" lon="17.994870000000002">
    <ele>159.60000000000002</ele>
   </trkpt>
   <trkpt lat="50.71278" lon="17.99494">
    <ele>159.65</ele>
   </trkpt>
   <trkpt lat="50.712810000000005" lon="17.995260000000002">
    <ele>159.66000000000003</ele>
   </trkpt>
   <trkpt lat="50.71285" lon="17.995420000000003">
    <ele>159.62</ele>
   </trkpt>
   <trkpt lat="50.71296" lon="17.99556">
    <ele>159.62</ele>
   </trkpt>
   <trkpt lat="50.71254000195513" lon="17.996225005857397">
    <ele>159.09</ele>
   </trkpt>
   <trkpt lat="50.712120000000006" lon="17.99689">
    <ele>158.93</ele>
   </trkpt>
   <trkpt lat="50.71195" lon="17.997220000000002">
    <ele>158.98000000000002</ele>
   </trkpt>
   <trkpt lat="50.71183000621248" lon="17.99842500306131">
    <ele>158.96</ele>
   </trkpt>
   <trkpt lat="50.711710000000004" lon="17.99963">
    <ele>159.22</ele>
   </trkpt>
   <trkpt lat="50.71154000000001" lon="18.00073">
    <ele>159.17000000000002</ele>
   </trkpt>
   <trkpt lat="50.71137251414493" lon="18.001780011261566">
    <ele>159.23000000000002</ele>
   </trkpt>
   <trkpt lat="50.711205018859125" lon="18.002830015019832">
    <ele>159.41000000000003</ele>
   </trkpt>
   <trkpt lat="50.71103751414278" lon="18.00388001127447">
    <ele>159.5</ele>
   </trkpt>
   <trkpt lat="50.71087000000001" lon="18.00493">
    <ele>159.64000000000001</ele>
   </trkpt>
   <trkpt lat="50.7103786026462" lon="18.006032926498392">
    <ele>159.87</ele>
   </trkpt>
   <trkpt lat="50.70988719488732" lon="18.00713582987434">
    <ele>159.82000000000002</ele>
   </trkpt>
   <trkpt lat="50.70939577672374" lon="18.00823871012825">
    <ele>160.04000000000002</ele>
   </trkpt>
   <trkpt lat="50.70890434815588" lon="18.009341567260517">
    <ele>160.14000000000001</ele>
   </trkpt>
   <trkpt lat="50.70841290918412" lon="18.010444401271545">
    <ele>160.07000000000002</ele>
   </trkpt>
   <trkpt lat="50.70792145980887" lon="18.011547212161734">
    <ele>160.39000000000001</ele>
   </trkpt>
   <trkpt lat="50.70743" lon="18.01265">
    <ele>160.66000000000003</ele>
   </trkpt>
   <trkpt lat="50.70732" lon="18.01282">
    <ele>160.66000000000003</ele>
   </trkpt>
   <trkpt lat="50.70694000085677" lon="18.01325000341055">
    <ele>160.77</ele>
   </trkpt>
   <trkpt lat="50.70656" lon="18.01368">
    <ele>160.93</ele>
   </trkpt>
   <trkpt lat="50.70651" lon="18.0138">
    <ele>160.93</ele>
   </trkpt>
   <trkpt lat="50.706480000000006" lon="18.01398">
    <ele>160.93</ele>
   </trkpt>
   <trkpt lat="50.70647" lon="18.01426">
    <ele>160.88000000000002</ele>
   </trkpt>
   <trkpt lat="50.70648500267135" lon="18.015049999855556">
    <ele>160.93</ele>
   </trkpt>
   <trkpt lat="50.706500000000005" lon="18.01584">
    <ele>161.37</ele>
   </trkpt>
   <trkpt lat="50.706500000000005" lon="18.01694">
    <ele>161.82000000000002</ele>
   </trkpt>
   <trkpt lat="50.70651334954513" lon="18.018316665883276">
    <ele>161.97</ele>
   </trkpt>
   <trkpt lat="50.70652668287846" lon="18.019693332550027">
    <ele>162.21</ele>
   </trkpt>
   <trkpt lat="50.706540000000004" lon="18.02107">
    <ele>162.57000000000002</ele>
   </trkpt>
   <trkpt lat="50.706545038878346" lon="18.022418332607273">
    <ele>162.72</ele>
   </trkpt>
   <trkpt lat="50.706550062205366" lon="18.023766665503917">
    <ele>163.14000000000001</ele>
   </trkpt>
   <trkpt lat="50.70655506998102" lon="18.025114998689034">
    <ele>163.16</ele>
   </trkpt>
   <trkpt lat="50.70656006220534" lon="18.026463332161732">
    <ele>163.43</ele>
   </trkpt>
   <trkpt lat="50.706565038878296" lon="18.027811665921124">
    <ele>163.77</ele>
   </trkpt>
   <trkpt lat="50.706570000000006" lon="18.02916">
    <ele>163.96</ele>
   </trkpt>
   <trkpt lat="50.706570000000006" lon="18.02917">
    <ele>163.96</ele>
   </trkpt>
   <trkpt lat="50.70658000844273" lon="18.030574999663084">
    <ele>164.23000000000002</ele>
   </trkpt>
   <trkpt lat="50.706590000000006" lon="18.03198">
    <ele>164.52</ele>
   </trkpt>
   <trkpt lat="50.707456153861656" lon="18.031963080674988">
    <ele>164.18</ele>
   </trkpt>
   <trkpt lat="50.70832230772086" lon="18.03194616072481">
    <ele>164.41</ele>
   </trkpt>
   <trkpt lat="50.70918846157762" lon="18.031929240149424">
    <ele>164.88000000000002</ele>
   </trkpt>
   <trkpt lat="50.71005461543191" lon="18.031912318948788">
    <ele>165.0</ele>
   </trkpt>
   <trkpt lat="50.71092076928377" lon="18.03189539712286">
    <ele>165.31</ele>
   </trkpt>
   <trkpt lat="50.711786923133175" lon="18.031878474671593">
    <ele>165.66</ele>
   </trkpt>
   <trkpt lat="50.712653076980125" lon="18.031861551594954">
    <ele>165.66</ele>
   </trkpt>
   <trkpt lat="50.71351923082463" lon="18.03184462789289">
    <ele>166.19</ele>
   </trkpt>
   <trkpt lat="50.71438538466669" lon="18.031827703565366">
    <ele>165.81</ele>
   </trkpt>
   <trkpt lat="50.71525153850629" lon="18.031810778612336">
    <ele>165.52</ele>
   </trkpt>
   <trkpt lat="50.71611769234343" lon="18.03179385303376">
    <ele>165.52</ele>
   </trkpt>
   <trkpt lat="50.71698384617814" lon="18.031776926829593">
    <ele>165.44</ele>
   </trkpt>
   <trkpt lat="50.717850000000006" lon="18.031760000000002">
    <ele>165.75</ele>
   </trkpt>
   <trkpt lat="50.71785667545032" lon="18.03277333314008">
    <ele>165.99</ele>
   </trkpt>
   <trkpt lat="50.71786334211761" lon="18.033786666568645">
    <ele>166.09</ele>
   </trkpt>
   <trkpt lat="50.717870000000005" lon="18.0348">
    <ele>166.42000000000002</ele>
   </trkpt>
   <trkpt lat="50.717870000000005" lon="18.03479">
    <ele>166.42000000000002</ele>
   </trkpt>
   <trkpt lat="50.717878369936194" lon="18.036098332163736">
    <ele>166.85000000000002</ele>
   </trkpt>
   <trkpt lat="50.71788672523126" lon="18.037406664794375">
    <ele>167.51000000000002</ele>
   </trkpt>
   <trkpt lat="50.717895065885145" lon="18.03871499789111">
    <ele>168.65</ele>
   </trkpt>
   <trkpt lat="50.717903391897885" lon="18.040023331453114">
    <ele>169.63</ele>
   </trkpt>
   <trkpt lat="50.717911703269436" lon="18.04133166547957">
    <ele>169.93000000000004</ele>
   </trkpt>
   <trkpt lat="50.71792000000001" lon="18.042640000000002">
    <ele>170.09</ele>
   </trkpt>
   <trkpt lat="50.7179250698371" lon="18.043986998704806">
    <ele>170.82000000000002</ele>
   </trkpt>
   <trkpt lat="50.71793012415488" lon="18.0453339977006">
    <ele>170.77</ele>
   </trkpt>
   <trkpt lat="50.717935162953296" lon="18.046680996986474">
    <ele>170.92000000000002</ele>
   </trkpt>
   <trkpt lat="50.71794018623238" lon="18.04802799656155">
    <ele>171.33</ele>
   </trkpt>
   <trkpt lat="50.717945193992094" lon="18.04937499642493">
    <ele>171.14000000000001</ele>
   </trkpt>
   <trkpt lat="50.71795018623246" lon="18.05072199657573">
    <ele>171.75</ele>
   </trkpt>
   <trkpt lat="50.71795516295344" lon="18.052068997013052">
    <ele>171.84</ele>
   </trkpt>
   <trkpt lat="50.71796012415506" lon="18.053415997736003">
    <ele>172.3</ele>
   </trkpt>
   <trkpt lat="50.71796506983729" lon="18.054762998743694">
    <ele>171.95000000000002</ele>
   </trkpt>
   <trkpt lat="50.71797" lon="18.05611">
    <ele>171.3</ele>
   </trkpt>
   <trkpt lat="50.7179750078516" lon="18.05746499970994">
    <ele>171.25</ele>
   </trkpt>
   <trkpt lat="50.717980000000004" lon="18.05882">
    <ele>171.06</ele>
   </trkpt>
   <trkpt lat="50.718604999778464" lon="18.058815000068453">
    <ele>168.58</ele>
   </trkpt>
   <trkpt lat="50.71923" lon="18.05881">
    <ele>167.27</ele>
   </trkpt>
   <trkpt lat="50.71993750000342" lon="18.058790000905894">
    <ele>166.71</ele>
   </trkpt>
   <trkpt lat="50.720645000003415" lon="18.05877000120791">
    <ele>166.62</ele>
   </trkpt>
   <trkpt lat="50.72135249999997" lon="18.058750000906024">
    <ele>166.60000000000002</ele>
   </trkpt>
   <trkpt lat="50.722060000000006" lon="18.05873">
    <ele>166.96</ele>
   </trkpt>
   <trkpt lat="50.72216" lon="18.058770000000003">
    <ele>166.96</ele>
   </trkpt>
   <trkpt lat="50.722240000000006" lon="18.058850000000003">
    <ele>166.96</ele>
   </trkpt>
   <trkpt lat="50.722390000000004" lon="18.059140000000003">
    <ele>166.0</ele>
   </trkpt>
   <trkpt lat="50.72247" lon="18.0592">
    <ele>166.0</ele>
   </trkpt>
   <trkpt lat="50.72297000016891" lon="18.059429997519395">
    <ele>165.07000000000002</ele>
   </trkpt>
   <trkpt lat="50.723470000000006" lon="18.05966">
    <ele>165.02</ele>
   </trkpt>
   <trkpt lat="50.72354000000001" lon="18.059730000000002">
    <ele>165.02</ele>
   </trkpt>
   <trkpt lat="50.72361" lon="18.05984">
    <ele>164.95000000000002</ele>
   </trkpt>
   <trkpt lat="50.72368" lon="18.06005">
    <ele>164.95000000000002</ele>
   </trkpt>
   <trkpt lat="50.7238550019683" lon="18.06072499755537">
    <ele>164.67000000000002</ele>
   </trkpt>
   <trkpt lat="50.724030000000006" lon="18.061400000000003">
    <ele>164.73000000000002</ele>
   </trkpt>
   <trkpt lat="50.7242" lon="18.06183">
    <ele>164.72</ele>
   </trkpt>
   <trkpt lat="50.72482" lon="18.06275">
    <ele>164.52</ele>
   </trkpt>
   <trkpt lat="50.72498" lon="18.06293">
    <ele>164.34</ele>
   </trkpt>
   <trkpt lat="50.725410000000004" lon="18.063260000000003">
    <ele>164.36</ele>
   </trkpt>
   <trkpt lat="50.72599" lon="18.06388">
    <ele>164.36</ele>
   </trkpt>
   <trkpt lat="50.72632" lon="18.064120000000003">
    <ele>164.58</ele>
   </trkpt>
   <trkpt lat="50.726600000000005" lon="18.06429">
    <ele>164.59</ele>
   </trkpt>
   <trkpt lat="50.72681000000001" lon="18.06437">
    <ele>164.53</ele>
   </trkpt>
   <trkpt lat="50.72729" lon="18.06435">
    <ele>164.59</ele>
   </trkpt>
   <trkpt lat="50.72746" lon="18.06438">
    <ele>164.59</ele>
   </trkpt>
   <trkpt lat="50.727630000000005" lon="18.064480000000003">
    <ele>164.62</ele>
   </trkpt>
   <trkpt lat="50.727720000000005" lon="18.06456">
    <ele>164.62</ele>
   </trkpt>
   <trkpt lat="50.727810000000005" lon="18.064680000000003">
    <ele>164.75</ele>
   </trkpt>
   <trkpt lat="50.72786000000001" lon="18.064770000000003">
    <ele>164.86</ele>
   </trkpt>
   <trkpt lat="50.727940000000004" lon="18.064980000000002">
    <ele>164.96</ele>
   </trkpt>
   <trkpt lat="50.728010000000005" lon="18.06593">
    <ele>165.85000000000002</ele>
   </trkpt>
   <trkpt lat="50.728100000000005" lon="18.06661">
    <ele>166.73000000000002</ele>
   </trkpt>
   <trkpt lat="50.728100000000005" lon="18.06709">
    <ele>166.4</ele>
   </trkpt>
   <trkpt lat="50.728060000000006" lon="18.067330000000002">
    <ele>166.04000000000002</ele>
   </trkpt>
   <trkpt lat="50.728060000000006" lon="18.067420000000002">
    <ele>166.04000000000002</ele>
   </trkpt>
   <trkpt lat="50.72883" lon="18.066840000000003">
    <ele>165.27</ele>
   </trkpt>
   <trkpt lat="50.72916000000001" lon="18.06753">
    <ele>166.82000000000002</ele>
   </trkpt>
   <trkpt lat="50.728860000000005" lon="18.06784">
    <ele>166.99000000000004</ele>
   </trkpt>
   <trkpt lat="50.7289" lon="18.06793">
    <ele>167.01000000000002</ele>
   </trkpt>
   <trkpt lat="50.728970000000004" lon="18.06801">
    <ele>167.01000000000002</ele>
   </trkpt>
   <trkpt lat="50.72928" lon="18.06821">
    <ele>166.61</ele>
   </trkpt>
   <trkpt lat="50.729710000498194" lon="18.068524997162758">
    <ele>165.58</ele>
   </trkpt>
   <trkpt lat="50.730140000000006" lon="18.06884">
    <ele>165.39000000000001</ele>
   </trkpt>
   <trkpt lat="50.73030000000001" lon="18.068910000000002">
    <ele>165.32000000000002</ele>
   </trkpt>
   <trkpt lat="50.73044" lon="18.06894">
    <ele>165.32000000000002</ele>
   </trkpt>
   <trkpt lat="50.73064" lon="18.06895">
    <ele>165.3</ele>
   </trkpt>
   <trkpt lat="50.730880000000006" lon="18.068990000000003">
    <ele>165.36</ele>
   </trkpt>
   <trkpt lat="50.73133000013577" lon="18.06908999906003">
    <ele>165.48000000000002</ele>
   </trkpt>
   <trkpt lat="50.73178000000001" lon="18.069190000000003">
    <ele>165.43</ele>
   </trkpt>
   <trkpt lat="50.732260000000004" lon="18.06932">
    <ele>165.16</ele>
   </trkpt>
   <trkpt lat="50.73227000000001" lon="18.06932">
    <ele>165.16</ele>
   </trkpt>
   <trkpt lat="50.73256000000001" lon="18.0694">
    <ele>165.22</ele>
   </trkpt>
   <trkpt lat="50.73272000000001" lon="18.06942">
    <ele>165.18</ele>
   </trkpt>
   <trkpt lat="50.732800000000005" lon="18.06941">
    <ele>165.02</ele>
   </trkpt>
   <trkpt lat="50.733320000247815" lon="18.069185002484293">
    <ele>165.06</ele>
   </trkpt>
   <trkpt lat="50.73384" lon="18.06896">
    <ele>165.03</ele>
   </trkpt>
   <trkpt lat="50.73411" lon="18.068810000000003">
    <ele>165.15</ele>
   </trkpt>
   <trkpt lat="50.734140000000004" lon="18.06877">
    <ele>165.15</ele>
   </trkpt>
   <trkpt lat="50.73416" lon="18.06866">
    <ele>165.18</ele>
   </trkpt>
   <trkpt lat="50.734120000000004" lon="18.06821">
    <ele>165.18</ele>
   </trkpt>
   <trkpt lat="50.73416" lon="18.06809">
    <ele>165.18</ele>
   </trkpt>
   <trkpt lat="50.734230000000004" lon="18.068">
    <ele>165.18</ele>
   </trkpt>
   <trkpt lat="50.73473500018565" lon="18.06794500057419">
    <ele>164.99</ele>
   </trkpt>
   <trkpt lat="50.735240000000005" lon="18.067890000000002">
    <ele>165.05</ele>
   </trkpt>
   <trkpt lat="50.73583000000001" lon="18.0679">
    <ele>165.17000000000002</ele>
   </trkpt>
   <trkpt lat="50.736110000000004" lon="18.06893">
    <ele>165.47</ele>
   </trkpt>
   <trkpt lat="50.736580000021085" lon="18.06906999857638">
    <ele>164.88000000000002</ele>
   </trkpt>
   <trkpt lat="50.73705" lon="18.06921">
    <ele>164.86</ele>
   </trkpt>
   <trkpt lat="50.737210000000005" lon="18.069300000000002">
    <ele>165.05</ele>
   </trkpt>
   <trkpt lat="50.73733000000001" lon="18.069390000000002">
    <ele>165.14000000000001</ele>
   </trkpt>
   <trkpt lat="50.73760000000001" lon="18.0697">
    <ele>165.21</ele>
   </trkpt>
   <trkpt lat="50.737790000000004" lon="18.06998">
    <ele>165.36</ele>
   </trkpt>
   <trkpt lat="50.73805" lon="18.07029">
    <ele>165.9</ele>
   </trkpt>
   <trkpt lat="50.738080000000004" lon="18.070420000000002">
    <ele>165.9</ele>
   </trkpt>
   <trkpt lat="50.73812" lon="18.07083">
    <ele>165.87</ele>
   </trkpt>
   <trkpt lat="50.73805" lon="18.07123">
    <ele>165.82000000000002</ele>
   </trkpt>
   <trkpt lat="50.737840013487634" lon="18.072255013740214">
    <ele>165.74</ele>
   </trkpt>
   <trkpt lat="50.73763001798997" lon="18.07328001828849">
    <ele>166.0</ele>
   </trkpt>
   <trkpt lat="50.73742001350714" lon="18.074305013644572">
    <ele>166.26000000000002</ele>
   </trkpt>
   <trkpt lat="50.737210000000005" lon="18.07533">
    <ele>167.16</ele>
   </trkpt>
   <trkpt lat="50.7372" lon="18.07571">
    <ele>167.21</ele>
   </trkpt>
   <trkpt lat="50.73727" lon="18.07599">
    <ele>167.38</ele>
   </trkpt>
   <trkpt lat="50.737320000000004" lon="18.076120000000003">
    <ele>167.38</ele>
   </trkpt>
   <trkpt lat="50.73722" lon="18.07625">
    <ele>167.14000000000001</ele>
   </trkpt>
   <trkpt lat="50.73718" lon="18.076410000000003">
    <ele>167.14000000000001</ele>
   </trkpt>
   <trkpt lat="50.737140000000004" lon="18.07713">
    <ele>167.28</ele>
   </trkpt>
   <trkpt lat="50.73709" lon="18.07794">
    <ele>167.42000000000002</ele>
   </trkpt>
   <trkpt lat="50.73713000000001" lon="18.07827">
    <ele>167.42000000000002</ele>
   </trkpt>
   <trkpt lat="50.7372" lon="18.07855">
    <ele>167.34</ele>
   </trkpt>
   <trkpt lat="50.73733000000001" lon="18.07892">
    <ele>167.15</ele>
   </trkpt>
   <trkpt lat="50.73734" lon="18.07917">
    <ele>167.15</ele>
   </trkpt>
   <trkpt lat="50.73729" lon="18.079410000000003">
    <ele>167.21</ele>
   </trkpt>
   <trkpt lat="50.73702000759989" lon="18.080353344246955">
    <ele>167.36</ele>
   </trkpt>
   <trkpt lat="50.736750007589244" lon="18.08129667761735">
    <ele>167.36</ele>
   </trkpt>
   <trkpt lat="50.73648000000001" lon="18.082240000000002">
    <ele>167.59</ele>
   </trkpt>
   <trkpt lat="50.73642" lon="18.082310000000003">
    <ele>167.59</ele>
   </trkpt>
   <trkpt lat="50.736320000000006" lon="18.082320000000003">
    <ele>167.67000000000002</ele>
   </trkpt>
   <trkpt lat="50.735890000563835" lon="18.081949996584495">
    <ele>167.84</ele>
   </trkpt>
   <trkpt lat="50.73546" lon="18.081580000000002">
    <ele>168.16</ele>
   </trkpt>
   <trkpt lat="50.73537" lon="18.081590000000002">
    <ele>168.21000000000004</ele>
   </trkpt>
   <trkpt lat="50.735240000000005" lon="18.08181">
    <ele>168.20000000000002</ele>
   </trkpt>
   <trkpt lat="50.73494" lon="18.082900000000002">
    <ele>167.81</ele>
   </trkpt>
   <trkpt lat="50.73494" lon="18.082890000000003">
    <ele>167.81</ele>
   </trkpt>
   <trkpt lat="50.73471000000001" lon="18.08362">
    <ele>167.87</ele>
   </trkpt>
   <trkpt lat="50.73433500425465" lon="18.08462500821885">
    <ele>167.95000000000002</ele>
   </trkpt>
   <trkpt lat="50.73396" lon="18.085630000000002">
    <ele>168.10000000000002</ele>
   </trkpt>
   <trkpt lat="50.73357000000001" lon="18.0867">
    <ele>168.97</ele>
   </trkpt>
   <trkpt lat="50.734146669310775" lon="18.08725998617408">
    <ele>168.4</ele>
   </trkpt>
   <trkpt lat="50.734723335939584" lon="18.08781998613708">
    <ele>168.31</ele>
   </trkpt>
   <trkpt lat="50.7353" lon="18.08838">
    <ele>168.51000000000002</ele>
   </trkpt>
   <trkpt lat="50.73539" lon="18.088540000000002">
    <ele>168.59</ele>
   </trkpt>
   <trkpt lat="50.73556000000001" lon="18.08902">
    <ele>168.91</ele>
   </trkpt>
   <trkpt lat="50.73599000092757" lon="18.089479995801078">
    <ele>169.95000000000002</ele>
   </trkpt>
   <trkpt lat="50.73642" lon="18.089940000000002">
    <ele>170.95000000000002</ele>
   </trkpt>
   <trkpt lat="50.73709200683238" lon="18.09057196372715">
    <ele>170.94</ele>
   </trkpt>
   <trkpt lat="50.73776401024905" lon="18.09120394559017">
    <ele>170.33</ele>
   </trkpt>
   <trkpt lat="50.73843601024989" lon="18.09183594558992">
    <ele>170.18000000000004</ele>
   </trkpt>
   <trkpt lat="50.73910800683469" lon="18.092467963727263">
    <ele>170.12</ele>
   </trkpt>
   <trkpt lat="50.73978" lon="18.0931">
    <ele>170.16</ele>
   </trkpt>
   <trkpt lat="50.740395001662854" lon="18.093704992150677">
    <ele>170.19</ele>
   </trkpt>
   <trkpt lat="50.74101" lon="18.09431">
    <ele>170.53</ele>
   </trkpt>
   <trkpt lat="50.74136000000001" lon="18.094800000000003">
    <ele>171.52</ele>
   </trkpt>
   <trkpt lat="50.741490000000006" lon="18.095080000000003">
    <ele>171.52</ele>
   </trkpt>
   <trkpt lat="50.74179" lon="18.096040000000002">
    <ele>172.32</ele>
   </trkpt>
   <trkpt lat="50.74206" lon="18.09729">
    <ele>173.74</ele>
   </trkpt>
   <trkpt lat="50.74216334270225" lon="18.09833666204886">
    <ele>174.44</ele>
   </trkpt>
   <trkpt lat="50.742266676035776" lon="18.099383328717426">
    <ele>175.23000000000002</ele>
   </trkpt>
   <trkpt lat="50.74237" lon="18.100430000000003">
    <ele>176.52</ele>
   </trkpt>
   <trkpt lat="50.74239500394314" lon="18.101389999579876">
    <ele>178.32</ele>
   </trkpt>
   <trkpt lat="50.74242" lon="18.10235">
    <ele>180.26</ele>
   </trkpt>
   <trkpt lat="50.742450000000005" lon="18.10272">
    <ele>180.79</ele>
   </trkpt>
   <trkpt lat="50.74248000000001" lon="18.103080000000002">
    <ele>181.27</ele>
   </trkpt>
   <trkpt lat="50.742450000000005" lon="18.10329">
    <ele>181.27</ele>
   </trkpt>
   <trkpt lat="50.742580007080335" lon="18.104574996627843">
    <ele>181.01</ele>
   </trkpt>
   <trkpt lat="50.74271" lon="18.10586">
    <ele>181.13</ele>
   </trkpt>
   <trkpt lat="50.74283670391859" lon="18.10717998214673">
    <ele>181.20000000000002</ele>
   </trkpt>
   <trkpt lat="50.74296339293668" lon="18.108499971436608">
    <ele>181.07</ele>
   </trkpt>
   <trkpt lat="50.74309006705413" lon="18.10981996786887">
    <ele>181.11</ele>
   </trkpt>
   <trkpt lat="50.743216726270816" lon="18.111139971442746">
    <ele>181.27</ele>
   </trkpt>
   <trkpt lat="50.74334337058653" lon="18.112459982157475">
    <ele>181.3</ele>
   </trkpt>
   <trkpt lat="50.74347" lon="18.113780000000002">
    <ele>181.43</ele>
   </trkpt>
   <trkpt lat="50.74359000631497" lon="18.114994996913925">
    <ele>181.58</ele>
   </trkpt>
   <trkpt lat="50.74371000000001" lon="18.116210000000002">
    <ele>181.59</ele>
   </trkpt>
   <trkpt lat="50.74371000000001" lon="18.116400000000002">
    <ele>181.12</ele>
   </trkpt>
   <trkpt lat="50.74363" lon="18.11673">
    <ele>180.87</ele>
   </trkpt>
   <trkpt lat="50.74313500304384" lon="18.117565008721666">
    <ele>180.78000000000003</ele>
   </trkpt>
   <trkpt lat="50.74264" lon="18.1184">
    <ele>180.65</ele>
   </trkpt>
   <trkpt lat="50.742430000000006" lon="18.1189">
    <ele>180.50000000000003</ele>
   </trkpt>
   <trkpt lat="50.74213" lon="18.11946">
    <ele>180.36</ele>
   </trkpt>
   <trkpt lat="50.74206" lon="18.119480000000003">
    <ele>180.36</ele>
   </trkpt>
   <trkpt lat="50.742000000000004" lon="18.11945">
    <ele>180.43</ele>
   </trkpt>
   <trkpt lat="50.741910000000004" lon="18.11935">
    <ele>180.50000000000003</ele>
   </trkpt>
   <trkpt lat="50.741530000000004" lon="18.118830000000003">
    <ele>180.9</ele>
   </trkpt>
   <trkpt lat="50.74137" lon="18.11869">
    <ele>180.66000000000003</ele>
   </trkpt>
   <trkpt lat="50.74049" lon="18.11861">
    <ele>179.94000000000003</ele>
   </trkpt>
   <trkpt lat="50.7398" lon="18.11842">
    <ele>180.63</ele>
   </trkpt>
   <trkpt lat="50.739630000000005" lon="18.118460000000002">
    <ele>180.68</ele>
   </trkpt>
   <trkpt lat="50.739380000000004" lon="18.11897">
    <ele>180.32</ele>
   </trkpt>
   <trkpt lat="50.739160000000005" lon="18.119500000000002">
    <ele>180.16000000000003</ele>
   </trkpt>
   <trkpt lat="50.738710000000005" lon="18.12039">
    <ele>180.07</ele>
   </trkpt>
   <trkpt lat="50.738490000000006" lon="18.12064">
    <ele>179.96</ele>
   </trkpt>
   <trkpt lat="50.738220000000005" lon="18.12103">
    <ele>179.87</ele>
   </trkpt>
   <trkpt lat="50.73816000000001" lon="18.12125">
    <ele>179.87</ele>
   </trkpt>
   <trkpt lat="50.7380750021765" lon="18.121965001377962">
    <ele>179.89000000000001</ele>
   </trkpt>
   <trkpt lat="50.73799" lon="18.122680000000003">
    <ele>180.02</ele>
   </trkpt>
   <trkpt lat="50.737970004105705" lon="18.12366000047044">
    <ele>179.97000000000003</ele>
   </trkpt>
   <trkpt lat="50.737950000000005" lon="18.124640000000003">
    <ele>180.47000000000003</ele>
   </trkpt>
   <trkpt lat="50.737970000000004" lon="18.12482">
    <ele>180.65</ele>
   </trkpt>
   <trkpt lat="50.73796500237425" lon="18.125564999943094">
    <ele>180.33</ele>
   </trkpt>
   <trkpt lat="50.73796" lon="18.12631">
    <ele>180.49</ele>
   </trkpt>
   <trkpt lat="50.737916674657164" lon="18.12727666847901">
    <ele>180.63</ele>
   </trkpt>
   <trkpt lat="50.73787334132278" lon="18.12824333516931">
    <ele>180.92000000000002</ele>
   </trkpt>
   <trkpt lat="50.73783" lon="18.12921">
    <ele>180.86</ele>
   </trkpt>
   <trkpt lat="50.73776" lon="18.12968">
    <ele>180.93</ele>
   </trkpt>
   <trkpt lat="50.73752" lon="18.1307">
    <ele>181.13</ele>
   </trkpt>
   <trkpt lat="50.737500000000004" lon="18.131040000000002">
    <ele>181.14000000000001</ele>
   </trkpt>
   <trkpt lat="50.73756" lon="18.13154">
    <ele>181.42000000000002</ele>
   </trkpt>
   <trkpt lat="50.737640000000006" lon="18.13192">
    <ele>181.43</ele>
   </trkpt>
   <trkpt lat="50.73783" lon="18.132340000000003">
    <ele>181.25000000000003</ele>
   </trkpt>
   <trkpt lat="50.73785" lon="18.132530000000003">
    <ele>181.26</ele>
   </trkpt>
   <trkpt lat="50.73783" lon="18.132710000000003">
    <ele>181.53000000000003</ele>
   </trkpt>
   <trkpt lat="50.73765" lon="18.133290000000002">
    <ele>181.64000000000001</ele>
   </trkpt>
   <trkpt lat="50.737590000000004" lon="18.13361">
    <ele>181.67000000000002</ele>
   </trkpt>
   <trkpt lat="50.73747" lon="18.13474">
    <ele>181.62</ele>
   </trkpt>
   <trkpt lat="50.737350000000006" lon="18.13512">
    <ele>181.44000000000003</ele>
   </trkpt>
   <trkpt lat="50.73716" lon="18.1355">
    <ele>181.50000000000003</ele>
   </trkpt>
   <trkpt lat="50.73707" lon="18.13577">
    <ele>181.6</ele>
   </trkpt>
   <trkpt lat="50.73685500489638" lon="18.13684000490882">
    <ele>181.66000000000003</ele>
   </trkpt>
   <trkpt lat="50.73664" lon="18.13791">
    <ele>181.88000000000002</ele>
   </trkpt>
   <trkpt lat="50.73657000000001" lon="18.1382">
    <ele>181.86</ele>
   </trkpt>
   <trkpt lat="50.736470000000004" lon="18.138460000000002">
    <ele>181.74</ele>
   </trkpt>
   <trkpt lat="50.73635" lon="18.138630000000003">
    <ele>181.6</ele>
   </trkpt>
   <trkpt lat="50.736110000000004" lon="18.138830000000002">
    <ele>181.59</ele>
   </trkpt>
   <trkpt lat="50.73566" lon="18.13903">
    <ele>181.79</ele>
   </trkpt>
   <trkpt lat="50.735510000000005" lon="18.139190000000003">
    <ele>181.70000000000002</ele>
   </trkpt>
   <trkpt lat="50.73543" lon="18.139480000000002">
    <ele>181.65</ele>
   </trkpt>
   <trkpt lat="50.735290000000006" lon="18.14037">
    <ele>181.44000000000003</ele>
   </trkpt>
   <trkpt lat="50.73515500547249" lon="18.14150000315459">
    <ele>181.45000000000002</ele>
   </trkpt>
   <trkpt lat="50.735020000000006" lon="18.14263">
    <ele>182.06000000000003</ele>
   </trkpt>
   <trkpt lat="50.73492" lon="18.143040000000003">
    <ele>182.34</ele>
   </trkpt>
   <trkpt lat="50.73474" lon="18.14339">
    <ele>181.88000000000002</ele>
   </trkpt>
   <trkpt lat="50.73409" lon="18.14432">
    <ele>182.01</ele>
   </trkpt>
   <trkpt lat="50.73389" lon="18.144660000000002">
    <ele>182.75000000000003</ele>
   </trkpt>
   <trkpt lat="50.733810000000005" lon="18.14498">
    <ele>184.09</ele>
   </trkpt>
   <trkpt lat="50.733760000000004" lon="18.145580000000002">
    <ele>185.19000000000003</ele>
   </trkpt>
   <trkpt lat="50.73364" lon="18.146160000000002">
    <ele>186.57000000000002</ele>
   </trkpt>
   <trkpt lat="50.733470000000004" lon="18.14666">
    <ele>187.82000000000002</ele>
   </trkpt>
   <trkpt lat="50.733200000000004" lon="18.14723">
    <ele>187.32000000000002</ele>
   </trkpt>
   <trkpt lat="50.73307000212362" lon="18.14794000214551">
    <ele>185.74</ele>
   </trkpt>
   <trkpt lat="50.732940000000006" lon="18.14865">
    <ele>183.82</ele>
   </trkpt>
   <trkpt lat="50.732600000000005" lon="18.14874">
    <ele>182.00000000000003</ele>
   </trkpt>
   <trkpt lat="50.731860000000005" lon="18.14881">
    <ele>183.37</ele>
   </trkpt>
   <trkpt lat="50.731590000000004" lon="18.14891">
    <ele>183.57</ele>
   </trkpt>
   <trkpt lat="50.73143" lon="18.14902">
    <ele>183.50000000000003</ele>
   </trkpt>
   <trkpt lat="50.73138" lon="18.149250000000002">
    <ele>183.2</ele>
   </trkpt>
   <trkpt lat="50.73138" lon="18.14948">
    <ele>183.2</ele>
   </trkpt>
   <trkpt lat="50.731550000000006" lon="18.15078">
    <ele>182.50000000000003</ele>
   </trkpt>
   <trkpt lat="50.73158000294725" lon="18.151609999504636">
    <ele>182.56000000000003</ele>
   </trkpt>
   <trkpt lat="50.73161" lon="18.152440000000002">
    <ele>182.51</ele>
   </trkpt>
   <trkpt lat="50.731590000000004" lon="18.152720000000002">
    <ele>182.43</ele>
   </trkpt>
   <trkpt lat="50.731480000000005" lon="18.15312">
    <ele>182.42000000000002</ele>
   </trkpt>
   <trkpt lat="50.73115000000001" lon="18.153930000000003">
    <ele>182.49</ele>
   </trkpt>
   <trkpt lat="50.730990000000006" lon="18.154420000000002">
    <ele>182.33</ele>
   </trkpt>
   <trkpt lat="50.73095000000001" lon="18.154770000000003">
    <ele>182.15</ele>
   </trkpt>
   <trkpt lat="50.730943342465814" lon="18.155803333599664">
    <ele>181.56000000000003</ele>
   </trkpt>
   <trkpt lat="50.730936675799306" lon="18.15683666690541">
    <ele>181.54</ele>
   </trkpt>
   <trkpt lat="50.73093" lon="18.157870000000003">
    <ele>182.16000000000003</ele>
   </trkpt>
   <trkpt lat="50.73095000000001" lon="18.15874">
    <ele>183.62</ele>
   </trkpt>
   <trkpt lat="50.73104000000001" lon="18.159100000000002">
    <ele>183.28000000000003</ele>
   </trkpt>
   <trkpt lat="50.73122000000001" lon="18.15953">
    <ele>183.00000000000003</ele>
   </trkpt>
   <trkpt lat="50.73169000000001" lon="18.160200000000003">
    <ele>182.28000000000003</ele>
   </trkpt>
   <trkpt lat="50.731820000000006" lon="18.160310000000003">
    <ele>182.26</ele>
   </trkpt>
   <trkpt lat="50.732040000000005" lon="18.16054">
    <ele>182.07</ele>
   </trkpt>
   <trkpt lat="50.73145" lon="18.1613">
    <ele>181.55</ele>
   </trkpt>
   <trkpt lat="50.731390000000005" lon="18.161450000000002">
    <ele>181.55</ele>
   </trkpt>
   <trkpt lat="50.731370000000005" lon="18.16165">
    <ele>181.43</ele>
   </trkpt>
   <trkpt lat="50.73153752077848" lon="18.162922486390034">
    <ele>181.02</ele>
   </trkpt>
   <trkpt lat="50.73170502770834" lon="18.164194981881028">
    <ele>181.02</ele>
   </trkpt>
   <trkpt lat="50.73187252078941" lon="18.165467486472338">
    <ele>181.04</ele>
   </trkpt>
   <trkpt lat="50.732040000000005" lon="18.16674">
    <ele>181.16000000000003</ele>
   </trkpt>
   <trkpt lat="50.731980013938255" lon="18.168016669966256">
    <ele>181.46</ele>
   </trkpt>
   <trkpt lat="50.731920013936865" lon="18.169293336662367">
    <ele>181.48</ele>
   </trkpt>
   <trkpt lat="50.731860000000005" lon="18.17057">
    <ele>181.13</ele>
   </trkpt>
   <trkpt lat="50.73181000591081" lon="18.171745001093065">
    <ele>181.09</ele>
   </trkpt>
   <trkpt lat="50.73176" lon="18.17292">
    <ele>181.06000000000003</ele>
   </trkpt>
   <trkpt lat="50.73174" lon="18.17399">
    <ele>180.59000000000003</ele>
   </trkpt>
   <trkpt lat="50.73170000239042" lon="18.174740000921663">
    <ele>180.46</ele>
   </trkpt>
   <trkpt lat="50.731660000000005" lon="18.17549">
    <ele>181.06000000000003</ele>
   </trkpt>
   <trkpt lat="50.73154" lon="18.17585">
    <ele>181.32</ele>
   </trkpt>
   <trkpt lat="50.731480000000005" lon="18.17601">
    <ele>181.41000000000003</ele>
   </trkpt>
   <trkpt lat="50.73134" lon="18.176160000000003">
    <ele>181.49</ele>
   </trkpt>
   <trkpt lat="50.731230000000004" lon="18.17633">
    <ele>181.49</ele>
   </trkpt>
   <trkpt lat="50.73116" lon="18.176540000000003">
    <ele>181.06000000000003</ele>
   </trkpt>
   <trkpt lat="50.731170000000006" lon="18.1767">
    <ele>181.06000000000003</ele>
   </trkpt>
   <trkpt lat="50.73145" lon="18.177030000000002">
    <ele>180.82</ele>
   </trkpt>
   <trkpt lat="50.73093" lon="18.178">
    <ele>180.74</ele>
   </trkpt>
   <trkpt lat="50.730510000343244" lon="18.178360003408486">
    <ele>180.8</ele>
   </trkpt>
   <trkpt lat="50.730090000000004" lon="18.178720000000002">
    <ele>181.09</ele>
   </trkpt>
   <trkpt lat="50.72966" lon="18.17902">
    <ele>181.00000000000003</ele>
   </trkpt>
   <trkpt lat="50.72921" lon="18.179000000000002">
    <ele>181.12</ele>
   </trkpt>
   <trkpt lat="50.72917" lon="18.179730000000003">
    <ele>180.53000000000003</ele>
   </trkpt>
   <trkpt lat="50.72919" lon="18.18009">
    <ele>180.35</ele>
   </trkpt>
   <trkpt lat="50.72936500602517" lon="18.181274995710215">
    <ele>180.45000000000002</ele>
   </trkpt>
   <trkpt lat="50.72954000000001" lon="18.182460000000003">
    <ele>180.77</ele>
   </trkpt>
   <trkpt lat="50.72961" lon="18.18306">
    <ele>180.81000000000003</ele>
   </trkpt>
   <trkpt lat="50.72965000000001" lon="18.18364">
    <ele>181.06000000000003</ele>
   </trkpt>
   <trkpt lat="50.72965000215571" lon="18.184350000483793">
    <ele>181.4</ele>
   </trkpt>
   <trkpt lat="50.72965000000001" lon="18.18506">
    <ele>181.76</ele>
   </trkpt>
   <trkpt lat="50.728939999985016" lon="18.18487999723309">
    <ele>180.84000000000003</ele>
   </trkpt>
   <trkpt lat="50.72823" lon="18.184700000000003">
    <ele>180.51</ele>
   </trkpt>
   <trkpt lat="50.72753" lon="18.184610000000003">
    <ele>181.03000000000003</ele>
   </trkpt>
   <trkpt lat="50.72697" lon="18.18484">
    <ele>180.69000000000003</ele>
   </trkpt>
   <trkpt lat="50.726980000000005" lon="18.18484">
    <ele>180.69000000000003</ele>
   </trkpt>
   <trkpt lat="50.72648000024385" lon="18.185020001883046">
    <ele>180.42000000000002</ele>
   </trkpt>
   <trkpt lat="50.72598000000001" lon="18.185200000000002">
    <ele>180.69000000000003</ele>
   </trkpt>
   <trkpt lat="50.725570000000005" lon="18.18552">
    <ele>180.65</ele>
   </trkpt>
   <trkpt lat="50.72542000000001" lon="18.18578">
    <ele>180.66000000000003</ele>
   </trkpt>
   <trkpt lat="50.72522000000001" lon="18.186300000000003">
    <ele>180.74</ele>
   </trkpt>
   <trkpt lat="50.725060000000006" lon="18.18627">
    <ele>180.79</ele>
   </trkpt>
   <trkpt lat="50.724610000000006" lon="18.18661">
    <ele>180.72000000000003</ele>
   </trkpt>
   <trkpt lat="50.72439000000001" lon="18.186880000000002">
    <ele>180.85</ele>
   </trkpt>
   <trkpt lat="50.724160000000005" lon="18.187060000000002">
    <ele>180.88</ele>
   </trkpt>
   <trkpt lat="50.723940000000006" lon="18.18727">
    <ele>180.86</ele>
   </trkpt>
   <trkpt lat="50.723580000000005" lon="18.187890000000003">
    <ele>180.93</ele>
   </trkpt>
   <trkpt lat="50.72339" lon="18.188100000000002">
    <ele>181.03000000000003</ele>
   </trkpt>
   <trkpt lat="50.722820000000006" lon="18.18905">
    <ele>181.23</ele>
   </trkpt>
   <trkpt lat="50.722620000000006" lon="18.189230000000002">
    <ele>181.02</ele>
   </trkpt>
   <trkpt lat="50.72242000000001" lon="18.18934">
    <ele>181.02</ele>
   </trkpt>
   <trkpt lat="50.721840000607685" lon="18.189610006691158">
    <ele>180.47000000000003</ele>
   </trkpt>
   <trkpt lat="50.721260000591826" lon="18.189880006698434">
    <ele>180.19000000000003</ele>
   </trkpt>
   <trkpt lat="50.72068" lon="18.190150000000003">
    <ele>179.93</ele>
   </trkpt>
   <trkpt lat="50.71993000196713" lon="18.190455024415">
    <ele>179.59000000000003</ele>
   </trkpt>
   <trkpt lat="50.71918000313848" lon="18.190760039066856">
    <ele>179.55</ele>
   </trkpt>
   <trkpt lat="50.718430003514115" lon="18.19106504395612">
    <ele>179.42000000000002</ele>
   </trkpt>
   <trkpt lat="50.71768000309408" lon="18.19137003908336">
    <ele>179.54</ele>
   </trkpt>
   <trkpt lat="50.7169300018784" lon="18.19167502444914">
    <ele>179.44000000000003</ele>
   </trkpt>
   <trkpt lat="50.71618" lon="18.19198">
    <ele>179.50000000000003</ele>
   </trkpt>
   <trkpt lat="50.71582" lon="18.19182">
    <ele>179.68</ele>
   </trkpt>
   <trkpt lat="50.715590000000006" lon="18.191300000000002">
    <ele>179.82</ele>
   </trkpt>
   <trkpt lat="50.71549" lon="18.190450000000002">
    <ele>179.41</ele>
   </trkpt>
   <trkpt lat="50.715320000000006" lon="18.189870000000003">
    <ele>179.02</ele>
   </trkpt>
   <trkpt lat="50.715140000000005" lon="18.189610000000002">
    <ele>178.9</ele>
   </trkpt>
   <trkpt lat="50.714490000000005" lon="18.188940000000002">
    <ele>178.78000000000003</ele>
   </trkpt>
   <trkpt lat="50.71396500230962" lon="18.188204991766465">
    <ele>178.98000000000002</ele>
   </trkpt>
   <trkpt lat="50.713440000000006" lon="18.18747">
    <ele>178.53000000000003</ele>
   </trkpt>
   <trkpt lat="50.71329" lon="18.18731">
    <ele>178.83</ele>
   </trkpt>
   <trkpt lat="50.71262" lon="18.188170000000003">
    <ele>178.52</ele>
   </trkpt>
   <trkpt lat="50.71226000000001" lon="18.188360000000003">
    <ele>178.41</ele>
   </trkpt>
   <trkpt lat="50.71174000006319" lon="18.18857000238018">
    <ele>178.49</ele>
   </trkpt>
   <trkpt lat="50.711220000000004" lon="18.18878">
    <ele>178.86</ele>
   </trkpt>
   <trkpt lat="50.7106233337296" lon="18.18900667245309">
    <ele>178.52</ele>
   </trkpt>
   <trkpt lat="50.71002666701968" lon="18.18923333913609">
    <ele>178.42000000000002</ele>
   </trkpt>
   <trkpt lat="50.709430000000005" lon="18.18946">
    <ele>178.32</ele>
   </trkpt>
   <trkpt lat="50.70867000065692" lon="18.189840006140543">
    <ele>177.55</ele>
   </trkpt>
   <trkpt lat="50.707910000000005" lon="18.19022">
    <ele>177.67000000000002</ele>
   </trkpt>
   <trkpt lat="50.707440000000005" lon="18.190050000000003">
    <ele>177.75000000000003</ele>
   </trkpt>
   <trkpt lat="50.707080000000005" lon="18.18981">
    <ele>178.45000000000002</ele>
   </trkpt>
   <trkpt lat="50.706450000000004" lon="18.18972">
    <ele>179.51</ele>
   </trkpt>
   <trkpt lat="50.70596499986706" lon="18.189735000159303">
    <ele>177.6</ele>
   </trkpt>
   <trkpt lat="50.70548" lon="18.18975">
    <ele>177.20000000000002</ele>
   </trkpt>
   <trkpt lat="50.70516000000001" lon="18.18985">
    <ele>177.49</ele>
   </trkpt>
   <trkpt lat="50.704820000000005" lon="18.190170000000002">
    <ele>177.25000000000003</ele>
   </trkpt>
   <trkpt lat="50.70456" lon="18.19032">
    <ele>176.59000000000003</ele>
   </trkpt>
   <trkpt lat="50.703920000000004" lon="18.190520000000003">
    <ele>176.26000000000002</ele>
   </trkpt>
   <trkpt lat="50.70355000000001" lon="18.19086">
    <ele>176.64000000000001</ele>
   </trkpt>
   <trkpt lat="50.70328000000001" lon="18.190240000000003">
    <ele>175.75</ele>
   </trkpt>
   <trkpt lat="50.703230000000005" lon="18.19018">
    <ele>175.75</ele>
   </trkpt>
   <trkpt lat="50.70250000000001" lon="18.19">
    <ele>175.86</ele>
   </trkpt>
   <trkpt lat="50.70223000000001" lon="18.189890000000002">
    <ele>176.11</ele>
   </trkpt>
   <trkpt lat="50.70179000026422" lon="18.18961999743737">
    <ele>177.27</ele>
   </trkpt>
   <trkpt lat="50.701350000000005" lon="18.18935">
    <ele>179.21</ele>
   </trkpt>
   <trkpt lat="50.70089500014578" lon="18.189294999482414">
    <ele>179.39000000000001</ele>
   </trkpt>
   <trkpt lat="50.70044000000001" lon="18.18924">
    <ele>179.97000000000003</ele>
   </trkpt>
   <trkpt lat="50.70029" lon="18.18917">
    <ele>180.51</ele>
   </trkpt>
   <trkpt lat="50.700210000000006" lon="18.18908">
    <ele>180.51</ele>
   </trkpt>
   <trkpt lat="50.70024" lon="18.189">
    <ele>180.55</ele>
   </trkpt>
   <trkpt lat="50.70028000000001" lon="18.1888">
    <ele>180.59000000000003</ele>
   </trkpt>
   <trkpt lat="50.70037000000001" lon="18.18805">
    <ele>180.38</ele>
   </trkpt>
   <trkpt lat="50.70046000000001" lon="18.187640000000002">
    <ele>179.31000000000003</ele>
   </trkpt>
   <trkpt lat="50.70056" lon="18.18748">
    <ele>179.06000000000003</ele>
   </trkpt>
   <trkpt lat="50.70071" lon="18.1873">
    <ele>178.81000000000003</ele>
   </trkpt>
   <trkpt lat="50.70116" lon="18.186780000000002">
    <ele>178.49</ele>
   </trkpt>
   <trkpt lat="50.701460000000004" lon="18.186410000000002">
    <ele>178.38</ele>
   </trkpt>
   <trkpt lat="50.701510000000006" lon="18.185660000000002">
    <ele>178.00000000000003</ele>
   </trkpt>
   <trkpt lat="50.70153500240998" lon="18.18491000027821">
    <ele>177.46</ele>
   </trkpt>
   <trkpt lat="50.70156" lon="18.184160000000002">
    <ele>177.68</ele>
   </trkpt>
   <trkpt lat="50.701640002816625" lon="18.18334500163887">
    <ele>177.47</ele>
   </trkpt>
   <trkpt lat="50.70172" lon="18.18253">
    <ele>177.35</ele>
   </trkpt>
   <trkpt lat="50.701800000000006" lon="18.181340000000002">
    <ele>177.13</ele>
   </trkpt>
   <trkpt lat="50.702040000000004" lon="18.18118">
    <ele>176.77</ele>
   </trkpt>
   <trkpt lat="50.7024950001669" lon="18.180985001890292">
    <ele>176.47</ele>
   </trkpt>
   <trkpt lat="50.70295" lon="18.180790000000002">
    <ele>176.27</ele>
   </trkpt>
   <trkpt lat="50.70339500013261" lon="18.180610001710658">
    <ele>176.06000000000003</ele>
   </trkpt>
   <trkpt lat="50.70384000000001" lon="18.18043">
    <ele>176.19</ele>
   </trkpt>
   <trkpt lat="50.70405" lon="18.180290000000003">
    <ele>176.25</ele>
   </trkpt>
   <trkpt lat="50.70481" lon="18.179640000000003">
    <ele>175.95000000000002</ele>
   </trkpt>
   <trkpt lat="50.70545000190716" lon="18.178975009060814">
    <ele>175.71</ele>
   </trkpt>
   <trkpt lat="50.70609" lon="18.17831">
    <ele>175.70000000000002</ele>
   </trkpt>
   <trkpt lat="50.70617000000001" lon="18.17831">
    <ele>175.56000000000003</ele>
   </trkpt>
   <trkpt lat="50.70626000000001" lon="18.1784">
    <ele>175.56000000000003</ele>
   </trkpt>
   <trkpt lat="50.706630000000004" lon="18.17903">
    <ele>175.57</ele>
   </trkpt>
   <trkpt lat="50.70689" lon="18.179570000000002">
    <ele>175.83</ele>
   </trkpt>
   <trkpt lat="50.70727500091754" lon="18.17916000315535">
    <ele>175.5</ele>
   </trkpt>
   <trkpt lat="50.707660000000004" lon="18.17875">
    <ele>175.34000000000003</ele>
   </trkpt>
   <trkpt lat="50.70772" lon="18.178600000000003">
    <ele>175.27</ele>
   </trkpt>
   <trkpt lat="50.70776500381978" lon="18.177655000900423">
    <ele>175.14000000000001</ele>
   </trkpt>
   <trkpt lat="50.70781" lon="18.17671">
    <ele>175.97</ele>
   </trkpt>
   <trkpt lat="50.707980000000006" lon="18.176750000000002">
    <ele>176.0</ele>
   </trkpt>
   <trkpt lat="50.708000000000006" lon="18.176910000000003">
    <ele>176.04</ele>
   </trkpt>
   <trkpt lat="50.708020000000005" lon="18.17831">
    <ele>179.42000000000002</ele>
   </trkpt>
   <trkpt lat="50.70806" lon="18.178230000000003">
    <ele>179.48000000000002</ele>
   </trkpt>
   <trkpt lat="50.708090000000006" lon="18.178140000000003">
    <ele>179.51</ele>
   </trkpt>
   <trkpt lat="50.708115003657944" lon="18.17721500055075">
    <ele>179.43</ele>
   </trkpt>
   <trkpt lat="50.70814000000001" lon="18.17629">
    <ele>179.42000000000002</ele>
   </trkpt>
   <trkpt lat="50.708178810156674" lon="18.174872508191147">
    <ele>179.33</ele>
   </trkpt>
   <trkpt lat="50.70821760312594" lon="18.17345501403595">
    <ele>179.39000000000001</ele>
   </trkpt>
   <trkpt lat="50.70825637890775" lon="18.17203751753546">
    <ele>179.41</ele>
   </trkpt>
   <trkpt lat="50.70829513750204" lon="18.170620018690688">
    <ele>179.37</ele>
   </trkpt>
   <trkpt lat="50.70833387890876" lon="18.169202517502683">
    <ele>179.37</ele>
   </trkpt>
   <trkpt lat="50.70837260312787" lon="18.167785013972466">
    <ele>179.59000000000003</ele>
   </trkpt>
   <trkpt lat="50.70841131015929" lon="18.16636750810107">
    <ele>179.70000000000002</ele>
   </trkpt>
   <trkpt lat="50.708450000000006" lon="18.16495">
    <ele>179.70000000000002</ele>
   </trkpt>
   <trkpt lat="50.7084843322854" lon="18.163602863049377">
    <ele>179.56000000000003</ele>
   </trkpt>
   <trkpt lat="50.70851864904721" lon="18.162255724126144">
    <ele>179.57</ele>
   </trkpt>
   <trkpt lat="50.708552950285416" lon="18.160908583231187">
    <ele>179.84000000000003</ele>
   </trkpt>
   <trkpt lat="50.708587235999964" lon="18.15956144036539">
    <ele>179.93</ele>
   </trkpt>
   <trkpt lat="50.70862150619081" lon="18.158214295529643">
    <ele>179.9</ele>
   </trkpt>
   <trkpt lat="50.7086557608579" lon="18.15686714872483">
    <ele>179.82</ele>
   </trkpt>
   <trkpt lat="50.708690000000004" lon="18.155520000000003">
    <ele>179.92000000000002</ele>
   </trkpt>
   <trkpt lat="50.70864" lon="18.154860000000003">
    <ele>179.94000000000003</ele>
   </trkpt>
   <trkpt lat="50.708420000000004" lon="18.153660000000002">
    <ele>179.76</ele>
   </trkpt>
   <trkpt lat="50.708183361694395" lon="18.152508304251022">
    <ele>179.55</ele>
   </trkpt>
   <trkpt lat="50.70794671204286" lon="18.151356620128606">
    <ele>179.61</ele>
   </trkpt>
   <trkpt lat="50.707710051045645" lon="18.150204947633096">
    <ele>179.48000000000002</ele>
   </trkpt>
   <trkpt lat="50.7074733787029" lon="18.14905328676483">
    <ele>179.52</ele>
   </trkpt>
   <trkpt lat="50.70723669501489" lon="18.14790163752415">
    <ele>179.58</ele>
   </trkpt>
   <trkpt lat="50.707" lon="18.14675">
    <ele>179.79</ele>
   </trkpt>
   <trkpt lat="50.7067800095469" lon="18.145693323397055">
    <ele>179.75000000000003</ele>
   </trkpt>
   <trkpt lat="50.70656000954271" lon="18.144636656710464">
    <ele>179.66</ele>
   </trkpt>
   <trkpt lat="50.706340000000004" lon="18.14358">
    <ele>179.67000000000002</ele>
   </trkpt>
   <trkpt lat="50.706116675601635" lon="18.142556656812264">
    <ele>179.66</ele>
   </trkpt>
   <trkpt lat="50.705893342245226" lon="18.141533323373356">
    <ele>179.45000000000002</ele>
   </trkpt>
   <trkpt lat="50.705670000000005" lon="18.140510000000003">
    <ele>179.11</ele>
   </trkpt>
   <trkpt lat="50.70579000000001" lon="18.13998">
    <ele>178.99</ele>
   </trkpt>
   <trkpt lat="50.706093344067185" lon="18.13886001447867">
    <ele>178.63</ele>
   </trkpt>
   <trkpt lat="50.70639667740423" lon="18.13774001446525">
    <ele>178.46</ele>
   </trkpt>
   <trkpt lat="50.706700000000005" lon="18.13662">
    <ele>178.59000000000003</ele>
   </trkpt>
   <trkpt lat="50.70667500401943" lon="18.135649999294817">
    <ele>178.65</ele>
   </trkpt>
   <trkpt lat="50.70665" lon="18.134680000000003">
    <ele>179.17000000000002</ele>
   </trkpt>
   <trkpt lat="50.70647" lon="18.133670000000002">
    <ele>179.56000000000003</ele>
   </trkpt>
   <trkpt lat="50.70637000000001" lon="18.13306">
    <ele>179.70000000000002</ele>
   </trkpt>
   <trkpt lat="50.70628000000001" lon="18.132270000000002">
    <ele>179.86</ele>
   </trkpt>
   <trkpt lat="50.706410000000005" lon="18.13191">
    <ele>179.66</ele>
   </trkpt>
   <trkpt lat="50.706710001790476" lon="18.131270004012784">
    <ele>179.41</ele>
   </trkpt>
   <trkpt lat="50.707010000000004" lon="18.13063">
    <ele>179.3</ele>
   </trkpt>
   <trkpt lat="50.70712" lon="18.130300000000002">
    <ele>179.24</ele>
   </trkpt>
   <trkpt lat="50.707240000000006" lon="18.129810000000003">
    <ele>179.24</ele>
   </trkpt>
   <trkpt lat="50.70743" lon="18.12928">
    <ele>179.69000000000003</ele>
   </trkpt>
   <trkpt lat="50.70785500351899" lon="18.128375008169858">
    <ele>180.23</ele>
   </trkpt>
   <trkpt lat="50.70828" lon="18.127470000000002">
    <ele>180.27</ele>
   </trkpt>
   <trkpt lat="50.708450000000006" lon="18.12696">
    <ele>180.31000000000003</ele>
   </trkpt>
   <trkpt lat="50.708740000000006" lon="18.12574">
    <ele>180.63</ele>
   </trkpt>
   <trkpt lat="50.708960000000005" lon="18.12537">
    <ele>180.9</ele>
   </trkpt>
   <trkpt lat="50.7092" lon="18.125010000000003">
    <ele>180.9</ele>
   </trkpt>
   <trkpt lat="50.70924" lon="18.124750000000002">
    <ele>180.95000000000002</ele>
   </trkpt>
   <trkpt lat="50.70918500278969" lon="18.123944999320518">
    <ele>180.62</ele>
   </trkpt>
   <trkpt lat="50.70913" lon="18.123140000000003">
    <ele>180.47000000000003</ele>
   </trkpt>
   <trkpt lat="50.70915" lon="18.122870000000002">
    <ele>180.71</ele>
   </trkpt>
   <trkpt lat="50.709340000000005" lon="18.12224">
    <ele>181.44000000000003</ele>
   </trkpt>
   <trkpt lat="50.70938" lon="18.122040000000002">
    <ele>181.44000000000003</ele>
   </trkpt>
   <trkpt lat="50.709340000000005" lon="18.12189">
    <ele>182.18</ele>
   </trkpt>
   <trkpt lat="50.709" lon="18.121270000000003">
    <ele>181.87</ele>
   </trkpt>
   <trkpt lat="50.708580000000005" lon="18.120410000000003">
    <ele>181.31000000000003</ele>
   </trkpt>
   <trkpt lat="50.7089100023104" lon="18.11967000527994">
    <ele>181.43</ele>
   </trkpt>
   <trkpt lat="50.70924" lon="18.118930000000002">
    <ele>181.37</ele>
   </trkpt>
   <trkpt lat="50.709610001569345" lon="18.118325004768614">
    <ele>181.66000000000003</ele>
   </trkpt>
   <trkpt lat="50.70998" lon="18.117720000000002">
    <ele>181.39000000000001</ele>
   </trkpt>
   <trkpt lat="50.71012" lon="18.11719">
    <ele>181.32</ele>
   </trkpt>
   <trkpt lat="50.710240000000006" lon="18.116490000000002">
    <ele>181.68</ele>
   </trkpt>
   <trkpt lat="50.71023" lon="18.11626">
    <ele>181.72000000000003</ele>
   </trkpt>
   <trkpt lat="50.71016" lon="18.11578">
    <ele>181.58</ele>
   </trkpt>
   <trkpt lat="50.70976" lon="18.11502">
    <ele>181.56000000000003</ele>
   </trkpt>
   <trkpt lat="50.709720000000004" lon="18.11485">
    <ele>181.43</ele>
   </trkpt>
   <trkpt lat="50.70971" lon="18.114700000000003">
    <ele>181.4</ele>
   </trkpt>
   <trkpt lat="50.709790000000005" lon="18.11418">
    <ele>181.99</ele>
   </trkpt>
   <trkpt lat="50.709880000000005" lon="18.11402">
    <ele>181.99</ele>
   </trkpt>
   <trkpt lat="50.710040000000006" lon="18.11388">
    <ele>182.08</ele>
   </trkpt>
   <trkpt lat="50.71009" lon="18.113750000000003">
    <ele>182.17000000000002</ele>
   </trkpt>
   <trkpt lat="50.710100000000004" lon="18.11324">
    <ele>182.71</ele>
   </trkpt>
   <trkpt lat="50.71005" lon="18.11287">
    <ele>183.65</ele>
   </trkpt>
   <trkpt lat="50.70982500345401" lon="18.11196999563921">
    <ele>182.94000000000003</ele>
   </trkpt>
   <trkpt lat="50.7096" lon="18.11107">
    <ele>183.43</ele>
   </trkpt>
   <trkpt lat="50.70929" lon="18.11007">
    <ele>184.3</ele>
   </trkpt>
   <trkpt lat="50.709320000000005" lon="18.10979">
    <ele>184.38000000000002</ele>
   </trkpt>
   <trkpt lat="50.70938" lon="18.109530000000003">
    <ele>184.51</ele>
   </trkpt>
   <trkpt lat="50.70967" lon="18.10885">
    <ele>184.73</ele>
   </trkpt>
   <trkpt lat="50.70969" lon="18.108680000000003">
    <ele>184.78000000000003</ele>
   </trkpt>
   <trkpt lat="50.70958" lon="18.10801">
    <ele>185.38000000000002</ele>
   </trkpt>
   <trkpt lat="50.70933" lon="18.10723">
    <ele>183.37</ele>
   </trkpt>
   <trkpt lat="50.70931" lon="18.106540000000003">
    <ele>182.53000000000003</ele>
   </trkpt>
   <trkpt lat="50.709250000000004" lon="18.106370000000002">
    <ele>182.53000000000003</ele>
   </trkpt>
   <trkpt lat="50.709360000000004" lon="18.10633">
    <ele>182.29</ele>
   </trkpt>
   <trkpt lat="50.709500000000006" lon="18.10623">
    <ele>182.17000000000002</ele>
   </trkpt>
   <trkpt lat="50.709860000000006" lon="18.10558">
    <ele>181.3</ele>
   </trkpt>
   <trkpt lat="50.71005" lon="18.1053">
    <ele>181.24</ele>
   </trkpt>
   <trkpt lat="50.71029000000001" lon="18.10507">
    <ele>181.20000000000002</ele>
   </trkpt>
   <trkpt lat="50.71052" lon="18.10491">
    <ele>181.52</ele>
   </trkpt>
   <trkpt lat="50.71104500034443" lon="18.104575003838292">
    <ele>181.33</ele>
   </trkpt>
   <trkpt lat="50.71157" lon="18.10424">
    <ele>179.70000000000002</ele>
   </trkpt>
   <trkpt lat="50.71213" lon="18.10367">
    <ele>179.42000000000002</ele>
   </trkpt>
   <trkpt lat="50.71271" lon="18.10322">
    <ele>180.75000000000003</ele>
   </trkpt>
   <trkpt lat="50.71269" lon="18.102110000000003">
    <ele>180.49</ele>
   </trkpt>
   <trkpt lat="50.712540000000004" lon="18.100800000000003">
    <ele>180.57</ele>
   </trkpt>
   <trkpt lat="50.71253" lon="18.10079">
    <ele>180.57</ele>
   </trkpt>
   <trkpt lat="50.712390014962345" lon="18.09970999029783">
    <ele>180.53000000000003</ele>
   </trkpt>
   <trkpt lat="50.712250019947504" lon="18.09862998704639">
    <ele>180.41000000000003</ele>
   </trkpt>
   <trkpt lat="50.71211001495558" lon="18.09754999024607">
    <ele>180.48</ele>
   </trkpt>
   <trkpt lat="50.71197" lon="18.09647">
    <ele>180.63</ele>
   </trkpt>
   <trkpt lat="50.71123666730421" lon="18.09674000844241">
    <ele>180.87</ele>
   </trkpt>
   <trkpt lat="50.71050333398484" lon="18.097010008437106">
    <ele>180.79</ele>
   </trkpt>
   <trkpt lat="50.709770000000006" lon="18.09728">
    <ele>180.61</ele>
   </trkpt>
   <trkpt lat="50.70919000000001" lon="18.09751">
    <ele>180.81000000000003</ele>
   </trkpt>
   <trkpt lat="50.708360000000006" lon="18.09788">
    <ele>180.99</ele>
   </trkpt>
   <trkpt lat="50.707703333911695" lon="18.09813667385082">
    <ele>181.07</ele>
   </trkpt>
   <trkpt lat="50.70704666725987" lon="18.098393340511564">
    <ele>181.48</ele>
   </trkpt>
   <trkpt lat="50.706390000000006" lon="18.098650000000003">
    <ele>182.41000000000003</ele>
   </trkpt>
   <trkpt lat="50.70606" lon="18.098750000000003">
    <ele>183.04</ele>
   </trkpt>
   <trkpt lat="50.705835021107646" lon="18.09746748155203">
    <ele>182.74</ele>
   </trkpt>
   <trkpt lat="50.705610028145124" lon="18.096184975412434">
    <ele>182.94000000000003</ele>
   </trkpt>
   <trkpt lat="50.70538502111271" lon="18.09490248158177">
    <ele>181.82</ele>
   </trkpt>
   <trkpt lat="50.70516000000001" lon="18.09362">
    <ele>179.88</ele>
   </trkpt>
   <trkpt lat="50.70501" lon="18.09307">
    <ele>179.61</ele>
   </trkpt>
   <trkpt lat="50.7048600037691" lon="18.092134997195465">
    <ele>180.04</ele>
   </trkpt>
   <trkpt lat="50.704710000000006" lon="18.0912">
    <ele>179.75000000000003</ele>
   </trkpt>
   <trkpt lat="50.7047" lon="18.09119">
    <ele>179.75000000000003</ele>
   </trkpt>
   <trkpt lat="50.704515005330144" lon="18.090074995677483">
    <ele>180.01</ele>
   </trkpt>
   <trkpt lat="50.704330000000006" lon="18.08896">
    <ele>180.49</ele>
   </trkpt>
   <trkpt lat="50.70411004401552" lon="18.087747460170796">
    <ele>180.65</ele>
   </trkpt>
   <trkpt lat="50.70389007545427" lon="18.086534931717843">
    <ele>180.13</ele>
   </trkpt>
   <trkpt lat="50.70367009431646" lon="18.08532241464161">
    <ele>179.89000000000001</ele>
   </trkpt>
   <trkpt lat="50.70345010060232" lon="18.084109908942537">
    <ele>179.24</ele>
   </trkpt>
   <trkpt lat="50.70323009431206" lon="18.082897414621094">
    <ele>178.85</ele>
   </trkpt>
   <trkpt lat="50.70301007544591" lon="18.081684931677717">
    <ele>178.20000000000002</ele>
   </trkpt>
   <trkpt lat="50.702790044004075" lon="18.080472460112883">
    <ele>177.76</ele>
   </trkpt>
   <trkpt lat="50.70257" lon="18.07926">
    <ele>177.75000000000003</ele>
   </trkpt>
   <trkpt lat="50.70235503156986" lon="18.078044972142198">
    <ele>177.95000000000002</ele>
   </trkpt>
   <trkpt lat="50.702140050511126" lon="18.076829955424817">
    <ele>178.45000000000002</ele>
   </trkpt>
   <trkpt lat="50.701925056824" lon="18.075614949848333">
    <ele>178.49</ele>
   </trkpt>
   <trkpt lat="50.70171005050872" lon="18.07439995541321">
    <ele>177.97000000000003</ele>
   </trkpt>
   <trkpt lat="50.70149503156548" lon="18.07318497211991">
    <ele>177.56000000000003</ele>
   </trkpt>
   <trkpt lat="50.701280000000004" lon="18.07197">
    <ele>177.72000000000003</ele>
   </trkpt>
   <trkpt lat="50.701058366044165" lon="18.070733304127145">
    <ele>177.32</ele>
   </trkpt>
   <trkpt lat="50.70083671900518" lon="18.069496619944434">
    <ele>176.91</ele>
   </trkpt>
   <trkpt lat="50.700615058883294" lon="18.06825994745236">
    <ele>176.83</ele>
   </trkpt>
   <trkpt lat="50.70039338567871" lon="18.067023286651416">
    <ele>176.85</ele>
   </trkpt>
   <trkpt lat="50.70017169939166" lon="18.065786637542075">
    <ele>176.33</ele>
   </trkpt>
   <trkpt lat="50.69995" lon="18.06455">
    <ele>175.70000000000002</ele>
   </trkpt>
   <trkpt lat="50.69994170280941" lon="18.063249998849173">
    <ele>175.31000000000003</ele>
   </trkpt>
   <trkpt lat="50.69993339116171" lon="18.06194999815876">
    <ele>175.03</ele>
   </trkpt>
   <trkpt lat="50.69992506505692" lon="18.060649997929552">
    <ele>174.96</ele>
   </trkpt>
   <trkpt lat="50.699916724495054" lon="18.05934999816236">
    <ele>174.73000000000002</ele>
   </trkpt>
   <trkpt lat="50.699908369476105" lon="18.058049998857985">
    <ele>174.36</ele>
   </trkpt>
   <trkpt lat="50.69990000000001" lon="18.05675">
    <ele>173.45000000000002</ele>
   </trkpt>
   <trkpt lat="50.6998880239035" lon="18.05556799880162">
    <ele>172.91</ele>
   </trkpt>
   <trkpt lat="50.69987603585528" lon="18.05438599820725">
    <ele>172.04000000000002</ele>
   </trkpt>
   <trkpt lat="50.699864035855384" lon="18.05320399821748">
    <ele>171.5</ele>
   </trkpt>
   <trkpt lat="50.6998520239038" lon="18.052021998832927">
    <ele>170.33</ele>
   </trkpt>
   <trkpt lat="50.69984" lon="18.05084">
    <ele>170.09</ele>
   </trkpt>
   <trkpt lat="50.699845007284225" lon="18.049535000148406">
    <ele>169.82000000000002</ele>
   </trkpt>
   <trkpt lat="50.699850000000005" lon="18.04823">
    <ele>169.23000000000002</ele>
   </trkpt>
   <trkpt lat="50.69983502355875" lon="18.046874998642334">
    <ele>168.42000000000002</ele>
   </trkpt>
   <trkpt lat="50.69982003141124" lon="18.04551999815056">
    <ele>167.5</ele>
   </trkpt>
   <trkpt lat="50.69980502355746" lon="18.0441649985256">
    <ele>167.06</ele>
   </trkpt>
   <trkpt lat="50.69979000000001" lon="18.042810000000003">
    <ele>166.74000000000004</ele>
   </trkpt>
   <trkpt lat="50.6997811716393" lon="18.04147999798017">
    <ele>166.46</ele>
   </trkpt>
   <trkpt lat="50.69977232814651" lon="18.040149996461512">
    <ele>165.89000000000001</ele>
   </trkpt>
   <trkpt lat="50.699763469521656" lon="18.038819995444896">
    <ele>165.53</ele>
   </trkpt>
   <trkpt lat="50.69975459576474" lon="18.037489994931175">
    <ele>165.48000000000002</ele>
   </trkpt>
   <trkpt lat="50.69974570687576" lon="18.036159994921213">
    <ele>165.59</ele>
   </trkpt>
   <trkpt lat="50.699736802854744" lon="18.034829995415862">
    <ele>164.92000000000002</ele>
   </trkpt>
   <trkpt lat="50.69972788370172" lon="18.03349999641598">
    <ele>164.69</ele>
   </trkpt>
   <trkpt lat="50.69971894941665" lon="18.03216999792243">
    <ele>164.31</ele>
   </trkpt>
   <trkpt lat="50.69971" lon="18.03084">
    <ele>163.97</ele>
   </trkpt>
   <trkpt lat="50.69970003945918" lon="18.029481665224736">
    <ele>163.82000000000002</ele>
   </trkpt>
   <trkpt lat="50.69969006313468" lon="18.028123331026936">
    <ele>163.4</ele>
   </trkpt>
   <trkpt lat="50.69968007102652" lon="18.026764997407504">
    <ele>163.19</ele>
   </trkpt>
   <trkpt lat="50.69967006313472" lon="18.025406664367367">
    <ele>162.99</ele>
   </trkpt>
   <trkpt lat="50.699660039459275" lon="18.02404833190743">
    <ele>162.58</ele>
   </trkpt>
   <trkpt lat="50.699650000000005" lon="18.02269">
    <ele>162.35000000000002</ele>
   </trkpt>
   <trkpt lat="50.69881500032011" lon="18.022960004804556">
    <ele>161.87</ele>
   </trkpt>
   <trkpt lat="50.69798" lon="18.02323">
    <ele>161.55</ele>
   </trkpt>
   <trkpt lat="50.6974300002255" lon="18.02347500288704">
    <ele>161.85000000000002</ele>
   </trkpt>
   <trkpt lat="50.69688000000001" lon="18.02372">
    <ele>162.76000000000002</ele>
   </trkpt>
   <trkpt lat="50.696810000000006" lon="18.02356">
    <ele>162.25</ele>
   </trkpt>
   <trkpt lat="50.696810000000006" lon="18.02351">
    <ele>161.39000000000001</ele>
   </trkpt>
   <trkpt lat="50.697325001840106" lon="18.02286500700661">
    <ele>160.87</ele>
   </trkpt>
   <trkpt lat="50.69784000000001" lon="18.02222">
    <ele>160.74</ele>
   </trkpt>
   <trkpt lat="50.69841000223269" lon="18.021706679164055">
    <ele>160.8</ele>
   </trkpt>
   <trkpt lat="50.69898000221119" lon="18.02119334585028">
    <ele>161.18</ele>
   </trkpt>
   <trkpt lat="50.69955" lon="18.020680000000002">
    <ele>160.95000000000002</ele>
   </trkpt>
   <trkpt lat="50.699630000000006" lon="18.02042">
    <ele>160.74</ele>
   </trkpt>
   <trkpt lat="50.69962502321289" lon="18.019074999548938">
    <ele>160.15</ele>
   </trkpt>
   <trkpt lat="50.699620030950456" lon="18.017729999383782">
    <ele>159.91000000000003</ele>
   </trkpt>
   <trkpt lat="50.699615023212736" lon="18.01638499950543">
    <ele>159.74</ele>
   </trkpt>
   <trkpt lat="50.69961000000001" lon="18.015040000000003">
    <ele>159.71</ele>
   </trkpt>
   <trkpt lat="50.699690000000004" lon="18.014840000000003">
    <ele>159.66000000000003</ele>
   </trkpt>
   <trkpt lat="50.70035000353027" lon="18.014196684785052">
    <ele>159.67000000000002</ele>
   </trkpt>
   <trkpt lat="50.70101000352012" lon="18.013553351461947">
    <ele>159.18</ele>
   </trkpt>
   <trkpt lat="50.70167000000001" lon="18.01291">
    <ele>159.35999999999999</ele>
   </trkpt>
   <trkpt lat="50.701980000000006" lon="18.01258">
    <ele>159.48000000000002</ele>
   </trkpt>
   <trkpt lat="50.702180000000006" lon="18.012220000000003">
    <ele>159.24</ele>
   </trkpt>
   <trkpt lat="50.702020000000005" lon="18.011930000000003">
    <ele>158.72</ele>
   </trkpt>
   <trkpt lat="50.70168500096963" lon="18.01145499661317">
    <ele>158.34</ele>
   </trkpt>
   <trkpt lat="50.701350000000005" lon="18.01098">
    <ele>158.28</ele>
   </trkpt>
   <trkpt lat="50.70070500408986" lon="18.010009986756835">
    <ele>158.14</ele>
   </trkpt>
   <trkpt lat="50.70006000000001" lon="18.009040000000002">
    <ele>158.05</ele>
   </trkpt>
   <trkpt lat="50.69984" lon="18.00878">
    <ele>157.99</ele>
   </trkpt>
   <trkpt lat="50.69968" lon="18.0088">
    <ele>157.99</ele>
   </trkpt>
   <trkpt lat="50.6991700002244" lon="18.00896500175942">
    <ele>158.05</ele>
   </trkpt>
   <trkpt lat="50.698660000000004" lon="18.009130000000003">
    <ele>158.17000000000002</ele>
   </trkpt>
   <trkpt lat="50.69836" lon="18.0089">
    <ele>157.87</ele>
   </trkpt>
   <trkpt lat="50.69785" lon="18.008660000000003">
    <ele>157.72</ele>
   </trkpt>
   <trkpt lat="50.69743500069474" lon="18.00829999693632">
    <ele>157.67</ele>
   </trkpt>
   <trkpt lat="50.69702" lon="18.00794">
    <ele>157.42</ele>
   </trkpt>
   <trkpt lat="50.696525005221375" lon="18.00683498833481">
    <ele>157.16000000000003</ele>
   </trkpt>
   <trkpt lat="50.69603000000001" lon="18.00573">
    <ele>157.43</ele>
   </trkpt>
   <trkpt lat="50.696000000000005" lon="18.00561">
    <ele>157.75</ele>
   </trkpt>
   <trkpt lat="50.69599" lon="18.00549">
    <ele>157.75</ele>
   </trkpt>
   <trkpt lat="50.695570000000004" lon="18.004520000000003">
    <ele>157.4</ele>
   </trkpt>
   <trkpt lat="50.695075005167666" lon="18.003424988530238">
    <ele>157.57000000000002</ele>
   </trkpt>
   <trkpt lat="50.69458" lon="18.00233">
    <ele>157.83</ele>
   </trkpt>
   <trkpt lat="50.694206672334495" lon="18.001516653738634">
    <ele>157.52</ele>
   </trkpt>
   <trkpt lat="50.693833339009785" lon="18.000703320424282">
    <ele>157.5</ele>
   </trkpt>
   <trkpt lat="50.69346" lon="17.99989">
    <ele>157.57000000000002</ele>
   </trkpt>
   <trkpt lat="50.692910000000005" lon="17.99885">
    <ele>157.07000000000002</ele>
   </trkpt>
   <trkpt lat="50.69245000437808" lon="17.997839990127787">
    <ele>157.20000000000002</ele>
   </trkpt>
   <trkpt lat="50.691990000000004" lon="17.996830000000003">
    <ele>157.09</ele>
   </trkpt>
   <trkpt lat="50.69200000000001" lon="17.996840000000002">
    <ele>157.09</ele>
   </trkpt>
   <trkpt lat="50.691567512099866" lon="17.995869973228228">
    <ele>157.27</ele>
   </trkpt>
   <trkpt lat="50.69113501615005" lon="17.99489996434277">
    <ele>157.20000000000002</ele>
   </trkpt>
   <trkpt lat="50.690702512150814" lon="17.993929973343366">
    <ele>157.58</ele>
   </trkpt>
   <trkpt lat="50.690270000000005" lon="17.99296">
    <ele>157.58</ele>
   </trkpt>
   <trkpt lat="50.690270000000005" lon="17.992970000000003">
    <ele>157.58</ele>
   </trkpt>
   <trkpt lat="50.68978717271565" lon="17.991891361966662">
    <ele>157.66000000000003</ele>
   </trkpt>
   <trkpt lat="50.68930433547799" lon="17.990812746135894">
    <ele>157.44000000000003</ele>
   </trkpt>
   <trkpt lat="50.68882148828741" lon="17.989734152507317">
    <ele>157.27</ele>
   </trkpt>
   <trkpt lat="50.68833863114427" lon="17.988655581080554">
    <ele>157.28</ele>
   </trkpt>
   <trkpt lat="50.687855764048955" lon="17.987577031855217">
    <ele>157.35000000000002</ele>
   </trkpt>
   <trkpt lat="50.68737288700183" lon="17.986498504830934">
    <ele>157.19000000000003</ele>
   </trkpt>
   <trkpt lat="50.686890000000005" lon="17.98542">
    <ele>156.29000000000002</ele>
   </trkpt>
   <trkpt lat="50.68653000190525" lon="17.98609500526122">
    <ele>155.78</ele>
   </trkpt>
   <trkpt lat="50.686170000000004" lon="17.98677">
    <ele>155.93</ele>
   </trkpt>
   <trkpt lat="50.68583000143772" lon="17.987355004284254">
    <ele>156.01000000000002</ele>
   </trkpt>
   <trkpt lat="50.68549" lon="17.987940000000002">
    <ele>156.12</ele>
   </trkpt>
   <trkpt lat="50.685120001413395" lon="17.988505004382308">
    <ele>156.34</ele>
   </trkpt>
   <trkpt lat="50.68475" lon="17.98907">
    <ele>156.59</ele>
   </trkpt>
   <trkpt lat="50.68430000000001" lon="17.989700000000003">
    <ele>156.69000000000003</ele>
   </trkpt>
   <trkpt lat="50.684270000000005" lon="17.989780000000003">
    <ele>156.69000000000003</ele>
   </trkpt>
   <trkpt lat="50.68426" lon="17.989880000000003">
    <ele>156.69000000000003</ele>
   </trkpt>
   <trkpt lat="50.684200000000004" lon="17.98986">
    <ele>156.69000000000003</ele>
   </trkpt>
   <trkpt lat="50.68415" lon="17.989800000000002">
    <ele>156.65</ele>
   </trkpt>
   <trkpt lat="50.684070000000006" lon="17.98976">
    <ele>156.53</ele>
   </trkpt>
   <trkpt lat="50.6839" lon="17.98984">
    <ele>156.21</ele>
   </trkpt>
   <trkpt lat="50.68385000000001" lon="17.98982">
    <ele>156.21</ele>
   </trkpt>
   <trkpt lat="50.68374000000001" lon="17.98973">
    <ele>156.11</ele>
   </trkpt>
   <trkpt lat="50.683600000000006" lon="17.98949">
    <ele>156.3</ele>
   </trkpt>
   <trkpt lat="50.68365000000001" lon="17.989440000000002">
    <ele>156.3</ele>
   </trkpt>
   <trkpt lat="50.683890000000005" lon="17.98936">
    <ele>156.17</ele>
   </trkpt>
   <trkpt lat="50.684070000000006" lon="17.989160000000002">
    <ele>156.17</ele>
   </trkpt>
   <trkpt lat="50.68430000000001" lon="17.98883">
    <ele>156.23000000000002</ele>
   </trkpt>
   <trkpt lat="50.68439000000001" lon="17.988570000000003">
    <ele>156.23000000000002</ele>
   </trkpt>
   <trkpt lat="50.684470000000005" lon="17.98843">
    <ele>156.28</ele>
   </trkpt>
   <trkpt lat="50.684400000000004" lon="17.988030000000002">
    <ele>156.16000000000003</ele>
   </trkpt>
   <trkpt lat="50.684110000000004" lon="17.987160000000003">
    <ele>156.43</ele>
   </trkpt>
   <trkpt lat="50.683960000000006" lon="17.98665">
    <ele>156.68</ele>
   </trkpt>
   <trkpt lat="50.68369000288245" lon="17.985819995025935">
    <ele>156.77</ele>
   </trkpt>
   <trkpt lat="50.683420000000005" lon="17.98499">
    <ele>156.75</ele>
   </trkpt>
   <trkpt lat="50.683150003171534" lon="17.9841249949293">
    <ele>156.63000000000002</ele>
   </trkpt>
   <trkpt lat="50.682880000000004" lon="17.98326">
    <ele>156.72000000000003</ele>
   </trkpt>
   <trkpt lat="50.68257500365443" lon="17.98233499397039">
    <ele>156.84</ele>
   </trkpt>
   <trkpt lat="50.68227" lon="17.98141">
    <ele>157.3</ele>
   </trkpt>
   <trkpt lat="50.682010000000005" lon="17.98187">
    <ele>157.54000000000002</ele>
   </trkpt>
   <trkpt lat="50.68197000000001" lon="17.981810000000003">
    <ele>157.66000000000003</ele>
   </trkpt>
   <trkpt lat="50.681900000000006" lon="17.98121">
    <ele>157.72</ele>
   </trkpt>
   <trkpt lat="50.681940000000004" lon="17.980980000000002">
    <ele>157.94000000000003</ele>
   </trkpt>
   <trkpt lat="50.68191" lon="17.980990000000002">
    <ele>157.94000000000003</ele>
   </trkpt>
   <trkpt lat="50.681850000000004" lon="17.98028">
    <ele>158.41000000000003</ele>
   </trkpt>
   <trkpt lat="50.68184" lon="17.97924">
    <ele>159.5</ele>
   </trkpt>
   <trkpt lat="50.68178" lon="17.97833">
    <ele>160.82999999999998</ele>
   </trkpt>
   <trkpt lat="50.68119" lon="17.97841">
    <ele>161.91000000000003</ele>
   </trkpt>
   <trkpt lat="50.6811" lon="17.9784">
    <ele>162.64000000000001</ele>
   </trkpt>
   <trkpt lat="50.681050000000006" lon="17.978440000000003">
    <ele>162.64000000000001</ele>
   </trkpt>
   <trkpt lat="50.68108" lon="17.977770000000003">
    <ele>163.67000000000002</ele>
   </trkpt>
   <trkpt lat="50.68103000000001" lon="17.97776">
    <ele>163.51000000000002</ele>
   </trkpt>
   <trkpt lat="50.68109000666948" lon="17.976510001902508">
    <ele>165.83</ele>
   </trkpt>
   <trkpt lat="50.68115" lon="17.975260000000002">
    <ele>166.84</ele>
   </trkpt>
   <trkpt lat="50.68121000000001" lon="17.974410000000002">
    <ele>166.87</ele>
   </trkpt>
   <trkpt lat="50.68119" lon="17.974310000000003">
    <ele>166.95000000000002</ele>
   </trkpt>
   <trkpt lat="50.681110000000004" lon="17.974300000000003">
    <ele>167.06</ele>
   </trkpt>
   <trkpt lat="50.6811" lon="17.973860000000002">
    <ele>167.24000000000004</ele>
   </trkpt>
   <trkpt lat="50.68117" lon="17.973850000000002">
    <ele>167.24000000000004</ele>
   </trkpt>
   <trkpt lat="50.681250000000006" lon="17.9737">
    <ele>166.86</ele>
   </trkpt>
   <trkpt lat="50.681250000000006" lon="17.9735">
    <ele>166.71</ele>
   </trkpt>
   <trkpt lat="50.68122" lon="17.972820000000002">
    <ele>166.41</ele>
   </trkpt>
   <trkpt lat="50.681110016292145" lon="17.971439993515474">
    <ele>166.37</ele>
   </trkpt>
   <trkpt lat="50.68100001629089" lon="17.970059993500023">
    <ele>167.14000000000001</ele>
   </trkpt>
   <trkpt lat="50.680890000000005" lon="17.968680000000003">
    <ele>167.16</ele>
   </trkpt>
   <trkpt lat="50.68083000000001" lon="17.96816">
    <ele>167.28</ele>
   </trkpt>
   <trkpt lat="50.680800000000005" lon="17.96761">
    <ele>167.18</ele>
   </trkpt>
   <trkpt lat="50.68069668179204" lon="17.966279994030803">
    <ele>167.32000000000002</ele>
   </trkpt>
   <trkpt lat="50.68059334844997" lon="17.964949993918353">
    <ele>167.51000000000002</ele>
   </trkpt>
   <trkpt lat="50.680490000000006" lon="17.963620000000002">
    <ele>167.3</ele>
   </trkpt>
   <trkpt lat="50.680460000000004" lon="17.963530000000002">
    <ele>167.3</ele>
   </trkpt>
   <trkpt lat="50.680440000000004" lon="17.962760000000003">
    <ele>167.36</ele>
   </trkpt>
   <trkpt lat="50.68048" lon="17.962670000000003">
    <ele>167.36</ele>
   </trkpt>
   <trkpt lat="50.68038000000001" lon="17.9615">
    <ele>167.91</ele>
   </trkpt>
   <trkpt lat="50.68034" lon="17.96039">
    <ele>168.94</ele>
   </trkpt>
   <trkpt lat="50.680350000000004" lon="17.95982">
    <ele>169.52</ele>
   </trkpt>
   <trkpt lat="50.680400000000006" lon="17.95862">
    <ele>170.82000000000002</ele>
   </trkpt>
   <trkpt lat="50.68021" lon="17.958740000000002">
    <ele>170.59</ele>
   </trkpt>
   <trkpt lat="50.679990000000004" lon="17.95885">
    <ele>170.24</ele>
   </trkpt>
   <trkpt lat="50.679640000000006" lon="17.95897">
    <ele>170.13</ele>
   </trkpt>
   <trkpt lat="50.67922" lon="17.95907">
    <ele>170.1</ele>
   </trkpt>
   <trkpt lat="50.67915000290647" lon="17.958244998708576">
    <ele>170.43000000000004</ele>
   </trkpt>
   <trkpt lat="50.679080000000006" lon="17.957420000000003">
    <ele>170.91</ele>
   </trkpt>
   <trkpt lat="50.679860000000005" lon="17.95681">
    <ele>171.84</ele>
   </trkpt>
   <trkpt lat="50.67980000000001" lon="17.95665">
    <ele>171.38</ele>
   </trkpt>
   <trkpt lat="50.679390000000005" lon="17.95698">
    <ele>170.94</ele>
   </trkpt>
   <trkpt lat="50.679260000000006" lon="17.95719">
    <ele>170.81</ele>
   </trkpt>
   <trkpt lat="50.67906000000001" lon="17.95735">
    <ele>170.85</ele>
   </trkpt>
   <trkpt lat="50.678850000000004" lon="17.95738">
    <ele>170.89000000000001</ele>
   </trkpt>
   <trkpt lat="50.67876500297214" lon="17.95654499838449">
    <ele>171.03</ele>
   </trkpt>
   <trkpt lat="50.67868000000001" lon="17.95571">
    <ele>171.58</ele>
   </trkpt>
   <trkpt lat="50.678670000000004" lon="17.95541">
    <ele>171.96</ele>
   </trkpt>
   <trkpt lat="50.67868000000001" lon="17.95486">
    <ele>172.18000000000004</ele>
   </trkpt>
   <trkpt lat="50.678790000000006" lon="17.95465">
    <ele>172.18000000000004</ele>
   </trkpt>
   <trkpt lat="50.67895000000001" lon="17.95417">
    <ele>172.38</ele>
   </trkpt>
   <trkpt lat="50.678990000000006" lon="17.95416">
    <ele>172.38</ele>
   </trkpt>
   <trkpt lat="50.679010000000005" lon="17.95411">
    <ele>172.38</ele>
   </trkpt>
   <trkpt lat="50.67898" lon="17.95401">
    <ele>172.38</ele>
   </trkpt>
   <trkpt lat="50.679" lon="17.953310000000002">
    <ele>172.6</ele>
   </trkpt>
   <trkpt lat="50.67897000000001" lon="17.95295">
    <ele>172.75</ele>
   </trkpt>
   <trkpt lat="50.67893" lon="17.9527">
    <ele>172.79000000000002</ele>
   </trkpt>
   <trkpt lat="50.678810000000006" lon="17.95213">
    <ele>172.91</ele>
   </trkpt>
   <trkpt lat="50.67859000000001" lon="17.95144">
    <ele>173.14000000000001</ele>
   </trkpt>
   <trkpt lat="50.678610000000006" lon="17.951320000000003">
    <ele>173.24</ele>
   </trkpt>
   <trkpt lat="50.6786" lon="17.95127">
    <ele>173.24</ele>
   </trkpt>
   <trkpt lat="50.67857000000001" lon="17.95125">
    <ele>173.24</ele>
   </trkpt>
   <trkpt lat="50.67882" lon="17.950300000000002">
    <ele>174.90000000000003</ele>
   </trkpt>
   <trkpt lat="50.67889" lon="17.950100000000003">
    <ele>174.90000000000003</ele>
   </trkpt>
   <trkpt lat="50.679" lon="17.94987">
    <ele>175.27</ele>
   </trkpt>
   <trkpt lat="50.67911" lon="17.9497">
    <ele>175.53000000000003</ele>
   </trkpt>
   <trkpt lat="50.67931" lon="17.94951">
    <ele>175.71</ele>
   </trkpt>
   <trkpt lat="50.680150000000005" lon="17.949370000000002">
    <ele>175.87000000000003</ele>
   </trkpt>
   <trkpt lat="50.68032" lon="17.949150000000003">
    <ele>176.03000000000003</ele>
   </trkpt>
   <trkpt lat="50.68029000000001" lon="17.94863">
    <ele>175.64000000000001</ele>
   </trkpt>
   <trkpt lat="50.680260000000004" lon="17.948520000000002">
    <ele>175.54</ele>
   </trkpt>
   <trkpt lat="50.680220000000006" lon="17.947960000000002">
    <ele>175.40000000000003</ele>
   </trkpt>
   <trkpt lat="50.68045000000001" lon="17.947750000000003">
    <ele>175.73000000000002</ele>
   </trkpt>
   <trkpt lat="50.681195000024" lon="17.947625001991636">
    <ele>175.94</ele>
   </trkpt>
   <trkpt lat="50.681940000000004" lon="17.9475">
    <ele>176.25</ele>
   </trkpt>
  </trkseg>
 </trk>
</gpx>
