<?xml version="1.0" encoding="UTF-8"?>
<gpx creator="StravaGPX" version="1.1" xmlns="http://www.topografix.com/GPX/1/1" xmlns:xsi="http://www.w3.org/2001/XMLSchema-instance" xsi:schemaLocation="http://www.topografix.com/GPX/1/1 http://www.topografix.com/GPX/1/1/gpx.xsd">
 <metadata>
  <name>4 środa - Droga w nieznane v3</name>
  <author>
   <name>Patryk Jankowski</name>
   <link href="https://www.strava.com/athletes/71535837"/>
  </author>
  <copyright author="OpenStreetMap contributors">
   <year>2020</year>
   <license>https://www.openstreetmap.org/copyright</license>
  </copyright>
  <link href="https://www.strava.com/routes/3249264700192046024"/>
 </metadata>
 <trk>
  <name>4 środa - Droga w nieznane v3</name>
  <link href="https://www.strava.com/routes/3249264700192046024"/>
  <type>gravel_biking</type>
  <trkseg>
   <trkpt lat="50.682520000000004" lon="17.94741">
    <ele>176.18</ele>
   </trkpt>
   <trkpt lat="50.68291000000001" lon="17.94736">
    <ele>176.25</ele>
   </trkpt>
   <trkpt lat="50.68296" lon="17.94732">
    <ele>176.25</ele>
   </trkpt>
   <trkpt lat="50.68314" lon="17.94687">
    <ele>176.51000000000002</ele>
   </trkpt>
   <trkpt lat="50.68388400993519" lon="17.947631951671156">
    <ele>176.72</ele>
   </trkpt>
   <trkpt lat="50.68462801490318" lon="17.94839392750559">
    <ele>176.55</ele>
   </trkpt>
   <trkpt lat="50.68537201490369" lon="17.949155927504574">
    <ele>175.28000000000003</ele>
   </trkpt>
   <trkpt lat="50.68611600993643" lon="17.94991795166933">
    <ele>174.40000000000003</ele>
   </trkpt>
   <trkpt lat="50.68686" lon="17.950680000000002">
    <ele>173.47</ele>
   </trkpt>
   <trkpt lat="50.686910000000005" lon="17.950580000000002">
    <ele>173.39000000000001</ele>
   </trkpt>
   <trkpt lat="50.687110000000004" lon="17.950770000000002">
    <ele>173.3</ele>
   </trkpt>
   <trkpt lat="50.68719" lon="17.95083">
    <ele>173.29000000000002</ele>
   </trkpt>
   <trkpt lat="50.687290000000004" lon="17.950860000000002">
    <ele>173.17000000000002</ele>
   </trkpt>
   <trkpt lat="50.687400000000004" lon="17.95083">
    <ele>173.06</ele>
   </trkpt>
   <trkpt lat="50.68794666853651" lon="17.95037334390391">
    <ele>173.48000000000002</ele>
   </trkpt>
   <trkpt lat="50.68849333528891" lon="17.94991667716577">
    <ele>174.18</ele>
   </trkpt>
   <trkpt lat="50.689040000000006" lon="17.949460000000002">
    <ele>173.89000000000001</ele>
   </trkpt>
   <trkpt lat="50.68967000000001" lon="17.94894">
    <ele>174.12000000000003</ele>
   </trkpt>
   <trkpt lat="50.69024" lon="17.9498">
    <ele>171.45000000000002</ele>
   </trkpt>
   <trkpt lat="50.69028" lon="17.9497">
    <ele>171.26000000000002</ele>
   </trkpt>
   <trkpt lat="50.69033" lon="17.94961">
    <ele>171.26000000000002</ele>
   </trkpt>
   <trkpt lat="50.691010000000006" lon="17.94886">
    <ele>171.47</ele>
   </trkpt>
   <trkpt lat="50.69106000000001" lon="17.94881">
    <ele>171.43000000000004</ele>
   </trkpt>
   <trkpt lat="50.691010000000006" lon="17.94886">
    <ele>171.40000000000003</ele>
   </trkpt>
   <trkpt lat="50.69070601900971" lon="17.94780597268512">
    <ele>172.33</ele>
   </trkpt>
   <trkpt lat="50.690402028515116" lon="17.946751959030287">
    <ele>174.13</ele>
   </trkpt>
   <trkpt lat="50.690098028516466" lon="17.94569795903561">
    <ele>174.82</ele>
   </trkpt>
   <trkpt lat="50.68979401901396" lon="17.944643972701183">
    <ele>175.23000000000002</ele>
   </trkpt>
   <trkpt lat="50.689490000000006" lon="17.94359">
    <ele>175.83</ele>
   </trkpt>
   <trkpt lat="50.689490000000006" lon="17.94351">
    <ele>175.83</ele>
   </trkpt>
   <trkpt lat="50.689510000000006" lon="17.94346">
    <ele>175.83</ele>
   </trkpt>
   <trkpt lat="50.69009666850185" lon="17.942996678256247">
    <ele>175.77</ele>
   </trkpt>
   <trkpt lat="50.69068333516717" lon="17.942533344924165">
    <ele>175.82</ele>
   </trkpt>
   <trkpt lat="50.69127" lon="17.94207">
    <ele>175.93</ele>
   </trkpt>
   <trkpt lat="50.69194" lon="17.9414">
    <ele>175.9</ele>
   </trkpt>
   <trkpt lat="50.69245333632981" lon="17.940810012891788">
    <ele>175.77</ele>
   </trkpt>
   <trkpt lat="50.692966669681724" lon="17.940220012870636">
    <ele>175.76000000000002</ele>
   </trkpt>
   <trkpt lat="50.69348" lon="17.93963">
    <ele>175.46</ele>
   </trkpt>
   <trkpt lat="50.69393" lon="17.93905">
    <ele>175.59000000000003</ele>
   </trkpt>
   <trkpt lat="50.694230000000005" lon="17.93861">
    <ele>175.85</ele>
   </trkpt>
   <trkpt lat="50.694480000000006" lon="17.938170000000003">
    <ele>176.15</ele>
   </trkpt>
   <trkpt lat="50.69494" lon="17.93718">
    <ele>176.0</ele>
   </trkpt>
   <trkpt lat="50.695310000000006" lon="17.936220000000002">
    <ele>174.1</ele>
   </trkpt>
   <trkpt lat="50.69563" lon="17.935280000000002">
    <ele>173.14000000000001</ele>
   </trkpt>
   <trkpt lat="50.69579" lon="17.934700000000003">
    <ele>172.74</ele>
   </trkpt>
   <trkpt lat="50.695930000000004" lon="17.934060000000002">
    <ele>172.47</ele>
   </trkpt>
   <trkpt lat="50.69605000000001" lon="17.933300000000003">
    <ele>171.73000000000002</ele>
   </trkpt>
   <trkpt lat="50.696220000000004" lon="17.932560000000002">
    <ele>171.11</ele>
   </trkpt>
   <trkpt lat="50.696435003098046" lon="17.93171000386616">
    <ele>170.57000000000002</ele>
   </trkpt>
   <trkpt lat="50.696650000000005" lon="17.930860000000003">
    <ele>170.11</ele>
   </trkpt>
   <trkpt lat="50.69686000442421" lon="17.929840004693023">
    <ele>169.13</ele>
   </trkpt>
   <trkpt lat="50.697070000000004" lon="17.92882">
    <ele>168.07000000000002</ele>
   </trkpt>
   <trkpt lat="50.697050000000004" lon="17.928630000000002">
    <ele>168.17000000000002</ele>
   </trkpt>
   <trkpt lat="50.69670000000001" lon="17.92849">
    <ele>168.37</ele>
   </trkpt>
   <trkpt lat="50.696030000256876" lon="17.928309997460495">
    <ele>168.66</ele>
   </trkpt>
   <trkpt lat="50.69536" lon="17.928130000000003">
    <ele>169.06</ele>
   </trkpt>
   <trkpt lat="50.694680000000005" lon="17.92799">
    <ele>169.56</ele>
   </trkpt>
   <trkpt lat="50.69467" lon="17.928060000000002">
    <ele>169.56</ele>
   </trkpt>
   <trkpt lat="50.69453000000001" lon="17.928030000000003">
    <ele>169.47</ele>
   </trkpt>
   <trkpt lat="50.69448500361664" lon="17.92710999904033">
    <ele>168.79000000000002</ele>
   </trkpt>
   <trkpt lat="50.69444000000001" lon="17.926190000000002">
    <ele>167.89000000000001</ele>
   </trkpt>
   <trkpt lat="50.69444000000001" lon="17.925970000000003">
    <ele>167.89000000000001</ele>
   </trkpt>
   <trkpt lat="50.69447" lon="17.92563">
    <ele>167.0</ele>
   </trkpt>
   <trkpt lat="50.69471" lon="17.92444">
    <ele>166.44</ele>
   </trkpt>
   <trkpt lat="50.69485" lon="17.923930000000002">
    <ele>165.88000000000002</ele>
   </trkpt>
   <trkpt lat="50.695150000000005" lon="17.92302">
    <ele>165.63000000000002</ele>
   </trkpt>
   <trkpt lat="50.695240000000005" lon="17.922690000000003">
    <ele>165.58</ele>
   </trkpt>
   <trkpt lat="50.69529000000001" lon="17.92238">
    <ele>165.46</ele>
   </trkpt>
   <trkpt lat="50.6953" lon="17.92217">
    <ele>165.46</ele>
   </trkpt>
   <trkpt lat="50.69529000000001" lon="17.921370000000003">
    <ele>164.91</ele>
   </trkpt>
   <trkpt lat="50.69524000545457" lon="17.920239998632255">
    <ele>164.44</ele>
   </trkpt>
   <trkpt lat="50.695190000000004" lon="17.91911">
    <ele>163.39000000000001</ele>
   </trkpt>
   <trkpt lat="50.69556000000001" lon="17.91889">
    <ele>161.57000000000002</ele>
   </trkpt>
   <trkpt lat="50.695820000000005" lon="17.91879">
    <ele>161.07999999999998</ele>
   </trkpt>
   <trkpt lat="50.696250000000006" lon="17.918660000000003">
    <ele>160.71</ele>
   </trkpt>
   <trkpt lat="50.69691000055479" lon="17.918406673794358">
    <ele>160.20000000000002</ele>
   </trkpt>
   <trkpt lat="50.69757000056057" lon="17.918153340458932">
    <ele>160.21</ele>
   </trkpt>
   <trkpt lat="50.69823" lon="17.917900000000003">
    <ele>160.20000000000002</ele>
   </trkpt>
   <trkpt lat="50.69903500032245" lon="17.91761500490088">
    <ele>160.67000000000002</ele>
   </trkpt>
   <trkpt lat="50.69984" lon="17.91733">
    <ele>160.72</ele>
   </trkpt>
   <trkpt lat="50.70053000000001" lon="17.91705">
    <ele>160.45000000000002</ele>
   </trkpt>
   <trkpt lat="50.70114" lon="17.91684">
    <ele>160.65</ele>
   </trkpt>
   <trkpt lat="50.70185000057808" lon="17.91658667432769">
    <ele>160.45000000000002</ele>
   </trkpt>
   <trkpt lat="50.702560000607164" lon="17.916333340984117">
    <ele>161.03</ele>
   </trkpt>
   <trkpt lat="50.70327" lon="17.91608">
    <ele>161.29000000000002</ele>
   </trkpt>
   <trkpt lat="50.70372500000763" lon="17.915925001536465">
    <ele>161.57000000000002</ele>
   </trkpt>
   <trkpt lat="50.70418" lon="17.915770000000002">
    <ele>161.56</ele>
   </trkpt>
   <trkpt lat="50.70434" lon="17.915740000000003">
    <ele>161.45000000000002</ele>
   </trkpt>
   <trkpt lat="50.704420000000006" lon="17.915770000000002">
    <ele>161.28</ele>
   </trkpt>
   <trkpt lat="50.704750000000004" lon="17.91564">
    <ele>161.4</ele>
   </trkpt>
   <trkpt lat="50.70522000014237" lon="17.915490001488884">
    <ele>162.54999999999998</ele>
   </trkpt>
   <trkpt lat="50.705690000000004" lon="17.91534">
    <ele>165.06</ele>
   </trkpt>
   <trkpt lat="50.70597" lon="17.91523">
    <ele>165.92000000000002</ele>
   </trkpt>
   <trkpt lat="50.70609" lon="17.91514">
    <ele>165.98000000000002</ele>
   </trkpt>
   <trkpt lat="50.706120000000006" lon="17.91515">
    <ele>165.98000000000002</ele>
   </trkpt>
   <trkpt lat="50.706700000000005" lon="17.914930000000002">
    <ele>162.78</ele>
   </trkpt>
   <trkpt lat="50.70687" lon="17.91489">
    <ele>162.47</ele>
   </trkpt>
   <trkpt lat="50.70696" lon="17.914930000000002">
    <ele>162.41000000000003</ele>
   </trkpt>
   <trkpt lat="50.707533337133135" lon="17.915596650359138">
    <ele>162.53</ele>
   </trkpt>
   <trkpt lat="50.70810667046458" lon="17.91626331702333">
    <ele>162.96</ele>
   </trkpt>
   <trkpt lat="50.70868" lon="17.91693">
    <ele>163.13000000000002</ele>
   </trkpt>
   <trkpt lat="50.709150001138724" lon="17.917434994988714">
    <ele>162.68</ele>
   </trkpt>
   <trkpt lat="50.70962" lon="17.91794">
    <ele>162.5</ele>
   </trkpt>
   <trkpt lat="50.71034" lon="17.918570000000003">
    <ele>162.14000000000001</ele>
   </trkpt>
   <trkpt lat="50.710760000497125" lon="17.918889997178066">
    <ele>160.54000000000002</ele>
   </trkpt>
   <trkpt lat="50.711180000000006" lon="17.919210000000003">
    <ele>159.38000000000002</ele>
   </trkpt>
   <trkpt lat="50.711740000000006" lon="17.919590000000003">
    <ele>155.89</ele>
   </trkpt>
   <trkpt lat="50.71221500028454" lon="17.919884996956267">
    <ele>153.86</ele>
   </trkpt>
   <trkpt lat="50.71269" lon="17.920180000000002">
    <ele>152.76</ele>
   </trkpt>
   <trkpt lat="50.712720000000004" lon="17.9201">
    <ele>152.75000000000003</ele>
   </trkpt>
   <trkpt lat="50.713350000000005" lon="17.92047">
    <ele>152.42</ele>
   </trkpt>
   <trkpt lat="50.714000000000006" lon="17.920820000000003">
    <ele>151.44000000000003</ele>
   </trkpt>
   <trkpt lat="50.714150000000004" lon="17.92085">
    <ele>151.44000000000003</ele>
   </trkpt>
   <trkpt lat="50.71472000000001" lon="17.92087">
    <ele>150.93</ele>
   </trkpt>
   <trkpt lat="50.714920000000006" lon="17.921210000000002">
    <ele>150.82</ele>
   </trkpt>
   <trkpt lat="50.71493" lon="17.921570000000003">
    <ele>151.02</ele>
   </trkpt>
   <trkpt lat="50.714940000000006" lon="17.921650000000003">
    <ele>151.02</ele>
   </trkpt>
   <trkpt lat="50.714980000000004" lon="17.92171">
    <ele>151.15</ele>
   </trkpt>
   <trkpt lat="50.71563000093949" lon="17.922189993309406">
    <ele>151.02</ele>
   </trkpt>
   <trkpt lat="50.716280000000005" lon="17.92267">
    <ele>150.85000000000002</ele>
   </trkpt>
   <trkpt lat="50.71629" lon="17.92275">
    <ele>151.01</ele>
   </trkpt>
   <trkpt lat="50.71627" lon="17.92286">
    <ele>151.04</ele>
   </trkpt>
   <trkpt lat="50.716060000000006" lon="17.923160000000003">
    <ele>150.91000000000003</ele>
   </trkpt>
   <trkpt lat="50.71585" lon="17.923640000000002">
    <ele>151.02</ele>
   </trkpt>
   <trkpt lat="50.71584000000001" lon="17.92378">
    <ele>151.03000000000003</ele>
   </trkpt>
   <trkpt lat="50.715860000000006" lon="17.92399">
    <ele>151.15</ele>
   </trkpt>
   <trkpt lat="50.716330000000006" lon="17.924470000000003">
    <ele>150.8</ele>
   </trkpt>
   <trkpt lat="50.71697" lon="17.92479">
    <ele>150.81</ele>
   </trkpt>
   <trkpt lat="50.717470000000006" lon="17.92492">
    <ele>151.29</ele>
   </trkpt>
   <trkpt lat="50.71766" lon="17.92509">
    <ele>151.29</ele>
   </trkpt>
   <trkpt lat="50.7177" lon="17.925150000000002">
    <ele>151.29</ele>
   </trkpt>
   <trkpt lat="50.717710000000004" lon="17.925220000000003">
    <ele>151.3</ele>
   </trkpt>
   <trkpt lat="50.717650000000006" lon="17.92633">
    <ele>151.47000000000003</ele>
   </trkpt>
   <trkpt lat="50.71766" lon="17.92678">
    <ele>151.44000000000003</ele>
   </trkpt>
   <trkpt lat="50.717690000000005" lon="17.92708">
    <ele>151.16000000000003</ele>
   </trkpt>
   <trkpt lat="50.71772000000001" lon="17.927690000000002">
    <ele>151.19000000000003</ele>
   </trkpt>
   <trkpt lat="50.71772000000001" lon="17.92876">
    <ele>151.79</ele>
   </trkpt>
   <trkpt lat="50.717870000000005" lon="17.928790000000003">
    <ele>151.81</ele>
   </trkpt>
   <trkpt lat="50.717940000000006" lon="17.928900000000002">
    <ele>151.81</ele>
   </trkpt>
   <trkpt lat="50.718410000000006" lon="17.930100000000003">
    <ele>151.59</ele>
   </trkpt>
   <trkpt lat="50.71889" lon="17.93122">
    <ele>151.74</ele>
   </trkpt>
   <trkpt lat="50.71893000000001" lon="17.931430000000002">
    <ele>151.61</ele>
   </trkpt>
   <trkpt lat="50.718990000000005" lon="17.93194">
    <ele>151.67</ele>
   </trkpt>
   <trkpt lat="50.71905" lon="17.932170000000003">
    <ele>151.9</ele>
   </trkpt>
   <trkpt lat="50.719150000000006" lon="17.93239">
    <ele>151.9</ele>
   </trkpt>
   <trkpt lat="50.71969000000001" lon="17.93298">
    <ele>152.56</ele>
   </trkpt>
   <trkpt lat="50.720200000000006" lon="17.933480000000003">
    <ele>152.46</ele>
   </trkpt>
   <trkpt lat="50.720490000000005" lon="17.93383">
    <ele>152.50000000000003</ele>
   </trkpt>
   <trkpt lat="50.72068" lon="17.93411">
    <ele>152.69000000000003</ele>
   </trkpt>
   <trkpt lat="50.72091" lon="17.934600000000003">
    <ele>152.7</ele>
   </trkpt>
   <trkpt lat="50.72135" lon="17.935460000000003">
    <ele>152.68</ele>
   </trkpt>
   <trkpt lat="50.72167000113269" lon="17.93597499648063">
    <ele>153.08</ele>
   </trkpt>
   <trkpt lat="50.721990000000005" lon="17.936490000000003">
    <ele>152.96</ele>
   </trkpt>
   <trkpt lat="50.72216" lon="17.93684">
    <ele>153.10000000000002</ele>
   </trkpt>
   <trkpt lat="50.722620005373976" lon="17.937959989028204">
    <ele>153.21</ele>
   </trkpt>
   <trkpt lat="50.72308" lon="17.93908">
    <ele>153.29000000000002</ele>
   </trkpt>
   <trkpt lat="50.723330000000004" lon="17.93982">
    <ele>153.42</ele>
   </trkpt>
   <trkpt lat="50.72359" lon="17.94084">
    <ele>153.52</ele>
   </trkpt>
   <trkpt lat="50.72373000297877" lon="17.94167499748767">
    <ele>153.84</ele>
   </trkpt>
   <trkpt lat="50.723870000000005" lon="17.942510000000002">
    <ele>153.63000000000002</ele>
   </trkpt>
   <trkpt lat="50.72410202017355" lon="17.943595978485913">
    <ele>153.77</ele>
   </trkpt>
   <trkpt lat="50.724334030259975" lon="17.94468196772672">
    <ele>153.29000000000002</ele>
   </trkpt>
   <trkpt lat="50.72456603025913" lon="17.945767967722148">
    <ele>153.38000000000002</ele>
   </trkpt>
   <trkpt lat="50.72479802017079" lon="17.94685397847193">
    <ele>153.44000000000003</ele>
   </trkpt>
   <trkpt lat="50.725030000000004" lon="17.947940000000003">
    <ele>153.8</ele>
   </trkpt>
   <trkpt lat="50.7252800185585" lon="17.949142480785678">
    <ele>154.15</ele>
   </trkpt>
   <trkpt lat="50.725530024749645" lon="17.95034497440431">
    <ele>154.29000000000002</ele>
   </trkpt>
   <trkpt lat="50.72578001857318" lon="17.951547480855513">
    <ele>154.45</ele>
   </trkpt>
   <trkpt lat="50.72603" lon="17.95275">
    <ele>154.83</ele>
   </trkpt>
   <trkpt lat="50.72605" lon="17.952900000000003">
    <ele>155.05</ele>
   </trkpt>
   <trkpt lat="50.726040000000005" lon="17.95305">
    <ele>155.17</ele>
   </trkpt>
   <trkpt lat="50.726620002404" lon="17.953784991019884">
    <ele>155.38000000000002</ele>
   </trkpt>
   <trkpt lat="50.7272" lon="17.954520000000002">
    <ele>155.33</ele>
   </trkpt>
   <trkpt lat="50.72733" lon="17.95477">
    <ele>155.33</ele>
   </trkpt>
   <trkpt lat="50.72766000000001" lon="17.95588">
    <ele>155.34</ele>
   </trkpt>
   <trkpt lat="50.727940002074405" lon="17.95657999576382">
    <ele>155.45</ele>
   </trkpt>
   <trkpt lat="50.72822000000001" lon="17.95728">
    <ele>155.38000000000002</ele>
   </trkpt>
   <trkpt lat="50.72849" lon="17.95783">
    <ele>155.51000000000002</ele>
   </trkpt>
   <trkpt lat="50.72869000000001" lon="17.95815">
    <ele>155.69000000000003</ele>
   </trkpt>
   <trkpt lat="50.72883" lon="17.95834">
    <ele>155.75</ele>
   </trkpt>
   <trkpt lat="50.728950000000005" lon="17.95841">
    <ele>155.75</ele>
   </trkpt>
   <trkpt lat="50.729000000000006" lon="17.95843">
    <ele>155.75</ele>
   </trkpt>
   <trkpt lat="50.72943" lon="17.958470000000002">
    <ele>155.47000000000003</ele>
   </trkpt>
   <trkpt lat="50.729510000000005" lon="17.958470000000002">
    <ele>155.51000000000002</ele>
   </trkpt>
   <trkpt lat="50.72959" lon="17.95842">
    <ele>155.51000000000002</ele>
   </trkpt>
   <trkpt lat="50.72963000000001" lon="17.9585">
    <ele>155.62</ele>
   </trkpt>
   <trkpt lat="50.72966" lon="17.95842">
    <ele>155.62</ele>
   </trkpt>
   <trkpt lat="50.72964" lon="17.957990000000002">
    <ele>154.98</ele>
   </trkpt>
   <trkpt lat="50.729690000000005" lon="17.95776">
    <ele>154.78</ele>
   </trkpt>
   <trkpt lat="50.72986" lon="17.95739">
    <ele>154.73</ele>
   </trkpt>
   <trkpt lat="50.73002" lon="17.9572">
    <ele>154.89</ele>
   </trkpt>
   <trkpt lat="50.73012000000001" lon="17.957150000000002">
    <ele>154.89</ele>
   </trkpt>
   <trkpt lat="50.730700000000006" lon="17.95719">
    <ele>155.43</ele>
   </trkpt>
   <trkpt lat="50.730990000000006" lon="17.95712">
    <ele>156.38000000000002</ele>
   </trkpt>
   <trkpt lat="50.731590000000004" lon="17.95717">
    <ele>156.43</ele>
   </trkpt>
   <trkpt lat="50.731750000000005" lon="17.95729">
    <ele>156.04000000000002</ele>
   </trkpt>
   <trkpt lat="50.731930000000006" lon="17.957310000000003">
    <ele>155.16000000000003</ele>
   </trkpt>
   <trkpt lat="50.73208" lon="17.95736">
    <ele>154.66000000000003</ele>
   </trkpt>
   <trkpt lat="50.73241" lon="17.95758">
    <ele>154.41000000000003</ele>
   </trkpt>
   <trkpt lat="50.73297000088461" lon="17.95805499425318">
    <ele>155.05</ele>
   </trkpt>
   <trkpt lat="50.73353" lon="17.958530000000003">
    <ele>154.49</ele>
   </trkpt>
   <trkpt lat="50.733720000000005" lon="17.958660000000002">
    <ele>154.72000000000003</ele>
   </trkpt>
   <trkpt lat="50.73404000000001" lon="17.95881">
    <ele>154.69000000000003</ele>
   </trkpt>
   <trkpt lat="50.73425" lon="17.958840000000002">
    <ele>154.45</ele>
   </trkpt>
   <trkpt lat="50.735040000000005" lon="17.95889">
    <ele>155.44000000000003</ele>
   </trkpt>
   <trkpt lat="50.735240000000005" lon="17.958840000000002">
    <ele>155.63000000000002</ele>
   </trkpt>
   <trkpt lat="50.73557" lon="17.95887">
    <ele>155.74</ele>
   </trkpt>
   <trkpt lat="50.73579" lon="17.958910000000003">
    <ele>155.91000000000003</ele>
   </trkpt>
   <trkpt lat="50.73595" lon="17.95897">
    <ele>155.91000000000003</ele>
   </trkpt>
   <trkpt lat="50.73630000000001" lon="17.95918">
    <ele>155.97000000000003</ele>
   </trkpt>
   <trkpt lat="50.736810000000006" lon="17.95953">
    <ele>156.02</ele>
   </trkpt>
   <trkpt lat="50.73738" lon="17.96003">
    <ele>156.21</ele>
   </trkpt>
   <trkpt lat="50.738027504627006" lon="17.960629975121563">
    <ele>156.3</ele>
   </trkpt>
   <trkpt lat="50.7386750061754" lon="17.961229966833756">
    <ele>156.42</ele>
   </trkpt>
   <trkpt lat="50.739322504645024" lon="17.961829975137345">
    <ele>156.38000000000002</ele>
   </trkpt>
   <trkpt lat="50.73997000000001" lon="17.96243">
    <ele>156.37</ele>
   </trkpt>
   <trkpt lat="50.74035500063353" lon="17.962834996598943">
    <ele>156.16000000000003</ele>
   </trkpt>
   <trkpt lat="50.74074" lon="17.963240000000003">
    <ele>156.03</ele>
   </trkpt>
   <trkpt lat="50.74092" lon="17.96339">
    <ele>156.03</ele>
   </trkpt>
   <trkpt lat="50.74112" lon="17.963520000000003">
    <ele>156.08</ele>
   </trkpt>
   <trkpt lat="50.74134" lon="17.963630000000002">
    <ele>156.18</ele>
   </trkpt>
   <trkpt lat="50.74137" lon="17.96356">
    <ele>156.18</ele>
   </trkpt>
   <trkpt lat="50.74206" lon="17.96375">
    <ele>156.23000000000002</ele>
   </trkpt>
   <trkpt lat="50.74217" lon="17.963810000000002">
    <ele>156.23000000000002</ele>
   </trkpt>
   <trkpt lat="50.742250000000006" lon="17.963880000000003">
    <ele>156.46</ele>
   </trkpt>
   <trkpt lat="50.742340000000006" lon="17.963980000000003">
    <ele>156.46</ele>
   </trkpt>
   <trkpt lat="50.74264500140371" lon="17.964554996235776">
    <ele>156.60999999999999</ele>
   </trkpt>
   <trkpt lat="50.74295000000001" lon="17.965130000000002">
    <ele>156.93</ele>
   </trkpt>
   <trkpt lat="50.743030000000005" lon="17.965230000000002">
    <ele>156.93</ele>
   </trkpt>
   <trkpt lat="50.743120000000005" lon="17.965290000000003">
    <ele>156.95000000000002</ele>
   </trkpt>
   <trkpt lat="50.743120000000005" lon="17.965410000000002">
    <ele>156.95000000000002</ele>
   </trkpt>
   <trkpt lat="50.74335000000001" lon="17.966340000000002">
    <ele>157.33</ele>
   </trkpt>
   <trkpt lat="50.74345000200238" lon="17.96703499807786">
    <ele>157.70000000000002</ele>
   </trkpt>
   <trkpt lat="50.743550000000006" lon="17.967730000000003">
    <ele>157.71</ele>
   </trkpt>
   <trkpt lat="50.743625003042744" lon="17.968569998941796">
    <ele>157.78</ele>
   </trkpt>
   <trkpt lat="50.743700000000004" lon="17.96941">
    <ele>157.69000000000003</ele>
   </trkpt>
   <trkpt lat="50.74381" lon="17.96986">
    <ele>157.71</ele>
   </trkpt>
   <trkpt lat="50.74389000000001" lon="17.97007">
    <ele>157.8</ele>
   </trkpt>
   <trkpt lat="50.74403" lon="17.97031">
    <ele>157.84</ele>
   </trkpt>
   <trkpt lat="50.7443" lon="17.970660000000002">
    <ele>157.91000000000003</ele>
   </trkpt>
   <trkpt lat="50.74472" lon="17.97115">
    <ele>158.02</ele>
   </trkpt>
   <trkpt lat="50.744960000000006" lon="17.97147">
    <ele>158.52</ele>
   </trkpt>
   <trkpt lat="50.745020000000004" lon="17.97173">
    <ele>158.52</ele>
   </trkpt>
   <trkpt lat="50.745140000000006" lon="17.97279">
    <ele>158.34</ele>
   </trkpt>
   <trkpt lat="50.745140000000006" lon="17.97312">
    <ele>157.55</ele>
   </trkpt>
   <trkpt lat="50.74512000000001" lon="17.973280000000003">
    <ele>157.33</ele>
   </trkpt>
   <trkpt lat="50.74503000000001" lon="17.97359">
    <ele>157.20000000000002</ele>
   </trkpt>
   <trkpt lat="50.7449" lon="17.97387">
    <ele>157.15</ele>
   </trkpt>
   <trkpt lat="50.74425500021335" lon="17.974095003100583">
    <ele>157.57000000000002</ele>
   </trkpt>
   <trkpt lat="50.743610000000004" lon="17.974320000000002">
    <ele>158.23000000000002</ele>
   </trkpt>
   <trkpt lat="50.74322" lon="17.97443">
    <ele>158.16000000000003</ele>
   </trkpt>
   <trkpt lat="50.74289" lon="17.97456">
    <ele>157.17</ele>
   </trkpt>
   <trkpt lat="50.74264" lon="17.974780000000003">
    <ele>156.75</ele>
   </trkpt>
   <trkpt lat="50.742650000000005" lon="17.974970000000003">
    <ele>156.74</ele>
   </trkpt>
   <trkpt lat="50.74271" lon="17.975270000000002">
    <ele>156.74</ele>
   </trkpt>
   <trkpt lat="50.742850000000004" lon="17.97566">
    <ele>156.87</ele>
   </trkpt>
   <trkpt lat="50.742940000000004" lon="17.97635">
    <ele>157.02</ele>
   </trkpt>
   <trkpt lat="50.74293" lon="17.976560000000003">
    <ele>156.81</ele>
   </trkpt>
   <trkpt lat="50.74248000000001" lon="17.97678">
    <ele>157.18</ele>
   </trkpt>
   <trkpt lat="50.742160000000005" lon="17.97767">
    <ele>157.24</ele>
   </trkpt>
   <trkpt lat="50.742140000000006" lon="17.9779">
    <ele>157.41000000000003</ele>
   </trkpt>
   <trkpt lat="50.742180000000005" lon="17.977990000000002">
    <ele>157.41000000000003</ele>
   </trkpt>
   <trkpt lat="50.742250000000006" lon="17.978060000000003">
    <ele>157.41000000000003</ele>
   </trkpt>
   <trkpt lat="50.74251" lon="17.97821">
    <ele>157.64</ele>
   </trkpt>
   <trkpt lat="50.742540000000005" lon="17.97829">
    <ele>157.64</ele>
   </trkpt>
   <trkpt lat="50.742540000000005" lon="17.9784">
    <ele>157.68</ele>
   </trkpt>
   <trkpt lat="50.74242" lon="17.979180000000003">
    <ele>157.97</ele>
   </trkpt>
   <trkpt lat="50.74233" lon="17.980020000000003">
    <ele>159.45000000000002</ele>
   </trkpt>
   <trkpt lat="50.74211000464519" lon="17.981060004790244">
    <ele>158.65</ele>
   </trkpt>
   <trkpt lat="50.741890000000005" lon="17.982100000000003">
    <ele>159.45000000000002</ele>
   </trkpt>
   <trkpt lat="50.7419" lon="17.982190000000003">
    <ele>159.52</ele>
   </trkpt>
   <trkpt lat="50.74194000000001" lon="17.98226">
    <ele>159.52</ele>
   </trkpt>
   <trkpt lat="50.74231" lon="17.982560000000003">
    <ele>159.35999999999999</ele>
   </trkpt>
   <trkpt lat="50.74235" lon="17.982650000000003">
    <ele>159.35999999999999</ele>
   </trkpt>
   <trkpt lat="50.742340000000006" lon="17.982750000000003">
    <ele>159.35999999999999</ele>
   </trkpt>
   <trkpt lat="50.74219" lon="17.982950000000002">
    <ele>158.57000000000002</ele>
   </trkpt>
   <trkpt lat="50.74212000000001" lon="17.98309">
    <ele>158.46</ele>
   </trkpt>
   <trkpt lat="50.74195" lon="17.983890000000002">
    <ele>158.74</ele>
   </trkpt>
   <trkpt lat="50.74185000000001" lon="17.98424">
    <ele>158.64</ele>
   </trkpt>
   <trkpt lat="50.741510000000005" lon="17.98505">
    <ele>158.62</ele>
   </trkpt>
   <trkpt lat="50.741420000000005" lon="17.98535">
    <ele>158.88000000000002</ele>
   </trkpt>
   <trkpt lat="50.741310000000006" lon="17.9859">
    <ele>158.65</ele>
   </trkpt>
   <trkpt lat="50.74123000283962" lon="17.986710001038052">
    <ele>158.42000000000002</ele>
   </trkpt>
   <trkpt lat="50.741150000000005" lon="17.98752">
    <ele>158.94000000000003</ele>
   </trkpt>
   <trkpt lat="50.74160500012577" lon="17.98768999834898">
    <ele>158.59</ele>
   </trkpt>
   <trkpt lat="50.74206" lon="17.98786">
    <ele>158.82000000000002</ele>
   </trkpt>
   <trkpt lat="50.742160000000005" lon="17.987920000000003">
    <ele>158.83</ele>
   </trkpt>
   <trkpt lat="50.74222" lon="17.98804">
    <ele>158.78</ele>
   </trkpt>
   <trkpt lat="50.74226" lon="17.98883">
    <ele>158.45000000000002</ele>
   </trkpt>
   <trkpt lat="50.74235" lon="17.98949">
    <ele>158.70000000000002</ele>
   </trkpt>
   <trkpt lat="50.74250000000001" lon="17.99004">
    <ele>159.0</ele>
   </trkpt>
   <trkpt lat="50.74266" lon="17.991100000000003">
    <ele>159.45000000000002</ele>
   </trkpt>
   <trkpt lat="50.74273" lon="17.991410000000002">
    <ele>159.65</ele>
   </trkpt>
   <trkpt lat="50.74286000000001" lon="17.99189">
    <ele>159.81</ele>
   </trkpt>
   <trkpt lat="50.74288000000001" lon="17.992140000000003">
    <ele>159.71</ele>
   </trkpt>
   <trkpt lat="50.74287" lon="17.99229">
    <ele>159.71</ele>
   </trkpt>
   <trkpt lat="50.742810000000006" lon="17.992600000000003">
    <ele>159.23000000000002</ele>
   </trkpt>
   <trkpt lat="50.74298" lon="17.99368">
    <ele>158.77</ele>
   </trkpt>
   <trkpt lat="50.743" lon="17.993940000000002">
    <ele>158.77</ele>
   </trkpt>
   <trkpt lat="50.74322" lon="17.994120000000002">
    <ele>158.43</ele>
   </trkpt>
   <trkpt lat="50.74336" lon="17.99443">
    <ele>158.34</ele>
   </trkpt>
   <trkpt lat="50.74362000000001" lon="17.994590000000002">
    <ele>158.42000000000002</ele>
   </trkpt>
   <trkpt lat="50.74363" lon="17.995510000000003">
    <ele>157.78</ele>
   </trkpt>
   <trkpt lat="50.743750000000006" lon="17.996740000000003">
    <ele>157.76000000000002</ele>
   </trkpt>
   <trkpt lat="50.743990000000004" lon="17.996920000000003">
    <ele>157.83</ele>
   </trkpt>
   <trkpt lat="50.74463" lon="17.997480000000003">
    <ele>158.4</ele>
   </trkpt>
   <trkpt lat="50.74499" lon="17.99771">
    <ele>158.84</ele>
   </trkpt>
   <trkpt lat="50.74533" lon="17.997870000000002">
    <ele>159.49</ele>
   </trkpt>
   <trkpt lat="50.745540000000005" lon="17.99801">
    <ele>159.60000000000002</ele>
   </trkpt>
   <trkpt lat="50.74542" lon="17.99839">
    <ele>159.94000000000003</ele>
   </trkpt>
   <trkpt lat="50.74528" lon="17.99904">
    <ele>160.18</ele>
   </trkpt>
   <trkpt lat="50.74506000179338" lon="17.999685002988194">
    <ele>159.79000000000002</ele>
   </trkpt>
   <trkpt lat="50.74484" lon="18.00033">
    <ele>158.69000000000003</ele>
   </trkpt>
   <trkpt lat="50.74463" lon="18.00084">
    <ele>159.56</ele>
   </trkpt>
   <trkpt lat="50.74438000000001" lon="18.00112">
    <ele>159.34</ele>
   </trkpt>
   <trkpt lat="50.74412" lon="18.00176">
    <ele>159.67000000000002</ele>
   </trkpt>
   <trkpt lat="50.743840000000006" lon="18.002360000000003">
    <ele>159.95000000000002</ele>
   </trkpt>
   <trkpt lat="50.74372" lon="18.00277">
    <ele>159.69000000000003</ele>
   </trkpt>
   <trkpt lat="50.7434" lon="18.003400000000003">
    <ele>159.42000000000002</ele>
   </trkpt>
   <trkpt lat="50.74329" lon="18.003690000000002">
    <ele>159.53</ele>
   </trkpt>
   <trkpt lat="50.743230000000004" lon="18.00393">
    <ele>159.35000000000002</ele>
   </trkpt>
   <trkpt lat="50.74322" lon="18.004050000000003">
    <ele>159.35000000000002</ele>
   </trkpt>
   <trkpt lat="50.74304000000001" lon="18.00451">
    <ele>159.01000000000002</ele>
   </trkpt>
   <trkpt lat="50.74298" lon="18.004900000000003">
    <ele>159.13000000000002</ele>
   </trkpt>
   <trkpt lat="50.742920000000005" lon="18.005560000000003">
    <ele>159.46</ele>
   </trkpt>
   <trkpt lat="50.742850000000004" lon="18.00591">
    <ele>159.65</ele>
   </trkpt>
   <trkpt lat="50.742740000000005" lon="18.00673">
    <ele>159.66000000000003</ele>
   </trkpt>
   <trkpt lat="50.742580000000004" lon="18.007">
    <ele>160.0</ele>
   </trkpt>
   <trkpt lat="50.742740000000005" lon="18.007910000000003">
    <ele>159.37</ele>
   </trkpt>
   <trkpt lat="50.742810000000006" lon="18.007900000000003">
    <ele>159.07000000000002</ele>
   </trkpt>
   <trkpt lat="50.74297000000001" lon="18.00797">
    <ele>158.82000000000002</ele>
   </trkpt>
   <trkpt lat="50.74307" lon="18.008740000000003">
    <ele>159.04000000000002</ele>
   </trkpt>
   <trkpt lat="50.743320000000004" lon="18.00955">
    <ele>159.70000000000002</ele>
   </trkpt>
   <trkpt lat="50.743550000000006" lon="18.009990000000002">
    <ele>159.89000000000001</ele>
   </trkpt>
   <trkpt lat="50.743770000000005" lon="18.01033">
    <ele>160.03</ele>
   </trkpt>
   <trkpt lat="50.74380000000001" lon="18.01041">
    <ele>160.28</ele>
   </trkpt>
   <trkpt lat="50.74378" lon="18.010620000000003">
    <ele>160.28</ele>
   </trkpt>
   <trkpt lat="50.74372" lon="18.01085">
    <ele>160.3</ele>
   </trkpt>
   <trkpt lat="50.74376" lon="18.011010000000002">
    <ele>160.3</ele>
   </trkpt>
   <trkpt lat="50.7440250020603" lon="18.01169999615871">
    <ele>159.89000000000001</ele>
   </trkpt>
   <trkpt lat="50.74429000000001" lon="18.01239">
    <ele>160.18</ele>
   </trkpt>
   <trkpt lat="50.744675003666025" lon="18.013309992547192">
    <ele>160.32999999999998</ele>
   </trkpt>
   <trkpt lat="50.74506" lon="18.01423">
    <ele>160.53</ele>
   </trkpt>
   <trkpt lat="50.74519" lon="18.01441">
    <ele>160.42000000000002</ele>
   </trkpt>
   <trkpt lat="50.745540000000005" lon="18.01479">
    <ele>160.01000000000002</ele>
   </trkpt>
   <trkpt lat="50.74559000000001" lon="18.01491">
    <ele>160.01000000000002</ele>
   </trkpt>
   <trkpt lat="50.74555" lon="18.015810000000002">
    <ele>160.32999999999998</ele>
   </trkpt>
   <trkpt lat="50.745540000000005" lon="18.01582">
    <ele>160.32999999999998</ele>
   </trkpt>
   <trkpt lat="50.74553" lon="18.01594">
    <ele>160.32999999999998</ele>
   </trkpt>
   <trkpt lat="50.745180000000005" lon="18.01716">
    <ele>161.32000000000002</ele>
   </trkpt>
   <trkpt lat="50.74519" lon="18.01734">
    <ele>161.72</ele>
   </trkpt>
   <trkpt lat="50.74512000000001" lon="18.017380000000003">
    <ele>161.65</ele>
   </trkpt>
   <trkpt lat="50.74506" lon="18.017490000000002">
    <ele>161.65</ele>
   </trkpt>
   <trkpt lat="50.74468" lon="18.01854">
    <ele>162.21</ele>
   </trkpt>
   <trkpt lat="50.744600000000005" lon="18.01866">
    <ele>162.25</ele>
   </trkpt>
   <trkpt lat="50.744510000000005" lon="18.01896">
    <ele>161.81</ele>
   </trkpt>
   <trkpt lat="50.74438000000001" lon="18.01921">
    <ele>161.0</ele>
   </trkpt>
   <trkpt lat="50.74423" lon="18.019460000000002">
    <ele>160.88000000000002</ele>
   </trkpt>
   <trkpt lat="50.74372" lon="18.020110000000003">
    <ele>161.11</ele>
   </trkpt>
   <trkpt lat="50.743270001648895" lon="18.020730005951314">
    <ele>160.99</ele>
   </trkpt>
   <trkpt lat="50.74282" lon="18.02135">
    <ele>161.11</ele>
   </trkpt>
   <trkpt lat="50.74275" lon="18.02149">
    <ele>161.13000000000002</ele>
   </trkpt>
   <trkpt lat="50.74273" lon="18.02166">
    <ele>161.10000000000002</ele>
   </trkpt>
   <trkpt lat="50.74279000000001" lon="18.02185">
    <ele>161.05</ele>
   </trkpt>
   <trkpt lat="50.742850000000004" lon="18.021970000000003">
    <ele>160.55</ele>
   </trkpt>
   <trkpt lat="50.7433050020046" lon="18.022664993153636">
    <ele>160.41000000000003</ele>
   </trkpt>
   <trkpt lat="50.74376" lon="18.02336">
    <ele>159.73000000000002</ele>
   </trkpt>
   <trkpt lat="50.74401" lon="18.023780000000002">
    <ele>159.74</ele>
   </trkpt>
   <trkpt lat="50.744080000000004" lon="18.02417">
    <ele>159.69000000000003</ele>
   </trkpt>
   <trkpt lat="50.744110000000006" lon="18.02466">
    <ele>159.64000000000001</ele>
   </trkpt>
   <trkpt lat="50.744080000000004" lon="18.02541">
    <ele>160.05</ele>
   </trkpt>
   <trkpt lat="50.74405" lon="18.025660000000002">
    <ele>160.06</ele>
   </trkpt>
   <trkpt lat="50.743875005783366" lon="18.026825004487417">
    <ele>160.12</ele>
   </trkpt>
   <trkpt lat="50.743700000000004" lon="18.027990000000003">
    <ele>160.26000000000002</ele>
   </trkpt>
   <trkpt lat="50.74353500438129" lon="18.02900000344031">
    <ele>160.14000000000001</ele>
   </trkpt>
   <trkpt lat="50.743370000000006" lon="18.03001">
    <ele>160.17000000000002</ele>
   </trkpt>
   <trkpt lat="50.74327" lon="18.03047">
    <ele>159.85999999999999</ele>
   </trkpt>
   <trkpt lat="50.74302" lon="18.03135">
    <ele>159.70000000000002</ele>
   </trkpt>
   <trkpt lat="50.74268000000001" lon="18.03191">
    <ele>159.85999999999999</ele>
   </trkpt>
   <trkpt lat="50.742220002991125" lon="18.032750008299363">
    <ele>159.97</ele>
   </trkpt>
   <trkpt lat="50.741760000000006" lon="18.03359">
    <ele>160.21</ele>
   </trkpt>
   <trkpt lat="50.74134" lon="18.034100000000002">
    <ele>159.68</ele>
   </trkpt>
   <trkpt lat="50.740730000000006" lon="18.034940000000002">
    <ele>160.06</ele>
   </trkpt>
   <trkpt lat="50.740460000000006" lon="18.03574">
    <ele>159.88000000000002</ele>
   </trkpt>
   <trkpt lat="50.74026500252693" lon="18.03651500339151">
    <ele>159.96</ele>
   </trkpt>
   <trkpt lat="50.74007" lon="18.037290000000002">
    <ele>160.29000000000002</ele>
   </trkpt>
   <trkpt lat="50.74006000000001" lon="18.03769">
    <ele>160.49</ele>
   </trkpt>
   <trkpt lat="50.740120000000005" lon="18.03798">
    <ele>160.51000000000002</ele>
   </trkpt>
   <trkpt lat="50.74045" lon="18.039">
    <ele>160.54000000000002</ele>
   </trkpt>
   <trkpt lat="50.74043" lon="18.03942">
    <ele>161.03</ele>
   </trkpt>
   <trkpt lat="50.74034" lon="18.039900000000003">
    <ele>161.20000000000002</ele>
   </trkpt>
   <trkpt lat="50.74006000000001" lon="18.040560000000003">
    <ele>161.87</ele>
   </trkpt>
   <trkpt lat="50.73987" lon="18.040950000000002">
    <ele>162.25</ele>
   </trkpt>
   <trkpt lat="50.73982" lon="18.0412">
    <ele>162.54999999999998</ele>
   </trkpt>
   <trkpt lat="50.739760000000004" lon="18.042430000000003">
    <ele>162.20000000000002</ele>
   </trkpt>
   <trkpt lat="50.73968000808996" lon="18.043805002253226">
    <ele>162.69</ele>
   </trkpt>
   <trkpt lat="50.7396" lon="18.045180000000002">
    <ele>162.99</ele>
   </trkpt>
   <trkpt lat="50.73952500518801" lon="18.046280001556486">
    <ele>163.45000000000002</ele>
   </trkpt>
   <trkpt lat="50.739450000000005" lon="18.04738">
    <ele>163.64000000000001</ele>
   </trkpt>
   <trkpt lat="50.73939000000001" lon="18.04783">
    <ele>163.87</ele>
   </trkpt>
   <trkpt lat="50.73893" lon="18.04791">
    <ele>164.55</ele>
   </trkpt>
   <trkpt lat="50.739110000000004" lon="18.048750000000002">
    <ele>164.41</ele>
   </trkpt>
   <trkpt lat="50.739200004032575" lon="18.04971999823532">
    <ele>164.58</ele>
   </trkpt>
   <trkpt lat="50.739290000000004" lon="18.050690000000003">
    <ele>164.62</ele>
   </trkpt>
   <trkpt lat="50.73937" lon="18.05143">
    <ele>164.58</ele>
   </trkpt>
   <trkpt lat="50.73948000000001" lon="18.05223">
    <ele>164.04000000000002</ele>
   </trkpt>
   <trkpt lat="50.73949" lon="18.05255">
    <ele>164.04000000000002</ele>
   </trkpt>
   <trkpt lat="50.739460016744104" lon="18.053692502217043">
    <ele>164.19</ele>
   </trkpt>
   <trkpt lat="50.73943002232508" lon="18.054835002970833">
    <ele>164.26000000000002</ele>
   </trkpt>
   <trkpt lat="50.739400016742955" lon="18.055977502260824">
    <ele>164.32000000000002</ele>
   </trkpt>
   <trkpt lat="50.73937" lon="18.05712">
    <ele>164.26000000000002</ele>
   </trkpt>
   <trkpt lat="50.73932334558192" lon="18.05831666900364">
    <ele>164.12</ele>
   </trkpt>
   <trkpt lat="50.7392766789171" lon="18.059513335622626">
    <ele>164.14000000000001</ele>
   </trkpt>
   <trkpt lat="50.739230000000006" lon="18.06071">
    <ele>164.53</ele>
   </trkpt>
   <trkpt lat="50.739215002345084" lon="18.06145000006432">
    <ele>164.55</ele>
   </trkpt>
   <trkpt lat="50.739200000000004" lon="18.06219">
    <ele>164.53</ele>
   </trkpt>
   <trkpt lat="50.739230000000006" lon="18.062920000000002">
    <ele>165.0</ele>
   </trkpt>
   <trkpt lat="50.73921000000001" lon="18.063360000000003">
    <ele>165.04000000000002</ele>
   </trkpt>
   <trkpt lat="50.73910000000001" lon="18.06433">
    <ele>165.17000000000002</ele>
   </trkpt>
   <trkpt lat="50.73904" lon="18.06447">
    <ele>165.27</ele>
   </trkpt>
   <trkpt lat="50.73894000000001" lon="18.064500000000002">
    <ele>165.27</ele>
   </trkpt>
   <trkpt lat="50.73912000000001" lon="18.064690000000002">
    <ele>165.43</ele>
   </trkpt>
   <trkpt lat="50.739160000000005" lon="18.06481">
    <ele>165.43</ele>
   </trkpt>
   <trkpt lat="50.739315006740014" lon="18.066064995887515">
    <ele>165.42000000000002</ele>
   </trkpt>
   <trkpt lat="50.739470000000004" lon="18.067320000000002">
    <ele>165.71</ele>
   </trkpt>
   <trkpt lat="50.73951" lon="18.06791">
    <ele>165.83</ele>
   </trkpt>
   <trkpt lat="50.73953" lon="18.06858">
    <ele>166.19</ele>
   </trkpt>
   <trkpt lat="50.73926334160488" lon="18.069563344524326">
    <ele>165.99</ele>
   </trkpt>
   <trkpt lat="50.73899667494024" lon="18.070546677849986">
    <ele>166.02</ele>
   </trkpt>
   <trkpt lat="50.738730000000004" lon="18.071530000000003">
    <ele>166.43</ele>
   </trkpt>
   <trkpt lat="50.738640000000004" lon="18.0715">
    <ele>166.37</ele>
   </trkpt>
   <trkpt lat="50.73803" lon="18.07132">
    <ele>166.21</ele>
   </trkpt>
   <trkpt lat="50.73812" lon="18.07083">
    <ele>166.27</ele>
   </trkpt>
   <trkpt lat="50.738080000000004" lon="18.070420000000002">
    <ele>166.29000000000002</ele>
   </trkpt>
   <trkpt lat="50.73805" lon="18.07029">
    <ele>166.29000000000002</ele>
   </trkpt>
   <trkpt lat="50.737790000000004" lon="18.06998">
    <ele>165.87</ele>
   </trkpt>
   <trkpt lat="50.73760000000001" lon="18.0697">
    <ele>165.85000000000002</ele>
   </trkpt>
   <trkpt lat="50.73733000000001" lon="18.069390000000002">
    <ele>165.81</ele>
   </trkpt>
   <trkpt lat="50.737210000000005" lon="18.069300000000002">
    <ele>165.78</ele>
   </trkpt>
   <trkpt lat="50.73705" lon="18.06921">
    <ele>165.68</ele>
   </trkpt>
   <trkpt lat="50.73658000014655" lon="18.069069998613756">
    <ele>166.09</ele>
   </trkpt>
   <trkpt lat="50.736110000000004" lon="18.06893">
    <ele>166.45000000000002</ele>
   </trkpt>
   <trkpt lat="50.73583000000001" lon="18.0679">
    <ele>166.24</ele>
   </trkpt>
   <trkpt lat="50.735240000000005" lon="18.067890000000002">
    <ele>166.16</ele>
   </trkpt>
   <trkpt lat="50.73473499984023" lon="18.06794500061181">
    <ele>166.11</ele>
   </trkpt>
   <trkpt lat="50.734230000000004" lon="18.068">
    <ele>166.09</ele>
   </trkpt>
   <trkpt lat="50.73416" lon="18.06809">
    <ele>166.09</ele>
   </trkpt>
   <trkpt lat="50.734120000000004" lon="18.06821">
    <ele>166.09</ele>
   </trkpt>
   <trkpt lat="50.73416" lon="18.06866">
    <ele>166.15</ele>
   </trkpt>
   <trkpt lat="50.734140000000004" lon="18.06877">
    <ele>166.15</ele>
   </trkpt>
   <trkpt lat="50.73411" lon="18.068810000000003">
    <ele>166.15</ele>
   </trkpt>
   <trkpt lat="50.73384" lon="18.06896">
    <ele>166.0</ele>
   </trkpt>
   <trkpt lat="50.733050000000006" lon="18.06931">
    <ele>165.82000000000002</ele>
   </trkpt>
   <trkpt lat="50.732800000000005" lon="18.06941">
    <ele>165.86</ele>
   </trkpt>
   <trkpt lat="50.73272000000001" lon="18.06942">
    <ele>165.86</ele>
   </trkpt>
   <trkpt lat="50.73256000000001" lon="18.0694">
    <ele>165.99</ele>
   </trkpt>
   <trkpt lat="50.73180000000001" lon="18.069190000000003">
    <ele>166.16</ele>
   </trkpt>
   <trkpt lat="50.73133999999777" lon="18.06908999900823">
    <ele>166.23000000000002</ele>
   </trkpt>
   <trkpt lat="50.730880000000006" lon="18.068990000000003">
    <ele>166.13</ele>
   </trkpt>
   <trkpt lat="50.73064" lon="18.06895">
    <ele>165.98000000000002</ele>
   </trkpt>
   <trkpt lat="50.73044" lon="18.06894">
    <ele>165.97</ele>
   </trkpt>
   <trkpt lat="50.73030000000001" lon="18.068910000000002">
    <ele>166.0</ele>
   </trkpt>
   <trkpt lat="50.730140000000006" lon="18.06884">
    <ele>166.13</ele>
   </trkpt>
   <trkpt lat="50.72971000035046" lon="18.068524997054528">
    <ele>166.75</ele>
   </trkpt>
   <trkpt lat="50.72928" lon="18.06821">
    <ele>167.36</ele>
   </trkpt>
   <trkpt lat="50.72905" lon="18.068070000000002">
    <ele>167.56</ele>
   </trkpt>
   <trkpt lat="50.728970000000004" lon="18.06801">
    <ele>167.56</ele>
   </trkpt>
   <trkpt lat="50.7289" lon="18.06793">
    <ele>167.44</ele>
   </trkpt>
   <trkpt lat="50.728860000000005" lon="18.06784">
    <ele>167.44</ele>
   </trkpt>
   <trkpt lat="50.72916000000001" lon="18.06753">
    <ele>167.35000000000002</ele>
   </trkpt>
   <trkpt lat="50.72883" lon="18.066840000000003">
    <ele>167.03</ele>
   </trkpt>
   <trkpt lat="50.728060000000006" lon="18.067420000000002">
    <ele>168.15</ele>
   </trkpt>
   <trkpt lat="50.728060000000006" lon="18.067330000000002">
    <ele>168.15</ele>
   </trkpt>
   <trkpt lat="50.728100000000005" lon="18.06709">
    <ele>168.86</ele>
   </trkpt>
   <trkpt lat="50.728100000000005" lon="18.06661">
    <ele>168.84</ele>
   </trkpt>
   <trkpt lat="50.728010000000005" lon="18.06593">
    <ele>167.61</ele>
   </trkpt>
   <trkpt lat="50.727940000000004" lon="18.064980000000002">
    <ele>166.28</ele>
   </trkpt>
   <trkpt lat="50.72786000000001" lon="18.064770000000003">
    <ele>166.03</ele>
   </trkpt>
   <trkpt lat="50.727810000000005" lon="18.064680000000003">
    <ele>165.96</ele>
   </trkpt>
   <trkpt lat="50.727720000000005" lon="18.06456">
    <ele>165.95000000000002</ele>
   </trkpt>
   <trkpt lat="50.727630000000005" lon="18.064480000000003">
    <ele>165.95000000000002</ele>
   </trkpt>
   <trkpt lat="50.72746" lon="18.06438">
    <ele>165.70000000000002</ele>
   </trkpt>
   <trkpt lat="50.72729" lon="18.06435">
    <ele>165.68</ele>
   </trkpt>
   <trkpt lat="50.72681000000001" lon="18.06437">
    <ele>165.60000000000002</ele>
   </trkpt>
   <trkpt lat="50.726600000000005" lon="18.06429">
    <ele>165.68</ele>
   </trkpt>
   <trkpt lat="50.72632" lon="18.064120000000003">
    <ele>165.94</ele>
   </trkpt>
   <trkpt lat="50.72599" lon="18.06388">
    <ele>165.58</ele>
   </trkpt>
   <trkpt lat="50.725410000000004" lon="18.063260000000003">
    <ele>165.46</ele>
   </trkpt>
   <trkpt lat="50.72498" lon="18.06293">
    <ele>165.36</ele>
   </trkpt>
   <trkpt lat="50.72482" lon="18.06275">
    <ele>165.33</ele>
   </trkpt>
   <trkpt lat="50.7242" lon="18.06183">
    <ele>165.28</ele>
   </trkpt>
   <trkpt lat="50.724030000000006" lon="18.061400000000003">
    <ele>165.8</ele>
   </trkpt>
   <trkpt lat="50.723855001928676" lon="18.060724997402616">
    <ele>166.25</ele>
   </trkpt>
   <trkpt lat="50.72368" lon="18.06005">
    <ele>167.02</ele>
   </trkpt>
   <trkpt lat="50.72361" lon="18.05984">
    <ele>167.16</ele>
   </trkpt>
   <trkpt lat="50.72354000000001" lon="18.059730000000002">
    <ele>167.16</ele>
   </trkpt>
   <trkpt lat="50.723470000000006" lon="18.05966">
    <ele>167.16</ele>
   </trkpt>
   <trkpt lat="50.72332" lon="18.05958">
    <ele>168.04000000000002</ele>
   </trkpt>
   <trkpt lat="50.72247" lon="18.0592">
    <ele>169.45000000000002</ele>
   </trkpt>
   <trkpt lat="50.722390000000004" lon="18.059140000000003">
    <ele>169.86</ele>
   </trkpt>
   <trkpt lat="50.722240000000006" lon="18.058850000000003">
    <ele>170.89000000000001</ele>
   </trkpt>
   <trkpt lat="50.722150000000006" lon="18.058760000000003">
    <ele>171.21</ele>
   </trkpt>
   <trkpt lat="50.722060000000006" lon="18.05873">
    <ele>175.26000000000002</ele>
   </trkpt>
   <trkpt lat="50.721560000000004" lon="18.05875">
    <ele>172.09</ele>
   </trkpt>
   <trkpt lat="50.722060000000006" lon="18.05873">
    <ele>171.53</ele>
   </trkpt>
   <trkpt lat="50.72216" lon="18.058770000000003">
    <ele>170.89000000000001</ele>
   </trkpt>
   <trkpt lat="50.722240000000006" lon="18.058850000000003">
    <ele>170.89000000000001</ele>
   </trkpt>
   <trkpt lat="50.722390000000004" lon="18.059140000000003">
    <ele>169.86</ele>
   </trkpt>
   <trkpt lat="50.72247" lon="18.0592">
    <ele>169.45000000000002</ele>
   </trkpt>
   <trkpt lat="50.72332" lon="18.05958">
    <ele>168.04000000000002</ele>
   </trkpt>
   <trkpt lat="50.723470000000006" lon="18.05966">
    <ele>167.16</ele>
   </trkpt>
   <trkpt lat="50.72354000000001" lon="18.059730000000002">
    <ele>167.16</ele>
   </trkpt>
   <trkpt lat="50.72361" lon="18.05984">
    <ele>167.16</ele>
   </trkpt>
   <trkpt lat="50.72368" lon="18.06005">
    <ele>167.02</ele>
   </trkpt>
   <trkpt lat="50.7238550019683" lon="18.06072499755537">
    <ele>166.25</ele>
   </trkpt>
   <trkpt lat="50.724030000000006" lon="18.061400000000003">
    <ele>165.8</ele>
   </trkpt>
   <trkpt lat="50.7242" lon="18.06183">
    <ele>165.28</ele>
   </trkpt>
   <trkpt lat="50.72482" lon="18.06275">
    <ele>165.35000000000002</ele>
   </trkpt>
   <trkpt lat="50.72498" lon="18.06293">
    <ele>165.35000000000002</ele>
   </trkpt>
   <trkpt lat="50.72482" lon="18.06275">
    <ele>165.36</ele>
   </trkpt>
   <trkpt lat="50.7242" lon="18.06183">
    <ele>165.28</ele>
   </trkpt>
   <trkpt lat="50.724030000000006" lon="18.061400000000003">
    <ele>165.60000000000002</ele>
   </trkpt>
   <trkpt lat="50.723855001928676" lon="18.060724997402616">
    <ele>166.0</ele>
   </trkpt>
   <trkpt lat="50.72368" lon="18.06005">
    <ele>166.70000000000002</ele>
   </trkpt>
   <trkpt lat="50.72361" lon="18.05984">
    <ele>166.70000000000002</ele>
   </trkpt>
   <trkpt lat="50.72354000000001" lon="18.059730000000002">
    <ele>167.01000000000002</ele>
   </trkpt>
   <trkpt lat="50.723470000000006" lon="18.05966">
    <ele>167.01000000000002</ele>
   </trkpt>
   <trkpt lat="50.72332" lon="18.05958">
    <ele>167.19</ele>
   </trkpt>
   <trkpt lat="50.72247" lon="18.0592">
    <ele>168.65</ele>
   </trkpt>
   <trkpt lat="50.722390000000004" lon="18.059140000000003">
    <ele>168.99</ele>
   </trkpt>
   <trkpt lat="50.722240000000006" lon="18.058850000000003">
    <ele>169.70000000000002</ele>
   </trkpt>
   <trkpt lat="50.72216" lon="18.058770000000003">
    <ele>170.42000000000002</ele>
   </trkpt>
   <trkpt lat="50.722060000000006" lon="18.05873">
    <ele>170.42000000000002</ele>
   </trkpt>
   <trkpt lat="50.721352500006844" lon="18.058750000905828">
    <ele>172.47</ele>
   </trkpt>
   <trkpt lat="50.720645000010286" lon="18.058770001207716">
    <ele>174.88</ele>
   </trkpt>
   <trkpt lat="50.719937500010275" lon="18.058790000905695">
    <ele>176.65</ele>
   </trkpt>
   <trkpt lat="50.71923" lon="18.05881">
    <ele>179.14000000000001</ele>
   </trkpt>
   <trkpt lat="50.71860000008091" lon="18.058820000133153">
    <ele>177.55</ele>
   </trkpt>
   <trkpt lat="50.71797" lon="18.05883">
    <ele>175.73000000000002</ele>
   </trkpt>
   <trkpt lat="50.71797" lon="18.05863">
    <ele>175.71</ele>
   </trkpt>
   <trkpt lat="50.71797" lon="18.05862">
    <ele>175.71</ele>
   </trkpt>
   <trkpt lat="50.717966072348005" lon="18.05724899896132">
    <ele>176.21</ele>
   </trkpt>
   <trkpt lat="50.717962128618616" lon="18.0558779981529">
    <ele>176.47</ele>
   </trkpt>
   <trkpt lat="50.71795816881194" lon="18.054506997575697">
    <ele>177.13</ele>
   </trkpt>
   <trkpt lat="50.71795419292793" lon="18.053135997230637">
    <ele>176.87000000000003</ele>
   </trkpt>
   <trkpt lat="50.717950200966584" lon="18.051764997118664">
    <ele>175.59000000000003</ele>
   </trkpt>
   <trkpt lat="50.717946192927926" lon="18.050393997240718">
    <ele>174.74</ele>
   </trkpt>
   <trkpt lat="50.717942168811966" lon="18.049022997597746">
    <ele>173.34000000000003</ele>
   </trkpt>
   <trkpt lat="50.7179381286187" lon="18.047651998190677">
    <ele>175.86</ele>
   </trkpt>
   <trkpt lat="50.71793407234813" lon="18.046280999020464">
    <ele>175.76000000000002</ele>
   </trkpt>
   <trkpt lat="50.71793" lon="18.04491">
    <ele>175.76000000000002</ele>
   </trkpt>
   <trkpt lat="50.71793" lon="18.044900000000002">
    <ele>175.76000000000002</ele>
   </trkpt>
   <trkpt lat="50.71792290214407" lon="18.043575713086174">
    <ele>175.75</ele>
   </trkpt>
   <trkpt lat="50.71791578928773" lon="18.042251426573902">
    <ele>175.48000000000002</ele>
   </trkpt>
   <trkpt lat="50.717908661431" lon="18.04092714046402">
    <ele>175.75</ele>
   </trkpt>
   <trkpt lat="50.71790151857388" lon="18.03960285475738">
    <ele>175.31000000000003</ele>
   </trkpt>
   <trkpt lat="50.7178943607164" lon="18.03827856945484">
    <ele>174.67000000000002</ele>
   </trkpt>
   <trkpt lat="50.717887187858565" lon="18.036954284557233">
    <ele>173.86</ele>
   </trkpt>
   <trkpt lat="50.71788" lon="18.03563">
    <ele>172.54000000000002</ele>
   </trkpt>
   <trkpt lat="50.71788" lon="18.03562">
    <ele>172.54000000000002</ele>
   </trkpt>
   <trkpt lat="50.717870014160724" lon="18.034333332844803">
    <ele>171.32000000000002</ele>
   </trkpt>
   <trkpt lat="50.7178600141612" lon="18.033046666238295">
    <ele>170.35</ele>
   </trkpt>
   <trkpt lat="50.717850000000006" lon="18.031760000000002">
    <ele>168.82000000000002</ele>
   </trkpt>
   <trkpt lat="50.717380000000006" lon="18.03177">
    <ele>168.45000000000002</ele>
   </trkpt>
   <trkpt lat="50.71655000001393" lon="18.031786157278848">
    <ele>167.94</ele>
   </trkpt>
   <trkpt lat="50.715720000025605" lon="18.03180231398544">
    <ele>167.64000000000001</ele>
   </trkpt>
   <trkpt lat="50.71489000003506" lon="18.031818470119816">
    <ele>166.93</ele>
   </trkpt>
   <trkpt lat="50.71406000004228" lon="18.031834625682013">
    <ele>166.77</ele>
   </trkpt>
   <trkpt lat="50.71323000004726" lon="18.03185078067207">
    <ele>166.28</ele>
   </trkpt>
   <trkpt lat="50.71240000005001" lon="18.031866935090022">
    <ele>165.93</ele>
   </trkpt>
   <trkpt lat="50.711570000050536" lon="18.031883088935903">
    <ele>165.97</ele>
   </trkpt>
   <trkpt lat="50.71074000004884" lon="18.031899242209757">
    <ele>165.42000000000002</ele>
   </trkpt>
   <trkpt lat="50.709910000044886" lon="18.031915394911618">
    <ele>165.21</ele>
   </trkpt>
   <trkpt lat="50.709080000038725" lon="18.031931547041523">
    <ele>165.03</ele>
   </trkpt>
   <trkpt lat="50.708250000030304" lon="18.031947698599506">
    <ele>164.63000000000002</ele>
   </trkpt>
   <trkpt lat="50.70742000001968" lon="18.03196384958561">
    <ele>164.38000000000002</ele>
   </trkpt>
   <trkpt lat="50.706590000000006" lon="18.03198">
    <ele>164.63000000000002</ele>
   </trkpt>
   <trkpt lat="50.70658380568159" lon="18.030616248734468">
    <ele>164.44</ele>
   </trkpt>
   <trkpt lat="50.706577595454114" lon="18.02925249782975">
    <ele>164.13000000000002</ele>
   </trkpt>
   <trkpt lat="50.706571369317636" lon="18.027888747286767">
    <ele>164.01000000000002</ele>
   </trkpt>
   <trkpt lat="50.70656512727213" lon="18.02652499710645">
    <ele>163.71</ele>
   </trkpt>
   <trkpt lat="50.70655886931762" lon="18.025161247289716">
    <ele>163.45000000000002</ele>
   </trkpt>
   <trkpt lat="50.70655259545412" lon="18.023797497837496">
    <ele>163.41</ele>
   </trkpt>
   <trkpt lat="50.70654630568163" lon="18.02243374875072">
    <ele>162.87</ele>
   </trkpt>
   <trkpt lat="50.706540000000004" lon="18.02107">
    <ele>162.76000000000002</ele>
   </trkpt>
   <trkpt lat="50.70652668287848" lon="18.01969333255073">
    <ele>162.48000000000002</ele>
   </trkpt>
   <trkpt lat="50.70651334954515" lon="18.018316665883976">
    <ele>162.28</ele>
   </trkpt>
   <trkpt lat="50.706500000000005" lon="18.01694">
    <ele>162.07000000000002</ele>
   </trkpt>
   <trkpt lat="50.706500000000005" lon="18.01584">
    <ele>161.63000000000002</ele>
   </trkpt>
   <trkpt lat="50.70648500266724" lon="18.015049999638958">
    <ele>161.37</ele>
   </trkpt>
   <trkpt lat="50.70647" lon="18.01426">
    <ele>161.25</ele>
   </trkpt>
   <trkpt lat="50.706480000000006" lon="18.01398">
    <ele>161.25</ele>
   </trkpt>
   <trkpt lat="50.70651" lon="18.0138">
    <ele>161.26000000000002</ele>
   </trkpt>
   <trkpt lat="50.70656" lon="18.01368">
    <ele>161.26000000000002</ele>
   </trkpt>
   <trkpt lat="50.7069400007249" lon="18.013250003559776">
    <ele>161.09</ele>
   </trkpt>
   <trkpt lat="50.70732" lon="18.01282">
    <ele>160.94</ele>
   </trkpt>
   <trkpt lat="50.70743" lon="18.01265">
    <ele>160.94</ele>
   </trkpt>
   <trkpt lat="50.70792145977834" lon="18.01154721223025">
    <ele>160.60000000000002</ele>
   </trkpt>
   <trkpt lat="50.708412909153594" lon="18.010444401340067">
    <ele>160.35000000000002</ele>
   </trkpt>
   <trkpt lat="50.70890434812536" lon="18.009341567329038">
    <ele>160.29000000000002</ele>
   </trkpt>
   <trkpt lat="50.70939577669321" lon="18.00823871019677">
    <ele>160.20000000000002</ele>
   </trkpt>
   <trkpt lat="50.70988719485679" lon="18.007135829942865">
    <ele>160.07000000000002</ele>
   </trkpt>
   <trkpt lat="50.710378602615684" lon="18.00603292656692">
    <ele>160.07000000000002</ele>
   </trkpt>
   <trkpt lat="50.71087000000001" lon="18.00493">
    <ele>159.85000000000002</ele>
   </trkpt>
   <trkpt lat="50.71108002252398" lon="18.0036050178188">
    <ele>159.60999999999999</ele>
   </trkpt>
   <trkpt lat="50.71129003003095" lon="18.0022800237655">
    <ele>159.39000000000001</ele>
   </trkpt>
   <trkpt lat="50.711500022520646" lon="18.00095501784076">
    <ele>159.42000000000002</ele>
   </trkpt>
   <trkpt lat="50.711710000000004" lon="17.99963">
    <ele>159.43</ele>
   </trkpt>
   <trkpt lat="50.71183000620782" lon="17.99842500310812">
    <ele>159.16000000000003</ele>
   </trkpt>
   <trkpt lat="50.71195" lon="17.997220000000002">
    <ele>159.24</ele>
   </trkpt>
   <trkpt lat="50.712120000000006" lon="17.99689">
    <ele>159.22</ele>
   </trkpt>
   <trkpt lat="50.71251500161878" lon="17.996270005264133">
    <ele>159.49</ele>
   </trkpt>
   <trkpt lat="50.71291" lon="17.99565">
    <ele>159.9</ele>
   </trkpt>
   <trkpt lat="50.7135" lon="17.994680000000002">
    <ele>159.97</ele>
   </trkpt>
   <trkpt lat="50.71359" lon="17.99454">
    <ele>159.92000000000002</ele>
   </trkpt>
   <trkpt lat="50.713710000000006" lon="17.994120000000002">
    <ele>159.98000000000002</ele>
   </trkpt>
   <trkpt lat="50.71376" lon="17.994030000000002">
    <ele>159.98000000000002</ele>
   </trkpt>
   <trkpt lat="50.713730000000005" lon="17.994010000000003">
    <ele>159.98000000000002</ele>
   </trkpt>
   <trkpt lat="50.713770000000004" lon="17.99387">
    <ele>159.95000000000002</ele>
   </trkpt>
   <trkpt lat="50.71376" lon="17.99381">
    <ele>159.95000000000002</ele>
   </trkpt>
   <trkpt lat="50.71349000000001" lon="17.993370000000002">
    <ele>159.42000000000002</ele>
   </trkpt>
   <trkpt lat="50.713330000000006" lon="17.993170000000003">
    <ele>159.35999999999999</ele>
   </trkpt>
   <trkpt lat="50.713240000000006" lon="17.99303">
    <ele>159.39000000000001</ele>
   </trkpt>
   <trkpt lat="50.71271" lon="17.99198">
    <ele>159.72</ele>
   </trkpt>
   <trkpt lat="50.71215000395895" lon="17.991019988561188">
    <ele>159.67000000000002</ele>
   </trkpt>
   <trkpt lat="50.71159" lon="17.99006">
    <ele>160.19000000000003</ele>
   </trkpt>
   <trkpt lat="50.711490000000005" lon="17.98986">
    <ele>160.22</ele>
   </trkpt>
   <trkpt lat="50.711720001903345" lon="17.9892100029169">
    <ele>158.29000000000002</ele>
   </trkpt>
   <trkpt lat="50.71195" lon="17.988560000000003">
    <ele>158.10999999999999</ele>
   </trkpt>
   <trkpt lat="50.71219000000001" lon="17.98769">
    <ele>158.47</ele>
   </trkpt>
   <trkpt lat="50.71237000257651" lon="17.986915002942723">
    <ele>158.18</ele>
   </trkpt>
   <trkpt lat="50.71255000000001" lon="17.986140000000002">
    <ele>157.94000000000003</ele>
   </trkpt>
   <trkpt lat="50.71258" lon="17.9856">
    <ele>157.77</ele>
   </trkpt>
   <trkpt lat="50.712650000000004" lon="17.98523">
    <ele>157.83</ele>
   </trkpt>
   <trkpt lat="50.71305500480754" lon="17.984170009153097">
    <ele>157.57000000000002</ele>
   </trkpt>
   <trkpt lat="50.713460000000005" lon="17.98311">
    <ele>157.45000000000002</ele>
   </trkpt>
   <trkpt lat="50.713480000000004" lon="17.98297">
    <ele>157.28</ele>
   </trkpt>
   <trkpt lat="50.71347" lon="17.98261">
    <ele>157.28</ele>
   </trkpt>
   <trkpt lat="50.71337406727147" lon="17.981287975631478">
    <ele>157.10000000000002</ele>
   </trkpt>
   <trkpt lat="50.71327811959332" lon="17.979965956674732">
    <ele>157.04000000000002</ele>
   </trkpt>
   <trkpt lat="50.713182156965665" lon="17.978643943130564">
    <ele>157.02</ele>
   </trkpt>
   <trkpt lat="50.71308617938863" lon="17.977321934999775">
    <ele>156.58</ele>
   </trkpt>
   <trkpt lat="50.71299018686235" lon="17.975999932283177">
    <ele>156.44000000000003</ele>
   </trkpt>
   <trkpt lat="50.71289417938689" lon="17.974677934981557">
    <ele>156.42</ele>
   </trkpt>
   <trkpt lat="50.71279815696239" lon="17.973355943095726">
    <ele>156.43</ele>
   </trkpt>
   <trkpt lat="50.71270211958894" lon="17.972033956626486">
    <ele>156.52</ele>
   </trkpt>
   <trkpt lat="50.71260606726667" lon="17.97071197557464">
    <ele>156.45</ele>
   </trkpt>
   <trkpt lat="50.71251" lon="17.96939">
    <ele>155.99</ele>
   </trkpt>
   <trkpt lat="50.71256" lon="17.9688">
    <ele>156.14</ele>
   </trkpt>
   <trkpt lat="50.7126" lon="17.96855">
    <ele>156.14</ele>
   </trkpt>
   <trkpt lat="50.71278500424808" lon="17.967555003852258">
    <ele>156.09</ele>
   </trkpt>
   <trkpt lat="50.712970000000006" lon="17.96656">
    <ele>155.83</ele>
   </trkpt>
   <trkpt lat="50.71319667694542" lon="17.965463343980883">
    <ele>155.9</ele>
   </trkpt>
   <trkpt lat="50.71342334360364" lon="17.96436667735537">
    <ele>155.66000000000003</ele>
   </trkpt>
   <trkpt lat="50.71365" lon="17.96327">
    <ele>155.62</ele>
   </trkpt>
   <trkpt lat="50.713890000000006" lon="17.962040000000002">
    <ele>156.02</ele>
   </trkpt>
   <trkpt lat="50.714000000000006" lon="17.96167">
    <ele>155.95</ele>
   </trkpt>
   <trkpt lat="50.71419500486825" lon="17.96060000460659">
    <ele>155.53</ele>
   </trkpt>
   <trkpt lat="50.71439" lon="17.95953">
    <ele>155.31</ele>
   </trkpt>
   <trkpt lat="50.71465500692954" lon="17.958255007318865">
    <ele>155.16000000000003</ele>
   </trkpt>
   <trkpt lat="50.714920000000006" lon="17.95698">
    <ele>155.29000000000002</ele>
   </trkpt>
   <trkpt lat="50.714920000000006" lon="17.956680000000002">
    <ele>155.29000000000002</ele>
   </trkpt>
   <trkpt lat="50.71488" lon="17.956470000000003">
    <ele>155.15</ele>
   </trkpt>
   <trkpt lat="50.714800000000004" lon="17.95624">
    <ele>155.15</ele>
   </trkpt>
   <trkpt lat="50.71435667274212" lon="17.955399984185735">
    <ele>155.09</ele>
   </trkpt>
   <trkpt lat="50.71391333944867" lon="17.954559984261568">
    <ele>155.21</ele>
   </trkpt>
   <trkpt lat="50.71347" lon="17.95372">
    <ele>155.02</ele>
   </trkpt>
   <trkpt lat="50.7130300096118" lon="17.952854975664117">
    <ele>154.98</ele>
   </trkpt>
   <trkpt lat="50.71259001282327" lon="17.951989967567474">
    <ele>154.77</ele>
   </trkpt>
   <trkpt lat="50.71215000963464" lon="17.951124975709753">
    <ele>154.55</ele>
   </trkpt>
   <trkpt lat="50.711710000000004" lon="17.95026">
    <ele>154.66000000000003</ele>
   </trkpt>
   <trkpt lat="50.7112250112804" lon="17.94932247090794">
    <ele>154.56</ele>
   </trkpt>
   <trkpt lat="50.71074001504247" lon="17.948384961215023">
    <ele>154.53</ele>
   </trkpt>
   <trkpt lat="50.71025501128654" lon="17.947447470920817">
    <ele>154.72000000000003</ele>
   </trkpt>
   <trkpt lat="50.709770000000006" lon="17.94651">
    <ele>154.50000000000003</ele>
   </trkpt>
   <trkpt lat="50.709393340448194" lon="17.945596651940026">
    <ele>154.42</ele>
   </trkpt>
   <trkpt lat="50.70901667376078" lon="17.944683318556635">
    <ele>154.27</ele>
   </trkpt>
   <trkpt lat="50.70864" lon="17.94377">
    <ele>154.34</ele>
   </trkpt>
   <trkpt lat="50.70853" lon="17.943550000000002">
    <ele>154.34</ele>
   </trkpt>
   <trkpt lat="50.708040000000004" lon="17.942800000000002">
    <ele>154.50000000000003</ele>
   </trkpt>
   <trkpt lat="50.707980000000006" lon="17.942670000000003">
    <ele>154.64</ele>
   </trkpt>
   <trkpt lat="50.70799" lon="17.94238">
    <ele>154.61</ele>
   </trkpt>
   <trkpt lat="50.7079" lon="17.94228">
    <ele>154.31</ele>
   </trkpt>
   <trkpt lat="50.70752000156925" lon="17.941674995102336">
    <ele>154.23</ele>
   </trkpt>
   <trkpt lat="50.70714" lon="17.94107">
    <ele>154.15</ele>
   </trkpt>
   <trkpt lat="50.70660500242048" lon="17.940314991360015">
    <ele>154.07000000000002</ele>
   </trkpt>
   <trkpt lat="50.706070000000004" lon="17.93956">
    <ele>154.37</ele>
   </trkpt>
   <trkpt lat="50.705870000000004" lon="17.93917">
    <ele>154.3</ele>
   </trkpt>
   <trkpt lat="50.70559500316" lon="17.938319995230366">
    <ele>154.19000000000003</ele>
   </trkpt>
   <trkpt lat="50.70532000000001" lon="17.93747">
    <ele>154.62</ele>
   </trkpt>
   <trkpt lat="50.70519" lon="17.93718">
    <ele>154.94000000000003</ele>
   </trkpt>
   <trkpt lat="50.704710000000006" lon="17.936420000000002">
    <ele>154.68</ele>
   </trkpt>
   <trkpt lat="50.70456" lon="17.93616">
    <ele>154.63000000000002</ele>
   </trkpt>
   <trkpt lat="50.70420000000001" lon="17.93504">
    <ele>154.78</ele>
   </trkpt>
   <trkpt lat="50.704080000000005" lon="17.93478">
    <ele>154.96</ele>
   </trkpt>
   <trkpt lat="50.7038" lon="17.9343">
    <ele>155.03</ele>
   </trkpt>
   <trkpt lat="50.703700000000005" lon="17.934160000000002">
    <ele>154.99</ele>
   </trkpt>
   <trkpt lat="50.70297000000001" lon="17.933380000000003">
    <ele>155.22000000000003</ele>
   </trkpt>
   <trkpt lat="50.702465001517346" lon="17.93278499359587">
    <ele>155.58</ele>
   </trkpt>
   <trkpt lat="50.70196000000001" lon="17.932190000000002">
    <ele>156.48000000000002</ele>
   </trkpt>
   <trkpt lat="50.701980000000006" lon="17.93212">
    <ele>156.68</ele>
   </trkpt>
   <trkpt lat="50.702110000000005" lon="17.932270000000003">
    <ele>156.45</ele>
   </trkpt>
   <trkpt lat="50.702090000000005" lon="17.93234">
    <ele>156.35000000000002</ele>
   </trkpt>
   <trkpt lat="50.70196000000001" lon="17.932190000000002">
    <ele>156.49</ele>
   </trkpt>
   <trkpt lat="50.701416670759535" lon="17.932880015963786">
    <ele>155.10000000000002</ele>
   </trkpt>
   <trkpt lat="50.70087333744625" lon="17.933570015938088">
    <ele>155.47000000000003</ele>
   </trkpt>
   <trkpt lat="50.70033" lon="17.934260000000002">
    <ele>156.27</ele>
   </trkpt>
   <trkpt lat="50.69999000000001" lon="17.93475">
    <ele>156.54000000000002</ele>
   </trkpt>
   <trkpt lat="50.699870000000004" lon="17.934980000000003">
    <ele>156.81</ele>
   </trkpt>
   <trkpt lat="50.69979000000001" lon="17.935190000000002">
    <ele>156.99</ele>
   </trkpt>
   <trkpt lat="50.699690000000004" lon="17.93569">
    <ele>157.23000000000002</ele>
   </trkpt>
   <trkpt lat="50.699670000000005" lon="17.936130000000002">
    <ele>157.44000000000003</ele>
   </trkpt>
   <trkpt lat="50.69970000000001" lon="17.936600000000002">
    <ele>157.94000000000003</ele>
   </trkpt>
   <trkpt lat="50.69982" lon="17.93778">
    <ele>158.52</ele>
   </trkpt>
   <trkpt lat="50.699830000000006" lon="17.938270000000003">
    <ele>158.99</ele>
   </trkpt>
   <trkpt lat="50.69979000000001" lon="17.938650000000003">
    <ele>159.3</ele>
   </trkpt>
   <trkpt lat="50.699690000000004" lon="17.939030000000002">
    <ele>159.81</ele>
   </trkpt>
   <trkpt lat="50.69957" lon="17.939310000000003">
    <ele>159.93</ele>
   </trkpt>
   <trkpt lat="50.69941000000001" lon="17.939590000000003">
    <ele>160.89000000000001</ele>
   </trkpt>
   <trkpt lat="50.699200000000005" lon="17.93985">
    <ele>161.20000000000002</ele>
   </trkpt>
   <trkpt lat="50.698554298653065" lon="17.94056005865081">
    <ele>164.0</ele>
   </trkpt>
   <trkpt lat="50.69790859299317" lon="17.941270097749552">
    <ele>166.82000000000002</ele>
   </trkpt>
   <trkpt lat="50.69726288302056" lon="17.941980117297085">
    <ele>168.05</ele>
   </trkpt>
   <trkpt lat="50.69661716873542" lon="17.942690117294255">
    <ele>169.33</ele>
   </trkpt>
   <trkpt lat="50.69597145013798" lon="17.943400097741936">
    <ele>169.75</ele>
   </trkpt>
   <trkpt lat="50.695325727228465" lon="17.94411005864097">
    <ele>169.87</ele>
   </trkpt>
   <trkpt lat="50.694680000000005" lon="17.94482">
    <ele>170.22</ele>
   </trkpt>
   <trkpt lat="50.694680000000005" lon="17.944830000000003">
    <ele>170.22</ele>
   </trkpt>
   <trkpt lat="50.6942950006928" lon="17.945245003453596">
    <ele>170.36</ele>
   </trkpt>
   <trkpt lat="50.69391" lon="17.94566">
    <ele>170.53</ele>
   </trkpt>
   <trkpt lat="50.693298007757654" lon="17.94633403519102">
    <ele>170.94</ele>
   </trkpt>
   <trkpt lat="50.692686011628744" lon="17.94700805279413">
    <ele>171.11</ele>
   </trkpt>
   <trkpt lat="50.692074011613435" lon="17.947682052810055">
    <ele>171.17000000000002</ele>
   </trkpt>
   <trkpt lat="50.69146200771191" lon="17.94835603523953">
    <ele>171.44</ele>
   </trkpt>
   <trkpt lat="50.690850000000005" lon="17.94903">
    <ele>171.38</ele>
   </trkpt>
   <trkpt lat="50.69033" lon="17.94961">
    <ele>171.26000000000002</ele>
   </trkpt>
   <trkpt lat="50.69028" lon="17.9497">
    <ele>171.36</ele>
   </trkpt>
   <trkpt lat="50.68981" lon="17.948980000000002">
    <ele>173.34000000000003</ele>
   </trkpt>
   <trkpt lat="50.6897" lon="17.94883">
    <ele>173.73000000000002</ele>
   </trkpt>
   <trkpt lat="50.68958000000001" lon="17.94886">
    <ele>174.32</ele>
   </trkpt>
   <trkpt lat="50.68920000000001" lon="17.94913">
    <ele>173.84000000000003</ele>
   </trkpt>
   <trkpt lat="50.688643335243626" lon="17.94960001113621">
    <ele>173.93</ele>
   </trkpt>
   <trkpt lat="50.68808666859737" lon="17.950070011118804">
    <ele>174.42000000000002</ele>
   </trkpt>
   <trkpt lat="50.68753" lon="17.95054">
    <ele>173.89000000000001</ele>
   </trkpt>
   <trkpt lat="50.687360000000005" lon="17.950570000000003">
    <ele>173.70000000000002</ele>
   </trkpt>
   <trkpt lat="50.68728" lon="17.950570000000003">
    <ele>173.70000000000002</ele>
   </trkpt>
   <trkpt lat="50.68715" lon="17.95054">
    <ele>173.36</ele>
   </trkpt>
   <trkpt lat="50.686980000000005" lon="17.95043">
    <ele>173.36</ele>
   </trkpt>
   <trkpt lat="50.68701" lon="17.95035">
    <ele>173.5</ele>
   </trkpt>
   <trkpt lat="50.68648333590467" lon="17.94979998763502">
    <ele>174.36</ele>
   </trkpt>
   <trkpt lat="50.6859566692213" lon="17.949249987617772">
    <ele>174.72</ele>
   </trkpt>
   <trkpt lat="50.685430000000004" lon="17.948700000000002">
    <ele>175.59000000000003</ele>
   </trkpt>
   <trkpt lat="50.68476667072766" lon="17.948013313946422">
    <ele>176.45000000000002</ele>
   </trkpt>
   <trkpt lat="50.68410333742125" lon="17.947326647307992">
    <ele>176.67000000000002</ele>
   </trkpt>
   <trkpt lat="50.683440000000004" lon="17.946640000000002">
    <ele>176.72</ele>
   </trkpt>
   <trkpt lat="50.68329000000001" lon="17.947010000000002">
    <ele>176.59000000000003</ele>
   </trkpt>
   <trkpt lat="50.68314" lon="17.94687">
    <ele>176.51000000000002</ele>
   </trkpt>
   <trkpt lat="50.68296" lon="17.94732">
    <ele>176.25</ele>
   </trkpt>
   <trkpt lat="50.68291000000001" lon="17.94736">
    <ele>176.25</ele>
   </trkpt>
   <trkpt lat="50.682520000000004" lon="17.94741">
    <ele>176.18</ele>
   </trkpt>
  </trkseg>
 </trk>
</gpx>
