<?xml version='1.0' encoding='UTF-8'?>
<gpx version="1.1" creator="https://www.komoot.de" xmlns="http://www.topografix.com/GPX/1/1" xmlns:xsi="http://www.w3.org/2001/XMLSchema-instance" xsi:schemaLocation="http://www.topografix.com/GPX/1/1 http://www.topografix.com/GPX/1/1/gpx.xsd">
  <metadata>
    <name>GraveLova Środa #003 (37km)</name>
    <author>
      <link href="https://www.komoot.de">
        <text>komoot</text>
        <type>text/html</type>
      </link>
    </author>
  </metadata>
  <trk>
    <name>GraveLova Środa #003 (37km)</name>
    <trkseg>
      <trkpt lat="50.682164" lon="17.947469">
        <ele>175.864857</ele>
        <time>2024-05-17T05:31:00.422Z</time>
      </trkpt>
      <trkpt lat="50.682409" lon="17.947435">
        <ele>175.864857</ele>
        <time>2024-05-17T05:31:04.884Z</time>
      </trkpt>
      <trkpt lat="50.682547" lon="17.947416">
        <ele>175.864857</ele>
        <time>2024-05-17T05:31:07.419Z</time>
      </trkpt>
      <trkpt lat="50.682732" lon="17.947390">
        <ele>175.864857</ele>
        <time>2024-05-17T05:31:10.716Z</time>
      </trkpt>
      <trkpt lat="50.682917" lon="17.947364">
        <ele>175.864857</ele>
        <time>2024-05-17T05:31:14.080Z</time>
      </trkpt>
      <trkpt lat="50.682964" lon="17.947326">
        <ele>175.864857</ele>
        <time>2024-05-17T05:31:15.033Z</time>
      </trkpt>
      <trkpt lat="50.683149" lon="17.946871">
        <ele>175.768162</ele>
        <time>2024-05-17T05:31:21.179Z</time>
      </trkpt>
      <trkpt lat="50.683194" lon="17.946918">
        <ele>175.747454</ele>
        <time>2024-05-17T05:31:22.138Z</time>
      </trkpt>
      <trkpt lat="50.683249" lon="17.946970">
        <ele>175.722850</ele>
        <time>2024-05-17T05:31:23.218Z</time>
      </trkpt>
      <trkpt lat="50.683292" lon="17.947014">
        <ele>175.703183</ele>
        <time>2024-05-17T05:31:24.082Z</time>
      </trkpt>
      <trkpt lat="50.683950" lon="17.947692">
        <ele>175.401617</ele>
        <time>2024-05-17T05:31:37.636Z</time>
      </trkpt>
      <trkpt lat="50.684727" lon="17.948494">
        <ele>174.872070</ele>
        <time>2024-05-17T05:31:52.537Z</time>
      </trkpt>
      <trkpt lat="50.685549" lon="17.949340">
        <ele>173.990749</ele>
        <time>2024-05-17T05:32:07.566Z</time>
      </trkpt>
      <trkpt lat="50.685624" lon="17.949417">
        <ele>173.910395</ele>
        <time>2024-05-17T05:32:08.940Z</time>
      </trkpt>
      <trkpt lat="50.686837" lon="17.950658">
        <ele>172.924630</ele>
        <time>2024-05-17T05:32:31.533Z</time>
      </trkpt>
      <trkpt lat="50.686865" lon="17.950688">
        <ele>172.904265</ele>
        <time>2024-05-17T05:32:32.091Z</time>
      </trkpt>
      <trkpt lat="50.686888" lon="17.950641">
        <ele>172.881622</ele>
        <time>2024-05-17T05:32:32.829Z</time>
      </trkpt>
      <trkpt lat="50.686903" lon="17.950609">
        <ele>172.866445</ele>
        <time>2024-05-17T05:32:33.290Z</time>
      </trkpt>
      <trkpt lat="50.686914" lon="17.950584">
        <ele>172.854840</ele>
        <time>2024-05-17T05:32:33.635Z</time>
      </trkpt>
      <trkpt lat="50.687110" lon="17.950777">
        <ele>172.715817</ele>
        <time>2024-05-17T05:32:37.412Z</time>
      </trkpt>
      <trkpt lat="50.687200" lon="17.950840">
        <ele>172.656568</ele>
        <time>2024-05-17T05:32:39.182Z</time>
      </trkpt>
      <trkpt lat="50.687292" lon="17.950861">
        <ele>172.600627</ele>
        <time>2024-05-17T05:32:40.830Z</time>
      </trkpt>
      <trkpt lat="50.687408" lon="17.950830">
        <ele>172.529825</ele>
        <time>2024-05-17T05:32:42.844Z</time>
      </trkpt>
      <trkpt lat="50.687438" lon="17.950804">
        <ele>172.509229</ele>
        <time>2024-05-17T05:32:43.395Z</time>
      </trkpt>
      <trkpt lat="50.689043" lon="17.949463">
        <ele>172.537954</ele>
        <time>2024-05-17T05:33:16.311Z</time>
      </trkpt>
      <trkpt lat="50.689493" lon="17.949101">
        <ele>172.557861</ele>
        <time>2024-05-17T05:33:25.130Z</time>
      </trkpt>
      <trkpt lat="50.689680" lon="17.948950">
        <ele>172.566218</ele>
        <time>2024-05-17T05:33:28.767Z</time>
      </trkpt>
      <trkpt lat="50.689730" lon="17.949019">
        <ele>172.568860</ele>
        <time>2024-05-17T05:33:29.923Z</time>
      </trkpt>
      <trkpt lat="50.689767" lon="17.949076">
        <ele>172.570917</ele>
        <time>2024-05-17T05:33:30.873Z</time>
      </trkpt>
      <trkpt lat="50.690244" lon="17.949809">
        <ele>172.597402</ele>
        <time>2024-05-17T05:33:42.677Z</time>
      </trkpt>
      <trkpt lat="50.690283" lon="17.949710">
        <ele>172.600340</ele>
        <time>2024-05-17T05:33:44.040Z</time>
      </trkpt>
      <trkpt lat="50.690340" lon="17.949620">
        <ele>172.603547</ele>
        <time>2024-05-17T05:33:45.457Z</time>
      </trkpt>
      <trkpt lat="50.690856" lon="17.949036">
        <ele>172.837106</ele>
        <time>2024-05-17T05:33:57.531Z</time>
      </trkpt>
      <trkpt lat="50.691012" lon="17.948869">
        <ele>172.931236</ele>
        <time>2024-05-17T05:34:01.097Z</time>
      </trkpt>
      <trkpt lat="50.690998" lon="17.948818">
        <ele>172.948820</ele>
        <time>2024-05-17T05:34:01.770Z</time>
      </trkpt>
      <trkpt lat="50.690977" lon="17.948746">
        <ele>172.973896</ele>
        <time>2024-05-17T05:34:02.732Z</time>
      </trkpt>
      <trkpt lat="50.690710" lon="17.947805">
        <ele>173.300090</ele>
        <time>2024-05-17T05:34:15.689Z</time>
      </trkpt>
      <trkpt lat="50.689620" lon="17.944050">
        <ele>174.462197</ele>
        <time>2024-05-17T05:35:37.947Z</time>
      </trkpt>
      <trkpt lat="50.689497" lon="17.943599">
        <ele>174.458337</ele>
        <time>2024-05-17T05:35:47.282Z</time>
      </trkpt>
      <trkpt lat="50.689506" lon="17.943528">
        <ele>174.457768</ele>
        <time>2024-05-17T05:35:48.638Z</time>
      </trkpt>
      <trkpt lat="50.689514" lon="17.943462">
        <ele>174.457240</ele>
        <time>2024-05-17T05:35:49.920Z</time>
      </trkpt>
      <trkpt lat="50.691276" lon="17.942072">
        <ele>174.118565</ele>
        <time>2024-05-17T05:36:46.467Z</time>
      </trkpt>
      <trkpt lat="50.691945" lon="17.941402">
        <ele>173.852171</ele>
        <time>2024-05-17T05:37:08.837Z</time>
      </trkpt>
      <trkpt lat="50.693483" lon="17.939635">
        <ele>173.574030</ele>
        <time>2024-05-17T05:38:04.421Z</time>
      </trkpt>
      <trkpt lat="50.693937" lon="17.939059">
        <ele>173.580904</ele>
        <time>2024-05-17T05:38:22.059Z</time>
      </trkpt>
      <trkpt lat="50.694488" lon="17.938171">
        <ele>173.590196</ele>
        <time>2024-05-17T05:38:45.680Z</time>
      </trkpt>
      <trkpt lat="50.694941" lon="17.937185">
        <ele>173.320448</ele>
        <time>2024-05-17T05:39:08.175Z</time>
      </trkpt>
      <trkpt lat="50.695313" lon="17.936227">
        <ele>172.845174</ele>
        <time>2024-05-17T05:39:28.066Z</time>
      </trkpt>
      <trkpt lat="50.695632" lon="17.935284">
        <ele>172.392688</ele>
        <time>2024-05-17T05:39:46.317Z</time>
      </trkpt>
      <trkpt lat="50.695794" lon="17.934705">
        <ele>171.938808</ele>
        <time>2024-05-17T05:39:57.030Z</time>
      </trkpt>
      <trkpt lat="50.695939" lon="17.934062">
        <ele>171.449388</ele>
        <time>2024-05-17T05:40:08.612Z</time>
      </trkpt>
      <trkpt lat="50.696057" lon="17.933305">
        <ele>170.890377</ele>
        <time>2024-05-17T05:40:21.859Z</time>
      </trkpt>
      <trkpt lat="50.696650" lon="17.930868">
        <ele>168.612653</ele>
        <time>2024-05-17T05:41:05.443Z</time>
      </trkpt>
      <trkpt lat="50.697070" lon="17.928821">
        <ele>166.507789</ele>
        <time>2024-05-17T05:41:40.390Z</time>
      </trkpt>
      <trkpt lat="50.697062" lon="17.928706">
        <ele>166.390432</ele>
        <time>2024-05-17T05:41:42.213Z</time>
      </trkpt>
      <trkpt lat="50.697055" lon="17.928634">
        <ele>166.316540</ele>
        <time>2024-05-17T05:41:43.355Z</time>
      </trkpt>
      <trkpt lat="50.699601" lon="17.929671">
        <ele>162.415716</ele>
        <time>2024-05-17T05:42:22.436Z</time>
      </trkpt>
      <trkpt lat="50.700035" lon="17.929903">
        <ele>161.558019</ele>
        <time>2024-05-17T05:42:29.040Z</time>
      </trkpt>
      <trkpt lat="50.700326" lon="17.930180">
        <ele>160.878209</ele>
        <time>2024-05-17T05:42:33.836Z</time>
      </trkpt>
      <trkpt lat="50.701822" lon="17.931930">
        <ele>157.241943</ele>
        <time>2024-05-17T05:42:59.588Z</time>
      </trkpt>
      <trkpt lat="50.702119" lon="17.932279">
        <ele>156.544448</ele>
        <time>2024-05-17T05:43:04.804Z</time>
      </trkpt>
      <trkpt lat="50.702139" lon="17.932302">
        <ele>156.497834</ele>
        <time>2024-05-17T05:43:05.161Z</time>
      </trkpt>
      <trkpt lat="50.702160" lon="17.932327">
        <ele>156.448285</ele>
        <time>2024-05-17T05:43:05.529Z</time>
      </trkpt>
      <trkpt lat="50.702193" lon="17.932362">
        <ele>156.373389</ele>
        <time>2024-05-17T05:43:06.100Z</time>
      </trkpt>
      <trkpt lat="50.703318" lon="17.933678">
        <ele>154.479568</ele>
        <time>2024-05-17T05:43:26.984Z</time>
      </trkpt>
      <trkpt lat="50.703436" lon="17.933791">
        <ele>154.344422</ele>
        <time>2024-05-17T05:43:29.126Z</time>
      </trkpt>
      <trkpt lat="50.703513" lon="17.933822">
        <ele>154.266605</ele>
        <time>2024-05-17T05:43:30.372Z</time>
      </trkpt>
      <trkpt lat="50.703618" lon="17.933776">
        <ele>154.159897</ele>
        <time>2024-05-17T05:43:32.116Z</time>
      </trkpt>
      <trkpt lat="50.703645" lon="17.933838">
        <ele>154.113231</ele>
        <time>2024-05-17T05:43:33.112Z</time>
      </trkpt>
      <trkpt lat="50.703657" lon="17.933881">
        <ele>154.084088</ele>
        <time>2024-05-17T05:43:33.750Z</time>
      </trkpt>
      <trkpt lat="50.703692" lon="17.933948">
        <ele>154.030223</ele>
        <time>2024-05-17T05:43:35.267Z</time>
      </trkpt>
      <trkpt lat="50.703739" lon="17.933964">
        <ele>153.983140</ele>
        <time>2024-05-17T05:43:36.292Z</time>
      </trkpt>
      <trkpt lat="50.703702" lon="17.934171">
        <ele>153.849742</ele>
        <time>2024-05-17T05:43:38.497Z</time>
      </trkpt>
      <trkpt lat="50.703804" lon="17.934308">
        <ele>153.718606</ele>
        <time>2024-05-17T05:43:40.622Z</time>
      </trkpt>
      <trkpt lat="50.704042" lon="17.934708">
        <ele>153.466163</ele>
        <time>2024-05-17T05:43:46.275Z</time>
      </trkpt>
      <trkpt lat="50.704087" lon="17.934787">
        <ele>153.440162</ele>
        <time>2024-05-17T05:43:47.382Z</time>
      </trkpt>
      <trkpt lat="50.704203" lon="17.935049">
        <ele>153.361936</ele>
        <time>2024-05-17T05:43:50.754Z</time>
      </trkpt>
      <trkpt lat="50.704035" lon="17.935187">
        <ele>153.288766</ele>
        <time>2024-05-17T05:43:54.925Z</time>
      </trkpt>
      <trkpt lat="50.703980" lon="17.935232">
        <ele>153.264831</ele>
        <time>2024-05-17T05:43:56.301Z</time>
      </trkpt>
      <trkpt lat="50.703905" lon="17.935367">
        <ele>153.220887</ele>
        <time>2024-05-17T05:43:58.892Z</time>
      </trkpt>
      <trkpt lat="50.703874" lon="17.935482">
        <ele>153.190303</ele>
        <time>2024-05-17T05:44:00.658Z</time>
      </trkpt>
      <trkpt lat="50.703570" lon="17.937441">
        <ele>152.808971</ele>
        <time>2024-05-17T05:44:29.255Z</time>
      </trkpt>
      <trkpt lat="50.703104" lon="17.939860">
        <ele>152.807945</ele>
        <time>2024-05-17T05:45:06.480Z</time>
      </trkpt>
      <trkpt lat="50.702513" lon="17.942523">
        <ele>153.865329</ele>
        <time>2024-05-17T05:45:52.385Z</time>
      </trkpt>
      <trkpt lat="50.702161" lon="17.943902">
        <ele>154.631664</ele>
        <time>2024-05-17T05:46:17.255Z</time>
      </trkpt>
      <trkpt lat="50.701947" lon="17.944681">
        <ele>155.069330</ele>
        <time>2024-05-17T05:46:31.215Z</time>
      </trkpt>
      <trkpt lat="50.701765" lon="17.945048">
        <ele>155.244008</ele>
        <time>2024-05-17T05:46:38.784Z</time>
      </trkpt>
      <trkpt lat="50.701632" lon="17.945496">
        <ele>155.309221</ele>
        <time>2024-05-17T05:46:46.656Z</time>
      </trkpt>
      <trkpt lat="50.701266" lon="17.946898">
        <ele>155.509092</ele>
        <time>2024-05-17T05:47:09.858Z</time>
      </trkpt>
      <trkpt lat="50.699714" lon="17.952225">
        <ele>155.087592</ele>
        <time>2024-05-17T05:48:34.632Z</time>
      </trkpt>
      <trkpt lat="50.699152" lon="17.954152">
        <ele>155.439804</ele>
        <time>2024-05-17T05:49:06.424Z</time>
      </trkpt>
      <trkpt lat="50.698830" lon="17.955119">
        <ele>155.699194</ele>
        <time>2024-05-17T05:49:23.960Z</time>
      </trkpt>
      <trkpt lat="50.698515" lon="17.955871">
        <ele>156.477263</ele>
        <time>2024-05-17T05:49:39.174Z</time>
      </trkpt>
      <trkpt lat="50.697905" lon="17.957148">
        <ele>157.981665</ele>
        <time>2024-05-17T05:50:08.088Z</time>
      </trkpt>
      <trkpt lat="50.697910" lon="17.957321">
        <ele>158.144557</ele>
        <time>2024-05-17T05:50:11.365Z</time>
      </trkpt>
      <trkpt lat="50.698175" lon="17.958883">
        <ele>159.820719</ele>
        <time>2024-05-17T05:50:42.240Z</time>
      </trkpt>
      <trkpt lat="50.698185" lon="17.959059">
        <ele>160.007206</ele>
        <time>2024-05-17T05:50:45.586Z</time>
      </trkpt>
      <trkpt lat="50.698166" lon="17.959153">
        <ele>160.111337</ele>
        <time>2024-05-17T05:50:47.401Z</time>
      </trkpt>
      <trkpt lat="50.698143" lon="17.959220">
        <ele>160.191762</ele>
        <time>2024-05-17T05:50:48.798Z</time>
      </trkpt>
      <trkpt lat="50.698119" lon="17.959286">
        <ele>160.272078</ele>
        <time>2024-05-17T05:50:49.979Z</time>
      </trkpt>
      <trkpt lat="50.697987" lon="17.959563">
        <ele>160.637903</ele>
        <time>2024-05-17T05:50:55.223Z</time>
      </trkpt>
      <trkpt lat="50.697904" lon="17.959660">
        <ele>160.809960</ele>
        <time>2024-05-17T05:50:57.619Z</time>
      </trkpt>
      <trkpt lat="50.697375" lon="17.959980">
        <ele>161.347439</ele>
        <time>2024-05-17T05:51:10.113Z</time>
      </trkpt>
      <trkpt lat="50.697063" lon="17.960158">
        <ele>161.281874</ele>
        <time>2024-05-17T05:51:16.776Z</time>
      </trkpt>
      <trkpt lat="50.696223" lon="17.960624">
        <ele>161.105909</ele>
        <time>2024-05-17T05:51:32.258Z</time>
      </trkpt>
      <trkpt lat="50.695988" lon="17.960698">
        <ele>161.058550</ele>
        <time>2024-05-17T05:51:36.081Z</time>
      </trkpt>
      <trkpt lat="50.695582" lon="17.960779">
        <ele>160.621470</ele>
        <time>2024-05-17T05:51:42.441Z</time>
      </trkpt>
      <trkpt lat="50.695489" lon="17.960852">
        <ele>160.473533</ele>
        <time>2024-05-17T05:51:44.511Z</time>
      </trkpt>
      <trkpt lat="50.694706" lon="17.962369">
        <ele>158.707952</ele>
        <time>2024-05-17T05:52:09.128Z</time>
      </trkpt>
      <trkpt lat="50.694307" lon="17.963216">
        <ele>157.944671</ele>
        <time>2024-05-17T05:52:22.741Z</time>
      </trkpt>
      <trkpt lat="50.693677" lon="17.964793">
        <ele>156.705767</ele>
        <time>2024-05-17T05:52:47.523Z</time>
      </trkpt>
      <trkpt lat="50.693606" lon="17.964942">
        <ele>156.583406</ele>
        <time>2024-05-17T05:52:50.063Z</time>
      </trkpt>
      <trkpt lat="50.693563" lon="17.964979">
        <ele>156.549628</ele>
        <time>2024-05-17T05:52:51.135Z</time>
      </trkpt>
      <trkpt lat="50.693452" lon="17.965107">
        <ele>156.454816</ele>
        <time>2024-05-17T05:52:54.021Z</time>
      </trkpt>
      <trkpt lat="50.692235" lon="17.968159">
        <ele>154.972023</ele>
        <time>2024-05-17T05:53:43.377Z</time>
      </trkpt>
      <trkpt lat="50.691941" lon="17.968893">
        <ele>154.668126</ele>
        <time>2024-05-17T05:53:55.425Z</time>
      </trkpt>
      <trkpt lat="50.691133" lon="17.971064">
        <ele>153.980434</ele>
        <time>2024-05-17T05:54:30.836Z</time>
      </trkpt>
      <trkpt lat="50.690289" lon="17.973784">
        <ele>153.568914</ele>
        <time>2024-05-17T05:55:14.265Z</time>
      </trkpt>
      <trkpt lat="50.689737" lon="17.975975">
        <ele>153.710064</ele>
        <time>2024-05-17T05:55:49.954Z</time>
      </trkpt>
      <trkpt lat="50.689314" lon="17.977962">
        <ele>154.048185</ele>
        <time>2024-05-17T05:56:22.642Z</time>
      </trkpt>
      <trkpt lat="50.689221" lon="17.978381">
        <ele>154.117981</ele>
        <time>2024-05-17T05:56:27.909Z</time>
      </trkpt>
      <trkpt lat="50.688856" lon="17.979984">
        <ele>154.385769</ele>
        <time>2024-05-17T05:56:47.818Z</time>
      </trkpt>
      <trkpt lat="50.688614" lon="17.980923">
        <ele>154.470416</ele>
        <time>2024-05-17T05:56:59.559Z</time>
      </trkpt>
      <trkpt lat="50.688084" lon="17.982538">
        <ele>154.605758</ele>
        <time>2024-05-17T05:57:20.308Z</time>
      </trkpt>
      <trkpt lat="50.687683" lon="17.983600">
        <ele>154.588861</ele>
        <time>2024-05-17T05:57:34.422Z</time>
      </trkpt>
      <trkpt lat="50.686898" lon="17.985429">
        <ele>154.533263</ele>
        <time>2024-05-17T05:57:58.957Z</time>
      </trkpt>
      <trkpt lat="50.686178" lon="17.986773">
        <ele>154.475193</ele>
        <time>2024-05-17T05:58:18.497Z</time>
      </trkpt>
      <trkpt lat="50.685496" lon="17.987942">
        <ele>154.577292</ele>
        <time>2024-05-17T05:58:36.731Z</time>
      </trkpt>
      <trkpt lat="50.684792" lon="17.989019">
        <ele>154.765622</ele>
        <time>2024-05-17T05:58:55.082Z</time>
      </trkpt>
      <trkpt lat="50.684755" lon="17.989077">
        <ele>154.775639</ele>
        <time>2024-05-17T05:58:56.022Z</time>
      </trkpt>
      <trkpt lat="50.684434" lon="17.989517">
        <ele>154.829373</ele>
        <time>2024-05-17T05:59:03.791Z</time>
      </trkpt>
      <trkpt lat="50.684305" lon="17.989710">
        <ele>154.846512</ele>
        <time>2024-05-17T05:59:06.997Z</time>
      </trkpt>
      <trkpt lat="50.684261" lon="17.989884">
        <ele>154.857957</ele>
        <time>2024-05-17T05:59:09.054Z</time>
      </trkpt>
      <trkpt lat="50.684266" lon="17.990198">
        <ele>154.877146</ele>
        <time>2024-05-17T05:59:12.576Z</time>
      </trkpt>
      <trkpt lat="50.683919" lon="17.990225">
        <ele>154.910645</ele>
        <time>2024-05-17T05:59:18.638Z</time>
      </trkpt>
      <trkpt lat="50.682881" lon="17.991346">
        <ele>155.234256</ele>
        <time>2024-05-17T05:59:41.890Z</time>
      </trkpt>
      <trkpt lat="50.681963" lon="17.992247">
        <ele>155.706748</ele>
        <time>2024-05-17T06:00:08.958Z</time>
      </trkpt>
      <trkpt lat="50.681140" lon="17.992966">
        <ele>155.915122</ele>
        <time>2024-05-17T06:00:32.636Z</time>
      </trkpt>
      <trkpt lat="50.680542" lon="17.993406">
        <ele>156.039755</ele>
        <time>2024-05-17T06:00:48.140Z</time>
      </trkpt>
      <trkpt lat="50.680225" lon="17.993153">
        <ele>156.102774</ele>
        <time>2024-05-17T06:00:56.252Z</time>
      </trkpt>
      <trkpt lat="50.680081" lon="17.993558">
        <ele>156.122427</ele>
        <time>2024-05-17T06:01:02.889Z</time>
      </trkpt>
      <trkpt lat="50.680204" lon="17.993661">
        <ele>156.131726</ele>
        <time>2024-05-17T06:01:06.978Z</time>
      </trkpt>
      <trkpt lat="50.680385" lon="17.994177">
        <ele>156.156684</ele>
        <time>2024-05-17T06:01:17.747Z</time>
      </trkpt>
      <trkpt lat="50.683296" lon="18.003344">
        <ele>156.686486</ele>
        <time>2024-05-17T06:04:32.960Z</time>
      </trkpt>
      <trkpt lat="50.683938" lon="18.005362">
        <ele>156.812169</ele>
        <time>2024-05-17T06:05:15.757Z</time>
      </trkpt>
      <trkpt lat="50.684077" lon="18.005670">
        <ele>156.831453</ele>
        <time>2024-05-17T06:05:22.882Z</time>
      </trkpt>
      <trkpt lat="50.686201" lon="18.008749">
        <ele>156.790277</ele>
        <time>2024-05-17T06:06:47.928Z</time>
      </trkpt>
      <trkpt lat="50.686289" lon="18.008864">
        <ele>156.791729</ele>
        <time>2024-05-17T06:06:51.370Z</time>
      </trkpt>
      <trkpt lat="50.686817" lon="18.009721">
        <ele>156.841938</ele>
        <time>2024-05-17T06:07:13.963Z</time>
      </trkpt>
      <trkpt lat="50.687587" lon="18.011154">
        <ele>157.136179</ele>
        <time>2024-05-17T06:07:50.434Z</time>
      </trkpt>
      <trkpt lat="50.687688" lon="18.011381">
        <ele>157.179616</ele>
        <time>2024-05-17T06:07:55.813Z</time>
      </trkpt>
      <trkpt lat="50.687918" lon="18.011894">
        <ele>157.258395</ele>
        <time>2024-05-17T06:08:08.005Z</time>
      </trkpt>
      <trkpt lat="50.687957" lon="18.012236">
        <ele>157.281664</ele>
        <time>2024-05-17T06:08:14.711Z</time>
      </trkpt>
      <trkpt lat="50.686392" lon="18.013383">
        <ele>157.506185</ele>
        <time>2024-05-17T06:09:06.113Z</time>
      </trkpt>
      <trkpt lat="50.683855" lon="18.015190">
        <ele>158.306696</ele>
        <time>2024-05-17T06:10:31.318Z</time>
      </trkpt>
      <trkpt lat="50.683651" lon="18.015364">
        <ele>158.382898</ele>
        <time>2024-05-17T06:10:38.455Z</time>
      </trkpt>
      <trkpt lat="50.683409" lon="18.015646">
        <ele>158.481409</ele>
        <time>2024-05-17T06:10:47.711Z</time>
      </trkpt>
      <trkpt lat="50.682020" lon="18.017468">
        <ele>158.936001</ele>
        <time>2024-05-17T06:11:42.959Z</time>
      </trkpt>
      <trkpt lat="50.681953" lon="18.017630">
        <ele>158.935172</ele>
        <time>2024-05-17T06:11:46.730Z</time>
      </trkpt>
      <trkpt lat="50.682720" lon="18.018783">
        <ele>158.928015</ele>
        <time>2024-05-17T06:12:18.160Z</time>
      </trkpt>
      <trkpt lat="50.683959" lon="18.020511">
        <ele>158.869679</ele>
        <time>2024-05-17T06:13:06.444Z</time>
      </trkpt>
      <trkpt lat="50.685715" lon="18.023341">
        <ele>158.858292</ele>
        <time>2024-05-17T06:14:21.253Z</time>
      </trkpt>
      <trkpt lat="50.685991" lon="18.023294">
        <ele>158.818450</ele>
        <time>2024-05-17T06:14:29.369Z</time>
      </trkpt>
      <trkpt lat="50.686296" lon="18.023385">
        <ele>158.765843</ele>
        <time>2024-05-17T06:14:38.393Z</time>
      </trkpt>
      <trkpt lat="50.686932" lon="18.023885">
        <ele>158.645424</ele>
        <time>2024-05-17T06:14:58.925Z</time>
      </trkpt>
      <trkpt lat="50.687437" lon="18.024355">
        <ele>158.559857</ele>
        <time>2024-05-17T06:15:15.870Z</time>
      </trkpt>
      <trkpt lat="50.687888" lon="18.024775">
        <ele>158.624086</ele>
        <time>2024-05-17T06:15:31.127Z</time>
      </trkpt>
      <trkpt lat="50.690762" lon="18.028209">
        <ele>159.526095</ele>
        <time>2024-05-17T06:17:21.597Z</time>
      </trkpt>
      <trkpt lat="50.691086" lon="18.028836">
        <ele>159.698537</ele>
        <time>2024-05-17T06:17:37.641Z</time>
      </trkpt>
      <trkpt lat="50.691480" lon="18.029170">
        <ele>159.848987</ele>
        <time>2024-05-17T06:17:51.367Z</time>
      </trkpt>
      <trkpt lat="50.691808" lon="18.029344">
        <ele>159.927506</ele>
        <time>2024-05-17T06:18:01.835Z</time>
      </trkpt>
      <trkpt lat="50.691988" lon="18.029470">
        <ele>159.906292</ele>
        <time>2024-05-17T06:18:07.655Z</time>
      </trkpt>
      <trkpt lat="50.691997" lon="18.029539">
        <ele>159.901484</ele>
        <time>2024-05-17T06:18:08.998Z</time>
      </trkpt>
      <trkpt lat="50.692036" lon="18.029691">
        <ele>159.890291</ele>
        <time>2024-05-17T06:18:12.095Z</time>
      </trkpt>
      <trkpt lat="50.692065" lon="18.029767">
        <ele>159.884236</ele>
        <time>2024-05-17T06:18:13.711Z</time>
      </trkpt>
      <trkpt lat="50.692340" lon="18.031027">
        <ele>159.793281</ele>
        <time>2024-05-17T06:18:38.039Z</time>
      </trkpt>
      <trkpt lat="50.692629" lon="18.032180">
        <ele>160.014818</ele>
        <time>2024-05-17T06:19:00.766Z</time>
      </trkpt>
      <trkpt lat="50.692764" lon="18.032940">
        <ele>160.442312</ele>
        <time>2024-05-17T06:19:16.394Z</time>
      </trkpt>
      <trkpt lat="50.692882" lon="18.033458">
        <ele>160.740449</ele>
        <time>2024-05-17T06:19:28.045Z</time>
      </trkpt>
      <trkpt lat="50.692918" lon="18.034789">
        <ele>161.632077</ele>
        <time>2024-05-17T06:19:57.458Z</time>
      </trkpt>
      <trkpt lat="50.692921" lon="18.036084">
        <ele>162.991571</ele>
        <time>2024-05-17T06:20:26.431Z</time>
      </trkpt>
      <trkpt lat="50.692924" lon="18.037517">
        <ele>164.418649</ele>
        <time>2024-05-17T06:20:58.107Z</time>
      </trkpt>
      <trkpt lat="50.692959" lon="18.042875">
        <ele>167.758875</ele>
        <time>2024-05-17T06:22:49.677Z</time>
      </trkpt>
      <trkpt lat="50.692969" lon="18.048375">
        <ele>167.943122</ele>
        <time>2024-05-17T06:24:33.308Z</time>
      </trkpt>
      <trkpt lat="50.692987" lon="18.051143">
        <ele>167.420001</ele>
        <time>2024-05-17T06:25:22.692Z</time>
      </trkpt>
      <trkpt lat="50.692993" lon="18.053792">
        <ele>167.767522</ele>
        <time>2024-05-17T06:26:13.757Z</time>
      </trkpt>
      <trkpt lat="50.693022" lon="18.059216">
        <ele>169.955514</ele>
        <time>2024-05-17T06:28:03.149Z</time>
      </trkpt>
      <trkpt lat="50.693073" lon="18.064669">
        <ele>172.146241</ele>
        <time>2024-05-17T06:29:54.506Z</time>
      </trkpt>
      <trkpt lat="50.693458" lon="18.066528">
        <ele>172.011501</ele>
        <time>2024-05-17T06:30:29.638Z</time>
      </trkpt>
      <trkpt lat="50.693899" lon="18.069178">
        <ele>171.570203</ele>
        <time>2024-05-17T06:31:17.760Z</time>
      </trkpt>
      <trkpt lat="50.693938" lon="18.069609">
        <ele>171.706229</ele>
        <time>2024-05-17T06:31:26.202Z</time>
      </trkpt>
      <trkpt lat="50.693910" lon="18.069883">
        <ele>171.792942</ele>
        <time>2024-05-17T06:31:31.690Z</time>
      </trkpt>
      <trkpt lat="50.693662" lon="18.070559">
        <ele>172.037010</ele>
        <time>2024-05-17T06:31:47.915Z</time>
      </trkpt>
      <trkpt lat="50.693556" lon="18.070943">
        <ele>172.167881</ele>
        <time>2024-05-17T06:31:56.980Z</time>
      </trkpt>
      <trkpt lat="50.693514" lon="18.071289">
        <ele>172.474726</ele>
        <time>2024-05-17T06:32:04.824Z</time>
      </trkpt>
      <trkpt lat="50.693488" lon="18.074546">
        <ele>175.599091</ele>
        <time>2024-05-17T06:33:17.687Z</time>
      </trkpt>
      <trkpt lat="50.693556" lon="18.075371">
        <ele>176.103179</ele>
        <time>2024-05-17T06:33:34.675Z</time>
      </trkpt>
      <trkpt lat="50.693623" lon="18.075851">
        <ele>176.400991</ele>
        <time>2024-05-17T06:33:44.513Z</time>
      </trkpt>
      <trkpt lat="50.693799" lon="18.077780">
        <ele>177.695771</ele>
        <time>2024-05-17T06:34:23.352Z</time>
      </trkpt>
      <trkpt lat="50.693996" lon="18.080749">
        <ele>179.973296</ele>
        <time>2024-05-17T06:35:28.347Z</time>
      </trkpt>
      <trkpt lat="50.694191" lon="18.082417">
        <ele>181.287454</ele>
        <time>2024-05-17T06:36:04.812Z</time>
      </trkpt>
      <trkpt lat="50.694240" lon="18.082626">
        <ele>181.273920</ele>
        <time>2024-05-17T06:36:09.375Z</time>
      </trkpt>
      <trkpt lat="50.694465" lon="18.083095">
        <ele>181.238188</ele>
        <time>2024-05-17T06:36:21.082Z</time>
      </trkpt>
      <trkpt lat="50.694628" lon="18.083793">
        <ele>181.193007</ele>
        <time>2024-05-17T06:36:35.149Z</time>
      </trkpt>
      <trkpt lat="50.694676" lon="18.084340">
        <ele>181.159469</ele>
        <time>2024-05-17T06:36:44.962Z</time>
      </trkpt>
      <trkpt lat="50.694672" lon="18.084831">
        <ele>181.129646</ele>
        <time>2024-05-17T06:36:53.324Z</time>
      </trkpt>
      <trkpt lat="50.694541" lon="18.085985">
        <ele>180.262668</ele>
        <time>2024-05-17T06:37:12.609Z</time>
      </trkpt>
      <trkpt lat="50.694394" lon="18.087346">
        <ele>179.133038</ele>
        <time>2024-05-17T06:37:35.360Z</time>
      </trkpt>
      <trkpt lat="50.694421" lon="18.088511">
        <ele>178.821477</ele>
        <time>2024-05-17T06:37:46.950Z</time>
      </trkpt>
      <trkpt lat="50.694459" lon="18.089538">
        <ele>178.851914</ele>
        <time>2024-05-17T06:37:58.473Z</time>
      </trkpt>
      <trkpt lat="50.694495" lon="18.090016">
        <ele>178.866156</ele>
        <time>2024-05-17T06:38:04.499Z</time>
      </trkpt>
      <trkpt lat="50.694635" lon="18.091871">
        <ele>179.881071</ele>
        <time>2024-05-17T06:38:29.936Z</time>
      </trkpt>
      <trkpt lat="50.694803" lon="18.094035">
        <ele>181.502011</ele>
        <time>2024-05-17T06:39:00.394Z</time>
      </trkpt>
      <trkpt lat="50.694796" lon="18.094150">
        <ele>181.580540</ele>
        <time>2024-05-17T06:39:01.964Z</time>
      </trkpt>
      <trkpt lat="50.694816" lon="18.094208">
        <ele>181.625427</ele>
        <time>2024-05-17T06:39:02.859Z</time>
      </trkpt>
      <trkpt lat="50.694919" lon="18.095429">
        <ele>182.462701</ele>
        <time>2024-05-17T06:39:19.770Z</time>
      </trkpt>
      <trkpt lat="50.694927" lon="18.095529">
        <ele>182.531214</ele>
        <time>2024-05-17T06:39:21.114Z</time>
      </trkpt>
      <trkpt lat="50.694977" lon="18.096154">
        <ele>182.959417</ele>
        <time>2024-05-17T06:39:29.528Z</time>
      </trkpt>
      <trkpt lat="50.694983" lon="18.096235">
        <ele>183.019920</ele>
        <time>2024-05-17T06:39:30.571Z</time>
      </trkpt>
      <trkpt lat="50.695142" lon="18.098229">
        <ele>184.821475</ele>
        <time>2024-05-17T06:39:59.174Z</time>
      </trkpt>
      <trkpt lat="50.695226" lon="18.099184">
        <ele>185.740596</ele>
        <time>2024-05-17T06:40:14.060Z</time>
      </trkpt>
      <trkpt lat="50.695333" lon="18.100504">
        <ele>187.395808</ele>
        <time>2024-05-17T06:40:36.022Z</time>
      </trkpt>
      <trkpt lat="50.695398" lon="18.101180">
        <ele>188.246251</ele>
        <time>2024-05-17T06:40:47.106Z</time>
      </trkpt>
      <trkpt lat="50.695602" lon="18.102720">
        <ele>189.612921</ele>
        <time>2024-05-17T06:41:10.073Z</time>
      </trkpt>
      <trkpt lat="50.695695" lon="18.103380">
        <ele>190.013521</ele>
        <time>2024-05-17T06:41:19.061Z</time>
      </trkpt>
      <trkpt lat="50.695826" lon="18.104276">
        <ele>190.558346</ele>
        <time>2024-05-17T06:41:31.113Z</time>
      </trkpt>
      <trkpt lat="50.696070" lon="18.106071">
        <ele>191.530074</ele>
        <time>2024-05-17T06:41:54.430Z</time>
      </trkpt>
      <trkpt lat="50.696317" lon="18.107806">
        <ele>192.655801</ele>
        <time>2024-05-17T06:42:19.535Z</time>
      </trkpt>
      <trkpt lat="50.696419" lon="18.108318">
        <ele>193.189904</ele>
        <time>2024-05-17T06:42:27.184Z</time>
      </trkpt>
      <trkpt lat="50.697391" lon="18.112707">
        <ele>198.118172</ele>
        <time>2024-05-17T06:43:38.047Z</time>
      </trkpt>
      <trkpt lat="50.697586" lon="18.113308">
        <ele>198.845715</ele>
        <time>2024-05-17T06:43:48.622Z</time>
      </trkpt>
      <trkpt lat="50.698272" lon="18.115211">
        <ele>201.199701</ele>
        <time>2024-05-17T06:44:21.869Z</time>
      </trkpt>
      <trkpt lat="50.698689" lon="18.116134">
        <ele>202.113038</ele>
        <time>2024-05-17T06:44:38.861Z</time>
      </trkpt>
      <trkpt lat="50.698831" lon="18.116509">
        <ele>202.461742</ele>
        <time>2024-05-17T06:44:45.231Z</time>
      </trkpt>
      <trkpt lat="50.698985" lon="18.117112">
        <ele>202.980658</ele>
        <time>2024-05-17T06:44:54.392Z</time>
      </trkpt>
      <trkpt lat="50.699095" lon="18.118152">
        <ele>203.486368</ele>
        <time>2024-05-17T06:45:08.553Z</time>
      </trkpt>
      <trkpt lat="50.699131" lon="18.118394">
        <ele>203.478617</ele>
        <time>2024-05-17T06:45:11.825Z</time>
      </trkpt>
      <trkpt lat="50.700096" lon="18.123064">
        <ele>202.583415</ele>
        <time>2024-05-17T06:46:06.340Z</time>
      </trkpt>
      <trkpt lat="50.700113" lon="18.123462">
        <ele>202.343207</ele>
        <time>2024-05-17T06:46:10.294Z</time>
      </trkpt>
      <trkpt lat="50.700893" lon="18.127361">
        <ele>198.936333</ele>
        <time>2024-05-17T06:46:51.126Z</time>
      </trkpt>
      <trkpt lat="50.701027" lon="18.129529">
        <ele>196.287790</ele>
        <time>2024-05-17T06:47:11.471Z</time>
      </trkpt>
      <trkpt lat="50.701040" lon="18.130478">
        <ele>194.855029</ele>
        <time>2024-05-17T06:47:20.021Z</time>
      </trkpt>
      <trkpt lat="50.701092" lon="18.131337">
        <ele>193.552542</ele>
        <time>2024-05-17T06:47:27.710Z</time>
      </trkpt>
      <trkpt lat="50.701383" lon="18.132909">
        <ele>191.619286</ele>
        <time>2024-05-17T06:47:42.546Z</time>
      </trkpt>
      <trkpt lat="50.701566" lon="18.133903">
        <ele>190.432947</ele>
        <time>2024-05-17T06:47:52.932Z</time>
      </trkpt>
      <trkpt lat="50.702562" lon="18.133074">
        <ele>188.957803</ele>
        <time>2024-05-17T06:48:11.233Z</time>
      </trkpt>
      <trkpt lat="50.702911" lon="18.132783">
        <ele>188.484267</ele>
        <time>2024-05-17T06:48:17.470Z</time>
      </trkpt>
      <trkpt lat="50.703482" lon="18.132307">
        <ele>187.625284</ele>
        <time>2024-05-17T06:48:27.362Z</time>
      </trkpt>
      <trkpt lat="50.703592" lon="18.132263">
        <ele>187.430775</ele>
        <time>2024-05-17T06:48:29.074Z</time>
      </trkpt>
      <trkpt lat="50.703654" lon="18.132239">
        <ele>187.321353</ele>
        <time>2024-05-17T06:48:30.018Z</time>
      </trkpt>
      <trkpt lat="50.704418" lon="18.132299">
        <ele>186.010151</ele>
        <time>2024-05-17T06:48:41.469Z</time>
      </trkpt>
      <trkpt lat="50.704716" lon="18.132323">
        <ele>185.498681</ele>
        <time>2024-05-17T06:48:45.906Z</time>
      </trkpt>
      <trkpt lat="50.705726" lon="18.132575">
        <ele>184.232357</ele>
        <time>2024-05-17T06:49:01.545Z</time>
      </trkpt>
      <trkpt lat="50.705907" lon="18.132588">
        <ele>184.062034</ele>
        <time>2024-05-17T06:49:04.453Z</time>
      </trkpt>
      <trkpt lat="50.706286" lon="18.132273">
        <ele>183.659418</ele>
        <time>2024-05-17T06:49:11.565Z</time>
      </trkpt>
      <trkpt lat="50.706412" lon="18.131911">
        <ele>183.413506</ele>
        <time>2024-05-17T06:49:18.865Z</time>
      </trkpt>
      <trkpt lat="50.707010" lon="18.130637">
        <ele>183.200537</ele>
        <time>2024-05-17T06:49:47.773Z</time>
      </trkpt>
      <trkpt lat="50.707125" lon="18.130305">
        <ele>183.223743</ele>
        <time>2024-05-17T06:49:54.896Z</time>
      </trkpt>
      <trkpt lat="50.707242" lon="18.129815">
        <ele>183.255857</ele>
        <time>2024-05-17T06:50:04.893Z</time>
      </trkpt>
      <trkpt lat="50.707438" lon="18.129283">
        <ele>183.293600</ele>
        <time>2024-05-17T06:50:17.068Z</time>
      </trkpt>
      <trkpt lat="50.708287" lon="18.127476">
        <ele>184.414557</ele>
        <time>2024-05-17T06:51:03.380Z</time>
      </trkpt>
      <trkpt lat="50.708459" lon="18.126966">
        <ele>184.728303</ele>
        <time>2024-05-17T06:51:15.402Z</time>
      </trkpt>
      <trkpt lat="50.708739" lon="18.125747">
        <ele>185.143278</ele>
        <time>2024-05-17T06:51:41.771Z</time>
      </trkpt>
      <trkpt lat="50.709202" lon="18.125014">
        <ele>185.427003</ele>
        <time>2024-05-17T06:52:02.195Z</time>
      </trkpt>
      <trkpt lat="50.709241" lon="18.124757">
        <ele>185.499428</ele>
        <time>2024-05-17T06:52:07.237Z</time>
      </trkpt>
      <trkpt lat="50.709139" lon="18.123188">
        <ele>185.460260</ele>
        <time>2024-05-17T06:52:36.347Z</time>
      </trkpt>
      <trkpt lat="50.709136" lon="18.123141">
        <ele>185.453172</ele>
        <time>2024-05-17T06:52:37.209Z</time>
      </trkpt>
      <trkpt lat="50.709154" lon="18.122870">
        <ele>185.412290</ele>
        <time>2024-05-17T06:52:42.126Z</time>
      </trkpt>
      <trkpt lat="50.709384" lon="18.122048">
        <ele>185.277460</ele>
        <time>2024-05-17T06:52:58.316Z</time>
      </trkpt>
      <trkpt lat="50.709341" lon="18.121896">
        <ele>185.252483</ele>
        <time>2024-05-17T06:53:01.359Z</time>
      </trkpt>
      <trkpt lat="50.709003" lon="18.121279">
        <ele>185.215521</ele>
        <time>2024-05-17T06:53:16.310Z</time>
      </trkpt>
      <trkpt lat="50.708579" lon="18.120412">
        <ele>185.249465</ele>
        <time>2024-05-17T06:53:36.894Z</time>
      </trkpt>
      <trkpt lat="50.709244" lon="18.118939">
        <ele>185.296602</ele>
        <time>2024-05-17T06:54:11.963Z</time>
      </trkpt>
      <trkpt lat="50.709985" lon="18.117722">
        <ele>185.320831</ele>
        <time>2024-05-17T06:54:43.648Z</time>
      </trkpt>
      <trkpt lat="50.710123" lon="18.117193">
        <ele>185.329042</ele>
        <time>2024-05-17T06:54:54.193Z</time>
      </trkpt>
      <trkpt lat="50.710241" lon="18.116495">
        <ele>185.089511</ele>
        <time>2024-05-17T06:55:07.409Z</time>
      </trkpt>
      <trkpt lat="50.710238" lon="18.116267">
        <ele>185.008813</ele>
        <time>2024-05-17T06:55:11.597Z</time>
      </trkpt>
      <trkpt lat="50.710165" lon="18.115787">
        <ele>184.834129</ele>
        <time>2024-05-17T06:55:20.575Z</time>
      </trkpt>
      <trkpt lat="50.709765" lon="18.115022">
        <ele>184.483067</ele>
        <time>2024-05-17T06:55:37.943Z</time>
      </trkpt>
      <trkpt lat="50.709723" lon="18.114851">
        <ele>184.418164</ele>
        <time>2024-05-17T06:55:41.073Z</time>
      </trkpt>
      <trkpt lat="50.709720" lon="18.114708">
        <ele>184.367534</ele>
        <time>2024-05-17T06:55:43.525Z</time>
      </trkpt>
      <trkpt lat="50.709795" lon="18.114185">
        <ele>183.941545</ele>
        <time>2024-05-17T06:55:52.642Z</time>
      </trkpt>
      <trkpt lat="50.709888" lon="18.114028">
        <ele>183.743048</ele>
        <time>2024-05-17T06:55:56.297Z</time>
      </trkpt>
      <trkpt lat="50.710048" lon="18.113891">
        <ele>183.477670</ele>
        <time>2024-05-17T06:56:01.074Z</time>
      </trkpt>
      <trkpt lat="50.710656" lon="18.113567">
        <ele>182.542051</ele>
        <time>2024-05-17T06:56:17.734Z</time>
      </trkpt>
      <trkpt lat="50.710849" lon="18.113510">
        <ele>182.255765</ele>
        <time>2024-05-17T06:56:22.713Z</time>
      </trkpt>
      <trkpt lat="50.711198" lon="18.113525">
        <ele>181.746711</ele>
        <time>2024-05-17T06:56:31.525Z</time>
      </trkpt>
      <trkpt lat="50.711297" lon="18.113463">
        <ele>181.630743</ele>
        <time>2024-05-17T06:56:34.215Z</time>
      </trkpt>
      <trkpt lat="50.711377" lon="18.113320">
        <ele>181.517193</ele>
        <time>2024-05-17T06:56:37.259Z</time>
      </trkpt>
      <trkpt lat="50.711411" lon="18.113173">
        <ele>181.424064</ele>
        <time>2024-05-17T06:56:39.759Z</time>
      </trkpt>
      <trkpt lat="50.711557" lon="18.111147">
        <ele>180.210654</ele>
        <time>2024-05-17T06:57:15.048Z</time>
      </trkpt>
      <trkpt lat="50.711719" lon="18.109814">
        <ele>179.919955</ele>
        <time>2024-05-17T06:57:40.553Z</time>
      </trkpt>
      <trkpt lat="50.711759" lon="18.109547">
        <ele>179.895339</ele>
        <time>2024-05-17T06:57:45.686Z</time>
      </trkpt>
      <trkpt lat="50.712236" lon="18.106401">
        <ele>179.367467</ele>
        <time>2024-05-17T06:58:45.300Z</time>
      </trkpt>
      <trkpt lat="50.712720" lon="18.103227">
        <ele>178.175286</ele>
        <time>2024-05-17T06:59:42.808Z</time>
      </trkpt>
      <trkpt lat="50.712693" lon="18.102110">
        <ele>177.793493</ele>
        <time>2024-05-17T07:00:02.253Z</time>
      </trkpt>
      <trkpt lat="50.712507" lon="18.100445">
        <ele>177.517593</ele>
        <time>2024-05-17T07:00:32.795Z</time>
      </trkpt>
      <trkpt lat="50.712249" lon="18.098543">
        <ele>177.930807</ele>
        <time>2024-05-17T07:01:10.595Z</time>
      </trkpt>
      <trkpt lat="50.711977" lon="18.096479">
        <ele>178.939308</ele>
        <time>2024-05-17T07:01:54.699Z</time>
      </trkpt>
      <trkpt lat="50.711720" lon="18.094669">
        <ele>180.007534</ele>
        <time>2024-05-17T07:02:32.588Z</time>
      </trkpt>
      <trkpt lat="50.711631" lon="18.094333">
        <ele>180.217277</ele>
        <time>2024-05-17T07:02:40.176Z</time>
      </trkpt>
      <trkpt lat="50.711494" lon="18.094047">
        <ele>180.408859</ele>
        <time>2024-05-17T07:02:47.576Z</time>
      </trkpt>
      <trkpt lat="50.711297" lon="18.093734">
        <ele>180.628996</ele>
        <time>2024-05-17T07:02:56.670Z</time>
      </trkpt>
      <trkpt lat="50.711011" lon="18.093384">
        <ele>180.914022</ele>
        <time>2024-05-17T07:03:08.438Z</time>
      </trkpt>
      <trkpt lat="50.710829" lon="18.093267">
        <ele>181.068817</ele>
        <time>2024-05-17T07:03:14.851Z</time>
      </trkpt>
      <trkpt lat="50.710770" lon="18.093181">
        <ele>181.132067</ele>
        <time>2024-05-17T07:03:17.467Z</time>
      </trkpt>
      <trkpt lat="50.710664" lon="18.092846">
        <ele>181.318876</ele>
        <time>2024-05-17T07:03:25.264Z</time>
      </trkpt>
      <trkpt lat="50.710670" lon="18.092724">
        <ele>181.379917</ele>
        <time>2024-05-17T07:03:27.815Z</time>
      </trkpt>
      <trkpt lat="50.710720" lon="18.092533">
        <ele>181.483014</ele>
        <time>2024-05-17T07:03:31.971Z</time>
      </trkpt>
      <trkpt lat="50.711443" lon="18.091470">
        <ele>181.252376</ele>
        <time>2024-05-17T07:04:02.385Z</time>
      </trkpt>
      <trkpt lat="50.711449" lon="18.091282">
        <ele>181.168266</ele>
        <time>2024-05-17T07:04:05.775Z</time>
      </trkpt>
      <trkpt lat="50.711376" lon="18.091159">
        <ele>181.092940</ele>
        <time>2024-05-17T07:04:08.861Z</time>
      </trkpt>
      <trkpt lat="50.711585" lon="18.090847">
        <ele>180.889999</ele>
        <time>2024-05-17T07:04:13.321Z</time>
      </trkpt>
      <trkpt lat="50.710906" lon="18.087182">
        <ele>177.445426</ele>
        <time>2024-05-17T07:05:14.412Z</time>
      </trkpt>
      <trkpt lat="50.710076" lon="18.082650">
        <ele>177.570312</ele>
        <time>2024-05-17T07:06:46.710Z</time>
      </trkpt>
      <trkpt lat="50.709270" lon="18.078107">
        <ele>175.736785</ele>
        <time>2024-05-17T07:08:08.391Z</time>
      </trkpt>
      <trkpt lat="50.708450" lon="18.073525">
        <ele>174.667888</ele>
        <time>2024-05-17T07:09:35.075Z</time>
      </trkpt>
      <trkpt lat="50.707658" lon="18.069022">
        <ele>174.876106</ele>
        <time>2024-05-17T07:11:02.618Z</time>
      </trkpt>
      <trkpt lat="50.707287" lon="18.066910">
        <ele>175.752089</ele>
        <time>2024-05-17T07:11:46.622Z</time>
      </trkpt>
      <trkpt lat="50.706802" lon="18.064446">
        <ele>177.136532</ele>
        <time>2024-05-17T07:12:41.544Z</time>
      </trkpt>
      <trkpt lat="50.706763" lon="18.059000">
        <ele>178.291074</ele>
        <time>2024-05-17T07:14:27.858Z</time>
      </trkpt>
      <trkpt lat="50.706711" lon="18.053623">
        <ele>176.212455</ele>
        <time>2024-05-17T07:16:01.779Z</time>
      </trkpt>
      <trkpt lat="50.706693" lon="18.050513">
        <ele>174.982973</ele>
        <time>2024-05-17T07:16:56.366Z</time>
      </trkpt>
      <trkpt lat="50.706688" lon="18.048208">
        <ele>174.420113</ele>
        <time>2024-05-17T07:17:39.086Z</time>
      </trkpt>
      <trkpt lat="50.706649" lon="18.042745">
        <ele>171.696096</ele>
        <time>2024-05-17T07:19:13.826Z</time>
      </trkpt>
      <trkpt lat="50.706619" lon="18.037384">
        <ele>168.978483</ele>
        <time>2024-05-17T07:20:46.683Z</time>
      </trkpt>
      <trkpt lat="50.706592" lon="18.031985">
        <ele>168.114959</ele>
        <time>2024-05-17T07:22:24.847Z</time>
      </trkpt>
      <trkpt lat="50.706569" lon="18.028530">
        <ele>168.640852</ele>
        <time>2024-05-17T07:23:33.834Z</time>
      </trkpt>
      <trkpt lat="50.706554" lon="18.025028">
        <ele>166.953130</ele>
        <time>2024-05-17T07:24:33.866Z</time>
      </trkpt>
      <trkpt lat="50.706547" lon="18.021072">
        <ele>164.781325</ele>
        <time>2024-05-17T07:25:42.689Z</time>
      </trkpt>
      <trkpt lat="50.706502" lon="18.016941">
        <ele>162.022587</ele>
        <time>2024-05-17T07:26:53.089Z</time>
      </trkpt>
      <trkpt lat="50.706501" lon="18.016566">
        <ele>161.724043</ele>
        <time>2024-05-17T07:26:59.318Z</time>
      </trkpt>
      <trkpt lat="50.706498" lon="18.016403">
        <ele>161.594223</ele>
        <time>2024-05-17T07:27:01.995Z</time>
      </trkpt>
      <trkpt lat="50.706468" lon="18.016279">
        <ele>161.488547</ele>
        <time>2024-05-17T07:27:04.164Z</time>
      </trkpt>
      <trkpt lat="50.706421" lon="18.016237">
        <ele>161.420658</ele>
        <time>2024-05-17T07:27:05.588Z</time>
      </trkpt>
      <trkpt lat="50.704829" lon="18.014824">
        <ele>159.457297</ele>
        <time>2024-05-17T07:27:54.022Z</time>
      </trkpt>
      <trkpt lat="50.704753" lon="18.014751">
        <ele>159.394077</ele>
        <time>2024-05-17T07:27:56.481Z</time>
      </trkpt>
      <trkpt lat="50.704118" lon="18.014164">
        <ele>158.871140</ele>
        <time>2024-05-17T07:28:17.146Z</time>
      </trkpt>
      <trkpt lat="50.703200" lon="18.013397">
        <ele>158.296570</ele>
        <time>2024-05-17T07:28:47.212Z</time>
      </trkpt>
      <trkpt lat="50.702522" lon="18.012799">
        <ele>157.933340</ele>
        <time>2024-05-17T07:29:09.022Z</time>
      </trkpt>
      <trkpt lat="50.702339" lon="18.012603">
        <ele>157.829914</ele>
        <time>2024-05-17T07:29:15.180Z</time>
      </trkpt>
      <trkpt lat="50.702218" lon="18.012364">
        <ele>157.739478</ele>
        <time>2024-05-17T07:29:20.538Z</time>
      </trkpt>
      <trkpt lat="50.702187" lon="18.012230">
        <ele>157.697493</ele>
        <time>2024-05-17T07:29:23.090Z</time>
      </trkpt>
      <trkpt lat="50.702022" lon="18.011936">
        <ele>157.581887</ele>
        <time>2024-05-17T07:29:27.544Z</time>
      </trkpt>
      <trkpt lat="50.701353" lon="18.010988">
        <ele>157.164184</ele>
        <time>2024-05-17T07:29:43.941Z</time>
      </trkpt>
      <trkpt lat="50.700065" lon="18.009045">
        <ele>156.858995</ele>
        <time>2024-05-17T07:30:18.404Z</time>
      </trkpt>
      <trkpt lat="50.699848" lon="18.008788">
        <ele>156.843105</ele>
        <time>2024-05-17T07:30:23.983Z</time>
      </trkpt>
      <trkpt lat="50.699689" lon="18.008802">
        <ele>156.833777</ele>
        <time>2024-05-17T07:30:27.244Z</time>
      </trkpt>
      <trkpt lat="50.698663" lon="18.009130">
        <ele>156.850805</ele>
        <time>2024-05-17T07:30:48.355Z</time>
      </trkpt>
      <trkpt lat="50.698360" lon="18.008905">
        <ele>156.858361</ele>
        <time>2024-05-17T07:30:54.952Z</time>
      </trkpt>
      <trkpt lat="50.697859" lon="18.008666">
        <ele>156.862485</ele>
        <time>2024-05-17T07:31:05.111Z</time>
      </trkpt>
      <trkpt lat="50.697025" lon="18.007944">
        <ele>156.592711</ele>
        <time>2024-05-17T07:31:23.091Z</time>
      </trkpt>
      <trkpt lat="50.696040" lon="18.005739">
        <ele>156.258113</ele>
        <time>2024-05-17T07:31:55.360Z</time>
      </trkpt>
      <trkpt lat="50.695993" lon="18.005492">
        <ele>156.239441</ele>
        <time>2024-05-17T07:31:58.493Z</time>
      </trkpt>
      <trkpt lat="50.695580" lon="18.004528">
        <ele>156.155182</ele>
        <time>2024-05-17T07:32:11.580Z</time>
      </trkpt>
      <trkpt lat="50.694582" lon="18.002333">
        <ele>156.492187</ele>
        <time>2024-05-17T07:32:43.470Z</time>
      </trkpt>
      <trkpt lat="50.693669" lon="18.000349">
        <ele>156.599227</ele>
        <time>2024-05-17T07:33:12.045Z</time>
      </trkpt>
      <trkpt lat="50.693463" lon="17.999896">
        <ele>156.614886</ele>
        <time>2024-05-17T07:33:18.064Z</time>
      </trkpt>
      <trkpt lat="50.693394" lon="17.999782">
        <ele>156.562348</ele>
        <time>2024-05-17T07:33:19.710Z</time>
      </trkpt>
      <trkpt lat="50.693332" lon="17.999659">
        <ele>156.509972</ele>
        <time>2024-05-17T07:33:21.506Z</time>
      </trkpt>
      <trkpt lat="50.693292" lon="17.999581">
        <ele>156.476533</ele>
        <time>2024-05-17T07:33:22.690Z</time>
      </trkpt>
      <trkpt lat="50.693144" lon="17.999800">
        <ele>156.369831</ele>
        <time>2024-05-17T07:33:28.324Z</time>
      </trkpt>
      <trkpt lat="50.693083" lon="17.999784">
        <ele>156.337305</ele>
        <time>2024-05-17T07:33:30.102Z</time>
      </trkpt>
      <trkpt lat="50.692876" lon="17.999554">
        <ele>156.204156</ele>
        <time>2024-05-17T07:33:37.254Z</time>
      </trkpt>
      <trkpt lat="50.692204" lon="17.998978">
        <ele>155.801936</ele>
        <time>2024-05-17T07:33:58.453Z</time>
      </trkpt>
      <trkpt lat="50.691880" lon="17.998820">
        <ele>155.655204</ele>
        <time>2024-05-17T07:34:07.763Z</time>
      </trkpt>
      <trkpt lat="50.690604" lon="17.998611">
        <ele>155.405444</ele>
        <time>2024-05-17T07:34:44.822Z</time>
      </trkpt>
      <trkpt lat="50.687979" lon="17.997823">
        <ele>155.762725</ele>
        <time>2024-05-17T07:36:06.057Z</time>
      </trkpt>
      <trkpt lat="50.687299" lon="17.996249">
        <ele>155.943133</ele>
        <time>2024-05-17T07:36:42.298Z</time>
      </trkpt>
      <trkpt lat="50.687018" lon="17.995494">
        <ele>155.928686</ele>
        <time>2024-05-17T07:36:58.763Z</time>
      </trkpt>
      <trkpt lat="50.686639" lon="17.994597">
        <ele>155.870988</ele>
        <time>2024-05-17T07:37:18.889Z</time>
      </trkpt>
      <trkpt lat="50.686439" lon="17.994125">
        <ele>155.840601</ele>
        <time>2024-05-17T07:37:29.449Z</time>
      </trkpt>
      <trkpt lat="50.685091" lon="17.990155">
        <ele>155.155516</ele>
        <time>2024-05-17T07:38:52.125Z</time>
      </trkpt>
      <trkpt lat="50.685054" lon="17.990160">
        <ele>155.140299</ele>
        <time>2024-05-17T07:38:53.195Z</time>
      </trkpt>
      <trkpt lat="50.684893" lon="17.990182">
        <ele>155.074079</ele>
        <time>2024-05-17T07:38:57.740Z</time>
      </trkpt>
      <trkpt lat="50.684572" lon="17.990122">
        <ele>154.941623</ele>
        <time>2024-05-17T07:39:06.792Z</time>
      </trkpt>
      <trkpt lat="50.684450" lon="17.990171">
        <ele>154.890037</ele>
        <time>2024-05-17T07:39:10.268Z</time>
      </trkpt>
      <trkpt lat="50.684266" lon="17.990198">
        <ele>154.814314</ele>
        <time>2024-05-17T07:39:15.526Z</time>
      </trkpt>
      <trkpt lat="50.684261" lon="17.989884">
        <ele>154.732765</ele>
        <time>2024-05-17T07:39:18.719Z</time>
      </trkpt>
      <trkpt lat="50.684074" lon="17.989764">
        <ele>154.661961</ele>
        <time>2024-05-17T07:39:22.120Z</time>
      </trkpt>
      <trkpt lat="50.683900" lon="17.989847">
        <ele>154.601875</ele>
        <time>2024-05-17T07:39:25.062Z</time>
      </trkpt>
      <trkpt lat="50.683855" lon="17.989828">
        <ele>154.586478</ele>
        <time>2024-05-17T07:39:25.884Z</time>
      </trkpt>
      <trkpt lat="50.683744" lon="17.989730">
        <ele>154.544436</ele>
        <time>2024-05-17T07:39:28.071Z</time>
      </trkpt>
      <trkpt lat="50.683639" lon="17.989511">
        <ele>154.486917</ele>
        <time>2024-05-17T07:39:30.913Z</time>
      </trkpt>
      <trkpt lat="50.683608" lon="17.989490">
        <ele>154.475766</ele>
        <time>2024-05-17T07:39:31.496Z</time>
      </trkpt>
      <trkpt lat="50.683656" lon="17.989447">
        <ele>154.457522</ele>
        <time>2024-05-17T07:39:32.460Z</time>
      </trkpt>
      <trkpt lat="50.683890" lon="17.989361">
        <ele>154.378103</ele>
        <time>2024-05-17T07:39:36.476Z</time>
      </trkpt>
      <trkpt lat="50.684074" lon="17.989163">
        <ele>154.304490</ele>
        <time>2024-05-17T07:39:40.280Z</time>
      </trkpt>
      <trkpt lat="50.684308" lon="17.988830">
        <ele>154.200342</ele>
        <time>2024-05-17T07:39:45.567Z</time>
      </trkpt>
      <trkpt lat="50.684393" lon="17.988573">
        <ele>154.139625</ele>
        <time>2024-05-17T07:39:48.669Z</time>
      </trkpt>
      <trkpt lat="50.684480" lon="17.988436">
        <ele>154.123072</ele>
        <time>2024-05-17T07:39:50.795Z</time>
      </trkpt>
      <trkpt lat="50.685050" lon="17.987658">
        <ele>154.204682</ele>
        <time>2024-05-17T07:40:04.363Z</time>
      </trkpt>
      <trkpt lat="50.685915" lon="17.986275">
        <ele>154.328622</ele>
        <time>2024-05-17T07:40:27.260Z</time>
      </trkpt>
      <trkpt lat="50.686608" lon="17.984961">
        <ele>154.403684</ele>
        <time>2024-05-17T07:40:46.491Z</time>
      </trkpt>
      <trkpt lat="50.686615" lon="17.984828">
        <ele>154.409544</ele>
        <time>2024-05-17T07:40:48.037Z</time>
      </trkpt>
      <trkpt lat="50.686571" lon="17.984690">
        <ele>154.416326</ele>
        <time>2024-05-17T07:40:49.818Z</time>
      </trkpt>
      <trkpt lat="50.686076" lon="17.983662">
        <ele>154.409877</ele>
        <time>2024-05-17T07:41:04.784Z</time>
      </trkpt>
      <trkpt lat="50.685427" lon="17.982227">
        <ele>154.353225</ele>
        <time>2024-05-17T07:41:24.047Z</time>
      </trkpt>
      <trkpt lat="50.685297" lon="17.981809">
        <ele>154.374007</ele>
        <time>2024-05-17T07:41:29.234Z</time>
      </trkpt>
      <trkpt lat="50.685245" lon="17.981496">
        <ele>154.416129</ele>
        <time>2024-05-17T07:41:32.939Z</time>
      </trkpt>
      <trkpt lat="50.685105" lon="17.979995">
        <ele>154.613629</ele>
        <time>2024-05-17T07:41:50.566Z</time>
      </trkpt>
      <trkpt lat="50.685082" lon="17.979768">
        <ele>154.643554</ele>
        <time>2024-05-17T07:41:53.129Z</time>
      </trkpt>
      <trkpt lat="50.684979" lon="17.978686">
        <ele>155.048496</ele>
        <time>2024-05-17T07:42:06.449Z</time>
      </trkpt>
      <trkpt lat="50.684975" lon="17.978445">
        <ele>155.195756</ele>
        <time>2024-05-17T07:42:09.640Z</time>
      </trkpt>
      <trkpt lat="50.685004" lon="17.978172">
        <ele>155.364839</ele>
        <time>2024-05-17T07:42:13.193Z</time>
      </trkpt>
      <trkpt lat="50.685003" lon="17.977969">
        <ele>155.488840</ele>
        <time>2024-05-17T07:42:16.647Z</time>
      </trkpt>
      <trkpt lat="50.684967" lon="17.977778">
        <ele>155.610560</ele>
        <time>2024-05-17T07:42:20.100Z</time>
      </trkpt>
      <trkpt lat="50.684935" lon="17.977735">
        <ele>155.651078</ele>
        <time>2024-05-17T07:42:21.201Z</time>
      </trkpt>
      <trkpt lat="50.684951" lon="17.977666">
        <ele>155.695959</ele>
        <time>2024-05-17T07:42:22.190Z</time>
      </trkpt>
      <trkpt lat="50.684956" lon="17.977524">
        <ele>155.782830</ele>
        <time>2024-05-17T07:42:24.126Z</time>
      </trkpt>
      <trkpt lat="50.684840" lon="17.976134">
        <ele>156.725955</ele>
        <time>2024-05-17T07:42:43.647Z</time>
      </trkpt>
      <trkpt lat="50.684611" lon="17.973932">
        <ele>158.710343</ele>
        <time>2024-05-17T07:43:15.220Z</time>
      </trkpt>
      <trkpt lat="50.684593" lon="17.973750">
        <ele>158.874151</ele>
        <time>2024-05-17T07:43:17.795Z</time>
      </trkpt>
      <trkpt lat="50.684573" lon="17.973507">
        <ele>159.092289</ele>
        <time>2024-05-17T07:43:21.259Z</time>
      </trkpt>
      <trkpt lat="50.683976" lon="17.966148">
        <ele>165.460362</ele>
        <time>2024-05-17T07:45:05.963Z</time>
      </trkpt>
      <trkpt lat="50.683787" lon="17.964089">
        <ele>166.715635</ele>
        <time>2024-05-17T07:45:32.891Z</time>
      </trkpt>
      <trkpt lat="50.683352" lon="17.958383">
        <ele>169.490732</ele>
        <time>2024-05-17T07:46:45.463Z</time>
      </trkpt>
      <trkpt lat="50.683526" lon="17.958202">
        <ele>169.708186</ele>
        <time>2024-05-17T07:46:49.923Z</time>
      </trkpt>
      <trkpt lat="50.683594" lon="17.958073">
        <ele>169.819132</ele>
        <time>2024-05-17T07:46:52.185Z</time>
      </trkpt>
      <trkpt lat="50.683621" lon="17.957915">
        <ele>169.927326</ele>
        <time>2024-05-17T07:46:54.518Z</time>
      </trkpt>
      <trkpt lat="50.683611" lon="17.957782">
        <ele>170.015875</ele>
        <time>2024-05-17T07:46:56.450Z</time>
      </trkpt>
      <trkpt lat="50.683402" lon="17.956597">
        <ele>170.861311</ele>
        <time>2024-05-17T07:47:13.812Z</time>
      </trkpt>
      <trkpt lat="50.683406" lon="17.956485">
        <ele>170.945188</ele>
        <time>2024-05-17T07:47:15.354Z</time>
      </trkpt>
      <trkpt lat="50.683445" lon="17.956365">
        <ele>171.046029</ele>
        <time>2024-05-17T07:47:17.263Z</time>
      </trkpt>
      <trkpt lat="50.683496" lon="17.956238">
        <ele>171.158455</ele>
        <time>2024-05-17T07:47:19.548Z</time>
      </trkpt>
      <trkpt lat="50.683525" lon="17.956171">
        <ele>171.219125</ele>
        <time>2024-05-17T07:47:20.762Z</time>
      </trkpt>
      <trkpt lat="50.683604" lon="17.955962">
        <ele>171.401093</ele>
        <time>2024-05-17T07:47:24.100Z</time>
      </trkpt>
      <trkpt lat="50.683597" lon="17.955830">
        <ele>171.500136</ele>
        <time>2024-05-17T07:47:26.030Z</time>
      </trkpt>
      <trkpt lat="50.683587" lon="17.955776">
        <ele>171.542201</ele>
        <time>2024-05-17T07:47:26.871Z</time>
      </trkpt>
      <trkpt lat="50.683478" lon="17.955845">
        <ele>171.680792</ele>
        <time>2024-05-17T07:47:29.713Z</time>
      </trkpt>
      <trkpt lat="50.683455" lon="17.955762">
        <ele>171.748528</ele>
        <time>2024-05-17T07:47:31.328Z</time>
      </trkpt>
      <trkpt lat="50.683372" lon="17.955831">
        <ele>171.859233</ele>
        <time>2024-05-17T07:47:33.953Z</time>
      </trkpt>
      <trkpt lat="50.683314" lon="17.955871">
        <ele>171.933928</ele>
        <time>2024-05-17T07:47:35.721Z</time>
      </trkpt>
      <trkpt lat="50.683268" lon="17.955837">
        <ele>171.993870</ele>
        <time>2024-05-17T07:47:37.171Z</time>
      </trkpt>
      <trkpt lat="50.683226" lon="17.955869">
        <ele>172.048907</ele>
        <time>2024-05-17T07:47:38.497Z</time>
      </trkpt>
      <trkpt lat="50.682944" lon="17.954867">
        <ele>172.719826</ele>
        <time>2024-05-17T07:47:52.745Z</time>
      </trkpt>
      <trkpt lat="50.682837" lon="17.954486">
        <ele>172.746541</ele>
        <time>2024-05-17T07:47:57.746Z</time>
      </trkpt>
      <trkpt lat="50.682956" lon="17.954393">
        <ele>172.759975</ele>
        <time>2024-05-17T07:48:00.147Z</time>
      </trkpt>
      <trkpt lat="50.683115" lon="17.954256">
        <ele>172.778302</ele>
        <time>2024-05-17T07:48:03.460Z</time>
      </trkpt>
      <trkpt lat="50.683096" lon="17.954188">
        <ele>172.783066</ele>
        <time>2024-05-17T07:48:04.581Z</time>
      </trkpt>
      <trkpt lat="50.683199" lon="17.954077">
        <ele>172.795684</ele>
        <time>2024-05-17T07:48:07.459Z</time>
      </trkpt>
      <trkpt lat="50.683304" lon="17.953875">
        <ele>172.812432</ele>
        <time>2024-05-17T07:48:11.380Z</time>
      </trkpt>
      <trkpt lat="50.683433" lon="17.953774">
        <ele>172.827001</ele>
        <time>2024-05-17T07:48:14.050Z</time>
      </trkpt>
      <trkpt lat="50.684208" lon="17.953169">
        <ele>172.792685</ele>
        <time>2024-05-17T07:48:29.762Z</time>
      </trkpt>
      <trkpt lat="50.684645" lon="17.952911">
        <ele>172.624094</ele>
        <time>2024-05-17T07:48:37.898Z</time>
      </trkpt>
      <trkpt lat="50.684822" lon="17.952765">
        <ele>172.551929</ele>
        <time>2024-05-17T07:48:41.235Z</time>
      </trkpt>
      <trkpt lat="50.684989" lon="17.952561">
        <ele>172.475623</ele>
        <time>2024-05-17T07:48:44.938Z</time>
      </trkpt>
      <trkpt lat="50.685320" lon="17.952309">
        <ele>172.342832</ele>
        <time>2024-05-17T07:48:51.277Z</time>
      </trkpt>
      <trkpt lat="50.685360" lon="17.952274">
        <ele>172.326306</ele>
        <time>2024-05-17T07:48:52.030Z</time>
      </trkpt>
      <trkpt lat="50.685393" lon="17.952246">
        <ele>172.312768</ele>
        <time>2024-05-17T07:48:52.649Z</time>
      </trkpt>
      <trkpt lat="50.685843" lon="17.951835">
        <ele>172.306357</ele>
        <time>2024-05-17T07:49:01.988Z</time>
      </trkpt>
      <trkpt lat="50.686383" lon="17.951307">
        <ele>172.445373</ele>
        <time>2024-05-17T07:49:13.730Z</time>
      </trkpt>
      <trkpt lat="50.686693" lon="17.951041">
        <ele>172.522592</ele>
        <time>2024-05-17T07:49:20.480Z</time>
      </trkpt>
      <trkpt lat="50.686807" lon="17.950943">
        <ele>172.551001</ele>
        <time>2024-05-17T07:49:22.971Z</time>
      </trkpt>
      <trkpt lat="50.686871" lon="17.950822">
        <ele>172.572856</ele>
        <time>2024-05-17T07:49:24.970Z</time>
      </trkpt>
      <trkpt lat="50.686865" lon="17.950688">
        <ele>172.591482</ele>
        <time>2024-05-17T07:49:26.806Z</time>
      </trkpt>
      <trkpt lat="50.686837" lon="17.950658">
        <ele>172.598888</ele>
        <time>2024-05-17T07:49:27.483Z</time>
      </trkpt>
      <trkpt lat="50.685624" lon="17.949417">
        <ele>173.910712</ele>
        <time>2024-05-17T07:49:58.015Z</time>
      </trkpt>
      <trkpt lat="50.685549" lon="17.949340">
        <ele>173.998998</ele>
        <time>2024-05-17T07:49:59.920Z</time>
      </trkpt>
      <trkpt lat="50.684727" lon="17.948494">
        <ele>174.793309</ele>
        <time>2024-05-17T07:50:20.760Z</time>
      </trkpt>
      <trkpt lat="50.683950" lon="17.947692">
        <ele>175.425231</ele>
        <time>2024-05-17T07:50:39.259Z</time>
      </trkpt>
      <trkpt lat="50.683292" lon="17.947014">
        <ele>175.630620</ele>
        <time>2024-05-17T07:50:53.773Z</time>
      </trkpt>
      <trkpt lat="50.683249" lon="17.946970">
        <ele>175.630620</ele>
        <time>2024-05-17T07:50:54.728Z</time>
      </trkpt>
      <trkpt lat="50.683194" lon="17.946918">
        <ele>175.630620</ele>
        <time>2024-05-17T07:50:55.929Z</time>
      </trkpt>
      <trkpt lat="50.683149" lon="17.946871">
        <ele>175.630620</ele>
        <time>2024-05-17T07:50:56.898Z</time>
      </trkpt>
      <trkpt lat="50.682964" lon="17.947326">
        <ele>175.630620</ele>
        <time>2024-05-17T07:51:03.481Z</time>
      </trkpt>
      <trkpt lat="50.682917" lon="17.947364">
        <ele>175.630620</ele>
        <time>2024-05-17T07:51:04.479Z</time>
      </trkpt>
      <trkpt lat="50.682732" lon="17.947390">
        <ele>175.630620</ele>
        <time>2024-05-17T07:51:08.058Z</time>
      </trkpt>
      <trkpt lat="50.682547" lon="17.947416">
        <ele>175.630620</ele>
        <time>2024-05-17T07:51:11.659Z</time>
      </trkpt>
      <trkpt lat="50.682409" lon="17.947435">
        <ele>175.630620</ele>
        <time>2024-05-17T07:51:14.288Z</time>
      </trkpt>
      <trkpt lat="50.682164" lon="17.947469">
        <ele>175.630620</ele>
        <time>2024-05-17T07:51:18.966Z</time>
      </trkpt>
      <trkpt lat="50.682105" lon="17.947478">
        <ele>175.630620</ele>
        <time>2024-05-17T07:51:20.085Z</time>
      </trkpt>
      <trkpt lat="50.682058" lon="17.947485">
        <ele>175.630620</ele>
        <time>2024-05-17T07:51:20.940Z</time>
      </trkpt>
    </trkseg>
  </trk>
</gpx>