<?xml version='1.0' encoding='UTF-8'?>
<gpx version="1.1" creator="https://www.komoot.de" xmlns="http://www.topografix.com/GPX/1/1" xmlns:xsi="http://www.w3.org/2001/XMLSchema-instance" xsi:schemaLocation="http://www.topografix.com/GPX/1/1 http://www.topografix.com/GPX/1/1/gpx.xsd">
  <metadata>
    <name>2025/09/24 - GraveLova Środa #073 - Łoś Na Ratunek</name>
    <author>
      <link href="https://www.komoot.de">
        <text>komoot</text>
        <type>text/html</type>
      </link>
    </author>
  </metadata>
  <trk>
    <name>2025/09/24 - GraveLova Środa #073 - Łoś Na Ratunek</name>
    <trkseg>
      <trkpt lat="50.682105" lon="17.947478">
        <ele>175.909360</ele>
        <time>2025-09-23T20:54:58.810Z</time>
      </trkpt>
      <trkpt lat="50.682409" lon="17.947435">
        <ele>175.909360</ele>
        <time>2025-09-23T20:55:07.787Z</time>
      </trkpt>
      <trkpt lat="50.682547" lon="17.947416">
        <ele>175.909360</ele>
        <time>2025-09-23T20:55:11.816Z</time>
      </trkpt>
      <trkpt lat="50.682641" lon="17.947403">
        <ele>175.909360</ele>
        <time>2025-09-23T20:55:14.542Z</time>
      </trkpt>
      <trkpt lat="50.682732" lon="17.947390">
        <ele>175.909360</ele>
        <time>2025-09-23T20:55:17.201Z</time>
      </trkpt>
      <trkpt lat="50.682917" lon="17.947364">
        <ele>175.909360</ele>
        <time>2025-09-23T20:55:21.402Z</time>
      </trkpt>
      <trkpt lat="50.682964" lon="17.947326">
        <ele>175.909360</ele>
        <time>2025-09-23T20:55:22.575Z</time>
      </trkpt>
      <trkpt lat="50.683149" lon="17.946871">
        <ele>175.805704</ele>
        <time>2025-09-23T20:55:30.162Z</time>
      </trkpt>
      <trkpt lat="50.683194" lon="17.946918">
        <ele>175.787733</ele>
        <time>2025-09-23T20:55:31.344Z</time>
      </trkpt>
      <trkpt lat="50.683249" lon="17.946970">
        <ele>175.766380</ele>
        <time>2025-09-23T20:55:32.732Z</time>
      </trkpt>
      <trkpt lat="50.683292" lon="17.947014">
        <ele>175.749313</ele>
        <time>2025-09-23T20:55:33.842Z</time>
      </trkpt>
      <trkpt lat="50.683950" lon="17.947692">
        <ele>175.487604</ele>
        <time>2025-09-23T20:55:51.074Z</time>
      </trkpt>
      <trkpt lat="50.684727" lon="17.948494">
        <ele>174.914039</ele>
        <time>2025-09-23T20:56:10.167Z</time>
      </trkpt>
      <trkpt lat="50.685549" lon="17.949340">
        <ele>173.932322</ele>
        <time>2025-09-23T20:56:29.604Z</time>
      </trkpt>
      <trkpt lat="50.685624" lon="17.949417">
        <ele>173.842815</ele>
        <time>2025-09-23T20:56:31.321Z</time>
      </trkpt>
      <trkpt lat="50.686837" lon="17.950658">
        <ele>172.581777</ele>
        <time>2025-09-23T20:56:59.157Z</time>
      </trkpt>
      <trkpt lat="50.686865" lon="17.950688">
        <ele>172.553545</ele>
        <time>2025-09-23T20:56:59.888Z</time>
      </trkpt>
      <trkpt lat="50.686871" lon="17.950822">
        <ele>172.482544</ele>
        <time>2025-09-23T20:57:01.726Z</time>
      </trkpt>
      <trkpt lat="50.686807" lon="17.950943">
        <ele>172.399234</ele>
        <time>2025-09-23T20:57:03.947Z</time>
      </trkpt>
      <trkpt lat="50.686693" lon="17.951041">
        <ele>172.290940</ele>
        <time>2025-09-23T20:57:06.863Z</time>
      </trkpt>
      <trkpt lat="50.686383" lon="17.951307">
        <ele>172.015545</ele>
        <time>2025-09-23T20:57:14.957Z</time>
      </trkpt>
      <trkpt lat="50.685843" lon="17.951835">
        <ele>172.209103</ele>
        <time>2025-09-23T20:57:31.299Z</time>
      </trkpt>
      <trkpt lat="50.685393" lon="17.952246">
        <ele>172.367524</ele>
        <time>2025-09-23T20:57:44.828Z</time>
      </trkpt>
      <trkpt lat="50.685360" lon="17.952274">
        <ele>172.378941</ele>
        <time>2025-09-23T20:57:45.772Z</time>
      </trkpt>
      <trkpt lat="50.685320" lon="17.952309">
        <ele>172.392877</ele>
        <time>2025-09-23T20:57:46.880Z</time>
      </trkpt>
      <trkpt lat="50.684989" lon="17.952561">
        <ele>172.504856</ele>
        <time>2025-09-23T20:57:55.473Z</time>
      </trkpt>
      <trkpt lat="50.684822" lon="17.952765">
        <ele>172.568238</ele>
        <time>2025-09-23T20:58:00.495Z</time>
      </trkpt>
      <trkpt lat="50.684645" lon="17.952911">
        <ele>172.623591</ele>
        <time>2025-09-23T20:58:05.250Z</time>
      </trkpt>
      <trkpt lat="50.684208" lon="17.953169">
        <ele>172.752905</ele>
        <time>2025-09-23T20:58:16.944Z</time>
      </trkpt>
      <trkpt lat="50.683468" lon="17.953747">
        <ele>172.981744</ele>
        <time>2025-09-23T20:58:37.481Z</time>
      </trkpt>
      <trkpt lat="50.683433" lon="17.953774">
        <ele>172.992542</ele>
        <time>2025-09-23T20:58:38.462Z</time>
      </trkpt>
      <trkpt lat="50.683304" lon="17.953875">
        <ele>173.032453</ele>
        <time>2025-09-23T20:58:42.067Z</time>
      </trkpt>
      <trkpt lat="50.683199" lon="17.954077">
        <ele>173.015316</ele>
        <time>2025-09-23T20:58:47.242Z</time>
      </trkpt>
      <trkpt lat="50.683096" lon="17.954188">
        <ele>172.947573</ele>
        <time>2025-09-23T20:58:51.073Z</time>
      </trkpt>
      <trkpt lat="50.682934" lon="17.954331">
        <ele>172.846755</ele>
        <time>2025-09-23T20:58:56.678Z</time>
      </trkpt>
      <trkpt lat="50.682943" lon="17.954356">
        <ele>172.836860</ele>
        <time>2025-09-23T20:58:57.968Z</time>
      </trkpt>
      <trkpt lat="50.682956" lon="17.954393">
        <ele>172.822300</ele>
        <time>2025-09-23T20:58:59.831Z</time>
      </trkpt>
      <trkpt lat="50.682837" lon="17.954486">
        <ele>172.750174</ele>
        <time>2025-09-23T20:59:02.766Z</time>
      </trkpt>
      <trkpt lat="50.682944" lon="17.954867">
        <ele>172.606751</ele>
        <time>2025-09-23T20:59:08.669Z</time>
      </trkpt>
      <trkpt lat="50.683226" lon="17.955869">
        <ele>172.229430</ele>
        <time>2025-09-23T20:59:23.242Z</time>
      </trkpt>
      <trkpt lat="50.683266" lon="17.955989">
        <ele>172.182766</ele>
        <time>2025-09-23T20:59:25.030Z</time>
      </trkpt>
      <trkpt lat="50.683478" lon="17.955845">
        <ele>172.017537</ele>
        <time>2025-09-23T20:59:29.564Z</time>
      </trkpt>
      <trkpt lat="50.683587" lon="17.955776">
        <ele>171.841709</ele>
        <time>2025-09-23T20:59:31.825Z</time>
      </trkpt>
      <trkpt lat="50.683597" lon="17.955830">
        <ele>171.788342</ele>
        <time>2025-09-23T20:59:32.512Z</time>
      </trkpt>
      <trkpt lat="50.683604" lon="17.955962">
        <ele>171.662688</ele>
        <time>2025-09-23T20:59:34.104Z</time>
      </trkpt>
      <trkpt lat="50.683525" lon="17.956171">
        <ele>171.431831</ele>
        <time>2025-09-23T20:59:37.007Z</time>
      </trkpt>
      <trkpt lat="50.683496" lon="17.956238">
        <ele>171.354860</ele>
        <time>2025-09-23T20:59:38.007Z</time>
      </trkpt>
      <trkpt lat="50.683445" lon="17.956365">
        <ele>171.212228</ele>
        <time>2025-09-23T20:59:39.863Z</time>
      </trkpt>
      <trkpt lat="50.683406" lon="17.956485">
        <ele>171.084294</ele>
        <time>2025-09-23T20:59:41.422Z</time>
      </trkpt>
      <trkpt lat="50.683402" lon="17.956597">
        <ele>170.977881</ele>
        <time>2025-09-23T20:59:42.728Z</time>
      </trkpt>
      <trkpt lat="50.683611" lon="17.957782">
        <ele>169.811047</ele>
        <time>2025-09-23T20:59:57.395Z</time>
      </trkpt>
      <trkpt lat="50.683621" lon="17.957915">
        <ele>169.683997</ele>
        <time>2025-09-23T20:59:59.001Z</time>
      </trkpt>
      <trkpt lat="50.683594" lon="17.958073">
        <ele>169.528763</ele>
        <time>2025-09-23T21:00:00.967Z</time>
      </trkpt>
      <trkpt lat="50.683526" lon="17.958202">
        <ele>169.378082</ele>
        <time>2025-09-23T21:00:02.979Z</time>
      </trkpt>
      <trkpt lat="50.683352" lon="17.958383">
        <ele>169.216160</ele>
        <time>2025-09-23T21:00:06.926Z</time>
      </trkpt>
      <trkpt lat="50.683787" lon="17.964089">
        <ele>166.710264</ele>
        <time>2025-09-23T21:01:22.355Z</time>
      </trkpt>
      <trkpt lat="50.683976" lon="17.966148">
        <ele>165.604232</ele>
        <time>2025-09-23T21:01:49.252Z</time>
      </trkpt>
      <trkpt lat="50.684536" lon="17.972863">
        <ele>159.883230</ele>
        <time>2025-09-23T21:03:11.816Z</time>
      </trkpt>
      <trkpt lat="50.684570" lon="17.973511">
        <ele>159.305827</ele>
        <time>2025-09-23T21:03:19.648Z</time>
      </trkpt>
      <trkpt lat="50.684593" lon="17.973750">
        <ele>159.091158</ele>
        <time>2025-09-23T21:03:22.573Z</time>
      </trkpt>
      <trkpt lat="50.684774" lon="17.975652">
        <ele>157.376838</ele>
        <time>2025-09-23T21:03:45.937Z</time>
      </trkpt>
      <trkpt lat="50.684791" lon="17.975787">
        <ele>157.253410</ele>
        <time>2025-09-23T21:03:47.599Z</time>
      </trkpt>
      <trkpt lat="50.684857" lon="17.976394">
        <ele>156.701133</ele>
        <time>2025-09-23T21:03:55.060Z</time>
      </trkpt>
      <trkpt lat="50.684932" lon="17.977290">
        <ele>155.890676</ele>
        <time>2025-09-23T21:04:06.007Z</time>
      </trkpt>
      <trkpt lat="50.684947" lon="17.977684">
        <ele>155.536725</ele>
        <time>2025-09-23T21:04:10.795Z</time>
      </trkpt>
      <trkpt lat="50.684935" lon="17.977735">
        <ele>155.487940</ele>
        <time>2025-09-23T21:04:11.465Z</time>
      </trkpt>
      <trkpt lat="50.684967" lon="17.977778">
        <ele>155.460987</ele>
        <time>2025-09-23T21:04:12.573Z</time>
      </trkpt>
      <trkpt lat="50.685003" lon="17.977969">
        <ele>155.382610</ele>
        <time>2025-09-23T21:04:15.854Z</time>
      </trkpt>
      <trkpt lat="50.685050" lon="17.978008">
        <ele>155.349647</ele>
        <time>2025-09-23T21:04:19.579Z</time>
      </trkpt>
      <trkpt lat="50.685004" lon="17.978172">
        <ele>155.279105</ele>
        <time>2025-09-23T21:04:21.773Z</time>
      </trkpt>
      <trkpt lat="50.684973" lon="17.978562">
        <ele>155.124508</ele>
        <time>2025-09-23T21:04:26.636Z</time>
      </trkpt>
      <trkpt lat="50.685082" lon="17.979768">
        <ele>154.645366</ele>
        <time>2025-09-23T21:04:42.721Z</time>
      </trkpt>
      <trkpt lat="50.685105" lon="17.979995">
        <ele>154.554949</ele>
        <time>2025-09-23T21:04:45.956Z</time>
      </trkpt>
      <trkpt lat="50.685245" lon="17.981496">
        <ele>154.413221</ele>
        <time>2025-09-23T21:05:08.001Z</time>
      </trkpt>
      <trkpt lat="50.685297" lon="17.981809">
        <ele>154.426635</ele>
        <time>2025-09-23T21:05:12.765Z</time>
      </trkpt>
      <trkpt lat="50.685427" lon="17.982227">
        <ele>154.445938</ele>
        <time>2025-09-23T21:05:19.380Z</time>
      </trkpt>
      <trkpt lat="50.686083" lon="17.983655">
        <ele>154.473904</ele>
        <time>2025-09-23T21:05:44.237Z</time>
      </trkpt>
      <trkpt lat="50.686571" lon="17.984690">
        <ele>154.450812</ele>
        <time>2025-09-23T21:06:02.376Z</time>
      </trkpt>
      <trkpt lat="50.686615" lon="17.984828">
        <ele>154.448047</ele>
        <time>2025-09-23T21:06:04.558Z</time>
      </trkpt>
      <trkpt lat="50.686608" lon="17.984961">
        <ele>154.445659</ele>
        <time>2025-09-23T21:06:06.484Z</time>
      </trkpt>
      <trkpt lat="50.685915" lon="17.986275">
        <ele>154.312637</ele>
        <time>2025-09-23T21:06:30.348Z</time>
      </trkpt>
      <trkpt lat="50.685050" lon="17.987658">
        <ele>154.147101</ele>
        <time>2025-09-23T21:06:56.981Z</time>
      </trkpt>
      <trkpt lat="50.684480" lon="17.988436">
        <ele>154.153076</ele>
        <time>2025-09-23T21:07:13.259Z</time>
      </trkpt>
      <trkpt lat="50.684393" lon="17.988573">
        <ele>154.154050</ele>
        <time>2025-09-23T21:07:15.924Z</time>
      </trkpt>
      <trkpt lat="50.684308" lon="17.988830">
        <ele>154.155507</ele>
        <time>2025-09-23T21:07:20.054Z</time>
      </trkpt>
      <trkpt lat="50.684074" lon="17.989163">
        <ele>154.158005</ele>
        <time>2025-09-23T21:07:27.455Z</time>
      </trkpt>
      <trkpt lat="50.683890" lon="17.989361">
        <ele>154.159771</ele>
        <time>2025-09-23T21:07:32.824Z</time>
      </trkpt>
      <trkpt lat="50.683656" lon="17.989447">
        <ele>154.291456</ele>
        <time>2025-09-23T21:07:38.836Z</time>
      </trkpt>
      <trkpt lat="50.683608" lon="17.989490">
        <ele>154.321920</ele>
        <time>2025-09-23T21:07:40.206Z</time>
      </trkpt>
      <trkpt lat="50.683639" lon="17.989511">
        <ele>154.340540</ele>
        <time>2025-09-23T21:07:41.061Z</time>
      </trkpt>
      <trkpt lat="50.683744" lon="17.989730">
        <ele>154.436586</ele>
        <time>2025-09-23T21:07:45.532Z</time>
      </trkpt>
      <trkpt lat="50.683855" lon="17.989828">
        <ele>154.506788</ele>
        <time>2025-09-23T21:07:48.770Z</time>
      </trkpt>
      <trkpt lat="50.683900" lon="17.989847">
        <ele>154.532500</ele>
        <time>2025-09-23T21:07:49.978Z</time>
      </trkpt>
      <trkpt lat="50.684074" lon="17.989764">
        <ele>154.632832</ele>
        <time>2025-09-23T21:07:54.581Z</time>
      </trkpt>
      <trkpt lat="50.684261" lon="17.989884">
        <ele>154.744254</ele>
        <time>2025-09-23T21:07:59.731Z</time>
      </trkpt>
      <trkpt lat="50.684266" lon="17.990198">
        <ele>154.854100</ele>
        <time>2025-09-23T21:08:04.853Z</time>
      </trkpt>
      <trkpt lat="50.684450" lon="17.990171">
        <ele>154.956099</ele>
        <time>2025-09-23T21:08:12.404Z</time>
      </trkpt>
      <trkpt lat="50.684572" lon="17.990122">
        <ele>155.025584</ele>
        <time>2025-09-23T21:08:17.532Z</time>
      </trkpt>
      <trkpt lat="50.684893" lon="17.990182">
        <ele>155.179352</ele>
        <time>2025-09-23T21:08:30.212Z</time>
      </trkpt>
      <trkpt lat="50.685054" lon="17.990160">
        <ele>155.225805</ele>
        <time>2025-09-23T21:08:36.446Z</time>
      </trkpt>
      <trkpt lat="50.685091" lon="17.990155">
        <ele>155.236480</ele>
        <time>2025-09-23T21:08:37.884Z</time>
      </trkpt>
      <trkpt lat="50.686439" lon="17.994125">
        <ele>155.906800</ele>
        <time>2025-09-23T21:10:26.759Z</time>
      </trkpt>
      <trkpt lat="50.687018" lon="17.995494">
        <ele>155.970236</ele>
        <time>2025-09-23T21:11:05.566Z</time>
      </trkpt>
      <trkpt lat="50.687299" lon="17.996249">
        <ele>155.955131</ele>
        <time>2025-09-23T21:11:26.098Z</time>
      </trkpt>
      <trkpt lat="50.687979" lon="17.997823">
        <ele>155.811032</ele>
        <time>2025-09-23T21:12:10.600Z</time>
      </trkpt>
      <trkpt lat="50.690604" lon="17.998611">
        <ele>155.289857</ele>
        <time>2025-09-23T21:13:47.516Z</time>
      </trkpt>
      <trkpt lat="50.691880" lon="17.998820">
        <ele>155.697957</ele>
        <time>2025-09-23T21:14:36.339Z</time>
      </trkpt>
      <trkpt lat="50.692204" lon="17.998978">
        <ele>155.872664</ele>
        <time>2025-09-23T21:14:50.059Z</time>
      </trkpt>
      <trkpt lat="50.692876" lon="17.999554">
        <ele>156.243184</ele>
        <time>2025-09-23T21:15:22.412Z</time>
      </trkpt>
      <trkpt lat="50.693083" lon="17.999784">
        <ele>156.346266</ele>
        <time>2025-09-23T21:15:32.792Z</time>
      </trkpt>
      <trkpt lat="50.693144" lon="17.999800">
        <ele>156.371448</ele>
        <time>2025-09-23T21:15:35.338Z</time>
      </trkpt>
      <trkpt lat="50.693292" lon="17.999581">
        <ele>156.454055</ele>
        <time>2025-09-23T21:15:43.546Z</time>
      </trkpt>
      <trkpt lat="50.693332" lon="17.999659">
        <ele>156.479943</ele>
        <time>2025-09-23T21:15:45.153Z</time>
      </trkpt>
      <trkpt lat="50.693394" lon="17.999782">
        <ele>156.520492</ele>
        <time>2025-09-23T21:15:47.760Z</time>
      </trkpt>
      <trkpt lat="50.693463" lon="17.999896">
        <ele>156.561165</ele>
        <time>2025-09-23T21:15:50.295Z</time>
      </trkpt>
      <trkpt lat="50.693669" lon="18.000349">
        <ele>156.705015</ele>
        <time>2025-09-23T21:15:58.696Z</time>
      </trkpt>
      <trkpt lat="50.694582" lon="18.002333">
        <ele>156.525391</ele>
        <time>2025-09-23T21:16:31.631Z</time>
      </trkpt>
      <trkpt lat="50.695580" lon="18.004528">
        <ele>156.169283</ele>
        <time>2025-09-23T21:17:08.448Z</time>
      </trkpt>
      <trkpt lat="50.695993" lon="18.005492">
        <ele>156.075603</ele>
        <time>2025-09-23T21:17:24.726Z</time>
      </trkpt>
      <trkpt lat="50.696040" lon="18.005739">
        <ele>156.110270</ele>
        <time>2025-09-23T21:17:28.815Z</time>
      </trkpt>
      <trkpt lat="50.697025" lon="18.007944">
        <ele>156.672918</ele>
        <time>2025-09-23T21:18:14.341Z</time>
      </trkpt>
      <trkpt lat="50.697859" lon="18.008666">
        <ele>156.838104</ele>
        <time>2025-09-23T21:18:39.488Z</time>
      </trkpt>
      <trkpt lat="50.698360" lon="18.008905">
        <ele>156.928998</ele>
        <time>2025-09-23T21:18:52.745Z</time>
      </trkpt>
      <trkpt lat="50.698663" lon="18.009130">
        <ele>156.974857</ele>
        <time>2025-09-23T21:19:01.003Z</time>
      </trkpt>
      <trkpt lat="50.699689" lon="18.008802">
        <ele>156.849517</ele>
        <time>2025-09-23T21:19:26.322Z</time>
      </trkpt>
      <trkpt lat="50.699848" lon="18.008788">
        <ele>156.830450</ele>
        <time>2025-09-23T21:19:30.146Z</time>
      </trkpt>
      <trkpt lat="50.700065" lon="18.009045">
        <ele>156.797970</ele>
        <time>2025-09-23T21:19:36.671Z</time>
      </trkpt>
      <trkpt lat="50.701353" lon="18.010988">
        <ele>157.056071</ele>
        <time>2025-09-23T21:20:20.760Z</time>
      </trkpt>
      <trkpt lat="50.702022" lon="18.011936">
        <ele>157.515449</ele>
        <time>2025-09-23T21:20:46.838Z</time>
      </trkpt>
      <trkpt lat="50.702187" lon="18.012230">
        <ele>157.681424</ele>
        <time>2025-09-23T21:20:54.155Z</time>
      </trkpt>
      <trkpt lat="50.702218" lon="18.012364">
        <ele>157.741701</ele>
        <time>2025-09-23T21:20:57.916Z</time>
      </trkpt>
      <trkpt lat="50.702339" lon="18.012603">
        <ele>157.870982</ele>
        <time>2025-09-23T21:21:05.916Z</time>
      </trkpt>
      <trkpt lat="50.702522" lon="18.012799">
        <ele>158.018503</ele>
        <time>2025-09-23T21:21:14.928Z</time>
      </trkpt>
      <trkpt lat="50.703200" lon="18.013397">
        <ele>158.418699</ele>
        <time>2025-09-23T21:21:45.403Z</time>
      </trkpt>
      <trkpt lat="50.704118" lon="18.014164">
        <ele>158.745301</ele>
        <time>2025-09-23T21:22:24.337Z</time>
      </trkpt>
      <trkpt lat="50.704753" lon="18.014751">
        <ele>159.207265</ele>
        <time>2025-09-23T21:22:53.392Z</time>
      </trkpt>
      <trkpt lat="50.704829" lon="18.014824">
        <ele>159.301384</ele>
        <time>2025-09-23T21:22:56.956Z</time>
      </trkpt>
      <trkpt lat="50.704745" lon="18.014998">
        <ele>159.447987</ele>
        <time>2025-09-23T21:23:06.567Z</time>
      </trkpt>
      <trkpt lat="50.706112" lon="18.016247">
        <ele>161.179757</ele>
        <time>2025-09-23T21:24:15.389Z</time>
      </trkpt>
      <trkpt lat="50.706501" lon="18.016566">
        <ele>161.727192</ele>
        <time>2025-09-23T21:24:34.989Z</time>
      </trkpt>
      <trkpt lat="50.706502" lon="18.016941">
        <ele>162.023791</ele>
        <time>2025-09-23T21:24:45.550Z</time>
      </trkpt>
      <trkpt lat="50.706547" lon="18.021072">
        <ele>164.827992</ele>
        <time>2025-09-23T21:26:36.108Z</time>
      </trkpt>
      <trkpt lat="50.706554" lon="18.025028">
        <ele>166.918106</ele>
        <time>2025-09-23T21:28:18.022Z</time>
      </trkpt>
      <trkpt lat="50.706569" lon="18.028530">
        <ele>168.507747</ele>
        <time>2025-09-23T21:29:53.835Z</time>
      </trkpt>
      <trkpt lat="50.706592" lon="18.031985">
        <ele>167.898265</ele>
        <time>2025-09-23T21:31:09.875Z</time>
      </trkpt>
      <trkpt lat="50.706619" lon="18.037384">
        <ele>168.979585</ele>
        <time>2025-09-23T21:33:23.049Z</time>
      </trkpt>
      <trkpt lat="50.706649" lon="18.042745">
        <ele>171.730145</ele>
        <time>2025-09-23T21:35:43.347Z</time>
      </trkpt>
      <trkpt lat="50.706688" lon="18.048208">
        <ele>174.376117</ele>
        <time>2025-09-23T21:38:07.634Z</time>
      </trkpt>
      <trkpt lat="50.706693" lon="18.050529">
        <ele>174.989318</ele>
        <time>2025-09-23T21:39:01.025Z</time>
      </trkpt>
      <trkpt lat="50.706711" lon="18.053623">
        <ele>176.166478</ele>
        <time>2025-09-23T21:40:22.215Z</time>
      </trkpt>
      <trkpt lat="50.706763" lon="18.059000">
        <ele>178.413566</ele>
        <time>2025-09-23T21:42:41.656Z</time>
      </trkpt>
      <trkpt lat="50.706802" lon="18.064446">
        <ele>177.261229</ele>
        <time>2025-09-23T21:44:46.186Z</time>
      </trkpt>
      <trkpt lat="50.707287" lon="18.066910">
        <ele>175.601016</ele>
        <time>2025-09-23T21:45:40.713Z</time>
      </trkpt>
      <trkpt lat="50.707658" lon="18.069022">
        <ele>174.727480</ele>
        <time>2025-09-23T21:46:30.381Z</time>
      </trkpt>
      <trkpt lat="50.708450" lon="18.073525">
        <ele>174.715598</ele>
        <time>2025-09-23T21:48:20.393Z</time>
      </trkpt>
      <trkpt lat="50.709270" lon="18.078107">
        <ele>175.691711</ele>
        <time>2025-09-23T21:50:16.052Z</time>
      </trkpt>
      <trkpt lat="50.710076" lon="18.082650">
        <ele>177.959622</ele>
        <time>2025-09-23T21:52:21.962Z</time>
      </trkpt>
      <trkpt lat="50.710906" lon="18.087182">
        <ele>177.737994</ele>
        <time>2025-09-23T21:54:07.127Z</time>
      </trkpt>
      <trkpt lat="50.711585" lon="18.090847">
        <ele>181.658081</ele>
        <time>2025-09-23T21:56:05.966Z</time>
      </trkpt>
      <trkpt lat="50.711376" lon="18.091159">
        <ele>181.780232</ele>
        <time>2025-09-23T21:56:13.667Z</time>
      </trkpt>
      <trkpt lat="50.711449" lon="18.091282">
        <ele>181.741996</ele>
        <time>2025-09-23T21:56:17.862Z</time>
      </trkpt>
      <trkpt lat="50.711443" lon="18.091470">
        <ele>181.699300</ele>
        <time>2025-09-23T21:56:22.477Z</time>
      </trkpt>
      <trkpt lat="50.710720" lon="18.092533">
        <ele>181.345464</ele>
        <time>2025-09-23T21:56:56.596Z</time>
      </trkpt>
      <trkpt lat="50.710670" lon="18.092724">
        <ele>181.298585</ele>
        <time>2025-09-23T21:57:01.055Z</time>
      </trkpt>
      <trkpt lat="50.710664" lon="18.092846">
        <ele>181.270830</ele>
        <time>2025-09-23T21:57:03.711Z</time>
      </trkpt>
      <trkpt lat="50.710770" lon="18.093181">
        <ele>181.161397</ele>
        <time>2025-09-23T21:57:11.915Z</time>
      </trkpt>
      <trkpt lat="50.710829" lon="18.093267">
        <ele>181.097059</ele>
        <time>2025-09-23T21:57:14.697Z</time>
      </trkpt>
      <trkpt lat="50.711011" lon="18.093384">
        <ele>180.939598</ele>
        <time>2025-09-23T21:57:21.566Z</time>
      </trkpt>
      <trkpt lat="50.711297" lon="18.093734">
        <ele>180.649664</ele>
        <time>2025-09-23T21:57:34.183Z</time>
      </trkpt>
      <trkpt lat="50.711494" lon="18.094047">
        <ele>180.425736</ele>
        <time>2025-09-23T21:57:43.913Z</time>
      </trkpt>
      <trkpt lat="50.711631" lon="18.094333">
        <ele>180.243770</ele>
        <time>2025-09-23T21:57:51.895Z</time>
      </trkpt>
      <trkpt lat="50.711720" lon="18.094669">
        <ele>180.058964</ele>
        <time>2025-09-23T21:58:00.089Z</time>
      </trkpt>
      <trkpt lat="50.711977" lon="18.096479">
        <ele>178.963614</ele>
        <time>2025-09-23T21:58:40.996Z</time>
      </trkpt>
      <trkpt lat="50.712249" lon="18.098543">
        <ele>177.840005</ele>
        <time>2025-09-23T21:59:26.626Z</time>
      </trkpt>
      <trkpt lat="50.712507" lon="18.100445">
        <ele>177.339235</ele>
        <time>2025-09-23T22:00:10.706Z</time>
      </trkpt>
      <trkpt lat="50.712693" lon="18.102110">
        <ele>177.787222</ele>
        <time>2025-09-23T22:00:53.588Z</time>
      </trkpt>
      <trkpt lat="50.712720" lon="18.103227">
        <ele>178.237602</ele>
        <time>2025-09-23T22:01:23.067Z</time>
      </trkpt>
      <trkpt lat="50.712236" lon="18.106401">
        <ele>179.416246</ele>
        <time>2025-09-23T22:02:46.083Z</time>
      </trkpt>
      <trkpt lat="50.711719" lon="18.109814">
        <ele>179.925830</ele>
        <time>2025-09-23T22:04:10.793Z</time>
      </trkpt>
      <trkpt lat="50.711557" lon="18.111147">
        <ele>180.051879</ele>
        <time>2025-09-23T22:04:41.597Z</time>
      </trkpt>
      <trkpt lat="50.711411" lon="18.113173">
        <ele>181.407682</ele>
        <time>2025-09-23T22:05:35.130Z</time>
      </trkpt>
      <trkpt lat="50.711377" lon="18.113320">
        <ele>181.566654</ele>
        <time>2025-09-23T22:05:39.961Z</time>
      </trkpt>
      <trkpt lat="50.711297" lon="18.113463">
        <ele>181.760484</ele>
        <time>2025-09-23T22:05:45.810Z</time>
      </trkpt>
      <trkpt lat="50.711198" lon="18.113525">
        <ele>181.931329</ele>
        <time>2025-09-23T22:05:51.049Z</time>
      </trkpt>
      <trkpt lat="50.710849" lon="18.113510">
        <ele>182.491391</ele>
        <time>2025-09-23T22:06:08.413Z</time>
      </trkpt>
      <trkpt lat="50.710656" lon="18.113567">
        <ele>182.806363</ele>
        <time>2025-09-23T22:06:18.015Z</time>
      </trkpt>
      <trkpt lat="50.710048" lon="18.113891">
        <ele>183.560839</ele>
        <time>2025-09-23T22:06:47.956Z</time>
      </trkpt>
      <trkpt lat="50.709888" lon="18.114028">
        <ele>183.755703</ele>
        <time>2025-09-23T22:06:55.873Z</time>
      </trkpt>
      <trkpt lat="50.709795" lon="18.114185">
        <ele>183.901457</ele>
        <time>2025-09-23T22:07:01.631Z</time>
      </trkpt>
      <trkpt lat="50.709720" lon="18.114708">
        <ele>184.265021</ele>
        <time>2025-09-23T22:07:15.491Z</time>
      </trkpt>
      <trkpt lat="50.709723" lon="18.114851">
        <ele>184.362026</ele>
        <time>2025-09-23T22:07:19.065Z</time>
      </trkpt>
      <trkpt lat="50.709765" lon="18.115022">
        <ele>184.486377</ele>
        <time>2025-09-23T22:07:23.614Z</time>
      </trkpt>
      <trkpt lat="50.710165" lon="18.115787">
        <ele>185.005935</ele>
        <time>2025-09-23T22:07:47.585Z</time>
      </trkpt>
      <trkpt lat="50.710238" lon="18.116267">
        <ele>185.112022</ele>
        <time>2025-09-23T22:07:59.755Z</time>
      </trkpt>
      <trkpt lat="50.710241" lon="18.116495">
        <ele>185.161031</ele>
        <time>2025-09-23T22:08:05.414Z</time>
      </trkpt>
      <trkpt lat="50.710123" lon="18.117193">
        <ele>185.316287</ele>
        <time>2025-09-23T22:08:23.480Z</time>
      </trkpt>
      <trkpt lat="50.709985" lon="18.117722">
        <ele>185.439241</ele>
        <time>2025-09-23T22:08:37.964Z</time>
      </trkpt>
      <trkpt lat="50.709244" lon="18.118939">
        <ele>185.346198</ele>
        <time>2025-09-23T22:09:17.634Z</time>
      </trkpt>
      <trkpt lat="50.708579" lon="18.120412">
        <ele>185.091881</ele>
        <time>2025-09-23T22:09:58.186Z</time>
      </trkpt>
      <trkpt lat="50.709003" lon="18.121279">
        <ele>185.225526</ele>
        <time>2025-09-23T22:10:23.883Z</time>
      </trkpt>
      <trkpt lat="50.709341" lon="18.121896">
        <ele>185.325057</ele>
        <time>2025-09-23T22:10:44.286Z</time>
      </trkpt>
      <trkpt lat="50.709384" lon="18.122048">
        <ele>185.345367</ele>
        <time>2025-09-23T22:10:48.539Z</time>
      </trkpt>
      <trkpt lat="50.709154" lon="18.122870">
        <ele>185.437853</ele>
        <time>2025-09-23T22:11:11.515Z</time>
      </trkpt>
      <trkpt lat="50.709136" lon="18.123141">
        <ele>185.455494</ele>
        <time>2025-09-23T22:11:18.440Z</time>
      </trkpt>
      <trkpt lat="50.709139" lon="18.123187">
        <ele>185.458488</ele>
        <time>2025-09-23T22:11:19.604Z</time>
      </trkpt>
      <trkpt lat="50.709241" lon="18.124757">
        <ele>185.560665</ele>
        <time>2025-09-23T22:11:57.269Z</time>
      </trkpt>
      <trkpt lat="50.709202" lon="18.125014">
        <ele>185.577775</ele>
        <time>2025-09-23T22:12:03.332Z</time>
      </trkpt>
      <trkpt lat="50.708739" lon="18.125747">
        <ele>185.281966</ele>
        <time>2025-09-23T22:12:26.828Z</time>
      </trkpt>
      <trkpt lat="50.708459" lon="18.126966">
        <ele>184.648458</ele>
        <time>2025-09-23T22:12:55.456Z</time>
      </trkpt>
      <trkpt lat="50.708287" lon="18.127476">
        <ele>184.366165</ele>
        <time>2025-09-23T22:13:08.072Z</time>
      </trkpt>
      <trkpt lat="50.707438" lon="18.129283">
        <ele>183.249741</ele>
        <time>2025-09-23T22:13:57.055Z</time>
      </trkpt>
      <trkpt lat="50.707242" lon="18.129815">
        <ele>182.943597</ele>
        <time>2025-09-23T22:14:10.874Z</time>
      </trkpt>
      <trkpt lat="50.707125" lon="18.130305">
        <ele>182.857206</ele>
        <time>2025-09-23T22:14:22.892Z</time>
      </trkpt>
      <trkpt lat="50.707010" lon="18.130637">
        <ele>182.944625</ele>
        <time>2025-09-23T22:14:31.756Z</time>
      </trkpt>
      <trkpt lat="50.706412" lon="18.131911">
        <ele>183.310962</ele>
        <time>2025-09-23T22:15:11.613Z</time>
      </trkpt>
      <trkpt lat="50.706286" lon="18.132273">
        <ele>183.406388</ele>
        <time>2025-09-23T22:15:22.261Z</time>
      </trkpt>
      <trkpt lat="50.705907" lon="18.132588">
        <ele>183.852179</ele>
        <time>2025-09-23T22:15:33.642Z</time>
      </trkpt>
      <trkpt lat="50.705726" lon="18.132575">
        <ele>184.101385</ele>
        <time>2025-09-23T22:15:38.493Z</time>
      </trkpt>
      <trkpt lat="50.704716" lon="18.132323">
        <ele>185.507782</ele>
        <time>2025-09-23T22:16:08.773Z</time>
      </trkpt>
      <trkpt lat="50.703654" lon="18.132239">
        <ele>187.261961</ele>
        <time>2025-09-23T22:16:46.013Z</time>
      </trkpt>
      <trkpt lat="50.703592" lon="18.132263">
        <ele>187.374424</ele>
        <time>2025-09-23T22:16:48.301Z</time>
      </trkpt>
      <trkpt lat="50.703482" lon="18.132307">
        <ele>187.574340</ele>
        <time>2025-09-23T22:16:52.259Z</time>
      </trkpt>
      <trkpt lat="50.702911" lon="18.132783">
        <ele>188.711902</ele>
        <time>2025-09-23T22:17:12.683Z</time>
      </trkpt>
      <trkpt lat="50.702562" lon="18.133074">
        <ele>189.262184</ele>
        <time>2025-09-23T22:17:23.370Z</time>
      </trkpt>
      <trkpt lat="50.701566" lon="18.133903">
        <ele>190.307030</ele>
        <time>2025-09-23T22:17:51.845Z</time>
      </trkpt>
      <trkpt lat="50.701383" lon="18.132909">
        <ele>191.178246</ele>
        <time>2025-09-23T22:18:20.076Z</time>
      </trkpt>
      <trkpt lat="50.701092" lon="18.131337">
        <ele>193.878840</ele>
        <time>2025-09-23T22:19:12.422Z</time>
      </trkpt>
      <trkpt lat="50.700973" lon="18.129357">
        <ele>196.632701</ele>
        <time>2025-09-23T22:20:19.879Z</time>
      </trkpt>
      <trkpt lat="50.700893" lon="18.128140">
        <ele>198.028450</ele>
        <time>2025-09-23T22:20:54.412Z</time>
      </trkpt>
      <trkpt lat="50.700874" lon="18.127410">
        <ele>198.804201</ele>
        <time>2025-09-23T22:21:11.695Z</time>
      </trkpt>
      <trkpt lat="50.700727" lon="18.126416">
        <ele>199.572902</ele>
        <time>2025-09-23T22:21:35.812Z</time>
      </trkpt>
      <trkpt lat="50.700101" lon="18.123451">
        <ele>202.679014</ele>
        <time>2025-09-23T22:23:07.970Z</time>
      </trkpt>
      <trkpt lat="50.700096" lon="18.123064">
        <ele>203.170666</ele>
        <time>2025-09-23T22:23:20.575Z</time>
      </trkpt>
      <trkpt lat="50.699865" lon="18.121999">
        <ele>204.450802</ele>
        <time>2025-09-23T22:23:54.833Z</time>
      </trkpt>
      <trkpt lat="50.699719" lon="18.121520">
        <ele>204.505326</ele>
        <time>2025-09-23T22:24:09.749Z</time>
      </trkpt>
      <trkpt lat="50.699131" lon="18.118394">
        <ele>204.057086</ele>
        <time>2025-09-23T22:25:23.775Z</time>
      </trkpt>
      <trkpt lat="50.699095" lon="18.118152">
        <ele>203.902591</ele>
        <time>2025-09-23T22:25:29.149Z</time>
      </trkpt>
      <trkpt lat="50.698985" lon="18.117112">
        <ele>203.247285</ele>
        <time>2025-09-23T22:25:51.732Z</time>
      </trkpt>
      <trkpt lat="50.698831" lon="18.116509">
        <ele>202.769170</ele>
        <time>2025-09-23T22:26:05.579Z</time>
      </trkpt>
      <trkpt lat="50.698689" lon="18.116134">
        <ele>202.331300</ele>
        <time>2025-09-23T22:26:14.855Z</time>
      </trkpt>
      <trkpt lat="50.698272" lon="18.115211">
        <ele>201.195052</ele>
        <time>2025-09-23T22:26:38.779Z</time>
      </trkpt>
      <trkpt lat="50.697586" lon="18.113308">
        <ele>198.856398</ele>
        <time>2025-09-23T22:27:24.614Z</time>
      </trkpt>
      <trkpt lat="50.697391" lon="18.112707">
        <ele>198.092319</ele>
        <time>2025-09-23T22:27:38.595Z</time>
      </trkpt>
      <trkpt lat="50.696419" lon="18.108318">
        <ele>193.120185</ele>
        <time>2025-09-23T22:29:15.538Z</time>
      </trkpt>
      <trkpt lat="50.696317" lon="18.107806">
        <ele>192.703144</ele>
        <time>2025-09-23T22:29:27.328Z</time>
      </trkpt>
      <trkpt lat="50.696070" lon="18.106071">
        <ele>191.406721</ele>
        <time>2025-09-23T22:30:06.063Z</time>
      </trkpt>
      <trkpt lat="50.695826" lon="18.104276">
        <ele>190.643533</ele>
        <time>2025-09-23T22:30:46.748Z</time>
      </trkpt>
      <trkpt lat="50.695695" lon="18.103380">
        <ele>190.198553</ele>
        <time>2025-09-23T22:31:08.051Z</time>
      </trkpt>
      <trkpt lat="50.695601" lon="18.102724">
        <ele>189.641611</ele>
        <time>2025-09-23T22:31:23.677Z</time>
      </trkpt>
      <trkpt lat="50.695398" lon="18.101180">
        <ele>188.335810</ele>
        <time>2025-09-23T22:31:57.483Z</time>
      </trkpt>
      <trkpt lat="50.695333" lon="18.100504">
        <ele>187.632779</ele>
        <time>2025-09-23T22:32:10.821Z</time>
      </trkpt>
      <trkpt lat="50.695226" lon="18.099184">
        <ele>185.790024</ele>
        <time>2025-09-23T22:32:26.266Z</time>
      </trkpt>
      <trkpt lat="50.695142" lon="18.098229">
        <ele>184.454913</ele>
        <time>2025-09-23T22:32:37.972Z</time>
      </trkpt>
      <trkpt lat="50.694983" lon="18.096235">
        <ele>183.028280</ele>
        <time>2025-09-23T22:33:04.971Z</time>
      </trkpt>
      <trkpt lat="50.694977" lon="18.096154">
        <ele>182.979997</ele>
        <time>2025-09-23T22:33:06.099Z</time>
      </trkpt>
      <trkpt lat="50.694927" lon="18.095529">
        <ele>182.607033</ele>
        <time>2025-09-23T22:33:14.558Z</time>
      </trkpt>
      <trkpt lat="50.694919" lon="18.095429">
        <ele>182.547358</ele>
        <time>2025-09-23T22:33:15.911Z</time>
      </trkpt>
      <trkpt lat="50.694816" lon="18.094208">
        <ele>181.674324</ele>
        <time>2025-09-23T22:33:32.008Z</time>
      </trkpt>
      <trkpt lat="50.694796" lon="18.094150">
        <ele>181.624859</ele>
        <time>2025-09-23T22:33:32.831Z</time>
      </trkpt>
      <trkpt lat="50.694803" lon="18.094035">
        <ele>181.538321</ele>
        <time>2025-09-23T22:33:34.259Z</time>
      </trkpt>
      <trkpt lat="50.694795" lon="18.093940">
        <ele>181.466534</ele>
        <time>2025-09-23T22:33:35.450Z</time>
      </trkpt>
      <trkpt lat="50.694792" lon="18.093891">
        <ele>181.429660</ele>
        <time>2025-09-23T22:33:36.066Z</time>
      </trkpt>
      <trkpt lat="50.694635" lon="18.091871">
        <ele>179.920132</ele>
        <time>2025-09-23T22:34:01.038Z</time>
      </trkpt>
      <trkpt lat="50.694459" lon="18.089538">
        <ele>178.240213</ele>
        <time>2025-09-23T22:34:29.841Z</time>
      </trkpt>
      <trkpt lat="50.694421" lon="18.088511">
        <ele>178.665465</ele>
        <time>2025-09-23T22:34:44.134Z</time>
      </trkpt>
      <trkpt lat="50.694405" lon="18.087749">
        <ele>179.026353</ele>
        <time>2025-09-23T22:34:57.256Z</time>
      </trkpt>
      <trkpt lat="50.694396" lon="18.087433">
        <ele>179.176082</ele>
        <time>2025-09-23T22:35:03.237Z</time>
      </trkpt>
      <trkpt lat="50.694394" lon="18.087346">
        <ele>179.217290</ele>
        <time>2025-09-23T22:35:04.888Z</time>
      </trkpt>
      <trkpt lat="50.694541" lon="18.085985">
        <ele>180.128051</ele>
        <time>2025-09-23T22:35:45.135Z</time>
      </trkpt>
      <trkpt lat="50.694672" lon="18.084831">
        <ele>181.123997</ele>
        <time>2025-09-23T22:36:19.011Z</time>
      </trkpt>
      <trkpt lat="50.694676" lon="18.084340">
        <ele>181.541138</ele>
        <time>2025-09-23T22:36:32.436Z</time>
      </trkpt>
      <trkpt lat="50.694628" lon="18.083793">
        <ele>181.930354</ele>
        <time>2025-09-23T22:36:46.650Z</time>
      </trkpt>
      <trkpt lat="50.694465" lon="18.083095">
        <ele>181.572936</ele>
        <time>2025-09-23T22:37:04.283Z</time>
      </trkpt>
      <trkpt lat="50.694240" lon="18.082626">
        <ele>181.290274</ele>
        <time>2025-09-23T22:37:17.504Z</time>
      </trkpt>
      <trkpt lat="50.694191" lon="18.082417">
        <ele>181.183202</ele>
        <time>2025-09-23T22:37:22.367Z</time>
      </trkpt>
      <trkpt lat="50.693996" lon="18.080749">
        <ele>180.104786</ele>
        <time>2025-09-23T22:37:57.974Z</time>
      </trkpt>
      <trkpt lat="50.693799" lon="18.077780">
        <ele>177.387470</ele>
        <time>2025-09-23T22:39:00.482Z</time>
      </trkpt>
      <trkpt lat="50.693718" lon="18.076896">
        <ele>177.014282</ele>
        <time>2025-09-23T22:39:20.645Z</time>
      </trkpt>
      <trkpt lat="50.693615" lon="18.076142">
        <ele>176.692011</ele>
        <time>2025-09-23T22:39:38.698Z</time>
      </trkpt>
      <trkpt lat="50.693556" lon="18.075371">
        <ele>176.272934</ele>
        <time>2025-09-23T22:39:56.816Z</time>
      </trkpt>
      <trkpt lat="50.693488" lon="18.074546">
        <ele>175.566882</ele>
        <time>2025-09-23T22:40:15.694Z</time>
      </trkpt>
      <trkpt lat="50.693514" lon="18.071289">
        <ele>172.448849</ele>
        <time>2025-09-23T22:41:22.981Z</time>
      </trkpt>
      <trkpt lat="50.693556" lon="18.070943">
        <ele>172.065068</ele>
        <time>2025-09-23T22:41:30.215Z</time>
      </trkpt>
      <trkpt lat="50.693662" lon="18.070559">
        <ele>171.608756</ele>
        <time>2025-09-23T22:41:38.891Z</time>
      </trkpt>
      <trkpt lat="50.693910" lon="18.069883">
        <ele>170.971644</ele>
        <time>2025-09-23T22:41:55.599Z</time>
      </trkpt>
      <trkpt lat="50.693938" lon="18.069609">
        <ele>170.994720</ele>
        <time>2025-09-23T22:42:01.731Z</time>
      </trkpt>
      <trkpt lat="50.693899" lon="18.069178">
        <ele>171.030918</ele>
        <time>2025-09-23T22:42:11.560Z</time>
      </trkpt>
      <trkpt lat="50.693513" lon="18.067221">
        <ele>171.234398</ele>
        <time>2025-09-23T22:43:04.057Z</time>
      </trkpt>
      <trkpt lat="50.693073" lon="18.064669">
        <ele>172.282163</ele>
        <time>2025-09-23T22:44:13.894Z</time>
      </trkpt>
      <trkpt lat="50.693022" lon="18.059216">
        <ele>169.942081</ele>
        <time>2025-09-23T22:46:14.372Z</time>
      </trkpt>
      <trkpt lat="50.692993" lon="18.053792">
        <ele>167.688055</ele>
        <time>2025-09-23T22:48:15.566Z</time>
      </trkpt>
      <trkpt lat="50.692979" lon="18.051159">
        <ele>167.357328</ele>
        <time>2025-09-23T22:49:15.528Z</time>
      </trkpt>
      <trkpt lat="50.692969" lon="18.048375">
        <ele>167.909732</ele>
        <time>2025-09-23T22:50:27.395Z</time>
      </trkpt>
      <trkpt lat="50.692959" lon="18.042875">
        <ele>167.687358</ele>
        <time>2025-09-23T22:52:36.175Z</time>
      </trkpt>
      <trkpt lat="50.692924" lon="18.037517">
        <ele>164.428773</ele>
        <time>2025-09-23T22:54:33.151Z</time>
      </trkpt>
      <trkpt lat="50.692921" lon="18.036084">
        <ele>163.223525</ele>
        <time>2025-09-23T22:55:03.647Z</time>
      </trkpt>
      <trkpt lat="50.692918" lon="18.034789">
        <ele>161.688685</ele>
        <time>2025-09-23T22:55:30.070Z</time>
      </trkpt>
      <trkpt lat="50.692882" lon="18.033458">
        <ele>160.109750</ele>
        <time>2025-09-23T22:55:57.263Z</time>
      </trkpt>
      <trkpt lat="50.692764" lon="18.032940">
        <ele>159.971795</ele>
        <time>2025-09-23T22:56:09.302Z</time>
      </trkpt>
      <trkpt lat="50.692629" lon="18.032180">
        <ele>159.954012</ele>
        <time>2025-09-23T22:56:27.571Z</time>
      </trkpt>
      <trkpt lat="50.692340" lon="18.031027">
        <ele>159.926077</ele>
        <time>2025-09-23T22:56:58.999Z</time>
      </trkpt>
      <trkpt lat="50.692065" lon="18.029767">
        <ele>159.891484</ele>
        <time>2025-09-23T22:57:32.747Z</time>
      </trkpt>
      <trkpt lat="50.692036" lon="18.029691">
        <ele>159.889065</ele>
        <time>2025-09-23T22:57:34.880Z</time>
      </trkpt>
      <trkpt lat="50.691997" lon="18.029539">
        <ele>159.884594</ele>
        <time>2025-09-23T22:57:38.750Z</time>
      </trkpt>
      <trkpt lat="50.691988" lon="18.029470">
        <ele>159.882674</ele>
        <time>2025-09-23T22:57:40.422Z</time>
      </trkpt>
      <trkpt lat="50.691808" lon="18.029344">
        <ele>159.874200</ele>
        <time>2025-09-23T22:57:47.632Z</time>
      </trkpt>
      <trkpt lat="50.691480" lon="18.029170">
        <ele>159.859308</ele>
        <time>2025-09-23T22:58:00.102Z</time>
      </trkpt>
      <trkpt lat="50.691086" lon="18.028836">
        <ele>159.837304</ele>
        <time>2025-09-23T22:58:16.002Z</time>
      </trkpt>
      <trkpt lat="50.690762" lon="18.028209">
        <ele>159.630317</ele>
        <time>2025-09-23T22:58:34.011Z</time>
      </trkpt>
      <trkpt lat="50.688632" lon="18.025720">
        <ele>158.745855</ele>
        <time>2025-09-23T23:00:09.931Z</time>
      </trkpt>
      <trkpt lat="50.687888" lon="18.024775">
        <ele>158.666422</ele>
        <time>2025-09-23T23:00:44.822Z</time>
      </trkpt>
      <trkpt lat="50.686932" lon="18.023885">
        <ele>158.740333</ele>
        <time>2025-09-23T23:01:26.666Z</time>
      </trkpt>
      <trkpt lat="50.686296" lon="18.023385">
        <ele>158.781875</ele>
        <time>2025-09-23T23:01:53.967Z</time>
      </trkpt>
      <trkpt lat="50.685991" lon="18.023294">
        <ele>158.799286</ele>
        <time>2025-09-23T23:02:05.675Z</time>
      </trkpt>
      <trkpt lat="50.685715" lon="18.023341">
        <ele>158.814857</ele>
        <time>2025-09-23T23:02:16.063Z</time>
      </trkpt>
      <trkpt lat="50.685630" lon="18.023252">
        <ele>158.820578</ele>
        <time>2025-09-23T23:02:19.844Z</time>
      </trkpt>
      <trkpt lat="50.685364" lon="18.022835">
        <ele>158.841608</ele>
        <time>2025-09-23T23:02:33.686Z</time>
      </trkpt>
      <trkpt lat="50.683959" lon="18.020511">
        <ele>158.707587</ele>
        <time>2025-09-23T23:03:48.363Z</time>
      </trkpt>
      <trkpt lat="50.682720" lon="18.018783">
        <ele>159.027387</ele>
        <time>2025-09-23T23:04:52.189Z</time>
      </trkpt>
      <trkpt lat="50.681953" lon="18.017630">
        <ele>158.917751</ele>
        <time>2025-09-23T23:05:31.198Z</time>
      </trkpt>
      <trkpt lat="50.682020" lon="18.017468">
        <ele>158.901581</ele>
        <time>2025-09-23T23:05:35.620Z</time>
      </trkpt>
      <trkpt lat="50.683409" lon="18.015646">
        <ele>158.463151</ele>
        <time>2025-09-23T23:06:41.010Z</time>
      </trkpt>
      <trkpt lat="50.683651" lon="18.015364">
        <ele>158.368568</ele>
        <time>2025-09-23T23:06:51.880Z</time>
      </trkpt>
      <trkpt lat="50.683855" lon="18.015190">
        <ele>158.295658</ele>
        <time>2025-09-23T23:07:00.216Z</time>
      </trkpt>
      <trkpt lat="50.686392" lon="18.013383">
        <ele>157.510166</ele>
        <time>2025-09-23T23:08:40.561Z</time>
      </trkpt>
      <trkpt lat="50.687997" lon="18.012214">
        <ele>157.226440</ele>
        <time>2025-09-23T23:09:47.051Z</time>
      </trkpt>
      <trkpt lat="50.687893" lon="18.011899">
        <ele>157.174023</ele>
        <time>2025-09-23T23:09:55.103Z</time>
      </trkpt>
      <trkpt lat="50.687734" lon="18.011570">
        <ele>157.112960</ele>
        <time>2025-09-23T23:10:04.440Z</time>
      </trkpt>
      <trkpt lat="50.687587" lon="18.011154">
        <ele>157.042669</ele>
        <time>2025-09-23T23:10:15.097Z</time>
      </trkpt>
      <trkpt lat="50.687432" lon="18.010905">
        <ele>156.991156</ele>
        <time>2025-09-23T23:10:22.859Z</time>
      </trkpt>
      <trkpt lat="50.686817" lon="18.009721">
        <ele>156.828915</ele>
        <time>2025-09-23T23:10:57.922Z</time>
      </trkpt>
      <trkpt lat="50.686289" lon="18.008864">
        <ele>156.702442</ele>
        <time>2025-09-23T23:11:26.530Z</time>
      </trkpt>
      <trkpt lat="50.686201" lon="18.008749">
        <ele>156.692754</ele>
        <time>2025-09-23T23:11:30.882Z</time>
      </trkpt>
      <trkpt lat="50.684077" lon="18.005670">
        <ele>156.826928</ele>
        <time>2025-09-23T23:13:18.448Z</time>
      </trkpt>
      <trkpt lat="50.683938" lon="18.005362">
        <ele>156.827972</ele>
        <time>2025-09-23T23:13:27.330Z</time>
      </trkpt>
      <trkpt lat="50.683296" lon="18.003344">
        <ele>156.696385</ele>
        <time>2025-09-23T23:14:20.014Z</time>
      </trkpt>
      <trkpt lat="50.680385" lon="17.994177">
        <ele>155.967459</ele>
        <time>2025-09-23T23:18:17.966Z</time>
      </trkpt>
      <trkpt lat="50.680204" lon="17.993661">
        <ele>156.048484</ele>
        <time>2025-09-23T23:18:32.823Z</time>
      </trkpt>
      <trkpt lat="50.680081" lon="17.993558">
        <ele>156.078674</ele>
        <time>2025-09-23T23:18:38.322Z</time>
      </trkpt>
      <trkpt lat="50.680225" lon="17.993153">
        <ele>156.142474</ele>
        <time>2025-09-23T23:18:47.653Z</time>
      </trkpt>
      <trkpt lat="50.680542" lon="17.993406">
        <ele>156.219491</ele>
        <time>2025-09-23T23:18:58.823Z</time>
      </trkpt>
      <trkpt lat="50.681140" lon="17.992966">
        <ele>156.112468</ele>
        <time>2025-09-23T23:19:18.906Z</time>
      </trkpt>
      <trkpt lat="50.681963" lon="17.992247">
        <ele>155.586153</ele>
        <time>2025-09-23T23:19:44.449Z</time>
      </trkpt>
      <trkpt lat="50.682881" lon="17.991346">
        <ele>155.181048</ele>
        <time>2025-09-23T23:20:13.839Z</time>
      </trkpt>
      <trkpt lat="50.683919" lon="17.990225">
        <ele>154.938398</ele>
        <time>2025-09-23T23:20:42.231Z</time>
      </trkpt>
      <trkpt lat="50.684266" lon="17.990198">
        <ele>154.893867</ele>
        <time>2025-09-23T23:20:50.471Z</time>
      </trkpt>
      <trkpt lat="50.684261" lon="17.989884">
        <ele>154.868358</ele>
        <time>2025-09-23T23:20:54.985Z</time>
      </trkpt>
      <trkpt lat="50.684305" lon="17.989710">
        <ele>154.853143</ele>
        <time>2025-09-23T23:20:57.636Z</time>
      </trkpt>
      <trkpt lat="50.684434" lon="17.989517">
        <ele>154.830360</ele>
        <time>2025-09-23T23:21:01.524Z</time>
      </trkpt>
      <trkpt lat="50.684755" lon="17.989077">
        <ele>154.775865</ele>
        <time>2025-09-23T23:21:10.589Z</time>
      </trkpt>
      <trkpt lat="50.684792" lon="17.989019">
        <ele>154.769181</ele>
        <time>2025-09-23T23:21:11.683Z</time>
      </trkpt>
      <trkpt lat="50.685496" lon="17.987942">
        <ele>154.644185</ele>
        <time>2025-09-23T23:21:32.451Z</time>
      </trkpt>
      <trkpt lat="50.686178" lon="17.986773">
        <ele>154.516473</ele>
        <time>2025-09-23T23:21:54.494Z</time>
      </trkpt>
      <trkpt lat="50.686898" lon="17.985429">
        <ele>154.561806</ele>
        <time>2025-09-23T23:22:20.374Z</time>
      </trkpt>
      <trkpt lat="50.687683" lon="17.983600">
        <ele>154.632168</ele>
        <time>2025-09-23T23:22:51.982Z</time>
      </trkpt>
      <trkpt lat="50.688084" lon="17.982538">
        <ele>154.586858</ele>
        <time>2025-09-23T23:23:09.195Z</time>
      </trkpt>
      <trkpt lat="50.688614" lon="17.980923">
        <ele>154.481234</ele>
        <time>2025-09-23T23:23:34.611Z</time>
      </trkpt>
      <trkpt lat="50.688856" lon="17.979984">
        <ele>154.399980</ele>
        <time>2025-09-23T23:23:48.720Z</time>
      </trkpt>
      <trkpt lat="50.689221" lon="17.978381">
        <ele>154.180606</ele>
        <time>2025-09-23T23:24:11.980Z</time>
      </trkpt>
      <trkpt lat="50.689314" lon="17.977962">
        <ele>154.097485</ele>
        <time>2025-09-23T23:24:17.983Z</time>
      </trkpt>
      <trkpt lat="50.689737" lon="17.975975">
        <ele>153.733171</ele>
        <time>2025-09-23T23:24:55.542Z</time>
      </trkpt>
      <trkpt lat="50.690289" lon="17.973784">
        <ele>153.431431</ele>
        <time>2025-09-23T23:25:38.159Z</time>
      </trkpt>
      <trkpt lat="50.691133" lon="17.971064">
        <ele>153.920343</ele>
        <time>2025-09-23T23:26:37.663Z</time>
      </trkpt>
      <trkpt lat="50.691941" lon="17.968893">
        <ele>154.550069</ele>
        <time>2025-09-23T23:27:27.035Z</time>
      </trkpt>
      <trkpt lat="50.692235" lon="17.968159">
        <ele>154.865637</ele>
        <time>2025-09-23T23:27:44.682Z</time>
      </trkpt>
      <trkpt lat="50.693452" lon="17.965107">
        <ele>156.413122</ele>
        <time>2025-09-23T23:28:59.181Z</time>
      </trkpt>
      <trkpt lat="50.693563" lon="17.964979">
        <ele>156.519773</ele>
        <time>2025-09-23T23:29:03.678Z</time>
      </trkpt>
      <trkpt lat="50.693606" lon="17.964942">
        <ele>156.557770</ele>
        <time>2025-09-23T23:29:05.273Z</time>
      </trkpt>
      <trkpt lat="50.693677" lon="17.964793">
        <ele>156.649406</ele>
        <time>2025-09-23T23:29:09.168Z</time>
      </trkpt>
      <trkpt lat="50.694307" lon="17.963216">
        <ele>157.883906</ele>
        <time>2025-09-23T23:29:49.346Z</time>
      </trkpt>
      <trkpt lat="50.694706" lon="17.962369">
        <ele>158.737496</ele>
        <time>2025-09-23T23:30:13.719Z</time>
      </trkpt>
      <trkpt lat="50.695489" lon="17.960852">
        <ele>160.358101</ele>
        <time>2025-09-23T23:30:59.542Z</time>
      </trkpt>
      <trkpt lat="50.695582" lon="17.960779">
        <ele>160.496014</ele>
        <time>2025-09-23T23:31:03.429Z</time>
      </trkpt>
      <trkpt lat="50.695988" lon="17.960698">
        <ele>161.039411</ele>
        <time>2025-09-23T23:31:16.123Z</time>
      </trkpt>
      <trkpt lat="50.696223" lon="17.960624">
        <ele>161.357604</ele>
        <time>2025-09-23T23:31:23.461Z</time>
      </trkpt>
      <trkpt lat="50.697231" lon="17.960063">
        <ele>161.280862</ele>
        <time>2025-09-23T23:31:51.350Z</time>
      </trkpt>
      <trkpt lat="50.697904" lon="17.959660">
        <ele>160.834277</ele>
        <time>2025-09-23T23:32:05.944Z</time>
      </trkpt>
      <trkpt lat="50.697987" lon="17.959563">
        <ele>160.770205</ele>
        <time>2025-09-23T23:32:07.956Z</time>
      </trkpt>
      <trkpt lat="50.698119" lon="17.959286">
        <ele>160.617767</ele>
        <time>2025-09-23T23:32:12.171Z</time>
      </trkpt>
      <trkpt lat="50.698143" lon="17.959220">
        <ele>160.521622</ele>
        <time>2025-09-23T23:32:13.079Z</time>
      </trkpt>
      <trkpt lat="50.698166" lon="17.959153">
        <ele>160.425346</ele>
        <time>2025-09-23T23:32:14.248Z</time>
      </trkpt>
      <trkpt lat="50.698185" lon="17.959059">
        <ele>160.300690</ele>
        <time>2025-09-23T23:32:15.791Z</time>
      </trkpt>
      <trkpt lat="50.698175" lon="17.958883">
        <ele>160.077447</ele>
        <time>2025-09-23T23:32:18.063Z</time>
      </trkpt>
      <trkpt lat="50.697898" lon="17.957238">
        <ele>157.927041</ele>
        <time>2025-09-23T23:32:39.957Z</time>
      </trkpt>
      <trkpt lat="50.697913" lon="17.957152">
        <ele>157.814348</ele>
        <time>2025-09-23T23:32:41.139Z</time>
      </trkpt>
      <trkpt lat="50.698565" lon="17.955778">
        <ele>156.370525</ele>
        <time>2025-09-23T23:33:04.356Z</time>
      </trkpt>
      <trkpt lat="50.698940" lon="17.954819">
        <ele>155.679749</ele>
        <time>2025-09-23T23:33:20.458Z</time>
      </trkpt>
      <trkpt lat="50.699714" lon="17.952225">
        <ele>155.216447</ele>
        <time>2025-09-23T23:34:04.804Z</time>
      </trkpt>
      <trkpt lat="50.701266" lon="17.946898">
        <ele>155.674423</ele>
        <time>2025-09-23T23:35:40.127Z</time>
      </trkpt>
      <trkpt lat="50.701632" lon="17.945496">
        <ele>155.349853</ele>
        <time>2025-09-23T23:36:03.304Z</time>
      </trkpt>
      <trkpt lat="50.701765" lon="17.945048">
        <ele>155.196250</ele>
        <time>2025-09-23T23:36:10.617Z</time>
      </trkpt>
      <trkpt lat="50.701947" lon="17.944681">
        <ele>155.051545</ele>
        <time>2025-09-23T23:36:17.412Z</time>
      </trkpt>
      <trkpt lat="50.702161" lon="17.943902">
        <ele>154.761119</ele>
        <time>2025-09-23T23:36:29.567Z</time>
      </trkpt>
      <trkpt lat="50.702513" lon="17.942523">
        <ele>153.902649</ele>
        <time>2025-09-23T23:36:50.484Z</time>
      </trkpt>
      <trkpt lat="50.703104" lon="17.939860">
        <ele>152.833602</ele>
        <time>2025-09-23T23:37:31.099Z</time>
      </trkpt>
      <trkpt lat="50.703570" lon="17.937441">
        <ele>152.763509</ele>
        <time>2025-09-23T23:38:11.947Z</time>
      </trkpt>
      <trkpt lat="50.703874" lon="17.935482">
        <ele>153.100519</ele>
        <time>2025-09-23T23:38:45.856Z</time>
      </trkpt>
      <trkpt lat="50.703905" lon="17.935367">
        <ele>153.121469</ele>
        <time>2025-09-23T23:38:47.945Z</time>
      </trkpt>
      <trkpt lat="50.703980" lon="17.935232">
        <ele>153.151571</ele>
        <time>2025-09-23T23:38:50.903Z</time>
      </trkpt>
      <trkpt lat="50.704035" lon="17.935187">
        <ele>153.167966</ele>
        <time>2025-09-23T23:38:52.523Z</time>
      </trkpt>
      <trkpt lat="50.704203" lon="17.935049">
        <ele>153.218088</ele>
        <time>2025-09-23T23:38:57.428Z</time>
      </trkpt>
      <trkpt lat="50.704351" lon="17.935532">
        <ele>153.308028</ele>
        <time>2025-09-23T23:39:05.274Z</time>
      </trkpt>
      <trkpt lat="50.704388" lon="17.935502">
        <ele>153.319036</ele>
        <time>2025-09-23T23:39:08.173Z</time>
      </trkpt>
      <trkpt lat="50.704219" lon="17.934924">
        <ele>153.425748</ele>
        <time>2025-09-23T23:39:17.528Z</time>
      </trkpt>
      <trkpt lat="50.704120" lon="17.934690">
        <ele>153.472919</ele>
        <time>2025-09-23T23:39:21.675Z</time>
      </trkpt>
      <trkpt lat="50.703902" lon="17.934306">
        <ele>153.681985</ele>
        <time>2025-09-23T23:39:29.333Z</time>
      </trkpt>
      <trkpt lat="50.703875" lon="17.934195">
        <ele>153.745844</ele>
        <time>2025-09-23T23:39:31.162Z</time>
      </trkpt>
      <trkpt lat="50.703885" lon="17.934024">
        <ele>153.838071</ele>
        <time>2025-09-23T23:39:33.813Z</time>
      </trkpt>
      <trkpt lat="50.703846" lon="17.934008">
        <ele>153.872241</ele>
        <time>2025-09-23T23:39:35.094Z</time>
      </trkpt>
      <trkpt lat="50.703739" lon="17.933964">
        <ele>153.966002</ele>
        <time>2025-09-23T23:39:38.602Z</time>
      </trkpt>
      <trkpt lat="50.703692" lon="17.933948">
        <ele>154.006773</ele>
        <time>2025-09-23T23:39:40.165Z</time>
      </trkpt>
      <trkpt lat="50.703657" lon="17.933881">
        <ele>154.053417</ele>
        <time>2025-09-23T23:39:42.348Z</time>
      </trkpt>
      <trkpt lat="50.703645" lon="17.933838">
        <ele>154.078653</ele>
        <time>2025-09-23T23:39:43.317Z</time>
      </trkpt>
      <trkpt lat="50.703618" lon="17.933776">
        <ele>154.119063</ele>
        <time>2025-09-23T23:39:44.864Z</time>
      </trkpt>
      <trkpt lat="50.703513" lon="17.933822">
        <ele>154.211466</ele>
        <time>2025-09-23T23:39:47.652Z</time>
      </trkpt>
      <trkpt lat="50.703436" lon="17.933791">
        <ele>154.278850</ele>
        <time>2025-09-23T23:39:49.734Z</time>
      </trkpt>
      <trkpt lat="50.703318" lon="17.933678">
        <ele>154.395878</ele>
        <time>2025-09-23T23:39:53.367Z</time>
      </trkpt>
      <trkpt lat="50.702193" lon="17.932362">
        <ele>156.275697</ele>
        <time>2025-09-23T23:40:33.838Z</time>
      </trkpt>
      <trkpt lat="50.702160" lon="17.932327">
        <ele>156.351533</ele>
        <time>2025-09-23T23:40:35.091Z</time>
      </trkpt>
      <trkpt lat="50.702139" lon="17.932302">
        <ele>156.401705</ele>
        <time>2025-09-23T23:40:35.900Z</time>
      </trkpt>
      <trkpt lat="50.702119" lon="17.932279">
        <ele>156.448905</ele>
        <time>2025-09-23T23:40:36.686Z</time>
      </trkpt>
      <trkpt lat="50.701822" lon="17.931930">
        <ele>157.155165</ele>
        <time>2025-09-23T23:40:48.575Z</time>
      </trkpt>
      <trkpt lat="50.700326" lon="17.930180">
        <ele>160.991317</ele>
        <time>2025-09-23T23:41:52.473Z</time>
      </trkpt>
      <trkpt lat="50.700035" lon="17.929903">
        <ele>161.721573</ele>
        <time>2025-09-23T23:42:03.446Z</time>
      </trkpt>
      <trkpt lat="50.699601" lon="17.929671">
        <ele>162.562887</ele>
        <time>2025-09-23T23:42:17.483Z</time>
      </trkpt>
      <trkpt lat="50.697055" lon="17.928634">
        <ele>166.326962</ele>
        <time>2025-09-23T23:43:32.144Z</time>
      </trkpt>
      <trkpt lat="50.697062" lon="17.928706">
        <ele>166.399839</ele>
        <time>2025-09-23T23:43:34.339Z</time>
      </trkpt>
      <trkpt lat="50.697070" lon="17.928821">
        <ele>166.515584</ele>
        <time>2025-09-23T23:43:37.815Z</time>
      </trkpt>
      <trkpt lat="50.696650" lon="17.930868">
        <ele>168.610783</ele>
        <time>2025-09-23T23:44:42.201Z</time>
      </trkpt>
      <trkpt lat="50.696057" lon="17.933305">
        <ele>170.901457</ele>
        <time>2025-09-23T23:45:53.010Z</time>
      </trkpt>
      <trkpt lat="50.695939" lon="17.934062">
        <ele>171.474418</ele>
        <time>2025-09-23T23:46:14.006Z</time>
      </trkpt>
      <trkpt lat="50.695794" lon="17.934705">
        <ele>171.976050</ele>
        <time>2025-09-23T23:46:32.625Z</time>
      </trkpt>
      <trkpt lat="50.695632" lon="17.935284">
        <ele>172.410752</ele>
        <time>2025-09-23T23:46:49.982Z</time>
      </trkpt>
      <trkpt lat="50.695313" lon="17.936227">
        <ele>172.921286</ele>
        <time>2025-09-23T23:47:18.881Z</time>
      </trkpt>
      <trkpt lat="50.694941" lon="17.937185">
        <ele>173.457911</ele>
        <time>2025-09-23T23:47:48.008Z</time>
      </trkpt>
      <trkpt lat="50.694488" lon="17.938171">
        <ele>173.661743</ele>
        <time>2025-09-23T23:48:16.990Z</time>
      </trkpt>
      <trkpt lat="50.693937" lon="17.939059">
        <ele>173.574460</ele>
        <time>2025-09-23T23:48:45.374Z</time>
      </trkpt>
      <trkpt lat="50.693483" lon="17.939635">
        <ele>173.511855</ele>
        <time>2025-09-23T23:49:06.380Z</time>
      </trkpt>
      <trkpt lat="50.691945" lon="17.941402">
        <ele>173.787037</ele>
        <time>2025-09-23T23:50:18.676Z</time>
      </trkpt>
      <trkpt lat="50.691276" lon="17.942072">
        <ele>174.104672</ele>
        <time>2025-09-23T23:50:50.008Z</time>
      </trkpt>
      <trkpt lat="50.689514" lon="17.943462">
        <ele>174.534622</ele>
        <time>2025-09-23T23:52:06.957Z</time>
      </trkpt>
      <trkpt lat="50.689497" lon="17.943511">
        <ele>174.536968</ele>
        <time>2025-09-23T23:52:08.262Z</time>
      </trkpt>
      <trkpt lat="50.689497" lon="17.943599">
        <ele>174.540665</ele>
        <time>2025-09-23T23:52:10.310Z</time>
      </trkpt>
      <trkpt lat="50.689620" lon="17.944050">
        <ele>174.561290</ele>
        <time>2025-09-23T23:52:21.688Z</time>
      </trkpt>
      <trkpt lat="50.690710" lon="17.947805">
        <ele>173.264132</ele>
        <time>2025-09-23T23:53:54.509Z</time>
      </trkpt>
      <trkpt lat="50.690977" lon="17.948746">
        <ele>172.853916</ele>
        <time>2025-09-23T23:54:07.672Z</time>
      </trkpt>
      <trkpt lat="50.690998" lon="17.948818">
        <ele>172.822381</ele>
        <time>2025-09-23T23:54:08.701Z</time>
      </trkpt>
      <trkpt lat="50.691012" lon="17.948869">
        <ele>172.800267</ele>
        <time>2025-09-23T23:54:09.413Z</time>
      </trkpt>
      <trkpt lat="50.690856" lon="17.949036">
        <ele>172.681892</ele>
        <time>2025-09-23T23:54:13.294Z</time>
      </trkpt>
      <trkpt lat="50.690340" lon="17.949620">
        <ele>172.446239</ele>
        <time>2025-09-23T23:54:26.585Z</time>
      </trkpt>
      <trkpt lat="50.690283" lon="17.949710">
        <ele>172.446148</ele>
        <time>2025-09-23T23:54:28.285Z</time>
      </trkpt>
      <trkpt lat="50.689819" lon="17.948980">
        <ele>172.445404</ele>
        <time>2025-09-23T23:54:42.541Z</time>
      </trkpt>
      <trkpt lat="50.689700" lon="17.948831">
        <ele>172.445231</ele>
        <time>2025-09-23T23:54:46.240Z</time>
      </trkpt>
      <trkpt lat="50.689585" lon="17.948864">
        <ele>172.445098</ele>
        <time>2025-09-23T23:54:49.222Z</time>
      </trkpt>
      <trkpt lat="50.689448" lon="17.948952">
        <ele>172.444931</ele>
        <time>2025-09-23T23:54:53.099Z</time>
      </trkpt>
      <trkpt lat="50.689208" lon="17.949133">
        <ele>172.444628</ele>
        <time>2025-09-23T23:54:59.983Z</time>
      </trkpt>
      <trkpt lat="50.688426" lon="17.949786">
        <ele>172.345123</ele>
        <time>2025-09-23T23:55:19.503Z</time>
      </trkpt>
      <trkpt lat="50.687922" lon="17.950215">
        <ele>172.270706</ele>
        <time>2025-09-23T23:55:32.003Z</time>
      </trkpt>
      <trkpt lat="50.687845" lon="17.950281">
        <ele>172.259319</ele>
        <time>2025-09-23T23:55:33.901Z</time>
      </trkpt>
      <trkpt lat="50.687537" lon="17.950545">
        <ele>172.213770</ele>
        <time>2025-09-23T23:55:41.098Z</time>
      </trkpt>
      <trkpt lat="50.687363" lon="17.950578">
        <ele>172.310322</ele>
        <time>2025-09-23T23:55:44.689Z</time>
      </trkpt>
      <trkpt lat="50.687150" lon="17.950541">
        <ele>172.450768</ele>
        <time>2025-09-23T23:55:49.258Z</time>
      </trkpt>
      <trkpt lat="50.686980" lon="17.950436">
        <ele>172.570415</ele>
        <time>2025-09-23T23:55:53.290Z</time>
      </trkpt>
      <trkpt lat="50.686967" lon="17.950466">
        <ele>172.585508</ele>
        <time>2025-09-23T23:55:53.788Z</time>
      </trkpt>
      <trkpt lat="50.686954" lon="17.950494">
        <ele>172.599922</ele>
        <time>2025-09-23T23:55:54.242Z</time>
      </trkpt>
      <trkpt lat="50.686930" lon="17.950547">
        <ele>172.626973</ele>
        <time>2025-09-23T23:55:55.285Z</time>
      </trkpt>
      <trkpt lat="50.686914" lon="17.950584">
        <ele>172.645575</ele>
        <time>2025-09-23T23:55:56.005Z</time>
      </trkpt>
      <trkpt lat="50.686903" lon="17.950609">
        <ele>172.658214</ele>
        <time>2025-09-23T23:55:56.480Z</time>
      </trkpt>
      <trkpt lat="50.686888" lon="17.950641">
        <ele>172.674743</ele>
        <time>2025-09-23T23:55:57.078Z</time>
      </trkpt>
      <trkpt lat="50.686865" lon="17.950688">
        <ele>172.699403</ele>
        <time>2025-09-23T23:55:57.953Z</time>
      </trkpt>
      <trkpt lat="50.686837" lon="17.950658">
        <ele>172.721584</ele>
        <time>2025-09-23T23:55:58.860Z</time>
      </trkpt>
      <trkpt lat="50.685624" lon="17.949417">
        <ele>173.829867</ele>
        <time>2025-09-23T23:56:40.604Z</time>
      </trkpt>
      <trkpt lat="50.685549" lon="17.949340">
        <ele>173.922268</ele>
        <time>2025-09-23T23:56:43.243Z</time>
      </trkpt>
      <trkpt lat="50.684727" lon="17.948494">
        <ele>174.935723</ele>
        <time>2025-09-23T23:57:10.179Z</time>
      </trkpt>
      <trkpt lat="50.683950" lon="17.947692">
        <ele>175.473182</ele>
        <time>2025-09-23T23:57:33.827Z</time>
      </trkpt>
      <trkpt lat="50.683292" lon="17.947014">
        <ele>175.756545</ele>
        <time>2025-09-23T23:57:51.777Z</time>
      </trkpt>
      <trkpt lat="50.683249" lon="17.946970">
        <ele>175.775024</ele>
        <time>2025-09-23T23:57:52.954Z</time>
      </trkpt>
      <trkpt lat="50.683194" lon="17.946918">
        <ele>175.798144</ele>
        <time>2025-09-23T23:57:54.435Z</time>
      </trkpt>
      <trkpt lat="50.683149" lon="17.946871">
        <ele>175.817602</ele>
        <time>2025-09-23T23:57:55.678Z</time>
      </trkpt>
      <trkpt lat="50.682964" lon="17.947326">
        <ele>175.895722</ele>
        <time>2025-09-23T23:58:04.205Z</time>
      </trkpt>
      <trkpt lat="50.682917" lon="17.947364">
        <ele>175.895722</ele>
        <time>2025-09-23T23:58:05.505Z</time>
      </trkpt>
      <trkpt lat="50.682732" lon="17.947390">
        <ele>175.895722</ele>
        <time>2025-09-23T23:58:10.005Z</time>
      </trkpt>
      <trkpt lat="50.682641" lon="17.947403">
        <ele>175.895722</ele>
        <time>2025-09-23T23:58:12.743Z</time>
      </trkpt>
      <trkpt lat="50.682547" lon="17.947416">
        <ele>175.895722</ele>
        <time>2025-09-23T23:58:15.524Z</time>
      </trkpt>
      <trkpt lat="50.682409" lon="17.947435">
        <ele>175.895722</ele>
        <time>2025-09-23T23:58:19.588Z</time>
      </trkpt>
      <trkpt lat="50.682105" lon="17.947478">
        <ele>175.895722</ele>
        <time>2025-09-23T23:58:28.496Z</time>
      </trkpt>
    </trkseg>
  </trk>
</gpx>