<?xml version='1.0' encoding='UTF-8'?>
<gpx version="1.1" creator="https://www.komoot.de" xmlns="http://www.topografix.com/GPX/1/1" xmlns:xsi="http://www.w3.org/2001/XMLSchema-instance" xsi:schemaLocation="http://www.topografix.com/GPX/1/1 http://www.topografix.com/GPX/1/1/gpx.xsd">
  <metadata>
    <name>2025/06/25 - GraveLova Środa #060 -Struś Pędzi Wiatr</name>
    <author>
      <link href="https://www.komoot.de">
        <text>komoot</text>
        <type>text/html</type>
      </link>
    </author>
  </metadata>
  <trk>
    <name>2025/06/25 - GraveLova Środa #060 -Struś Pędzi Wiatr</name>
    <trkseg>
      <trkpt lat="50.763745" lon="17.930942">
        <ele>157.904658</ele>
        <time>2025-06-23T05:34:55.296Z</time>
      </trkpt>
      <trkpt lat="50.763766" lon="17.930895">
        <ele>157.904658</ele>
        <time>2025-06-23T05:34:57.820Z</time>
      </trkpt>
      <trkpt lat="50.763885" lon="17.931007">
        <ele>157.904658</ele>
        <time>2025-06-23T05:34:59.890Z</time>
      </trkpt>
      <trkpt lat="50.763955" lon="17.930853">
        <ele>157.904658</ele>
        <time>2025-06-23T05:35:01.670Z</time>
      </trkpt>
      <trkpt lat="50.764467" lon="17.929510">
        <ele>157.740215</ele>
        <time>2025-06-23T05:35:15.800Z</time>
      </trkpt>
      <trkpt lat="50.765525" lon="17.926754">
        <ele>156.901805</ele>
        <time>2025-06-23T05:35:42.716Z</time>
      </trkpt>
      <trkpt lat="50.765709" lon="17.925670">
        <ele>156.631262</ele>
        <time>2025-06-23T05:35:52.202Z</time>
      </trkpt>
      <trkpt lat="50.766081" lon="17.923314">
        <ele>156.470123</ele>
        <time>2025-06-23T05:36:14.303Z</time>
      </trkpt>
      <trkpt lat="50.766731" lon="17.918899">
        <ele>157.016587</ele>
        <time>2025-06-23T05:36:59.352Z</time>
      </trkpt>
      <trkpt lat="50.766822" lon="17.918143">
        <ele>157.188318</ele>
        <time>2025-06-23T05:37:06.546Z</time>
      </trkpt>
      <trkpt lat="50.766856" lon="17.917857">
        <ele>157.253257</ele>
        <time>2025-06-23T05:37:09.308Z</time>
      </trkpt>
      <trkpt lat="50.767324" lon="17.913455">
        <ele>158.617015</ele>
        <time>2025-06-23T05:37:58.875Z</time>
      </trkpt>
      <trkpt lat="50.767396" lon="17.912358">
        <ele>158.502842</ele>
        <time>2025-06-23T05:38:09.419Z</time>
      </trkpt>
      <trkpt lat="50.767380" lon="17.911589">
        <ele>158.423191</ele>
        <time>2025-06-23T05:38:15.889Z</time>
      </trkpt>
      <trkpt lat="50.767361" lon="17.911328">
        <ele>158.395994</ele>
        <time>2025-06-23T05:38:18.012Z</time>
      </trkpt>
      <trkpt lat="50.767323" lon="17.911148">
        <ele>158.376349</ele>
        <time>2025-06-23T05:38:19.537Z</time>
      </trkpt>
      <trkpt lat="50.767246" lon="17.910912">
        <ele>158.280589</ele>
        <time>2025-06-23T05:38:21.650Z</time>
      </trkpt>
      <trkpt lat="50.766934" lon="17.910176">
        <ele>157.717285</ele>
        <time>2025-06-23T05:38:28.565Z</time>
      </trkpt>
      <trkpt lat="50.766871" lon="17.909966">
        <ele>157.569516</ele>
        <time>2025-06-23T05:38:30.346Z</time>
      </trkpt>
      <trkpt lat="50.766838" lon="17.909764">
        <ele>157.436876</ele>
        <time>2025-06-23T05:38:31.955Z</time>
      </trkpt>
      <trkpt lat="50.766751" lon="17.908680">
        <ele>156.742176</ele>
        <time>2025-06-23T05:38:40.382Z</time>
      </trkpt>
      <trkpt lat="50.766694" lon="17.908027">
        <ele>156.223028</ele>
        <time>2025-06-23T05:38:45.370Z</time>
      </trkpt>
      <trkpt lat="50.766249" lon="17.903295">
        <ele>151.847706</ele>
        <time>2025-06-23T05:39:20.066Z</time>
      </trkpt>
      <trkpt lat="50.766050" lon="17.901215">
        <ele>151.357497</ele>
        <time>2025-06-23T05:39:36.012Z</time>
      </trkpt>
      <trkpt lat="50.765998" lon="17.901007">
        <ele>151.358327</ele>
        <time>2025-06-23T05:39:38.229Z</time>
      </trkpt>
      <trkpt lat="50.764650" lon="17.897839">
        <ele>153.645625</ele>
        <time>2025-06-23T05:40:30.280Z</time>
      </trkpt>
      <trkpt lat="50.762356" lon="17.892536">
        <ele>150.782485</ele>
        <time>2025-06-23T05:41:20.123Z</time>
      </trkpt>
      <trkpt lat="50.760269" lon="17.887662">
        <ele>151.225944</ele>
        <time>2025-06-23T05:42:20.257Z</time>
      </trkpt>
      <trkpt lat="50.759782" lon="17.886565">
        <ele>151.107151</ele>
        <time>2025-06-23T05:42:31.732Z</time>
      </trkpt>
      <trkpt lat="50.758831" lon="17.884441">
        <ele>150.741946</ele>
        <time>2025-06-23T05:42:54.184Z</time>
      </trkpt>
      <trkpt lat="50.758737" lon="17.884214">
        <ele>150.699205</ele>
        <time>2025-06-23T05:42:56.756Z</time>
      </trkpt>
      <trkpt lat="50.758695" lon="17.883888">
        <ele>150.646795</ele>
        <time>2025-06-23T05:42:59.999Z</time>
      </trkpt>
      <trkpt lat="50.759821" lon="17.878941">
        <ele>150.388571</ele>
        <time>2025-06-23T05:43:48.675Z</time>
      </trkpt>
      <trkpt lat="50.759875" lon="17.878712">
        <ele>150.371124</ele>
        <time>2025-06-23T05:43:50.792Z</time>
      </trkpt>
      <trkpt lat="50.760055" lon="17.877957">
        <ele>150.290889</ele>
        <time>2025-06-23T05:43:57.792Z</time>
      </trkpt>
      <trkpt lat="50.760132" lon="17.877629">
        <ele>150.242323</ele>
        <time>2025-06-23T05:44:00.856Z</time>
      </trkpt>
      <trkpt lat="50.760605" lon="17.875619">
        <ele>149.944618</ele>
        <time>2025-06-23T05:44:20.053Z</time>
      </trkpt>
      <trkpt lat="50.761735" lon="17.870688">
        <ele>148.828999</ele>
        <time>2025-06-23T05:45:05.103Z</time>
      </trkpt>
      <trkpt lat="50.761795" lon="17.870426">
        <ele>148.774985</ele>
        <time>2025-06-23T05:45:07.586Z</time>
      </trkpt>
      <trkpt lat="50.762147" lon="17.868916">
        <ele>148.822655</ele>
        <time>2025-06-23T05:45:22.639Z</time>
      </trkpt>
      <trkpt lat="50.762754" lon="17.866312">
        <ele>149.116781</ele>
        <time>2025-06-23T05:45:50.598Z</time>
      </trkpt>
      <trkpt lat="50.763026" lon="17.865143">
        <ele>149.311623</ele>
        <time>2025-06-23T05:46:02.940Z</time>
      </trkpt>
      <trkpt lat="50.763146" lon="17.864705">
        <ele>149.352764</ele>
        <time>2025-06-23T05:46:07.765Z</time>
      </trkpt>
      <trkpt lat="50.763528" lon="17.863579">
        <ele>149.376621</ele>
        <time>2025-06-23T05:46:20.411Z</time>
      </trkpt>
      <trkpt lat="50.763608" lon="17.863256">
        <ele>149.383097</ele>
        <time>2025-06-23T05:46:23.627Z</time>
      </trkpt>
      <trkpt lat="50.763647" lon="17.862893">
        <ele>149.389972</ele>
        <time>2025-06-23T05:46:26.988Z</time>
      </trkpt>
      <trkpt lat="50.763623" lon="17.862289">
        <ele>149.401272</ele>
        <time>2025-06-23T05:46:32.351Z</time>
      </trkpt>
      <trkpt lat="50.763581" lon="17.861954">
        <ele>149.335914</ele>
        <time>2025-06-23T05:46:35.336Z</time>
      </trkpt>
      <trkpt lat="50.763527" lon="17.861533">
        <ele>149.253112</ele>
        <time>2025-06-23T05:46:39.022Z</time>
      </trkpt>
      <trkpt lat="50.763514" lon="17.861292">
        <ele>149.206490</ele>
        <time>2025-06-23T05:46:41.079Z</time>
      </trkpt>
      <trkpt lat="50.763536" lon="17.861029">
        <ele>149.155354</ele>
        <time>2025-06-23T05:46:43.318Z</time>
      </trkpt>
      <trkpt lat="50.763665" lon="17.860637">
        <ele>149.070179</ele>
        <time>2025-06-23T05:46:47.048Z</time>
      </trkpt>
      <trkpt lat="50.764984" lon="17.858429">
        <ele>148.423011</ele>
        <time>2025-06-23T05:47:14.141Z</time>
      </trkpt>
      <trkpt lat="50.764864" lon="17.858311">
        <ele>148.372727</ele>
        <time>2025-06-23T05:47:16.799Z</time>
      </trkpt>
      <trkpt lat="50.764591" lon="17.858235">
        <ele>148.274091</ele>
        <time>2025-06-23T05:47:21.892Z</time>
      </trkpt>
      <trkpt lat="50.763379" lon="17.856570">
        <ele>147.223378</ele>
        <time>2025-06-23T05:47:50.409Z</time>
      </trkpt>
      <trkpt lat="50.763072" lon="17.856144">
        <ele>146.967564</ele>
        <time>2025-06-23T05:47:57.903Z</time>
      </trkpt>
      <trkpt lat="50.762841" lon="17.855880">
        <ele>146.938462</ele>
        <time>2025-06-23T05:48:03.265Z</time>
      </trkpt>
      <trkpt lat="50.761353" lon="17.853899">
        <ele>146.982671</ele>
        <time>2025-06-23T05:48:42.731Z</time>
      </trkpt>
      <trkpt lat="50.761204" lon="17.853800">
        <ele>147.048616</ele>
        <time>2025-06-23T05:48:46.220Z</time>
      </trkpt>
      <trkpt lat="50.761114" lon="17.853701">
        <ele>147.093352</ele>
        <time>2025-06-23T05:48:48.613Z</time>
      </trkpt>
      <trkpt lat="50.760624" lon="17.853035">
        <ele>147.357011</ele>
        <time>2025-06-23T05:49:03.292Z</time>
      </trkpt>
      <trkpt lat="50.760549" lon="17.852990">
        <ele>147.389742</ele>
        <time>2025-06-23T05:49:05.152Z</time>
      </trkpt>
      <trkpt lat="50.760506" lon="17.852709">
        <ele>147.464358</ele>
        <time>2025-06-23T05:49:09.394Z</time>
      </trkpt>
      <trkpt lat="50.760346" lon="17.851774">
        <ele>147.634539</ele>
        <time>2025-06-23T05:49:22.918Z</time>
      </trkpt>
      <trkpt lat="50.760065" lon="17.850852">
        <ele>147.788903</ele>
        <time>2025-06-23T05:49:36.807Z</time>
      </trkpt>
      <trkpt lat="50.759679" lon="17.849979">
        <ele>147.949556</ele>
        <time>2025-06-23T05:49:50.167Z</time>
      </trkpt>
      <trkpt lat="50.759144" lon="17.848766">
        <ele>147.961862</ele>
        <time>2025-06-23T05:50:09.392Z</time>
      </trkpt>
      <trkpt lat="50.758678" lon="17.847774">
        <ele>147.970850</ele>
        <time>2025-06-23T05:50:25.423Z</time>
      </trkpt>
      <trkpt lat="50.758098" lon="17.846556">
        <ele>147.713670</ele>
        <time>2025-06-23T05:50:44.594Z</time>
      </trkpt>
      <trkpt lat="50.758083" lon="17.846456">
        <ele>147.694507</ele>
        <time>2025-06-23T05:50:45.841Z</time>
      </trkpt>
      <trkpt lat="50.758106" lon="17.846430">
        <ele>147.686173</ele>
        <time>2025-06-23T05:50:46.376Z</time>
      </trkpt>
      <trkpt lat="50.758129" lon="17.846316">
        <ele>147.663861</ele>
        <time>2025-06-23T05:50:47.770Z</time>
      </trkpt>
      <trkpt lat="50.758209" lon="17.846207">
        <ele>147.632731</ele>
        <time>2025-06-23T05:50:49.708Z</time>
      </trkpt>
      <trkpt lat="50.758594" lon="17.845231">
        <ele>147.440459</ele>
        <time>2025-06-23T05:51:02.771Z</time>
      </trkpt>
      <trkpt lat="50.758638" lon="17.845169">
        <ele>147.439532</ele>
        <time>2025-06-23T05:51:03.861Z</time>
      </trkpt>
      <trkpt lat="50.758667" lon="17.845065">
        <ele>147.438403</ele>
        <time>2025-06-23T05:51:05.212Z</time>
      </trkpt>
      <trkpt lat="50.758694" lon="17.844969">
        <ele>147.437358</ele>
        <time>2025-06-23T05:51:06.467Z</time>
      </trkpt>
      <trkpt lat="50.758949" lon="17.844315">
        <ele>147.429721</ele>
        <time>2025-06-23T05:51:16.098Z</time>
      </trkpt>
      <trkpt lat="50.758915" lon="17.844283">
        <ele>147.429099</ele>
        <time>2025-06-23T05:51:16.935Z</time>
      </trkpt>
      <trkpt lat="50.758985" lon="17.844110">
        <ele>147.427058</ele>
        <time>2025-06-23T05:51:18.947Z</time>
      </trkpt>
      <trkpt lat="50.759302" lon="17.843502">
        <ele>147.419225</ele>
        <time>2025-06-23T05:51:26.845Z</time>
      </trkpt>
      <trkpt lat="50.759557" lon="17.843168">
        <ele>147.414021</ele>
        <time>2025-06-23T05:51:31.988Z</time>
      </trkpt>
      <trkpt lat="50.759644" lon="17.843069">
        <ele>147.402225</ele>
        <time>2025-06-23T05:51:33.699Z</time>
      </trkpt>
      <trkpt lat="50.759713" lon="17.843000">
        <ele>147.389220</ele>
        <time>2025-06-23T05:51:35.045Z</time>
      </trkpt>
      <trkpt lat="50.760032" lon="17.842704">
        <ele>147.330299</ele>
        <time>2025-06-23T05:51:41.109Z</time>
      </trkpt>
      <trkpt lat="50.760183" lon="17.842640">
        <ele>147.305397</ele>
        <time>2025-06-23T05:51:43.604Z</time>
      </trkpt>
      <trkpt lat="50.760271" lon="17.842650">
        <ele>147.291343</ele>
        <time>2025-06-23T05:51:44.980Z</time>
      </trkpt>
      <trkpt lat="50.760342" lon="17.842676">
        <ele>147.279734</ele>
        <time>2025-06-23T05:51:46.109Z</time>
      </trkpt>
      <trkpt lat="50.760425" lon="17.842724">
        <ele>147.265655</ele>
        <time>2025-06-23T05:51:47.395Z</time>
      </trkpt>
      <trkpt lat="50.760463" lon="17.842532">
        <ele>147.245384</ele>
        <time>2025-06-23T05:51:49.179Z</time>
      </trkpt>
      <trkpt lat="50.760518" lon="17.842454">
        <ele>147.233615</ele>
        <time>2025-06-23T05:51:50.134Z</time>
      </trkpt>
      <trkpt lat="50.761311" lon="17.841954">
        <ele>146.983975</ele>
        <time>2025-06-23T05:52:01.054Z</time>
      </trkpt>
      <trkpt lat="50.761625" lon="17.841756">
        <ele>146.721366</ele>
        <time>2025-06-23T05:52:05.422Z</time>
      </trkpt>
      <trkpt lat="50.761827" lon="17.841586">
        <ele>146.543599</ele>
        <time>2025-06-23T05:52:08.311Z</time>
      </trkpt>
      <trkpt lat="50.762030" lon="17.841343">
        <ele>146.345800</ele>
        <time>2025-06-23T05:52:11.423Z</time>
      </trkpt>
      <trkpt lat="50.762235" lon="17.840977">
        <ele>146.105585</ele>
        <time>2025-06-23T05:52:15.128Z</time>
      </trkpt>
      <trkpt lat="50.762287" lon="17.840817">
        <ele>146.017196</ele>
        <time>2025-06-23T05:52:16.508Z</time>
      </trkpt>
      <trkpt lat="50.762299" lon="17.840639">
        <ele>145.929237</ele>
        <time>2025-06-23T05:52:17.924Z</time>
      </trkpt>
      <trkpt lat="50.762275" lon="17.840029">
        <ele>145.685973</ele>
        <time>2025-06-23T05:52:22.996Z</time>
      </trkpt>
      <trkpt lat="50.762299" lon="17.839665">
        <ele>145.607934</ele>
        <time>2025-06-23T05:52:26.261Z</time>
      </trkpt>
      <trkpt lat="50.762377" lon="17.839405">
        <ele>145.546572</ele>
        <time>2025-06-23T05:52:28.871Z</time>
      </trkpt>
      <trkpt lat="50.762611" lon="17.838943">
        <ele>145.420364</ele>
        <time>2025-06-23T05:52:34.148Z</time>
      </trkpt>
      <trkpt lat="50.762587" lon="17.838311">
        <ele>145.285355</ele>
        <time>2025-06-23T05:52:39.889Z</time>
      </trkpt>
      <trkpt lat="50.762565" lon="17.838143">
        <ele>145.248771</ele>
        <time>2025-06-23T05:52:41.496Z</time>
      </trkpt>
      <trkpt lat="50.762488" lon="17.837873">
        <ele>145.185616</ele>
        <time>2025-06-23T05:52:44.257Z</time>
      </trkpt>
      <trkpt lat="50.761777" lon="17.836675">
        <ele>144.588877</ele>
        <time>2025-06-23T05:52:57.858Z</time>
      </trkpt>
      <trkpt lat="50.761565" lon="17.836301">
        <ele>144.390167</ele>
        <time>2025-06-23T05:53:01.740Z</time>
      </trkpt>
      <trkpt lat="50.761302" lon="17.835729">
        <ele>144.110362</ele>
        <time>2025-06-23T05:53:07.281Z</time>
      </trkpt>
      <trkpt lat="50.761020" lon="17.834968">
        <ele>144.009795</ele>
        <time>2025-06-23T05:53:14.573Z</time>
      </trkpt>
      <trkpt lat="50.760859" lon="17.834439">
        <ele>144.021118</ele>
        <time>2025-06-23T05:53:20.043Z</time>
      </trkpt>
      <trkpt lat="50.760704" lon="17.833297">
        <ele>144.043647</ele>
        <time>2025-06-23T05:53:31.801Z</time>
      </trkpt>
      <trkpt lat="50.760667" lon="17.832242">
        <ele>144.123061</ele>
        <time>2025-06-23T05:53:42.982Z</time>
      </trkpt>
      <trkpt lat="50.760677" lon="17.831902">
        <ele>144.165073</ele>
        <time>2025-06-23T05:53:46.602Z</time>
      </trkpt>
      <trkpt lat="50.760785" lon="17.830908">
        <ele>144.289562</ele>
        <time>2025-06-23T05:53:56.715Z</time>
      </trkpt>
      <trkpt lat="50.760826" lon="17.829976">
        <ele>144.403400</ele>
        <time>2025-06-23T05:54:05.293Z</time>
      </trkpt>
      <trkpt lat="50.760729" lon="17.829781">
        <ele>144.378311</ele>
        <time>2025-06-23T05:54:07.532Z</time>
      </trkpt>
      <trkpt lat="50.760637" lon="17.828661">
        <ele>144.264085</ele>
        <time>2025-06-23T05:54:17.616Z</time>
      </trkpt>
      <trkpt lat="50.760674" lon="17.827463">
        <ele>144.142776</ele>
        <time>2025-06-23T05:54:28.232Z</time>
      </trkpt>
      <trkpt lat="50.760309" lon="17.825388">
        <ele>143.905375</ele>
        <time>2025-06-23T05:54:47.940Z</time>
      </trkpt>
      <trkpt lat="50.760204" lon="17.824939">
        <ele>143.852012</ele>
        <time>2025-06-23T05:54:52.191Z</time>
      </trkpt>
      <trkpt lat="50.760031" lon="17.824351">
        <ele>143.775995</ele>
        <time>2025-06-23T05:54:57.891Z</time>
      </trkpt>
      <trkpt lat="50.759531" lon="17.823066">
        <ele>143.576161</ele>
        <time>2025-06-23T05:55:10.840Z</time>
      </trkpt>
      <trkpt lat="50.759318" lon="17.822214">
        <ele>143.454810</ele>
        <time>2025-06-23T05:55:19.201Z</time>
      </trkpt>
      <trkpt lat="50.759298" lon="17.822030">
        <ele>143.430080</ele>
        <time>2025-06-23T05:55:21.005Z</time>
      </trkpt>
      <trkpt lat="50.759313" lon="17.821790">
        <ele>143.444070</ele>
        <time>2025-06-23T05:55:23.356Z</time>
      </trkpt>
      <trkpt lat="50.759393" lon="17.821419">
        <ele>143.488519</ele>
        <time>2025-06-23T05:55:27.149Z</time>
      </trkpt>
      <trkpt lat="50.759572" lon="17.820836">
        <ele>143.562008</ele>
        <time>2025-06-23T05:55:33.592Z</time>
      </trkpt>
      <trkpt lat="50.759756" lon="17.820446">
        <ele>143.617181</ele>
        <time>2025-06-23T05:55:38.654Z</time>
      </trkpt>
      <trkpt lat="50.760025" lon="17.819998">
        <ele>143.687227</ele>
        <time>2025-06-23T05:55:45.253Z</time>
      </trkpt>
      <trkpt lat="50.760687" lon="17.818861">
        <ele>143.603410</ele>
        <time>2025-06-23T05:55:59.436Z</time>
      </trkpt>
      <trkpt lat="50.761250" lon="17.818156">
        <ele>143.447427</ele>
        <time>2025-06-23T05:56:09.064Z</time>
      </trkpt>
      <trkpt lat="50.761334" lon="17.817896">
        <ele>143.407319</ele>
        <time>2025-06-23T05:56:11.529Z</time>
      </trkpt>
      <trkpt lat="50.761446" lon="17.817292">
        <ele>143.392353</ele>
        <time>2025-06-23T05:56:16.886Z</time>
      </trkpt>
      <trkpt lat="50.761448" lon="17.817075">
        <ele>143.425529</ele>
        <time>2025-06-23T05:56:18.811Z</time>
      </trkpt>
      <trkpt lat="50.761396" lon="17.816849">
        <ele>143.462291</ele>
        <time>2025-06-23T05:56:21.019Z</time>
      </trkpt>
      <trkpt lat="50.760308" lon="17.813652">
        <ele>144.003396</ele>
        <time>2025-06-23T05:56:59.388Z</time>
      </trkpt>
      <trkpt lat="50.760319" lon="17.813614">
        <ele>144.009396</ele>
        <time>2025-06-23T05:56:59.793Z</time>
      </trkpt>
      <trkpt lat="50.760791" lon="17.813146">
        <ele>144.135856</ele>
        <time>2025-06-23T05:57:08.503Z</time>
      </trkpt>
      <trkpt lat="50.762018" lon="17.812139">
        <ele>143.911407</ele>
        <time>2025-06-23T05:57:27.823Z</time>
      </trkpt>
      <trkpt lat="50.762418" lon="17.811622">
        <ele>143.778238</ele>
        <time>2025-06-23T05:57:34.728Z</time>
      </trkpt>
      <trkpt lat="50.762615" lon="17.811192">
        <ele>143.763057</ele>
        <time>2025-06-23T05:57:39.239Z</time>
      </trkpt>
      <trkpt lat="50.762744" lon="17.810824">
        <ele>143.810103</ele>
        <time>2025-06-23T05:57:42.855Z</time>
      </trkpt>
      <trkpt lat="50.763117" lon="17.809460">
        <ele>143.976270</ele>
        <time>2025-06-23T05:57:57.361Z</time>
      </trkpt>
      <trkpt lat="50.763181" lon="17.809057">
        <ele>144.022732</ele>
        <time>2025-06-23T05:58:01.981Z</time>
      </trkpt>
      <trkpt lat="50.763242" lon="17.808216">
        <ele>144.187438</ele>
        <time>2025-06-23T05:58:11.623Z</time>
      </trkpt>
      <trkpt lat="50.763363" lon="17.807749">
        <ele>144.304308</ele>
        <time>2025-06-23T05:58:17.349Z</time>
      </trkpt>
      <trkpt lat="50.763469" lon="17.807526">
        <ele>144.368908</ele>
        <time>2025-06-23T05:58:20.469Z</time>
      </trkpt>
      <trkpt lat="50.763651" lon="17.807420">
        <ele>144.439920</ele>
        <time>2025-06-23T05:58:23.817Z</time>
      </trkpt>
      <trkpt lat="50.763735" lon="17.807407">
        <ele>144.470821</ele>
        <time>2025-06-23T05:58:25.248Z</time>
      </trkpt>
      <trkpt lat="50.765290" lon="17.807681">
        <ele>144.489638</ele>
        <time>2025-06-23T05:58:47.531Z</time>
      </trkpt>
      <trkpt lat="50.765580" lon="17.807673">
        <ele>144.419237</ele>
        <time>2025-06-23T05:58:51.447Z</time>
      </trkpt>
      <trkpt lat="50.765689" lon="17.807702">
        <ele>144.392408</ele>
        <time>2025-06-23T05:58:52.925Z</time>
      </trkpt>
      <trkpt lat="50.768393" lon="17.810153">
        <ele>143.574643</ele>
        <time>2025-06-23T05:59:36.132Z</time>
      </trkpt>
      <trkpt lat="50.768640" lon="17.810293">
        <ele>143.522350</ele>
        <time>2025-06-23T05:59:39.835Z</time>
      </trkpt>
      <trkpt lat="50.768817" lon="17.810204">
        <ele>143.485333</ele>
        <time>2025-06-23T05:59:42.455Z</time>
      </trkpt>
      <trkpt lat="50.769604" lon="17.809547">
        <ele>143.327232</ele>
        <time>2025-06-23T05:59:55.055Z</time>
      </trkpt>
      <trkpt lat="50.771580" lon="17.807560">
        <ele>143.020591</ele>
        <time>2025-06-23T06:00:28.745Z</time>
      </trkpt>
      <trkpt lat="50.771972" lon="17.807277">
        <ele>142.975108</ele>
        <time>2025-06-23T06:00:35.204Z</time>
      </trkpt>
      <trkpt lat="50.768521" lon="17.803505">
        <ele>142.505055</ele>
        <time>2025-06-23T06:01:57.698Z</time>
      </trkpt>
      <trkpt lat="50.766752" lon="17.801583">
        <ele>142.887489</ele>
        <time>2025-06-23T06:02:43.099Z</time>
      </trkpt>
      <trkpt lat="50.766577" lon="17.801332">
        <ele>142.933157</ele>
        <time>2025-06-23T06:02:48.054Z</time>
      </trkpt>
      <trkpt lat="50.766303" lon="17.800647">
        <ele>143.032238</ele>
        <time>2025-06-23T06:02:58.750Z</time>
      </trkpt>
      <trkpt lat="50.766119" lon="17.800377">
        <ele>143.080759</ele>
        <time>2025-06-23T06:03:03.950Z</time>
      </trkpt>
      <trkpt lat="50.763776" lon="17.798559">
        <ele>143.348718</ele>
        <time>2025-06-23T06:03:58.130Z</time>
      </trkpt>
      <trkpt lat="50.763530" lon="17.798269">
        <ele>143.355776</ele>
        <time>2025-06-23T06:04:04.320Z</time>
      </trkpt>
      <trkpt lat="50.763091" lon="17.797423">
        <ele>143.371696</ele>
        <time>2025-06-23T06:04:18.173Z</time>
      </trkpt>
      <trkpt lat="50.762993" lon="17.797290">
        <ele>143.374667</ele>
        <time>2025-06-23T06:04:20.747Z</time>
      </trkpt>
      <trkpt lat="50.762752" lon="17.797072">
        <ele>143.375240</ele>
        <time>2025-06-23T06:04:26.278Z</time>
      </trkpt>
      <trkpt lat="50.762000" lon="17.796617">
        <ele>143.351367</ele>
        <time>2025-06-23T06:04:42.407Z</time>
      </trkpt>
      <trkpt lat="50.761700" lon="17.796238">
        <ele>143.339981</ele>
        <time>2025-06-23T06:04:50.188Z</time>
      </trkpt>
      <trkpt lat="50.761165" lon="17.795361">
        <ele>143.403859</ele>
        <time>2025-06-23T06:05:05.749Z</time>
      </trkpt>
      <trkpt lat="50.760417" lon="17.794659">
        <ele>143.655745</ele>
        <time>2025-06-23T06:05:24.158Z</time>
      </trkpt>
      <trkpt lat="50.760258" lon="17.794470">
        <ele>143.713349</ele>
        <time>2025-06-23T06:05:28.526Z</time>
      </trkpt>
      <trkpt lat="50.760217" lon="17.794251">
        <ele>143.755183</ele>
        <time>2025-06-23T06:05:31.730Z</time>
      </trkpt>
      <trkpt lat="50.760208" lon="17.793981">
        <ele>143.804707</ele>
        <time>2025-06-23T06:05:35.569Z</time>
      </trkpt>
      <trkpt lat="50.760198" lon="17.792209">
        <ele>143.932940</ele>
        <time>2025-06-23T06:06:00.344Z</time>
      </trkpt>
      <trkpt lat="50.760897" lon="17.789312">
        <ele>143.771437</ele>
        <time>2025-06-23T06:06:37.488Z</time>
      </trkpt>
      <trkpt lat="50.760638" lon="17.788499">
        <ele>143.653148</ele>
        <time>2025-06-23T06:06:48.699Z</time>
      </trkpt>
      <trkpt lat="50.760610" lon="17.788427">
        <ele>143.642165</ele>
        <time>2025-06-23T06:06:49.801Z</time>
      </trkpt>
      <trkpt lat="50.760559" lon="17.788412">
        <ele>143.648060</ele>
        <time>2025-06-23T06:06:51.755Z</time>
      </trkpt>
      <trkpt lat="50.760485" lon="17.788484">
        <ele>143.691407</ele>
        <time>2025-06-23T06:06:55.006Z</time>
      </trkpt>
      <trkpt lat="50.760442" lon="17.788420">
        <ele>143.720869</ele>
        <time>2025-06-23T06:07:02.309Z</time>
      </trkpt>
      <trkpt lat="50.758910" lon="17.786265">
        <ele>144.458243</ele>
        <time>2025-06-23T06:08:23.703Z</time>
      </trkpt>
      <trkpt lat="50.758896" lon="17.786289">
        <ele>144.454551</ele>
        <time>2025-06-23T06:08:24.435Z</time>
      </trkpt>
      <trkpt lat="50.758858" lon="17.786343">
        <ele>144.445415</ele>
        <time>2025-06-23T06:08:30.797Z</time>
      </trkpt>
      <trkpt lat="50.758834" lon="17.786386">
        <ele>144.438929</ele>
        <time>2025-06-23T06:08:32.134Z</time>
      </trkpt>
      <trkpt lat="50.758847" lon="17.786410">
        <ele>144.435356</ele>
        <time>2025-06-23T06:08:32.830Z</time>
      </trkpt>
      <trkpt lat="50.758882" lon="17.786465">
        <ele>144.426532</ele>
        <time>2025-06-23T06:08:38.931Z</time>
      </trkpt>
      <trkpt lat="50.758911" lon="17.786513">
        <ele>144.419025</ele>
        <time>2025-06-23T06:08:40.438Z</time>
      </trkpt>
      <trkpt lat="50.758375" lon="17.787446">
        <ele>144.276477</ele>
        <time>2025-06-23T06:08:51.106Z</time>
      </trkpt>
      <trkpt lat="50.758252" lon="17.787673">
        <ele>144.242672</ele>
        <time>2025-06-23T06:08:53.493Z</time>
      </trkpt>
      <trkpt lat="50.757977" lon="17.789138">
        <ele>143.983070</ele>
        <time>2025-06-23T06:09:06.245Z</time>
      </trkpt>
      <trkpt lat="50.757781" lon="17.790332">
        <ele>143.758414</ele>
        <time>2025-06-23T06:09:17.301Z</time>
      </trkpt>
      <trkpt lat="50.757631" lon="17.792826">
        <ele>143.619010</ele>
        <time>2025-06-23T06:09:40.468Z</time>
      </trkpt>
      <trkpt lat="50.757639" lon="17.793901">
        <ele>143.597708</ele>
        <time>2025-06-23T06:09:50.521Z</time>
      </trkpt>
      <trkpt lat="50.757766" lon="17.796026">
        <ele>143.613363</ele>
        <time>2025-06-23T06:10:10.415Z</time>
      </trkpt>
      <trkpt lat="50.757806" lon="17.796436">
        <ele>143.627742</ele>
        <time>2025-06-23T06:10:14.497Z</time>
      </trkpt>
      <trkpt lat="50.758116" lon="17.798176">
        <ele>143.867377</ele>
        <time>2025-06-23T06:10:32.812Z</time>
      </trkpt>
      <trkpt lat="50.758147" lon="17.798459">
        <ele>143.905451</ele>
        <time>2025-06-23T06:10:35.749Z</time>
      </trkpt>
      <trkpt lat="50.758042" lon="17.798444">
        <ele>143.927544</ele>
        <time>2025-06-23T06:10:37.961Z</time>
      </trkpt>
      <trkpt lat="50.757808" lon="17.798413">
        <ele>143.976751</ele>
        <time>2025-06-23T06:10:46.854Z</time>
      </trkpt>
      <trkpt lat="50.757696" lon="17.798390">
        <ele>143.989337</ele>
        <time>2025-06-23T06:10:49.231Z</time>
      </trkpt>
      <trkpt lat="50.755770" lon="17.797199">
        <ele>143.756872</ele>
        <time>2025-06-23T06:11:30.174Z</time>
      </trkpt>
      <trkpt lat="50.755425" lon="17.797052">
        <ele>143.669936</ele>
        <time>2025-06-23T06:11:37.021Z</time>
      </trkpt>
      <trkpt lat="50.753205" lon="17.796844">
        <ele>143.315056</ele>
        <time>2025-06-23T06:12:19.774Z</time>
      </trkpt>
      <trkpt lat="50.751419" lon="17.796733">
        <ele>143.537393</ele>
        <time>2025-06-23T06:12:57.303Z</time>
      </trkpt>
      <trkpt lat="50.749451" lon="17.796654">
        <ele>144.350765</ele>
        <time>2025-06-23T06:13:39.619Z</time>
      </trkpt>
      <trkpt lat="50.747934" lon="17.796591">
        <ele>145.501957</ele>
        <time>2025-06-23T06:14:15.926Z</time>
      </trkpt>
      <trkpt lat="50.747473" lon="17.796606">
        <ele>145.918330</ele>
        <time>2025-06-23T06:14:27.202Z</time>
      </trkpt>
      <trkpt lat="50.746775" lon="17.796628">
        <ele>146.348456</ele>
        <time>2025-06-23T06:14:43.734Z</time>
      </trkpt>
      <trkpt lat="50.746645" lon="17.796637">
        <ele>146.386325</ele>
        <time>2025-06-23T06:14:46.682Z</time>
      </trkpt>
      <trkpt lat="50.746599" lon="17.796537">
        <ele>146.409092</ele>
        <time>2025-06-23T06:14:48.431Z</time>
      </trkpt>
      <trkpt lat="50.746581" lon="17.796427">
        <ele>146.430014</ele>
        <time>2025-06-23T06:14:49.976Z</time>
      </trkpt>
      <trkpt lat="50.746364" lon="17.794304">
        <ele>146.790353</ele>
        <time>2025-06-23T06:15:17.885Z</time>
      </trkpt>
      <trkpt lat="50.746287" lon="17.793041">
        <ele>146.855177</ele>
        <time>2025-06-23T06:15:34.094Z</time>
      </trkpt>
      <trkpt lat="50.746230" lon="17.792445">
        <ele>146.885972</ele>
        <time>2025-06-23T06:15:41.938Z</time>
      </trkpt>
      <trkpt lat="50.745939" lon="17.790323">
        <ele>147.114834</ele>
        <time>2025-06-23T06:16:10.313Z</time>
      </trkpt>
      <trkpt lat="50.745860" lon="17.790271">
        <ele>147.132606</ele>
        <time>2025-06-23T06:16:12.099Z</time>
      </trkpt>
      <trkpt lat="50.745651" lon="17.790195">
        <ele>147.177142</ele>
        <time>2025-06-23T06:16:16.561Z</time>
      </trkpt>
      <trkpt lat="50.745548" lon="17.790082">
        <ele>147.203180</ele>
        <time>2025-06-23T06:16:19.182Z</time>
      </trkpt>
      <trkpt lat="50.745396" lon="17.790195">
        <ele>147.238063</ele>
        <time>2025-06-23T06:16:21.853Z</time>
      </trkpt>
      <trkpt lat="50.744783" lon="17.790418">
        <ele>147.527687</ele>
        <time>2025-06-23T06:16:32.367Z</time>
      </trkpt>
      <trkpt lat="50.744519" lon="17.790452">
        <ele>147.702011</ele>
        <time>2025-06-23T06:16:37.076Z</time>
      </trkpt>
      <trkpt lat="50.744156" lon="17.790420">
        <ele>147.941286</ele>
        <time>2025-06-23T06:16:43.649Z</time>
      </trkpt>
      <trkpt lat="50.743813" lon="17.790474">
        <ele>148.168144</ele>
        <time>2025-06-23T06:16:49.826Z</time>
      </trkpt>
      <trkpt lat="50.743381" lon="17.790644">
        <ele>148.461141</ele>
        <time>2025-06-23T06:16:57.892Z</time>
      </trkpt>
      <trkpt lat="50.742956" lon="17.790830">
        <ele>148.383888</ele>
        <time>2025-06-23T06:17:05.319Z</time>
      </trkpt>
      <trkpt lat="50.742438" lon="17.791299">
        <ele>148.246402</ele>
        <time>2025-06-23T06:17:13.992Z</time>
      </trkpt>
      <trkpt lat="50.741197" lon="17.791653">
        <ele>147.871750</ele>
        <time>2025-06-23T06:17:29.775Z</time>
      </trkpt>
      <trkpt lat="50.740890" lon="17.791735">
        <ele>147.744603</ele>
        <time>2025-06-23T06:17:33.593Z</time>
      </trkpt>
      <trkpt lat="50.740653" lon="17.791850">
        <ele>147.643360</ele>
        <time>2025-06-23T06:17:36.745Z</time>
      </trkpt>
      <trkpt lat="50.740057" lon="17.792409">
        <ele>147.360329</ele>
        <time>2025-06-23T06:17:46.876Z</time>
      </trkpt>
      <trkpt lat="50.739976" lon="17.792516">
        <ele>147.341104</ele>
        <time>2025-06-23T06:17:48.677Z</time>
      </trkpt>
      <trkpt lat="50.739900" lon="17.792682">
        <ele>147.383938</ele>
        <time>2025-06-23T06:17:51.023Z</time>
      </trkpt>
      <trkpt lat="50.739861" lon="17.792871">
        <ele>147.425499</ele>
        <time>2025-06-23T06:17:53.361Z</time>
      </trkpt>
      <trkpt lat="50.739848" lon="17.793074">
        <ele>147.468156</ele>
        <time>2025-06-23T06:17:55.719Z</time>
      </trkpt>
      <trkpt lat="50.739877" lon="17.794487">
        <ele>147.763719</ele>
        <time>2025-06-23T06:18:10.932Z</time>
      </trkpt>
      <trkpt lat="50.739932" lon="17.795834">
        <ele>147.809914</ele>
        <time>2025-06-23T06:18:23.560Z</time>
      </trkpt>
      <trkpt lat="50.739948" lon="17.796310">
        <ele>147.715678</ele>
        <time>2025-06-23T06:18:27.497Z</time>
      </trkpt>
      <trkpt lat="50.739986" lon="17.797373">
        <ele>147.505192</ele>
        <time>2025-06-23T06:18:36.347Z</time>
      </trkpt>
      <trkpt lat="50.740084" lon="17.799865">
        <ele>147.075399</ele>
        <time>2025-06-23T06:18:58.104Z</time>
      </trkpt>
      <trkpt lat="50.740250" lon="17.804146">
        <ele>146.476687</ele>
        <time>2025-06-23T06:19:37.074Z</time>
      </trkpt>
      <trkpt lat="50.740279" lon="17.805237">
        <ele>146.170328</ele>
        <time>2025-06-23T06:19:45.916Z</time>
      </trkpt>
      <trkpt lat="50.740265" lon="17.806175">
        <ele>145.907090</ele>
        <time>2025-06-23T06:19:53.454Z</time>
      </trkpt>
      <trkpt lat="50.740228" lon="17.806692">
        <ele>145.804411</ele>
        <time>2025-06-23T06:19:57.849Z</time>
      </trkpt>
      <trkpt lat="50.740084" lon="17.807915">
        <ele>146.059296</ele>
        <time>2025-06-23T06:20:10.413Z</time>
      </trkpt>
      <trkpt lat="50.739993" lon="17.808586">
        <ele>146.199902</ele>
        <time>2025-06-23T06:20:17.858Z</time>
      </trkpt>
      <trkpt lat="50.739913" lon="17.809181">
        <ele>146.324535</ele>
        <time>2025-06-23T06:20:24.453Z</time>
      </trkpt>
      <trkpt lat="50.739825" lon="17.809650">
        <ele>146.447013</ele>
        <time>2025-06-23T06:20:29.864Z</time>
      </trkpt>
      <trkpt lat="50.739783" lon="17.809819">
        <ele>146.498920</ele>
        <time>2025-06-23T06:20:31.888Z</time>
      </trkpt>
      <trkpt lat="50.739705" lon="17.810119">
        <ele>146.591643</ele>
        <time>2025-06-23T06:20:35.496Z</time>
      </trkpt>
      <trkpt lat="50.739556" lon="17.810552">
        <ele>146.732550</ele>
        <time>2025-06-23T06:20:40.804Z</time>
      </trkpt>
      <trkpt lat="50.739454" lon="17.810633">
        <ele>146.784120</ele>
        <time>2025-06-23T06:20:42.658Z</time>
      </trkpt>
      <trkpt lat="50.739127" lon="17.810761">
        <ele>146.936308</ele>
        <time>2025-06-23T06:20:47.911Z</time>
      </trkpt>
      <trkpt lat="50.739018" lon="17.810838">
        <ele>146.990246</ele>
        <time>2025-06-23T06:20:49.777Z</time>
      </trkpt>
      <trkpt lat="50.738950" lon="17.810915">
        <ele>147.028039</ele>
        <time>2025-06-23T06:20:51.112Z</time>
      </trkpt>
      <trkpt lat="50.738864" lon="17.811128">
        <ele>147.100272</ele>
        <time>2025-06-23T06:20:53.692Z</time>
      </trkpt>
      <trkpt lat="50.738671" lon="17.811940">
        <ele>147.348287</ele>
        <time>2025-06-23T06:21:02.847Z</time>
      </trkpt>
      <trkpt lat="50.737622" lon="17.815475">
        <ele>148.095830</ele>
        <time>2025-06-23T06:21:44.061Z</time>
      </trkpt>
      <trkpt lat="50.736693" lon="17.818847">
        <ele>147.627405</ele>
        <time>2025-06-23T06:22:15.414Z</time>
      </trkpt>
      <trkpt lat="50.733860" lon="17.829020">
        <ele>147.340717</ele>
        <time>2025-06-23T06:23:59.439Z</time>
      </trkpt>
      <trkpt lat="50.733630" lon="17.830028">
        <ele>147.271991</ele>
        <time>2025-06-23T06:24:08.920Z</time>
      </trkpt>
      <trkpt lat="50.733437" lon="17.831092">
        <ele>147.158832</ele>
        <time>2025-06-23T06:24:18.635Z</time>
      </trkpt>
      <trkpt lat="50.732341" lon="17.837958">
        <ele>146.804649</ele>
        <time>2025-06-23T06:25:23.699Z</time>
      </trkpt>
      <trkpt lat="50.732306" lon="17.838177">
        <ele>146.852438</ele>
        <time>2025-06-23T06:25:25.923Z</time>
      </trkpt>
      <trkpt lat="50.731397" lon="17.843866">
        <ele>148.320247</ele>
        <time>2025-06-23T06:26:27.208Z</time>
      </trkpt>
      <trkpt lat="50.731302" lon="17.844185">
        <ele>148.425427</ele>
        <time>2025-06-23T06:26:31.022Z</time>
      </trkpt>
      <trkpt lat="50.731189" lon="17.844379">
        <ele>148.504085</ele>
        <time>2025-06-23T06:26:33.858Z</time>
      </trkpt>
      <trkpt lat="50.730769" lon="17.844739">
        <ele>148.729312</ele>
        <time>2025-06-23T06:26:41.958Z</time>
      </trkpt>
      <trkpt lat="50.730561" lon="17.844971">
        <ele>148.849326</ele>
        <time>2025-06-23T06:26:46.239Z</time>
      </trkpt>
      <trkpt lat="50.730421" lon="17.845164">
        <ele>148.936906</ele>
        <time>2025-06-23T06:26:49.338Z</time>
      </trkpt>
      <trkpt lat="50.730324" lon="17.845361">
        <ele>149.010359</ele>
        <time>2025-06-23T06:26:51.955Z</time>
      </trkpt>
      <trkpt lat="50.730254" lon="17.845596">
        <ele>149.046812</ele>
        <time>2025-06-23T06:26:54.667Z</time>
      </trkpt>
      <trkpt lat="50.729782" lon="17.847677">
        <ele>149.357075</ele>
        <time>2025-06-23T06:27:16.502Z</time>
      </trkpt>
      <trkpt lat="50.729543" lon="17.849103">
        <ele>149.403940</ele>
        <time>2025-06-23T06:27:30.686Z</time>
      </trkpt>
      <trkpt lat="50.729445" lon="17.849949">
        <ele>149.400573</ele>
        <time>2025-06-23T06:27:38.650Z</time>
      </trkpt>
      <trkpt lat="50.729331" lon="17.850536">
        <ele>149.398169</ele>
        <time>2025-06-23T06:27:44.393Z</time>
      </trkpt>
      <trkpt lat="50.729175" lon="17.851138">
        <ele>149.377939</ele>
        <time>2025-06-23T06:27:50.492Z</time>
      </trkpt>
      <trkpt lat="50.728680" lon="17.853044">
        <ele>149.277237</ele>
        <time>2025-06-23T06:28:09.380Z</time>
      </trkpt>
      <trkpt lat="50.728384" lon="17.855260">
        <ele>149.143949</ele>
        <time>2025-06-23T06:28:29.776Z</time>
      </trkpt>
      <trkpt lat="50.728336" lon="17.855504">
        <ele>149.128385</ele>
        <time>2025-06-23T06:28:32.100Z</time>
      </trkpt>
      <trkpt lat="50.728215" lon="17.855732">
        <ele>149.110261</ele>
        <time>2025-06-23T06:28:34.820Z</time>
      </trkpt>
      <trkpt lat="50.728182" lon="17.855951">
        <ele>149.096548</ele>
        <time>2025-06-23T06:28:37.676Z</time>
      </trkpt>
      <trkpt lat="50.727942" lon="17.856846">
        <ele>149.115446</ele>
        <time>2025-06-23T06:28:50.150Z</time>
      </trkpt>
      <trkpt lat="50.727838" lon="17.857024">
        <ele>149.124779</ele>
        <time>2025-06-23T06:28:53.273Z</time>
      </trkpt>
      <trkpt lat="50.727346" lon="17.857479">
        <ele>149.159479</ele>
        <time>2025-06-23T06:29:05.199Z</time>
      </trkpt>
      <trkpt lat="50.727131" lon="17.857728">
        <ele>149.175706</ele>
        <time>2025-06-23T06:29:10.764Z</time>
      </trkpt>
      <trkpt lat="50.726424" lon="17.859193">
        <ele>148.944486</ele>
        <time>2025-06-23T06:29:34.206Z</time>
      </trkpt>
      <trkpt lat="50.725597" lon="17.860312">
        <ele>148.601409</ele>
        <time>2025-06-23T06:29:54.394Z</time>
      </trkpt>
      <trkpt lat="50.725268" lon="17.860907">
        <ele>148.371016</ele>
        <time>2025-06-23T06:30:03.359Z</time>
      </trkpt>
      <trkpt lat="50.725116" lon="17.861208">
        <ele>148.258726</ele>
        <time>2025-06-23T06:30:11.836Z</time>
      </trkpt>
      <trkpt lat="50.725026" lon="17.861453">
        <ele>148.176117</ele>
        <time>2025-06-23T06:30:18.112Z</time>
      </trkpt>
      <trkpt lat="50.724927" lon="17.861603">
        <ele>148.112922</ele>
        <time>2025-06-23T06:30:22.942Z</time>
      </trkpt>
      <trkpt lat="50.724749" lon="17.861589">
        <ele>148.030818</ele>
        <time>2025-06-23T06:30:25.300Z</time>
      </trkpt>
      <trkpt lat="50.721834" lon="17.861061">
        <ele>147.798274</ele>
        <time>2025-06-23T06:31:08.710Z</time>
      </trkpt>
      <trkpt lat="50.721463" lon="17.861069">
        <ele>147.797385</ele>
        <time>2025-06-23T06:31:14.193Z</time>
      </trkpt>
      <trkpt lat="50.721233" lon="17.861144">
        <ele>147.796823</ele>
        <time>2025-06-23T06:31:17.652Z</time>
      </trkpt>
      <trkpt lat="50.720985" lon="17.861274">
        <ele>147.796197</ele>
        <time>2025-06-23T06:31:21.470Z</time>
      </trkpt>
      <trkpt lat="50.713871" lon="17.866895">
        <ele>147.780292</ele>
        <time>2025-06-23T06:33:18.910Z</time>
      </trkpt>
      <trkpt lat="50.709706" lon="17.870225">
        <ele>148.404202</ele>
        <time>2025-06-23T06:34:31.071Z</time>
      </trkpt>
      <trkpt lat="50.709523" lon="17.870368">
        <ele>148.434507</ele>
        <time>2025-06-23T06:34:34.261Z</time>
      </trkpt>
      <trkpt lat="50.709416" lon="17.870450">
        <ele>148.448723</ele>
        <time>2025-06-23T06:34:36.120Z</time>
      </trkpt>
      <trkpt lat="50.709055" lon="17.870728">
        <ele>148.496732</ele>
        <time>2025-06-23T06:34:42.352Z</time>
      </trkpt>
      <trkpt lat="50.708639" lon="17.870969">
        <ele>148.549698</ele>
        <time>2025-06-23T06:34:49.127Z</time>
      </trkpt>
      <trkpt lat="50.707001" lon="17.871840">
        <ele>148.673809</ele>
        <time>2025-06-23T06:35:15.140Z</time>
      </trkpt>
      <trkpt lat="50.706276" lon="17.872118">
        <ele>148.696015</ele>
        <time>2025-06-23T06:35:26.449Z</time>
      </trkpt>
      <trkpt lat="50.705573" lon="17.872283">
        <ele>148.692880</ele>
        <time>2025-06-23T06:35:36.988Z</time>
      </trkpt>
      <trkpt lat="50.704983" lon="17.872367">
        <ele>148.685578</ele>
        <time>2025-06-23T06:35:45.654Z</time>
      </trkpt>
      <trkpt lat="50.702055" lon="17.872445">
        <ele>148.572075</ele>
        <time>2025-06-23T06:36:28.467Z</time>
      </trkpt>
      <trkpt lat="50.701268" lon="17.872648">
        <ele>148.506782</ele>
        <time>2025-06-23T06:36:39.903Z</time>
      </trkpt>
      <trkpt lat="50.701035" lon="17.872761">
        <ele>148.486825</ele>
        <time>2025-06-23T06:36:43.227Z</time>
      </trkpt>
      <trkpt lat="50.700895" lon="17.872969">
        <ele>148.471085</ele>
        <time>2025-06-23T06:36:46.090Z</time>
      </trkpt>
      <trkpt lat="50.700850" lon="17.873076">
        <ele>148.469734</ele>
        <time>2025-06-23T06:36:47.318Z</time>
      </trkpt>
      <trkpt lat="50.700489" lon="17.873921">
        <ele>148.622314</ele>
        <time>2025-06-23T06:36:57.335Z</time>
      </trkpt>
      <trkpt lat="50.700378" lon="17.874177">
        <ele>148.668756</ele>
        <time>2025-06-23T06:37:00.465Z</time>
      </trkpt>
      <trkpt lat="50.700194" lon="17.874447">
        <ele>148.728127</ele>
        <time>2025-06-23T06:37:04.299Z</time>
      </trkpt>
      <trkpt lat="50.699348" lon="17.875046">
        <ele>148.961372</ele>
        <time>2025-06-23T06:37:19.936Z</time>
      </trkpt>
      <trkpt lat="50.699242" lon="17.875189">
        <ele>149.002573</ele>
        <time>2025-06-23T06:37:22.277Z</time>
      </trkpt>
      <trkpt lat="50.699182" lon="17.875346">
        <ele>149.036893</ele>
        <time>2025-06-23T06:37:24.168Z</time>
      </trkpt>
      <trkpt lat="50.698675" lon="17.877436">
        <ele>149.441877</ele>
        <time>2025-06-23T06:37:46.524Z</time>
      </trkpt>
      <trkpt lat="50.698545" lon="17.877987">
        <ele>149.506075</ele>
        <time>2025-06-23T06:37:52.188Z</time>
      </trkpt>
      <trkpt lat="50.698400" lon="17.878386">
        <ele>149.556301</ele>
        <time>2025-06-23T06:37:56.614Z</time>
      </trkpt>
      <trkpt lat="50.698297" lon="17.878558">
        <ele>149.582145</ele>
        <time>2025-06-23T06:37:58.889Z</time>
      </trkpt>
      <trkpt lat="50.697319" lon="17.879697">
        <ele>149.747325</ele>
        <time>2025-06-23T06:38:17.746Z</time>
      </trkpt>
      <trkpt lat="50.697281" lon="17.879773">
        <ele>149.749982</ele>
        <time>2025-06-23T06:38:18.724Z</time>
      </trkpt>
      <trkpt lat="50.697268" lon="17.879859">
        <ele>149.752408</ele>
        <time>2025-06-23T06:38:19.609Z</time>
      </trkpt>
      <trkpt lat="50.697285" lon="17.879970">
        <ele>149.755542</ele>
        <time>2025-06-23T06:38:20.745Z</time>
      </trkpt>
      <trkpt lat="50.697659" lon="17.881713">
        <ele>149.806045</ele>
        <time>2025-06-23T06:38:38.496Z</time>
      </trkpt>
      <trkpt lat="50.697788" lon="17.882045">
        <ele>149.719433</ele>
        <time>2025-06-23T06:38:41.968Z</time>
      </trkpt>
      <trkpt lat="50.697909" lon="17.882393">
        <ele>149.563625</ele>
        <time>2025-06-23T06:38:46.748Z</time>
      </trkpt>
      <trkpt lat="50.697881" lon="17.882515">
        <ele>149.512697</ele>
        <time>2025-06-23T06:38:55.721Z</time>
      </trkpt>
      <trkpt lat="50.697638" lon="17.882600">
        <ele>149.358476</ele>
        <time>2025-06-23T06:39:22.893Z</time>
      </trkpt>
      <trkpt lat="50.698762" lon="17.887119">
        <ele>147.286596</ele>
        <time>2025-06-23T06:44:54.839Z</time>
      </trkpt>
      <trkpt lat="50.699826" lon="17.891250">
        <ele>147.357750</ele>
        <time>2025-06-23T06:50:10.217Z</time>
      </trkpt>
      <trkpt lat="50.700229" lon="17.893016">
        <ele>147.621031</ele>
        <time>2025-06-23T06:52:23.530Z</time>
      </trkpt>
      <trkpt lat="50.700103" lon="17.893211">
        <ele>147.671050</ele>
        <time>2025-06-23T06:52:27.314Z</time>
      </trkpt>
      <trkpt lat="50.700015" lon="17.893325">
        <ele>147.703320</ele>
        <time>2025-06-23T06:52:29.802Z</time>
      </trkpt>
      <trkpt lat="50.699958" lon="17.893319">
        <ele>147.719515</ele>
        <time>2025-06-23T06:52:31.034Z</time>
      </trkpt>
      <trkpt lat="50.699935" lon="17.893257">
        <ele>147.732417</ele>
        <time>2025-06-23T06:52:32.024Z</time>
      </trkpt>
      <trkpt lat="50.699864" lon="17.892794">
        <ele>147.817954</ele>
        <time>2025-06-23T06:52:38.570Z</time>
      </trkpt>
      <trkpt lat="50.699874" lon="17.892742">
        <ele>147.827712</ele>
        <time>2025-06-23T06:52:39.332Z</time>
      </trkpt>
      <trkpt lat="50.699888" lon="17.892770">
        <ele>147.834118</ele>
        <time>2025-06-23T06:52:39.828Z</time>
      </trkpt>
      <trkpt lat="50.699962" lon="17.893058">
        <ele>147.889924</ele>
        <time>2025-06-23T06:52:44.062Z</time>
      </trkpt>
      <trkpt lat="50.700110" lon="17.893641">
        <ele>148.002594</ele>
        <time>2025-06-23T06:52:52.575Z</time>
      </trkpt>
      <trkpt lat="50.700616" lon="17.895631">
        <ele>148.386773</ele>
        <time>2025-06-23T06:53:21.401Z</time>
      </trkpt>
      <trkpt lat="50.701950" lon="17.900876">
        <ele>149.267256</ele>
        <time>2025-06-23T06:54:37.376Z</time>
      </trkpt>
      <trkpt lat="50.702633" lon="17.903804">
        <ele>149.646990</ele>
        <time>2025-06-23T06:55:18.505Z</time>
      </trkpt>
      <trkpt lat="50.702591" lon="17.904432">
        <ele>149.909391</ele>
        <time>2025-06-23T06:55:27.032Z</time>
      </trkpt>
      <trkpt lat="50.702497" lon="17.904655">
        <ele>150.050685</ele>
        <time>2025-06-23T06:55:30.738Z</time>
      </trkpt>
      <trkpt lat="50.702417" lon="17.904773">
        <ele>150.141860</ele>
        <time>2025-06-23T06:55:33.189Z</time>
      </trkpt>
      <trkpt lat="50.702295" lon="17.904876">
        <ele>150.257077</ele>
        <time>2025-06-23T06:55:36.278Z</time>
      </trkpt>
      <trkpt lat="50.701908" lon="17.905036">
        <ele>150.590244</ele>
        <time>2025-06-23T06:55:45.426Z</time>
      </trkpt>
      <trkpt lat="50.701919" lon="17.905186">
        <ele>150.669893</ele>
        <time>2025-06-23T06:55:47.760Z</time>
      </trkpt>
      <trkpt lat="50.701928" lon="17.905406">
        <ele>150.786178</ele>
        <time>2025-06-23T06:55:51.172Z</time>
      </trkpt>
      <trkpt lat="50.701936" lon="17.905531">
        <ele>150.852447</ele>
        <time>2025-06-23T06:55:53.112Z</time>
      </trkpt>
      <trkpt lat="50.702495" lon="17.905281">
        <ele>151.506357</ele>
        <time>2025-06-23T06:56:08.611Z</time>
      </trkpt>
      <trkpt lat="50.702614" lon="17.905292">
        <ele>151.704308</ele>
        <time>2025-06-23T06:56:11.976Z</time>
      </trkpt>
      <trkpt lat="50.702754" lon="17.905368">
        <ele>151.950151</ele>
        <time>2025-06-23T06:56:16.102Z</time>
      </trkpt>
      <trkpt lat="50.702814" lon="17.905431">
        <ele>152.069808</ele>
        <time>2025-06-23T06:56:18.031Z</time>
      </trkpt>
      <trkpt lat="50.702924" lon="17.905651">
        <ele>152.364605</ele>
        <time>2025-06-23T06:56:22.898Z</time>
      </trkpt>
      <trkpt lat="50.703040" lon="17.906180">
        <ele>152.953375</ele>
        <time>2025-06-23T06:56:32.362Z</time>
      </trkpt>
      <trkpt lat="50.703102" lon="17.906242">
        <ele>153.075245</ele>
        <time>2025-06-23T06:56:34.333Z</time>
      </trkpt>
      <trkpt lat="50.703156" lon="17.906519">
        <ele>153.380063</ele>
        <time>2025-06-23T06:56:39.313Z</time>
      </trkpt>
      <trkpt lat="50.703174" lon="17.906511">
        <ele>153.411116</ele>
        <time>2025-06-23T06:56:39.843Z</time>
      </trkpt>
      <trkpt lat="50.703414" lon="17.906397">
        <ele>153.827306</ele>
        <time>2025-06-23T06:56:46.659Z</time>
      </trkpt>
      <trkpt lat="50.703437" lon="17.906387">
        <ele>153.866922</ele>
        <time>2025-06-23T06:56:47.289Z</time>
      </trkpt>
      <trkpt lat="50.703475" lon="17.906588">
        <ele>154.087536</ele>
        <time>2025-06-23T06:56:50.909Z</time>
      </trkpt>
      <trkpt lat="50.703517" lon="17.906563">
        <ele>154.159094</ele>
        <time>2025-06-23T06:56:52.120Z</time>
      </trkpt>
      <trkpt lat="50.703482" lon="17.906364">
        <ele>154.311590</ele>
        <time>2025-06-23T06:56:55.618Z</time>
      </trkpt>
      <trkpt lat="50.703505" lon="17.906352">
        <ele>154.339830</ele>
        <time>2025-06-23T06:56:56.262Z</time>
      </trkpt>
      <trkpt lat="50.703844" lon="17.906433">
        <ele>154.739549</ele>
        <time>2025-06-23T06:57:05.331Z</time>
      </trkpt>
      <trkpt lat="50.704873" lon="17.905904">
        <ele>156.001183</ele>
        <time>2025-06-23T06:57:32.293Z</time>
      </trkpt>
      <trkpt lat="50.705741" lon="17.905578">
        <ele>156.211297</ele>
        <time>2025-06-23T06:57:51.603Z</time>
      </trkpt>
      <trkpt lat="50.705767" lon="17.905568">
        <ele>156.209812</ele>
        <time>2025-06-23T06:57:52.149Z</time>
      </trkpt>
      <trkpt lat="50.705992" lon="17.905513">
        <ele>156.197179</ele>
        <time>2025-06-23T06:57:56.575Z</time>
      </trkpt>
      <trkpt lat="50.706365" lon="17.905365">
        <ele>156.175840</ele>
        <time>2025-06-23T06:58:03.872Z</time>
      </trkpt>
      <trkpt lat="50.706359" lon="17.905312">
        <ele>156.173948</ele>
        <time>2025-06-23T06:58:06.232Z</time>
      </trkpt>
      <trkpt lat="50.706842" lon="17.905154">
        <ele>156.129541</ele>
        <time>2025-06-23T06:58:12.746Z</time>
      </trkpt>
      <trkpt lat="50.710797" lon="17.904030">
        <ele>154.819800</ele>
        <time>2025-06-23T06:59:07.118Z</time>
      </trkpt>
      <trkpt lat="50.711596" lon="17.903813">
        <ele>155.003723</ele>
        <time>2025-06-23T06:59:19.514Z</time>
      </trkpt>
      <trkpt lat="50.711855" lon="17.903743">
        <ele>155.063335</ele>
        <time>2025-06-23T06:59:23.939Z</time>
      </trkpt>
      <trkpt lat="50.712197" lon="17.903643">
        <ele>155.214543</ele>
        <time>2025-06-23T06:59:30.359Z</time>
      </trkpt>
      <trkpt lat="50.712413" lon="17.903544">
        <ele>155.443664</ele>
        <time>2025-06-23T06:59:34.754Z</time>
      </trkpt>
      <trkpt lat="50.712756" lon="17.903269">
        <ele>155.835531</ele>
        <time>2025-06-23T06:59:42.340Z</time>
      </trkpt>
      <trkpt lat="50.712852" lon="17.903154">
        <ele>155.958278</ele>
        <time>2025-06-23T06:59:44.731Z</time>
      </trkpt>
      <trkpt lat="50.712973" lon="17.903075">
        <ele>156.091661</ele>
        <time>2025-06-23T06:59:47.317Z</time>
      </trkpt>
      <trkpt lat="50.712991" lon="17.903119">
        <ele>156.125451</ele>
        <time>2025-06-23T06:59:47.983Z</time>
      </trkpt>
      <trkpt lat="50.713050" lon="17.903268">
        <ele>156.238809</ele>
        <time>2025-06-23T06:59:50.246Z</time>
      </trkpt>
      <trkpt lat="50.713105" lon="17.903242">
        <ele>156.297295</ele>
        <time>2025-06-23T06:59:51.410Z</time>
      </trkpt>
      <trkpt lat="50.713153" lon="17.903223">
        <ele>156.347705</ele>
        <time>2025-06-23T06:59:52.448Z</time>
      </trkpt>
      <trkpt lat="50.713191" lon="17.903436">
        <ele>156.490450</ele>
        <time>2025-06-23T06:59:55.350Z</time>
      </trkpt>
      <trkpt lat="50.713194" lon="17.903828">
        <ele>156.743328</ele>
        <time>2025-06-23T07:00:00.301Z</time>
      </trkpt>
      <trkpt lat="50.713109" lon="17.905086">
        <ele>156.702124</ele>
        <time>2025-06-23T07:00:13.785Z</time>
      </trkpt>
      <trkpt lat="50.712814" lon="17.908017">
        <ele>155.858807</ele>
        <time>2025-06-23T07:00:36.708Z</time>
      </trkpt>
      <trkpt lat="50.712637" lon="17.910018">
        <ele>155.355677</ele>
        <time>2025-06-23T07:00:54.381Z</time>
      </trkpt>
      <trkpt lat="50.712673" lon="17.910400">
        <ele>155.437191</ele>
        <time>2025-06-23T07:00:58.564Z</time>
      </trkpt>
      <trkpt lat="50.712758" lon="17.910674">
        <ele>155.501590</ele>
        <time>2025-06-23T07:01:01.913Z</time>
      </trkpt>
      <trkpt lat="50.712860" lon="17.910880">
        <ele>155.556784</ele>
        <time>2025-06-23T07:01:04.804Z</time>
      </trkpt>
      <trkpt lat="50.712982" lon="17.911075">
        <ele>155.614643</ele>
        <time>2025-06-23T07:01:08.747Z</time>
      </trkpt>
      <trkpt lat="50.713100" lon="17.911116">
        <ele>155.654916</ele>
        <time>2025-06-23T07:01:11.462Z</time>
      </trkpt>
      <trkpt lat="50.713204" lon="17.911084">
        <ele>155.690234</ele>
        <time>2025-06-23T07:01:13.810Z</time>
      </trkpt>
      <trkpt lat="50.713634" lon="17.910611">
        <ele>155.864904</ele>
        <time>2025-06-23T07:01:25.287Z</time>
      </trkpt>
      <trkpt lat="50.713754" lon="17.910420">
        <ele>155.905418</ele>
        <time>2025-06-23T07:01:29.014Z</time>
      </trkpt>
      <trkpt lat="50.713963" lon="17.909947">
        <ele>155.919492</ele>
        <time>2025-06-23T07:01:36.648Z</time>
      </trkpt>
      <trkpt lat="50.713866" lon="17.909658">
        <ele>155.927473</ele>
        <time>2025-06-23T07:01:40.702Z</time>
      </trkpt>
      <trkpt lat="50.713911" lon="17.909463">
        <ele>155.932537</ele>
        <time>2025-06-23T07:01:43.256Z</time>
      </trkpt>
      <trkpt lat="50.714253" lon="17.908578">
        <ele>155.957835</ele>
        <time>2025-06-23T07:01:56.090Z</time>
      </trkpt>
      <trkpt lat="50.714536" lon="17.908184">
        <ele>155.972373</ele>
        <time>2025-06-23T07:02:03.793Z</time>
      </trkpt>
      <trkpt lat="50.714774" lon="17.907638">
        <ele>156.105033</ele>
        <time>2025-06-23T07:02:12.651Z</time>
      </trkpt>
      <trkpt lat="50.715281" lon="17.906526">
        <ele>156.382719</ele>
        <time>2025-06-23T07:02:31.535Z</time>
      </trkpt>
      <trkpt lat="50.715281" lon="17.906526">
        <ele>156.382719</ele>
        <time>2025-06-23T07:02:31.541Z</time>
      </trkpt>
      <trkpt lat="50.715485" lon="17.905912">
        <ele>156.523233</ele>
        <time>2025-06-23T07:02:41.276Z</time>
      </trkpt>
      <trkpt lat="50.716020" lon="17.904913">
        <ele>156.439602</ele>
        <time>2025-06-23T07:02:59.163Z</time>
      </trkpt>
      <trkpt lat="50.716355" lon="17.904172">
        <ele>156.356115</ele>
        <time>2025-06-23T07:03:10.458Z</time>
      </trkpt>
      <trkpt lat="50.716927" lon="17.902927">
        <ele>155.650800</ele>
        <time>2025-06-23T07:03:27.578Z</time>
      </trkpt>
      <trkpt lat="50.716999" lon="17.902817">
        <ele>155.523709</ele>
        <time>2025-06-23T07:03:29.248Z</time>
      </trkpt>
      <trkpt lat="50.717165" lon="17.902794">
        <ele>155.312294</ele>
        <time>2025-06-23T07:03:32.002Z</time>
      </trkpt>
      <trkpt lat="50.718058" lon="17.902881">
        <ele>154.177181</ele>
        <time>2025-06-23T07:03:46.649Z</time>
      </trkpt>
      <trkpt lat="50.718810" lon="17.902957">
        <ele>153.525877</ele>
        <time>2025-06-23T07:03:59.404Z</time>
      </trkpt>
      <trkpt lat="50.719267" lon="17.902960">
        <ele>153.171235</ele>
        <time>2025-06-23T07:04:07.485Z</time>
      </trkpt>
      <trkpt lat="50.719866" lon="17.902990">
        <ele>152.706169</ele>
        <time>2025-06-23T07:04:18.950Z</time>
      </trkpt>
      <trkpt lat="50.719866" lon="17.902990">
        <ele>152.706169</ele>
        <time>2025-06-23T07:04:18.958Z</time>
      </trkpt>
      <trkpt lat="50.719933" lon="17.903038">
        <ele>152.649078</ele>
        <time>2025-06-23T07:04:20.493Z</time>
      </trkpt>
      <trkpt lat="50.719975" lon="17.903175">
        <ele>152.569537</ele>
        <time>2025-06-23T07:04:22.460Z</time>
      </trkpt>
      <trkpt lat="50.720020" lon="17.903249">
        <ele>152.512420</ele>
        <time>2025-06-23T07:04:23.763Z</time>
      </trkpt>
      <trkpt lat="50.720143" lon="17.903272">
        <ele>152.403516</ele>
        <time>2025-06-23T07:04:26.212Z</time>
      </trkpt>
      <trkpt lat="50.720139" lon="17.903140">
        <ele>152.329952</ele>
        <time>2025-06-23T07:04:27.369Z</time>
      </trkpt>
      <trkpt lat="50.720084" lon="17.902759">
        <ele>152.112420</ele>
        <time>2025-06-23T07:04:30.721Z</time>
      </trkpt>
      <trkpt lat="50.720178" lon="17.902659">
        <ele>152.012771</ele>
        <time>2025-06-23T07:04:32.189Z</time>
      </trkpt>
      <trkpt lat="50.720380" lon="17.902353">
        <ele>151.766681</ele>
        <time>2025-06-23T07:04:35.639Z</time>
      </trkpt>
      <trkpt lat="50.720405" lon="17.902318">
        <ele>151.737308</ele>
        <time>2025-06-23T07:04:36.045Z</time>
      </trkpt>
      <trkpt lat="50.720691" lon="17.901952">
        <ele>151.413665</ele>
        <time>2025-06-23T07:04:40.319Z</time>
      </trkpt>
      <trkpt lat="50.720786" lon="17.901826">
        <ele>151.304594</ele>
        <time>2025-06-23T07:04:41.781Z</time>
      </trkpt>
      <trkpt lat="50.720806" lon="17.901799">
        <ele>151.281461</ele>
        <time>2025-06-23T07:04:42.087Z</time>
      </trkpt>
      <trkpt lat="50.720821" lon="17.901777">
        <ele>151.263463</ele>
        <time>2025-06-23T07:04:42.335Z</time>
      </trkpt>
      <trkpt lat="50.721036" lon="17.901497">
        <ele>151.021176</ele>
        <time>2025-06-23T07:04:45.640Z</time>
      </trkpt>
      <trkpt lat="50.721423" lon="17.901073">
        <ele>150.718392</ele>
        <time>2025-06-23T07:04:51.076Z</time>
      </trkpt>
      <trkpt lat="50.721789" lon="17.900764">
        <ele>150.451598</ele>
        <time>2025-06-23T07:04:56.021Z</time>
      </trkpt>
      <trkpt lat="50.722071" lon="17.900598">
        <ele>150.258127</ele>
        <time>2025-06-23T07:04:59.869Z</time>
      </trkpt>
      <trkpt lat="50.722443" lon="17.900444">
        <ele>150.010899</ele>
        <time>2025-06-23T07:05:05.755Z</time>
      </trkpt>
      <trkpt lat="50.722567" lon="17.900417">
        <ele>149.930429</ele>
        <time>2025-06-23T07:05:07.945Z</time>
      </trkpt>
      <trkpt lat="50.722971" lon="17.900361">
        <ele>149.954076</ele>
        <time>2025-06-23T07:05:14.804Z</time>
      </trkpt>
      <trkpt lat="50.723480" lon="17.900355">
        <ele>150.086229</ele>
        <time>2025-06-23T07:05:23.203Z</time>
      </trkpt>
      <trkpt lat="50.724311" lon="17.900333">
        <ele>150.302007</ele>
        <time>2025-06-23T07:05:36.407Z</time>
      </trkpt>
      <trkpt lat="50.724837" lon="17.900261">
        <ele>150.309628</ele>
        <time>2025-06-23T07:05:44.000Z</time>
      </trkpt>
      <trkpt lat="50.725096" lon="17.900185">
        <ele>150.289340</ele>
        <time>2025-06-23T07:05:47.702Z</time>
      </trkpt>
      <trkpt lat="50.725264" lon="17.900121">
        <ele>150.276031</ele>
        <time>2025-06-23T07:05:50.116Z</time>
      </trkpt>
      <trkpt lat="50.725290" lon="17.900336">
        <ele>150.265359</ele>
        <time>2025-06-23T07:05:52.048Z</time>
      </trkpt>
      <trkpt lat="50.725632" lon="17.903107">
        <ele>150.231703</ele>
        <time>2025-06-23T07:06:18.276Z</time>
      </trkpt>
      <trkpt lat="50.725705" lon="17.903347">
        <ele>150.237212</ele>
        <time>2025-06-23T07:06:20.832Z</time>
      </trkpt>
      <trkpt lat="50.725823" lon="17.903530">
        <ele>150.242616</ele>
        <time>2025-06-23T07:06:23.348Z</time>
      </trkpt>
      <trkpt lat="50.726433" lon="17.904045">
        <ele>150.268578</ele>
        <time>2025-06-23T07:06:33.862Z</time>
      </trkpt>
      <trkpt lat="50.727143" lon="17.904562">
        <ele>150.309141</ele>
        <time>2025-06-23T07:06:45.743Z</time>
      </trkpt>
      <trkpt lat="50.728519" lon="17.905796">
        <ele>150.329313</ele>
        <time>2025-06-23T07:07:09.637Z</time>
      </trkpt>
      <trkpt lat="50.728643" lon="17.905907">
        <ele>150.324784</ele>
        <time>2025-06-23T07:07:11.769Z</time>
      </trkpt>
      <trkpt lat="50.728598" lon="17.906675">
        <ele>150.309273</ele>
        <time>2025-06-23T07:07:19.052Z</time>
      </trkpt>
      <trkpt lat="50.728552" lon="17.908257">
        <ele>150.104832</ele>
        <time>2025-06-23T07:07:33.055Z</time>
      </trkpt>
      <trkpt lat="50.728681" lon="17.909724">
        <ele>149.793530</ele>
        <time>2025-06-23T07:07:45.620Z</time>
      </trkpt>
      <trkpt lat="50.728755" lon="17.911395">
        <ele>149.540270</ele>
        <time>2025-06-23T07:08:00.050Z</time>
      </trkpt>
      <trkpt lat="50.728842" lon="17.913441">
        <ele>149.385278</ele>
        <time>2025-06-23T07:08:18.959Z</time>
      </trkpt>
      <trkpt lat="50.728901" lon="17.914238">
        <ele>149.486409</ele>
        <time>2025-06-23T07:08:26.599Z</time>
      </trkpt>
      <trkpt lat="50.729082" lon="17.916400">
        <ele>149.886370</ele>
        <time>2025-06-23T07:08:48.723Z</time>
      </trkpt>
      <trkpt lat="50.729333" lon="17.919440">
        <ele>150.749282</ele>
        <time>2025-06-23T07:09:22.458Z</time>
      </trkpt>
      <trkpt lat="50.729420" lon="17.919747">
        <ele>150.784027</ele>
        <time>2025-06-23T07:09:25.781Z</time>
      </trkpt>
      <trkpt lat="50.729502" lon="17.919945">
        <ele>150.808469</ele>
        <time>2025-06-23T07:09:28.067Z</time>
      </trkpt>
      <trkpt lat="50.731442" lon="17.924229">
        <ele>150.522087</ele>
        <time>2025-06-23T07:10:15.784Z</time>
      </trkpt>
      <trkpt lat="50.731898" lon="17.924936">
        <ele>150.352095</ele>
        <time>2025-06-23T07:10:24.316Z</time>
      </trkpt>
      <trkpt lat="50.731963" lon="17.925078">
        <ele>150.322583</ele>
        <time>2025-06-23T07:10:25.789Z</time>
      </trkpt>
      <trkpt lat="50.732582" lon="17.927249">
        <ele>150.371658</ele>
        <time>2025-06-23T07:10:47.551Z</time>
      </trkpt>
      <trkpt lat="50.732615" lon="17.927430">
        <ele>150.390422</ele>
        <time>2025-06-23T07:10:49.524Z</time>
      </trkpt>
      <trkpt lat="50.732626" lon="17.927665">
        <ele>150.413896</ele>
        <time>2025-06-23T07:10:51.999Z</time>
      </trkpt>
      <trkpt lat="50.732582" lon="17.927932">
        <ele>150.441381</ele>
        <time>2025-06-23T07:10:54.917Z</time>
      </trkpt>
      <trkpt lat="50.732531" lon="17.928099">
        <ele>150.459852</ele>
        <time>2025-06-23T07:10:56.902Z</time>
      </trkpt>
      <trkpt lat="50.732265" lon="17.928683">
        <ele>150.593125</ele>
        <time>2025-06-23T07:11:04.749Z</time>
      </trkpt>
      <trkpt lat="50.732142" lon="17.929053">
        <ele>150.692961</ele>
        <time>2025-06-23T07:11:09.390Z</time>
      </trkpt>
      <trkpt lat="50.732035" lon="17.929448">
        <ele>150.795597</ele>
        <time>2025-06-23T07:11:13.983Z</time>
      </trkpt>
      <trkpt lat="50.731990" lon="17.929814">
        <ele>150.884663</ele>
        <time>2025-06-23T07:11:17.782Z</time>
      </trkpt>
      <trkpt lat="50.731969" lon="17.930280">
        <ele>150.996264</ele>
        <time>2025-06-23T07:11:22.437Z</time>
      </trkpt>
      <trkpt lat="50.731957" lon="17.936063">
        <ele>151.631178</ele>
        <time>2025-06-23T07:12:19.110Z</time>
      </trkpt>
      <trkpt lat="50.731928" lon="17.941990">
        <ele>151.686252</ele>
        <time>2025-06-23T07:13:14.301Z</time>
      </trkpt>
      <trkpt lat="50.732620" lon="17.946899">
        <ele>152.413228</ele>
        <time>2025-06-23T07:14:04.594Z</time>
      </trkpt>
      <trkpt lat="50.732817" lon="17.948023">
        <ele>152.610316</ele>
        <time>2025-06-23T07:14:16.359Z</time>
      </trkpt>
      <trkpt lat="50.733196" lon="17.949952">
        <ele>152.989660</ele>
        <time>2025-06-23T07:14:37.004Z</time>
      </trkpt>
      <trkpt lat="50.733343" lon="17.950659">
        <ele>153.133994</ele>
        <time>2025-06-23T07:14:44.536Z</time>
      </trkpt>
      <trkpt lat="50.733540" lon="17.951396">
        <ele>153.339592</ele>
        <time>2025-06-23T07:14:52.701Z</time>
      </trkpt>
      <trkpt lat="50.733732" lon="17.951976">
        <ele>153.507800</ele>
        <time>2025-06-23T07:14:59.462Z</time>
      </trkpt>
      <trkpt lat="50.733956" lon="17.952666">
        <ele>153.707085</ele>
        <time>2025-06-23T07:15:07.591Z</time>
      </trkpt>
      <trkpt lat="50.734443" lon="17.954189">
        <ele>154.162400</ele>
        <time>2025-06-23T07:15:25.719Z</time>
      </trkpt>
      <trkpt lat="50.734936" lon="17.955489">
        <ele>154.573811</ele>
        <time>2025-06-23T07:15:41.611Z</time>
      </trkpt>
      <trkpt lat="50.735075" lon="17.956022">
        <ele>154.717799</ele>
        <time>2025-06-23T07:15:47.485Z</time>
      </trkpt>
      <trkpt lat="50.735226" lon="17.956736">
        <ele>154.899241</ele>
        <time>2025-06-23T07:15:55.090Z</time>
      </trkpt>
      <trkpt lat="50.735465" lon="17.958079">
        <ele>155.235484</ele>
        <time>2025-06-23T07:16:09.332Z</time>
      </trkpt>
      <trkpt lat="50.735594" lon="17.958625">
        <ele>155.365835</ele>
        <time>2025-06-23T07:16:15.690Z</time>
      </trkpt>
      <trkpt lat="50.735667" lon="17.958822">
        <ele>155.413147</ele>
        <time>2025-06-23T07:16:18.270Z</time>
      </trkpt>
      <trkpt lat="50.735954" lon="17.958918">
        <ele>155.509213</ele>
        <time>2025-06-23T07:16:23.398Z</time>
      </trkpt>
      <trkpt lat="50.736322" lon="17.959120">
        <ele>155.636785</ele>
        <time>2025-06-23T07:16:29.885Z</time>
      </trkpt>
      <trkpt lat="50.736401" lon="17.959171">
        <ele>155.664731</ele>
        <time>2025-06-23T07:16:31.255Z</time>
      </trkpt>
      <trkpt lat="50.736687" lon="17.959366">
        <ele>155.766734</ele>
        <time>2025-06-23T07:16:36.174Z</time>
      </trkpt>
      <trkpt lat="50.736856" lon="17.959496">
        <ele>155.828285</ele>
        <time>2025-06-23T07:16:39.052Z</time>
      </trkpt>
      <trkpt lat="50.737401" lon="17.959987">
        <ele>155.829836</ele>
        <time>2025-06-23T07:16:48.142Z</time>
      </trkpt>
      <trkpt lat="50.738188" lon="17.960726">
        <ele>155.696075</ele>
        <time>2025-06-23T07:17:00.629Z</time>
      </trkpt>
      <trkpt lat="50.738658" lon="17.961150">
        <ele>155.632883</ele>
        <time>2025-06-23T07:17:08.570Z</time>
      </trkpt>
      <trkpt lat="50.739998" lon="17.962391">
        <ele>155.684465</ele>
        <time>2025-06-23T07:17:32.169Z</time>
      </trkpt>
      <trkpt lat="50.740831" lon="17.963255">
        <ele>155.676976</ele>
        <time>2025-06-23T07:17:46.854Z</time>
      </trkpt>
      <trkpt lat="50.741027" lon="17.963399">
        <ele>155.673707</ele>
        <time>2025-06-23T07:17:49.868Z</time>
      </trkpt>
      <trkpt lat="50.741372" lon="17.963561">
        <ele>155.668263</ele>
        <time>2025-06-23T07:17:55.123Z</time>
      </trkpt>
      <trkpt lat="50.742061" lon="17.963755">
        <ele>155.768843</ele>
        <time>2025-06-23T07:18:05.673Z</time>
      </trkpt>
      <trkpt lat="50.742260" lon="17.963887">
        <ele>155.841310</ele>
        <time>2025-06-23T07:18:09.000Z</time>
      </trkpt>
      <trkpt lat="50.742343" lon="17.963981">
        <ele>155.875597</ele>
        <time>2025-06-23T07:18:10.594Z</time>
      </trkpt>
      <trkpt lat="50.742838" lon="17.964934">
        <ele>156.137566</ele>
        <time>2025-06-23T07:18:23.242Z</time>
      </trkpt>
      <trkpt lat="50.742954" lon="17.965133">
        <ele>156.195055</ele>
        <time>2025-06-23T07:18:26.214Z</time>
      </trkpt>
      <trkpt lat="50.743121" lon="17.965294">
        <ele>156.260740</ele>
        <time>2025-06-23T07:18:29.530Z</time>
      </trkpt>
      <trkpt lat="50.744412" lon="17.965958">
        <ele>157.233165</ele>
        <time>2025-06-23T07:18:53.851Z</time>
      </trkpt>
      <trkpt lat="50.744754" lon="17.966052">
        <ele>157.483462</ele>
        <time>2025-06-23T07:19:00.561Z</time>
      </trkpt>
      <trkpt lat="50.745963" lon="17.966252">
        <ele>157.375314</ele>
        <time>2025-06-23T07:19:20.649Z</time>
      </trkpt>
      <trkpt lat="50.746945" lon="17.966433">
        <ele>157.076916</ele>
        <time>2025-06-23T07:19:32.392Z</time>
      </trkpt>
      <trkpt lat="50.747264" lon="17.966560">
        <ele>156.875716</ele>
        <time>2025-06-23T07:19:36.151Z</time>
      </trkpt>
      <trkpt lat="50.747433" lon="17.966679">
        <ele>156.762559</ele>
        <time>2025-06-23T07:19:38.336Z</time>
      </trkpt>
      <trkpt lat="50.748798" lon="17.968091">
        <ele>156.538220</ele>
        <time>2025-06-23T07:20:02.212Z</time>
      </trkpt>
      <trkpt lat="50.749636" lon="17.968931">
        <ele>157.127499</ele>
        <time>2025-06-23T07:20:20.511Z</time>
      </trkpt>
      <trkpt lat="50.749871" lon="17.969115">
        <ele>157.353184</ele>
        <time>2025-06-23T07:20:25.577Z</time>
      </trkpt>
      <trkpt lat="50.750518" lon="17.969528">
        <ele>158.267835</ele>
        <time>2025-06-23T07:20:39.069Z</time>
      </trkpt>
      <trkpt lat="50.752004" lon="17.970440">
        <ele>160.953685</ele>
        <time>2025-06-23T07:21:12.022Z</time>
      </trkpt>
      <trkpt lat="50.753919" lon="17.971428">
        <ele>165.228522</ele>
        <time>2025-06-23T07:22:04.377Z</time>
      </trkpt>
      <trkpt lat="50.754188" lon="17.971598">
        <ele>165.757392</ele>
        <time>2025-06-23T07:22:11.059Z</time>
      </trkpt>
      <trkpt lat="50.754447" lon="17.971813">
        <ele>166.291448</ele>
        <time>2025-06-23T07:22:17.169Z</time>
      </trkpt>
      <trkpt lat="50.754655" lon="17.972018">
        <ele>166.738929</ele>
        <time>2025-06-23T07:22:21.777Z</time>
      </trkpt>
      <trkpt lat="50.755661" lon="17.973232">
        <ele>166.873581</ele>
        <time>2025-06-23T07:22:39.581Z</time>
      </trkpt>
      <trkpt lat="50.756202" lon="17.973925">
        <ele>166.768579</ele>
        <time>2025-06-23T07:22:48.809Z</time>
      </trkpt>
      <trkpt lat="50.759556" lon="17.978268">
        <ele>166.310102</ele>
        <time>2025-06-23T07:23:51.079Z</time>
      </trkpt>
      <trkpt lat="50.762836" lon="17.982521">
        <ele>166.566400</ele>
        <time>2025-06-23T07:24:55.267Z</time>
      </trkpt>
      <trkpt lat="50.763173" lon="17.982947">
        <ele>166.619258</ele>
        <time>2025-06-23T07:25:02.173Z</time>
      </trkpt>
      <trkpt lat="50.763435" lon="17.983351">
        <ele>166.702928</ele>
        <time>2025-06-23T07:25:08.028Z</time>
      </trkpt>
      <trkpt lat="50.764116" lon="17.984728">
        <ele>166.955685</ele>
        <time>2025-06-23T07:25:25.422Z</time>
      </trkpt>
      <trkpt lat="50.765094" lon="17.986604">
        <ele>167.299951</ele>
        <time>2025-06-23T07:25:49.090Z</time>
      </trkpt>
      <trkpt lat="50.766028" lon="17.988585">
        <ele>167.745917</ele>
        <time>2025-06-23T07:26:14.805Z</time>
      </trkpt>
      <trkpt lat="50.766344" lon="17.989141">
        <ele>167.898006</ele>
        <time>2025-06-23T07:26:22.497Z</time>
      </trkpt>
      <trkpt lat="50.766554" lon="17.989446">
        <ele>167.989737</ele>
        <time>2025-06-23T07:26:26.988Z</time>
      </trkpt>
      <trkpt lat="50.767631" lon="17.990971">
        <ele>168.054384</ele>
        <time>2025-06-23T07:26:48.222Z</time>
      </trkpt>
      <trkpt lat="50.767813" lon="17.991193">
        <ele>168.062322</ele>
        <time>2025-06-23T07:26:51.609Z</time>
      </trkpt>
      <trkpt lat="50.768273" lon="17.991661">
        <ele>168.164851</ele>
        <time>2025-06-23T07:26:59.938Z</time>
      </trkpt>
      <trkpt lat="50.768973" lon="17.992291">
        <ele>168.373413</ele>
        <time>2025-06-23T07:27:12.986Z</time>
      </trkpt>
      <trkpt lat="50.770134" lon="17.993317">
        <ele>168.718699</ele>
        <time>2025-06-23T07:27:34.455Z</time>
      </trkpt>
      <trkpt lat="50.771574" lon="17.994576">
        <ele>169.157699</ele>
        <time>2025-06-23T07:27:59.990Z</time>
      </trkpt>
      <trkpt lat="50.772814" lon="17.995534">
        <ele>169.574571</ele>
        <time>2025-06-23T07:28:22.135Z</time>
      </trkpt>
      <trkpt lat="50.773629" lon="17.996049">
        <ele>170.016533</ele>
        <time>2025-06-23T07:28:37.251Z</time>
      </trkpt>
      <trkpt lat="50.773809" lon="17.996149">
        <ele>170.112606</ele>
        <time>2025-06-23T07:28:40.571Z</time>
      </trkpt>
      <trkpt lat="50.774276" lon="17.996351">
        <ele>170.356411</ele>
        <time>2025-06-23T07:28:48.971Z</time>
      </trkpt>
      <trkpt lat="50.774424" lon="17.996414">
        <ele>170.421525</ele>
        <time>2025-06-23T07:28:51.625Z</time>
      </trkpt>
      <trkpt lat="50.775949" lon="17.997002">
        <ele>170.791630</ele>
        <time>2025-06-23T07:29:16.718Z</time>
      </trkpt>
      <trkpt lat="50.778607" lon="17.997954">
        <ele>170.146021</ele>
        <time>2025-06-23T07:29:53.764Z</time>
      </trkpt>
      <trkpt lat="50.778667" lon="17.997969">
        <ele>170.135470</ele>
        <time>2025-06-23T07:29:54.664Z</time>
      </trkpt>
      <trkpt lat="50.778965" lon="17.998076">
        <ele>170.082388</ele>
        <time>2025-06-23T07:29:59.144Z</time>
      </trkpt>
      <trkpt lat="50.779060" lon="17.998152">
        <ele>170.063895</ele>
        <time>2025-06-23T07:30:00.708Z</time>
      </trkpt>
      <trkpt lat="50.779185" lon="17.998327">
        <ele>170.034897</ele>
        <time>2025-06-23T07:30:03.155Z</time>
      </trkpt>
      <trkpt lat="50.779115" lon="17.999017">
        <ele>169.971859</ele>
        <time>2025-06-23T07:30:12.000Z</time>
      </trkpt>
      <trkpt lat="50.778947" lon="18.000422">
        <ele>170.296786</ele>
        <time>2025-06-23T07:30:30.690Z</time>
      </trkpt>
      <trkpt lat="50.779019" lon="18.000966">
        <ele>170.423082</ele>
        <time>2025-06-23T07:30:38.324Z</time>
      </trkpt>
      <trkpt lat="50.779063" lon="18.001631">
        <ele>170.575020</ele>
        <time>2025-06-23T07:30:48.096Z</time>
      </trkpt>
      <trkpt lat="50.779068" lon="18.002920">
        <ele>170.769874</ele>
        <time>2025-06-23T07:31:07.661Z</time>
      </trkpt>
      <trkpt lat="50.779021" lon="18.003427">
        <ele>170.842218</ele>
        <time>2025-06-23T07:31:14.628Z</time>
      </trkpt>
      <trkpt lat="50.778921" lon="18.004111">
        <ele>170.941333</ele>
        <time>2025-06-23T07:31:23.259Z</time>
      </trkpt>
      <trkpt lat="50.778885" lon="18.004559">
        <ele>171.005092</ele>
        <time>2025-06-23T07:31:28.471Z</time>
      </trkpt>
      <trkpt lat="50.778827" lon="18.005627">
        <ele>171.064252</ele>
        <time>2025-06-23T07:31:40.731Z</time>
      </trkpt>
      <trkpt lat="50.778839" lon="18.006047">
        <ele>171.086091</ele>
        <time>2025-06-23T07:31:45.580Z</time>
      </trkpt>
      <trkpt lat="50.779238" lon="18.008720">
        <ele>171.363760</ele>
        <time>2025-06-23T07:32:25.868Z</time>
      </trkpt>
      <trkpt lat="50.779288" lon="18.009362">
        <ele>171.461794</ele>
        <time>2025-06-23T07:32:34.791Z</time>
      </trkpt>
      <trkpt lat="50.779316" lon="18.009907">
        <ele>171.544663</ele>
        <time>2025-06-23T07:32:41.632Z</time>
      </trkpt>
      <trkpt lat="50.779434" lon="18.011015">
        <ele>171.117336</ele>
        <time>2025-06-23T07:32:54.280Z</time>
      </trkpt>
      <trkpt lat="50.779527" lon="18.012301">
        <ele>170.379286</ele>
        <time>2025-06-23T07:33:07.810Z</time>
      </trkpt>
      <trkpt lat="50.779541" lon="18.012850">
        <ele>170.065995</ele>
        <time>2025-06-23T07:33:13.892Z</time>
      </trkpt>
      <trkpt lat="50.779529" lon="18.015796">
        <ele>169.880999</ele>
        <time>2025-06-23T07:33:51.263Z</time>
      </trkpt>
      <trkpt lat="50.779538" lon="18.016485">
        <ele>170.085940</ele>
        <time>2025-06-23T07:34:01.098Z</time>
      </trkpt>
      <trkpt lat="50.779505" lon="18.017213">
        <ele>170.330644</ele>
        <time>2025-06-23T07:34:11.586Z</time>
      </trkpt>
      <trkpt lat="50.779463" lon="18.017744">
        <ele>170.510061</ele>
        <time>2025-06-23T07:34:19.140Z</time>
      </trkpt>
      <trkpt lat="50.779340" lon="18.018629">
        <ele>170.813860</ele>
        <time>2025-06-23T07:34:31.917Z</time>
      </trkpt>
      <trkpt lat="50.779302" lon="18.019530">
        <ele>171.257230</ele>
        <time>2025-06-23T07:34:44.763Z</time>
      </trkpt>
      <trkpt lat="50.779333" lon="18.022220">
        <ele>172.376945</ele>
        <time>2025-06-23T07:35:25.670Z</time>
      </trkpt>
      <trkpt lat="50.780124" lon="18.022921">
        <ele>172.622576</ele>
        <time>2025-06-23T07:35:45.675Z</time>
      </trkpt>
      <trkpt lat="50.781665" lon="18.024037">
        <ele>171.882910</ele>
        <time>2025-06-23T07:36:16.276Z</time>
      </trkpt>
      <trkpt lat="50.781796" lon="18.024233">
        <ele>171.757613</ele>
        <time>2025-06-23T07:36:19.390Z</time>
      </trkpt>
      <trkpt lat="50.781920" lon="18.024553">
        <ele>171.592731</ele>
        <time>2025-06-23T07:36:23.490Z</time>
      </trkpt>
      <trkpt lat="50.782353" lon="18.025975">
        <ele>170.976531</ele>
        <time>2025-06-23T07:36:41.596Z</time>
      </trkpt>
      <trkpt lat="50.783297" lon="18.028944">
        <ele>169.064444</ele>
        <time>2025-06-23T07:37:20.396Z</time>
      </trkpt>
      <trkpt lat="50.783414" lon="18.028835">
        <ele>168.907314</ele>
        <time>2025-06-23T07:37:22.514Z</time>
      </trkpt>
      <trkpt lat="50.783813" lon="18.028341">
        <ele>168.319096</ele>
        <time>2025-06-23T07:37:30.445Z</time>
      </trkpt>
      <trkpt lat="50.784240" lon="18.027832">
        <ele>167.485865</ele>
        <time>2025-06-23T07:37:38.566Z</time>
      </trkpt>
      <trkpt lat="50.784479" lon="18.027547">
        <ele>167.019430</ele>
        <time>2025-06-23T07:37:43.150Z</time>
      </trkpt>
      <trkpt lat="50.785101" lon="18.026806">
        <ele>165.805955</ele>
        <time>2025-06-23T07:37:56.549Z</time>
      </trkpt>
      <trkpt lat="50.785563" lon="18.026260">
        <ele>165.408583</ele>
        <time>2025-06-23T07:38:07.060Z</time>
      </trkpt>
      <trkpt lat="50.784254" lon="18.023653">
        <ele>164.938569</ele>
        <time>2025-06-23T07:38:48.661Z</time>
      </trkpt>
      <trkpt lat="50.784935" lon="18.020866">
        <ele>164.670006</ele>
        <time>2025-06-23T07:39:26.530Z</time>
      </trkpt>
      <trkpt lat="50.786359" lon="18.015847">
        <ele>163.780683</ele>
        <time>2025-06-23T07:40:32.483Z</time>
      </trkpt>
      <trkpt lat="50.786456" lon="18.015411">
        <ele>163.756206</ele>
        <time>2025-06-23T07:40:38.283Z</time>
      </trkpt>
      <trkpt lat="50.787875" lon="18.008103">
        <ele>164.186047</ele>
        <time>2025-06-23T07:42:18.188Z</time>
      </trkpt>
      <trkpt lat="50.787924" lon="18.007756">
        <ele>164.255299</ele>
        <time>2025-06-23T07:42:22.851Z</time>
      </trkpt>
      <trkpt lat="50.787984" lon="18.006558">
        <ele>164.489370</ele>
        <time>2025-06-23T07:42:39.449Z</time>
      </trkpt>
      <trkpt lat="50.788093" lon="18.006094">
        <ele>164.585782</ele>
        <time>2025-06-23T07:42:46.337Z</time>
      </trkpt>
      <trkpt lat="50.788258" lon="18.005617">
        <ele>164.649474</ele>
        <time>2025-06-23T07:42:53.897Z</time>
      </trkpt>
      <trkpt lat="50.788285" lon="18.005438">
        <ele>164.665248</ele>
        <time>2025-06-23T07:42:56.422Z</time>
      </trkpt>
      <trkpt lat="50.789256" lon="18.006030">
        <ele>164.806338</ele>
        <time>2025-06-23T07:44:52.622Z</time>
      </trkpt>
      <trkpt lat="50.789382" lon="18.006080">
        <ele>164.823951</ele>
        <time>2025-06-23T07:45:06.913Z</time>
      </trkpt>
      <trkpt lat="50.789505" lon="18.006030">
        <ele>164.841170</ele>
        <time>2025-06-23T07:45:20.971Z</time>
      </trkpt>
      <trkpt lat="50.789617" lon="18.005930">
        <ele>164.858607</ele>
        <time>2025-06-23T07:45:35.229Z</time>
      </trkpt>
      <trkpt lat="50.789796" lon="18.005369">
        <ele>164.956769</ele>
        <time>2025-06-23T07:46:19.268Z</time>
      </trkpt>
      <trkpt lat="50.790340" lon="18.003964">
        <ele>165.217585</ele>
        <time>2025-06-23T07:48:16.070Z</time>
      </trkpt>
      <trkpt lat="50.790340" lon="18.003964">
        <ele>165.217585</ele>
        <time>2025-06-23T07:48:16.082Z</time>
      </trkpt>
      <trkpt lat="50.790360" lon="18.003622">
        <ele>165.271955</ele>
        <time>2025-06-23T07:48:40.763Z</time>
      </trkpt>
      <trkpt lat="50.788612" lon="18.002747">
        <ele>166.151808</ele>
        <time>2025-06-23T07:49:11.790Z</time>
      </trkpt>
      <trkpt lat="50.786293" lon="18.001269">
        <ele>166.934450</ele>
        <time>2025-06-23T07:49:52.462Z</time>
      </trkpt>
      <trkpt lat="50.786138" lon="18.001148">
        <ele>166.950505</ele>
        <time>2025-06-23T07:49:55.109Z</time>
      </trkpt>
      <trkpt lat="50.786034" lon="18.000951">
        <ele>166.965577</ele>
        <time>2025-06-23T07:49:57.598Z</time>
      </trkpt>
      <trkpt lat="50.785999" lon="18.000731">
        <ele>166.978899</ele>
        <time>2025-06-23T07:49:59.784Z</time>
      </trkpt>
      <trkpt lat="50.786052" lon="18.000509">
        <ele>166.992834</ele>
        <time>2025-06-23T07:50:02.058Z</time>
      </trkpt>
      <trkpt lat="50.786290" lon="17.999851">
        <ele>167.037351</ele>
        <time>2025-06-23T07:50:09.091Z</time>
      </trkpt>
      <trkpt lat="50.786516" lon="17.999207">
        <ele>166.992063</ele>
        <time>2025-06-23T07:50:15.736Z</time>
      </trkpt>
      <trkpt lat="50.786925" lon="17.998002">
        <ele>166.857918</ele>
        <time>2025-06-23T07:50:27.912Z</time>
      </trkpt>
      <trkpt lat="50.787027" lon="17.997568">
        <ele>166.812505</ele>
        <time>2025-06-23T07:50:32.047Z</time>
      </trkpt>
      <trkpt lat="50.787099" lon="17.997061">
        <ele>166.764250</ele>
        <time>2025-06-23T07:50:36.709Z</time>
      </trkpt>
      <trkpt lat="50.787130" lon="17.996371">
        <ele>166.723215</ele>
        <time>2025-06-23T07:50:42.990Z</time>
      </trkpt>
      <trkpt lat="50.787076" lon="17.985721">
        <ele>165.941566</ele>
        <time>2025-06-23T07:52:20.609Z</time>
      </trkpt>
      <trkpt lat="50.787070" lon="17.984687">
        <ele>165.527653</ele>
        <time>2025-06-23T07:52:28.890Z</time>
      </trkpt>
      <trkpt lat="50.787068" lon="17.983491">
        <ele>165.048909</ele>
        <time>2025-06-23T07:52:38.253Z</time>
      </trkpt>
      <trkpt lat="50.787053" lon="17.980789">
        <ele>164.870684</ele>
        <time>2025-06-23T07:53:01.410Z</time>
      </trkpt>
      <trkpt lat="50.787019" lon="17.974534">
        <ele>168.362037</ele>
        <time>2025-06-23T07:54:17.582Z</time>
      </trkpt>
      <trkpt lat="50.787055" lon="17.973473">
        <ele>168.396898</ele>
        <time>2025-06-23T07:54:27.350Z</time>
      </trkpt>
      <trkpt lat="50.787128" lon="17.972638">
        <ele>168.342648</ele>
        <time>2025-06-23T07:54:34.581Z</time>
      </trkpt>
      <trkpt lat="50.787231" lon="17.971987">
        <ele>168.299460</ele>
        <time>2025-06-23T07:54:40.425Z</time>
      </trkpt>
      <trkpt lat="50.787340" lon="17.971476">
        <ele>168.261568</ele>
        <time>2025-06-23T07:54:45.254Z</time>
      </trkpt>
      <trkpt lat="50.787512" lon="17.970871">
        <ele>168.199672</ele>
        <time>2025-06-23T07:54:51.453Z</time>
      </trkpt>
      <trkpt lat="50.787683" lon="17.970366">
        <ele>168.146218</ele>
        <time>2025-06-23T07:54:56.913Z</time>
      </trkpt>
      <trkpt lat="50.787983" lon="17.969681">
        <ele>168.068464</ele>
        <time>2025-06-23T07:55:04.716Z</time>
      </trkpt>
      <trkpt lat="50.789923" lon="17.966057">
        <ele>166.483245</ele>
        <time>2025-06-23T07:55:45.228Z</time>
      </trkpt>
      <trkpt lat="50.791793" lon="17.962594">
        <ele>162.872202</ele>
        <time>2025-06-23T07:56:18.168Z</time>
      </trkpt>
      <trkpt lat="50.792262" lon="17.961722">
        <ele>162.800342</ele>
        <time>2025-06-23T07:56:28.388Z</time>
      </trkpt>
      <trkpt lat="50.792775" lon="17.960769">
        <ele>162.721779</ele>
        <time>2025-06-23T07:56:41.368Z</time>
      </trkpt>
      <trkpt lat="50.793050" lon="17.960142">
        <ele>162.727007</ele>
        <time>2025-06-23T07:56:48.905Z</time>
      </trkpt>
      <trkpt lat="50.793202" lon="17.959704">
        <ele>162.759391</ele>
        <time>2025-06-23T07:56:53.617Z</time>
      </trkpt>
      <trkpt lat="50.793375" lon="17.959080">
        <ele>162.803553</ele>
        <time>2025-06-23T07:56:59.873Z</time>
      </trkpt>
      <trkpt lat="50.793810" lon="17.957122">
        <ele>163.225004</ele>
        <time>2025-06-23T07:57:19.748Z</time>
      </trkpt>
      <trkpt lat="50.794042" lon="17.956031">
        <ele>163.698767</ele>
        <time>2025-06-23T07:57:32.588Z</time>
      </trkpt>
      <trkpt lat="50.794494" lon="17.954137">
        <ele>164.525811</ele>
        <time>2025-06-23T07:57:57.476Z</time>
      </trkpt>
      <trkpt lat="50.794798" lon="17.953179">
        <ele>164.961262</ele>
        <time>2025-06-23T07:58:09.702Z</time>
      </trkpt>
      <trkpt lat="50.795172" lon="17.952123">
        <ele>164.916271</ele>
        <time>2025-06-23T07:58:20.719Z</time>
      </trkpt>
      <trkpt lat="50.795414" lon="17.951522">
        <ele>164.562420</ele>
        <time>2025-06-23T07:58:26.184Z</time>
      </trkpt>
      <trkpt lat="50.796024" lon="17.950190">
        <ele>163.778473</ele>
        <time>2025-06-23T07:58:38.430Z</time>
      </trkpt>
      <trkpt lat="50.792895" lon="17.947176">
        <ele>163.065762</ele>
        <time>2025-06-23T07:59:50.542Z</time>
      </trkpt>
      <trkpt lat="50.792837" lon="17.947026">
        <ele>163.070321</ele>
        <time>2025-06-23T07:59:52.842Z</time>
      </trkpt>
      <trkpt lat="50.793166" lon="17.946233">
        <ele>163.094914</ele>
        <time>2025-06-23T08:00:05.407Z</time>
      </trkpt>
      <trkpt lat="50.793661" lon="17.945040">
        <ele>163.131913</ele>
        <time>2025-06-23T08:00:24.004Z</time>
      </trkpt>
      <trkpt lat="50.793750" lon="17.944666">
        <ele>163.110485</ele>
        <time>2025-06-23T08:00:28.962Z</time>
      </trkpt>
      <trkpt lat="50.793802" lon="17.944202">
        <ele>163.075383</ele>
        <time>2025-06-23T08:00:34.671Z</time>
      </trkpt>
      <trkpt lat="50.794260" lon="17.942770">
        <ele>162.955838</ele>
        <time>2025-06-23T08:00:54.072Z</time>
      </trkpt>
      <trkpt lat="50.795126" lon="17.940431">
        <ele>163.220259</ele>
        <time>2025-06-23T08:01:30.437Z</time>
      </trkpt>
      <trkpt lat="50.795527" lon="17.939596">
        <ele>163.319769</ele>
        <time>2025-06-23T08:01:44.722Z</time>
      </trkpt>
      <trkpt lat="50.794675" lon="17.939166">
        <ele>163.387039</ele>
        <time>2025-06-23T08:01:58.265Z</time>
      </trkpt>
      <trkpt lat="50.790959" lon="17.937028">
        <ele>163.357817</ele>
        <time>2025-06-23T08:02:55.534Z</time>
      </trkpt>
      <trkpt lat="50.790520" lon="17.936769">
        <ele>163.477850</ele>
        <time>2025-06-23T08:03:03.644Z</time>
      </trkpt>
      <trkpt lat="50.790382" lon="17.936592">
        <ele>163.564087</ele>
        <time>2025-06-23T08:03:06.828Z</time>
      </trkpt>
      <trkpt lat="50.789125" lon="17.935846">
        <ele>164.215760</ele>
        <time>2025-06-23T08:03:30.252Z</time>
      </trkpt>
      <trkpt lat="50.789151" lon="17.935781">
        <ele>164.239363</ele>
        <time>2025-06-23T08:03:32.076Z</time>
      </trkpt>
      <trkpt lat="50.787398" lon="17.934688">
        <ele>164.109152</ele>
        <time>2025-06-23T08:03:58.652Z</time>
      </trkpt>
      <trkpt lat="50.787075" lon="17.934524">
        <ele>164.111810</ele>
        <time>2025-06-23T08:04:03.392Z</time>
      </trkpt>
      <trkpt lat="50.785427" lon="17.933846">
        <ele>164.201700</ele>
        <time>2025-06-23T08:04:29.099Z</time>
      </trkpt>
      <trkpt lat="50.784218" lon="17.933452">
        <ele>164.514488</ele>
        <time>2025-06-23T08:04:49.747Z</time>
      </trkpt>
      <trkpt lat="50.784159" lon="17.933436">
        <ele>164.529656</ele>
        <time>2025-06-23T08:04:50.684Z</time>
      </trkpt>
      <trkpt lat="50.782637" lon="17.933190">
        <ele>164.325998</ele>
        <time>2025-06-23T08:05:12.206Z</time>
      </trkpt>
      <trkpt lat="50.781137" lon="17.933195">
        <ele>163.982319</ele>
        <time>2025-06-23T08:05:32.841Z</time>
      </trkpt>
      <trkpt lat="50.780744" lon="17.933196">
        <ele>163.885236</ele>
        <time>2025-06-23T08:05:38.345Z</time>
      </trkpt>
      <trkpt lat="50.780291" lon="17.933248">
        <ele>163.805325</ele>
        <time>2025-06-23T08:05:44.844Z</time>
      </trkpt>
      <trkpt lat="50.779702" lon="17.933315">
        <ele>163.878138</ele>
        <time>2025-06-23T08:05:53.482Z</time>
      </trkpt>
      <trkpt lat="50.778742" lon="17.933266">
        <ele>163.996572</ele>
        <time>2025-06-23T08:06:08.300Z</time>
      </trkpt>
      <trkpt lat="50.777055" lon="17.933362">
        <ele>164.995447</ele>
        <time>2025-06-23T08:06:36.799Z</time>
      </trkpt>
      <trkpt lat="50.775667" lon="17.933333">
        <ele>165.655720</ele>
        <time>2025-06-23T08:07:04.881Z</time>
      </trkpt>
      <trkpt lat="50.775578" lon="17.933328">
        <ele>165.694510</ele>
        <time>2025-06-23T08:07:06.377Z</time>
      </trkpt>
      <trkpt lat="50.775580" lon="17.933276">
        <ele>165.708860</ele>
        <time>2025-06-23T08:07:10.166Z</time>
      </trkpt>
      <trkpt lat="50.775583" lon="17.933199">
        <ele>165.730109</ele>
        <time>2025-06-23T08:07:12.063Z</time>
      </trkpt>
      <trkpt lat="50.771878" lon="17.932851">
        <ele>162.061806</ele>
        <time>2025-06-23T08:07:55.762Z</time>
      </trkpt>
      <trkpt lat="50.770586" lon="17.932685">
        <ele>161.058951</ele>
        <time>2025-06-23T08:08:11.915Z</time>
      </trkpt>
      <trkpt lat="50.770062" lon="17.932635">
        <ele>160.746322</ele>
        <time>2025-06-23T08:08:19.021Z</time>
      </trkpt>
      <trkpt lat="50.769874" lon="17.932660">
        <ele>160.633966</ele>
        <time>2025-06-23T08:08:21.632Z</time>
      </trkpt>
      <trkpt lat="50.766614" lon="17.932353">
        <ele>159.848124</ele>
        <time>2025-06-23T08:09:08.700Z</time>
      </trkpt>
      <trkpt lat="50.766107" lon="17.932274">
        <ele>159.685622</ele>
        <time>2025-06-23T08:09:15.231Z</time>
      </trkpt>
      <trkpt lat="50.766102" lon="17.932329">
        <ele>159.660647</ele>
        <time>2025-06-23T08:09:15.663Z</time>
      </trkpt>
      <trkpt lat="50.766096" lon="17.932390">
        <ele>159.628887</ele>
        <time>2025-06-23T08:09:19.886Z</time>
      </trkpt>
      <trkpt lat="50.765568" lon="17.932207">
        <ele>159.189203</ele>
        <time>2025-06-23T08:09:26.504Z</time>
      </trkpt>
      <trkpt lat="50.765106" lon="17.931966">
        <ele>158.793476</ele>
        <time>2025-06-23T08:09:32.459Z</time>
      </trkpt>
      <trkpt lat="50.764718" lon="17.931684">
        <ele>158.446118</ele>
        <time>2025-06-23T08:09:37.643Z</time>
      </trkpt>
      <trkpt lat="50.764072" lon="17.931170">
        <ele>158.220240</ele>
        <time>2025-06-23T08:09:47.211Z</time>
      </trkpt>
      <trkpt lat="50.763885" lon="17.931007">
        <ele>158.220240</ele>
        <time>2025-06-23T08:09:50.396Z</time>
      </trkpt>
      <trkpt lat="50.763766" lon="17.930895">
        <ele>158.220240</ele>
        <time>2025-06-23T08:09:52.473Z</time>
      </trkpt>
      <trkpt lat="50.763693" lon="17.930816">
        <ele>158.220240</ele>
        <time>2025-06-23T08:09:53.786Z</time>
      </trkpt>
      <trkpt lat="50.763655" lon="17.930905">
        <ele>158.220240</ele>
        <time>2025-06-23T08:09:55.183Z</time>
      </trkpt>
    </trkseg>
  </trk>
</gpx>