<?xml version='1.0' encoding='UTF-8'?>
<gpx version="1.1" creator="https://www.komoot.de" xmlns="http://www.topografix.com/GPX/1/1" xmlns:xsi="http://www.w3.org/2001/XMLSchema-instance" xsi:schemaLocation="http://www.topografix.com/GPX/1/1 http://www.topografix.com/GPX/1/1/gpx.xsd">
  <metadata>
    <name>GraveLova Środa #068 - 5uper Gepard Bike</name>
    <author>
      <link href="https://www.komoot.de">
        <text>komoot</text>
        <type>text/html</type>
      </link>
    </author>
  </metadata>
  <trk>
    <name>GraveLova Środa #068 - 5uper Gepard Bike</name>
    <trkseg>
      <trkpt lat="50.671702" lon="17.962130">
        <ele>174.776857</ele>
        <time>2025-08-18T19:37:34.200Z</time>
      </trkpt>
      <trkpt lat="50.671635" lon="17.961332">
        <ele>174.776857</ele>
        <time>2025-08-18T19:37:46.586Z</time>
      </trkpt>
      <trkpt lat="50.671591" lon="17.960793">
        <ele>174.776857</ele>
        <time>2025-08-18T19:37:54.703Z</time>
      </trkpt>
      <trkpt lat="50.671498" lon="17.959628">
        <ele>174.296888</ele>
        <time>2025-08-18T19:38:10.897Z</time>
      </trkpt>
      <trkpt lat="50.671525" lon="17.959544">
        <ele>174.255926</ele>
        <time>2025-08-18T19:38:12.077Z</time>
      </trkpt>
      <trkpt lat="50.671533" lon="17.959519">
        <ele>174.243746</ele>
        <time>2025-08-18T19:38:12.423Z</time>
      </trkpt>
      <trkpt lat="50.671575" lon="17.959469">
        <ele>174.207642</ele>
        <time>2025-08-18T19:38:13.468Z</time>
      </trkpt>
      <trkpt lat="50.671864" lon="17.959443">
        <ele>174.009000</ele>
        <time>2025-08-18T19:38:19.022Z</time>
      </trkpt>
      <trkpt lat="50.672610" lon="17.959382">
        <ele>173.454838</ele>
        <time>2025-08-18T19:38:33.230Z</time>
      </trkpt>
      <trkpt lat="50.672892" lon="17.959343">
        <ele>173.085840</ele>
        <time>2025-08-18T19:38:38.498Z</time>
      </trkpt>
      <trkpt lat="50.672896" lon="17.959407">
        <ele>173.032713</ele>
        <time>2025-08-18T19:38:39.525Z</time>
      </trkpt>
      <trkpt lat="50.672960" lon="17.960490">
        <ele>172.134174</ele>
        <time>2025-08-18T19:38:56.651Z</time>
      </trkpt>
      <trkpt lat="50.673045" lon="17.960836">
        <ele>171.827623</ele>
        <time>2025-08-18T19:39:02.627Z</time>
      </trkpt>
      <trkpt lat="50.673098" lon="17.960813">
        <ele>171.755972</ele>
        <time>2025-08-18T19:39:03.673Z</time>
      </trkpt>
      <trkpt lat="50.673120" lon="17.960804">
        <ele>171.726347</ele>
        <time>2025-08-18T19:39:04.102Z</time>
      </trkpt>
      <trkpt lat="50.673142" lon="17.960794">
        <ele>171.696504</ele>
        <time>2025-08-18T19:39:04.533Z</time>
      </trkpt>
      <trkpt lat="50.673189" lon="17.960772">
        <ele>171.632600</ele>
        <time>2025-08-18T19:39:05.801Z</time>
      </trkpt>
      <trkpt lat="50.673212" lon="17.960760">
        <ele>171.601023</ele>
        <time>2025-08-18T19:39:06.260Z</time>
      </trkpt>
      <trkpt lat="50.673235" lon="17.960748">
        <ele>171.569446</ele>
        <time>2025-08-18T19:39:06.732Z</time>
      </trkpt>
      <trkpt lat="50.673289" lon="17.960706">
        <ele>171.490971</ele>
        <time>2025-08-18T19:39:07.901Z</time>
      </trkpt>
      <trkpt lat="50.673448" lon="17.960915">
        <ele>171.221222</ele>
        <time>2025-08-18T19:39:13.377Z</time>
      </trkpt>
      <trkpt lat="50.674218" lon="17.960872">
        <ele>170.650129</ele>
        <time>2025-08-18T19:39:33.389Z</time>
      </trkpt>
      <trkpt lat="50.674322" lon="17.960743">
        <ele>170.553835</ele>
        <time>2025-08-18T19:39:36.915Z</time>
      </trkpt>
      <trkpt lat="50.674382" lon="17.960704">
        <ele>170.506599</ele>
        <time>2025-08-18T19:39:38.643Z</time>
      </trkpt>
      <trkpt lat="50.674440" lon="17.960669">
        <ele>170.461397</ele>
        <time>2025-08-18T19:39:40.327Z</time>
      </trkpt>
      <trkpt lat="50.674588" lon="17.960701">
        <ele>170.352657</ele>
        <time>2025-08-18T19:39:44.481Z</time>
      </trkpt>
      <trkpt lat="50.674623" lon="17.960770">
        <ele>170.311886</ele>
        <time>2025-08-18T19:39:46.032Z</time>
      </trkpt>
      <trkpt lat="50.674656" lon="17.960838">
        <ele>170.272376</ele>
        <time>2025-08-18T19:39:47.589Z</time>
      </trkpt>
      <trkpt lat="50.674669" lon="17.960863">
        <ele>170.257458</ele>
        <time>2025-08-18T19:39:48.165Z</time>
      </trkpt>
      <trkpt lat="50.674685" lon="17.960896">
        <ele>170.238290</ele>
        <time>2025-08-18T19:39:48.924Z</time>
      </trkpt>
      <trkpt lat="50.674856" lon="17.960685">
        <ele>170.080276</ele>
        <time>2025-08-18T19:39:55.119Z</time>
      </trkpt>
      <trkpt lat="50.674986" lon="17.960601">
        <ele>169.978019</ele>
        <time>2025-08-18T19:39:59.147Z</time>
      </trkpt>
      <trkpt lat="50.675029" lon="17.960603">
        <ele>169.946705</ele>
        <time>2025-08-18T19:40:00.395Z</time>
      </trkpt>
      <trkpt lat="50.675142" lon="17.960519">
        <ele>169.848622</ele>
        <time>2025-08-18T19:40:03.923Z</time>
      </trkpt>
      <trkpt lat="50.675342" lon="17.960373">
        <ele>169.653397</ele>
        <time>2025-08-18T19:40:09.935Z</time>
      </trkpt>
      <trkpt lat="50.675369" lon="17.960302">
        <ele>169.606910</ele>
        <time>2025-08-18T19:40:11.305Z</time>
      </trkpt>
      <trkpt lat="50.675861" lon="17.959962">
        <ele>169.131072</ele>
        <time>2025-08-18T19:40:25.490Z</time>
      </trkpt>
      <trkpt lat="50.675923" lon="17.959984">
        <ele>169.074774</ele>
        <time>2025-08-18T19:40:27.163Z</time>
      </trkpt>
      <trkpt lat="50.676012" lon="17.959918">
        <ele>168.987655</ele>
        <time>2025-08-18T19:40:29.775Z</time>
      </trkpt>
      <trkpt lat="50.676057" lon="17.960051">
        <ele>168.903011</ele>
        <time>2025-08-18T19:40:36.416Z</time>
      </trkpt>
      <trkpt lat="50.676117" lon="17.960226">
        <ele>168.791306</ele>
        <time>2025-08-18T19:40:45.188Z</time>
      </trkpt>
      <trkpt lat="50.676230" lon="17.960802">
        <ele>168.452792</ele>
        <time>2025-08-18T19:40:52.494Z</time>
      </trkpt>
      <trkpt lat="50.676288" lon="17.961367">
        <ele>168.050312</ele>
        <time>2025-08-18T19:40:59.303Z</time>
      </trkpt>
      <trkpt lat="50.676347" lon="17.962134">
        <ele>167.401709</ele>
        <time>2025-08-18T19:41:08.250Z</time>
      </trkpt>
      <trkpt lat="50.676389" lon="17.962360">
        <ele>167.203998</ele>
        <time>2025-08-18T19:41:11.013Z</time>
      </trkpt>
      <trkpt lat="50.676499" lon="17.962701">
        <ele>166.882784</ele>
        <time>2025-08-18T19:41:15.531Z</time>
      </trkpt>
      <trkpt lat="50.676946" lon="17.963870">
        <ele>165.848280</ele>
        <time>2025-08-18T19:41:31.646Z</time>
      </trkpt>
      <trkpt lat="50.677053" lon="17.964161">
        <ele>165.745041</ele>
        <time>2025-08-18T19:41:35.751Z</time>
      </trkpt>
      <trkpt lat="50.677108" lon="17.964310">
        <ele>165.692127</ele>
        <time>2025-08-18T19:41:37.830Z</time>
      </trkpt>
      <trkpt lat="50.677167" lon="17.964519">
        <ele>165.621919</ele>
        <time>2025-08-18T19:41:40.644Z</time>
      </trkpt>
      <trkpt lat="50.677190" lon="17.964728">
        <ele>165.556826</ele>
        <time>2025-08-18T19:41:43.314Z</time>
      </trkpt>
      <trkpt lat="50.677237" lon="17.965253">
        <ele>165.394127</ele>
        <time>2025-08-18T19:41:50.212Z</time>
      </trkpt>
      <trkpt lat="50.677273" lon="17.965847">
        <ele>165.211023</ele>
        <time>2025-08-18T19:41:58.478Z</time>
      </trkpt>
      <trkpt lat="50.677295" lon="17.966062">
        <ele>165.144194</ele>
        <time>2025-08-18T19:42:01.588Z</time>
      </trkpt>
      <trkpt lat="50.677424" lon="17.967326">
        <ele>165.151167</ele>
        <time>2025-08-18T19:42:20.942Z</time>
      </trkpt>
      <trkpt lat="50.677432" lon="17.967417">
        <ele>165.161804</ele>
        <time>2025-08-18T19:42:22.352Z</time>
      </trkpt>
      <trkpt lat="50.677484" lon="17.968043">
        <ele>165.234901</ele>
        <time>2025-08-18T19:42:31.804Z</time>
      </trkpt>
      <trkpt lat="50.677500" lon="17.968236">
        <ele>165.257437</ele>
        <time>2025-08-18T19:42:34.646Z</time>
      </trkpt>
      <trkpt lat="50.677516" lon="17.968436">
        <ele>165.280777</ele>
        <time>2025-08-18T19:42:37.555Z</time>
      </trkpt>
      <trkpt lat="50.677591" lon="17.969410">
        <ele>165.319777</ele>
        <time>2025-08-18T19:42:51.168Z</time>
      </trkpt>
      <trkpt lat="50.677595" lon="17.969465">
        <ele>165.306360</ele>
        <time>2025-08-18T19:42:51.904Z</time>
      </trkpt>
      <trkpt lat="50.677608" lon="17.969632">
        <ele>165.265582</ele>
        <time>2025-08-18T19:42:54.260Z</time>
      </trkpt>
      <trkpt lat="50.677636" lon="17.969857">
        <ele>165.210011</ele>
        <time>2025-08-18T19:42:57.401Z</time>
      </trkpt>
      <trkpt lat="50.677673" lon="17.970164">
        <ele>165.134274</ele>
        <time>2025-08-18T19:43:01.594Z</time>
      </trkpt>
      <trkpt lat="50.677677" lon="17.970189">
        <ele>165.128025</ele>
        <time>2025-08-18T19:43:01.923Z</time>
      </trkpt>
      <trkpt lat="50.677682" lon="17.970249">
        <ele>165.113359</ele>
        <time>2025-08-18T19:43:02.721Z</time>
      </trkpt>
      <trkpt lat="50.677772" lon="17.971242">
        <ele>164.870252</ele>
        <time>2025-08-18T19:43:16.073Z</time>
      </trkpt>
      <trkpt lat="50.677793" lon="17.971490">
        <ele>164.809614</ele>
        <time>2025-08-18T19:43:19.371Z</time>
      </trkpt>
      <trkpt lat="50.677848" lon="17.972164">
        <ele>164.620881</ele>
        <time>2025-08-18T19:43:28.087Z</time>
      </trkpt>
      <trkpt lat="50.677866" lon="17.972376">
        <ele>164.535762</ele>
        <time>2025-08-18T19:43:30.736Z</time>
      </trkpt>
      <trkpt lat="50.677882" lon="17.972562">
        <ele>164.461064</ele>
        <time>2025-08-18T19:43:33.044Z</time>
      </trkpt>
      <trkpt lat="50.677965" lon="17.973516">
        <ele>164.077858</ele>
        <time>2025-08-18T19:43:44.724Z</time>
      </trkpt>
      <trkpt lat="50.678017" lon="17.974220">
        <ele>163.795805</ele>
        <time>2025-08-18T19:43:53.649Z</time>
      </trkpt>
      <trkpt lat="50.678047" lon="17.974216">
        <ele>163.776898</ele>
        <time>2025-08-18T19:43:54.694Z</time>
      </trkpt>
      <trkpt lat="50.678205" lon="17.974261">
        <ele>163.676071</ele>
        <time>2025-08-18T19:44:00.325Z</time>
      </trkpt>
      <trkpt lat="50.678385" lon="17.974237">
        <ele>163.562629</ele>
        <time>2025-08-18T19:44:06.822Z</time>
      </trkpt>
      <trkpt lat="50.678674" lon="17.974198">
        <ele>163.763889</ele>
        <time>2025-08-18T19:44:17.641Z</time>
      </trkpt>
      <trkpt lat="50.680234" lon="17.973987">
        <ele>164.942959</ele>
        <time>2025-08-18T19:45:22.561Z</time>
      </trkpt>
      <trkpt lat="50.680395" lon="17.973966">
        <ele>164.969066</ele>
        <time>2025-08-18T19:45:29.125Z</time>
      </trkpt>
      <trkpt lat="50.680521" lon="17.973880">
        <ele>164.991250</ele>
        <time>2025-08-18T19:45:34.566Z</time>
      </trkpt>
      <trkpt lat="50.680532" lon="17.973877">
        <ele>164.993054</ele>
        <time>2025-08-18T19:45:35.030Z</time>
      </trkpt>
      <trkpt lat="50.680562" lon="17.973871">
        <ele>164.997941</ele>
        <time>2025-08-18T19:45:36.209Z</time>
      </trkpt>
      <trkpt lat="50.680589" lon="17.973867">
        <ele>165.002324</ele>
        <time>2025-08-18T19:45:37.292Z</time>
      </trkpt>
      <trkpt lat="50.680610" lon="17.973870">
        <ele>165.005731</ele>
        <time>2025-08-18T19:45:38.113Z</time>
      </trkpt>
      <trkpt lat="50.680696" lon="17.973908">
        <ele>165.020163</ele>
        <time>2025-08-18T19:45:41.637Z</time>
      </trkpt>
      <trkpt lat="50.680939" lon="17.973875">
        <ele>165.059578</ele>
        <time>2025-08-18T19:45:51.027Z</time>
      </trkpt>
      <trkpt lat="50.681086" lon="17.973855">
        <ele>165.083421</ele>
        <time>2025-08-18T19:45:56.634Z</time>
      </trkpt>
      <trkpt lat="50.681090" lon="17.973935">
        <ele>165.091638</ele>
        <time>2025-08-18T19:45:58.571Z</time>
      </trkpt>
      <trkpt lat="50.681092" lon="17.973967">
        <ele>165.094931</ele>
        <time>2025-08-18T19:45:59.343Z</time>
      </trkpt>
      <trkpt lat="50.681093" lon="17.974017">
        <ele>165.100053</ele>
        <time>2025-08-18T19:46:00.509Z</time>
      </trkpt>
      <trkpt lat="50.681093" lon="17.974044">
        <ele>165.102818</ele>
        <time>2025-08-18T19:46:01.146Z</time>
      </trkpt>
      <trkpt lat="50.681095" lon="17.974094">
        <ele>165.107948</ele>
        <time>2025-08-18T19:46:02.328Z</time>
      </trkpt>
      <trkpt lat="50.681095" lon="17.974124">
        <ele>165.111020</ele>
        <time>2025-08-18T19:46:03.038Z</time>
      </trkpt>
      <trkpt lat="50.681097" lon="17.974169">
        <ele>165.115639</ele>
        <time>2025-08-18T19:46:04.136Z</time>
      </trkpt>
      <trkpt lat="50.681097" lon="17.974195">
        <ele>165.118301</ele>
        <time>2025-08-18T19:46:04.734Z</time>
      </trkpt>
      <trkpt lat="50.681113" lon="17.974301">
        <ele>165.129459</ele>
        <time>2025-08-18T19:46:09.542Z</time>
      </trkpt>
      <trkpt lat="50.681191" lon="17.974317">
        <ele>165.142170</ele>
        <time>2025-08-18T19:46:15.009Z</time>
      </trkpt>
      <trkpt lat="50.681210" lon="17.974422">
        <ele>165.153351</ele>
        <time>2025-08-18T19:46:16.960Z</time>
      </trkpt>
      <trkpt lat="50.681197" lon="17.974604">
        <ele>165.172106</ele>
        <time>2025-08-18T19:46:20.199Z</time>
      </trkpt>
      <trkpt lat="50.681161" lon="17.975137">
        <ele>165.226316</ele>
        <time>2025-08-18T19:46:29.558Z</time>
      </trkpt>
      <trkpt lat="50.681155" lon="17.975253">
        <ele>165.132206</ele>
        <time>2025-08-18T19:46:31.561Z</time>
      </trkpt>
      <trkpt lat="50.681153" lon="17.975335">
        <ele>165.065851</ele>
        <time>2025-08-18T19:46:33.001Z</time>
      </trkpt>
      <trkpt lat="50.681147" lon="17.975474">
        <ele>164.953193</ele>
        <time>2025-08-18T19:46:35.392Z</time>
      </trkpt>
      <trkpt lat="50.681133" lon="17.975842">
        <ele>164.655089</ele>
        <time>2025-08-18T19:46:41.665Z</time>
      </trkpt>
      <trkpt lat="50.681086" lon="17.976801">
        <ele>163.877316</ele>
        <time>2025-08-18T19:46:57.551Z</time>
      </trkpt>
      <trkpt lat="50.681038" lon="17.977770">
        <ele>163.091381</ele>
        <time>2025-08-18T19:47:12.562Z</time>
      </trkpt>
      <trkpt lat="50.681023" lon="17.978072">
        <ele>162.793456</ele>
        <time>2025-08-18T19:47:17.137Z</time>
      </trkpt>
      <trkpt lat="50.681074" lon="17.978077">
        <ele>162.687682</ele>
        <time>2025-08-18T19:47:18.033Z</time>
      </trkpt>
      <trkpt lat="50.681067" lon="17.978230">
        <ele>162.486479</ele>
        <time>2025-08-18T19:47:19.721Z</time>
      </trkpt>
      <trkpt lat="50.681057" lon="17.978446">
        <ele>162.202411</ele>
        <time>2025-08-18T19:47:22.098Z</time>
      </trkpt>
      <trkpt lat="50.681076" lon="17.979031">
        <ele>161.434098</ele>
        <time>2025-08-18T19:47:28.491Z</time>
      </trkpt>
      <trkpt lat="50.681036" lon="17.979879">
        <ele>160.318754</ele>
        <time>2025-08-18T19:47:45.216Z</time>
      </trkpt>
      <trkpt lat="50.680971" lon="17.980808">
        <ele>159.127305</ele>
        <time>2025-08-18T19:48:03.867Z</time>
      </trkpt>
      <trkpt lat="50.680886" lon="17.982098">
        <ele>157.933639</ele>
        <time>2025-08-18T19:48:30.506Z</time>
      </trkpt>
      <trkpt lat="50.680765" lon="17.982800">
        <ele>157.264067</ele>
        <time>2025-08-18T19:48:45.630Z</time>
      </trkpt>
      <trkpt lat="50.680711" lon="17.982969">
        <ele>157.089868</ele>
        <time>2025-08-18T19:48:49.608Z</time>
      </trkpt>
      <trkpt lat="50.680687" lon="17.983045">
        <ele>157.011715</ele>
        <time>2025-08-18T19:48:51.385Z</time>
      </trkpt>
      <trkpt lat="50.680222" lon="17.983673">
        <ele>156.397483</ele>
        <time>2025-08-18T19:49:11.758Z</time>
      </trkpt>
      <trkpt lat="50.678816" lon="17.986245">
        <ele>155.692130</ele>
        <time>2025-08-18T19:50:28.248Z</time>
      </trkpt>
      <trkpt lat="50.678666" lon="17.986563">
        <ele>155.762998</ele>
        <time>2025-08-18T19:50:38.202Z</time>
      </trkpt>
      <trkpt lat="50.678565" lon="17.986912">
        <ele>155.831586</ele>
        <time>2025-08-18T19:50:47.905Z</time>
      </trkpt>
      <trkpt lat="50.678522" lon="17.987233">
        <ele>155.890238</ele>
        <time>2025-08-18T19:50:56.345Z</time>
      </trkpt>
      <trkpt lat="50.678545" lon="17.987587">
        <ele>155.953853</ele>
        <time>2025-08-18T19:51:05.521Z</time>
      </trkpt>
      <trkpt lat="50.679221" lon="17.990531">
        <ele>156.647350</ele>
        <time>2025-08-18T19:52:22.550Z</time>
      </trkpt>
      <trkpt lat="50.679237" lon="17.990649">
        <ele>156.630950</ele>
        <time>2025-08-18T19:52:25.397Z</time>
      </trkpt>
      <trkpt lat="50.679967" lon="17.992829">
        <ele>156.222099</ele>
        <time>2025-08-18T19:53:21.306Z</time>
      </trkpt>
      <trkpt lat="50.680046" lon="17.992965">
        <ele>156.191507</ele>
        <time>2025-08-18T19:53:25.373Z</time>
      </trkpt>
      <trkpt lat="50.680225" lon="17.993153">
        <ele>156.146333</ele>
        <time>2025-08-18T19:53:32.926Z</time>
      </trkpt>
      <trkpt lat="50.680081" lon="17.993558">
        <ele>156.088955</ele>
        <time>2025-08-18T19:53:41.023Z</time>
      </trkpt>
      <trkpt lat="50.680204" lon="17.993661">
        <ele>156.061805</ele>
        <time>2025-08-18T19:53:45.959Z</time>
      </trkpt>
      <trkpt lat="50.680385" lon="17.994177">
        <ele>155.988935</ele>
        <time>2025-08-18T19:53:59.267Z</time>
      </trkpt>
      <trkpt lat="50.683296" lon="18.003344">
        <ele>156.687877</ele>
        <time>2025-08-18T19:58:04.102Z</time>
      </trkpt>
      <trkpt lat="50.683938" lon="18.005362">
        <ele>156.853161</ele>
        <time>2025-08-18T19:58:57.602Z</time>
      </trkpt>
      <trkpt lat="50.684077" lon="18.005670">
        <ele>156.857346</ele>
        <time>2025-08-18T19:59:06.508Z</time>
      </trkpt>
      <trkpt lat="50.686201" lon="18.008749">
        <ele>156.712065</ele>
        <time>2025-08-18T20:00:52.814Z</time>
      </trkpt>
      <trkpt lat="50.686289" lon="18.008864">
        <ele>156.705260</ele>
        <time>2025-08-18T20:00:56.986Z</time>
      </trkpt>
      <trkpt lat="50.686817" lon="18.009721">
        <ele>156.769979</ele>
        <time>2025-08-18T20:01:24.626Z</time>
      </trkpt>
      <trkpt lat="50.687432" lon="18.010905">
        <ele>157.060402</ele>
        <time>2025-08-18T20:02:01.877Z</time>
      </trkpt>
      <trkpt lat="50.687587" lon="18.011154">
        <ele>157.126617</ele>
        <time>2025-08-18T20:02:10.693Z</time>
      </trkpt>
      <trkpt lat="50.687734" lon="18.011570">
        <ele>157.216912</ele>
        <time>2025-08-18T20:02:22.653Z</time>
      </trkpt>
      <trkpt lat="50.687893" lon="18.011899">
        <ele>157.238364</ele>
        <time>2025-08-18T20:02:32.923Z</time>
      </trkpt>
      <trkpt lat="50.687997" lon="18.012214">
        <ele>157.256779</ele>
        <time>2025-08-18T20:02:41.634Z</time>
      </trkpt>
      <trkpt lat="50.686392" lon="18.013383">
        <ele>157.459913</ele>
        <time>2025-08-18T20:03:46.352Z</time>
      </trkpt>
      <trkpt lat="50.686208" lon="18.013514">
        <ele>157.502295</ele>
        <time>2025-08-18T20:03:53.829Z</time>
      </trkpt>
      <trkpt lat="50.683855" lon="18.015190">
        <ele>158.285825</ele>
        <time>2025-08-18T20:05:33.538Z</time>
      </trkpt>
      <trkpt lat="50.683651" lon="18.015364">
        <ele>158.373369</ele>
        <time>2025-08-18T20:05:42.465Z</time>
      </trkpt>
      <trkpt lat="50.683409" lon="18.015646">
        <ele>158.471982</ele>
        <time>2025-08-18T20:05:54.032Z</time>
      </trkpt>
      <trkpt lat="50.682020" lon="18.017468">
        <ele>158.946759</ele>
        <time>2025-08-18T20:07:03.145Z</time>
      </trkpt>
      <trkpt lat="50.681953" lon="18.017630">
        <ele>158.947046</ele>
        <time>2025-08-18T20:07:07.820Z</time>
      </trkpt>
      <trkpt lat="50.682720" lon="18.018783">
        <ele>158.949520</ele>
        <time>2025-08-18T20:07:47.378Z</time>
      </trkpt>
      <trkpt lat="50.683959" lon="18.020511">
        <ele>158.779469</ele>
        <time>2025-08-18T20:08:46.791Z</time>
      </trkpt>
      <trkpt lat="50.685364" lon="18.022835">
        <ele>158.907227</ele>
        <time>2025-08-18T20:10:03.296Z</time>
      </trkpt>
      <trkpt lat="50.685630" lon="18.023252">
        <ele>158.956768</ele>
        <time>2025-08-18T20:10:17.630Z</time>
      </trkpt>
      <trkpt lat="50.685715" lon="18.023341">
        <ele>158.957835</ele>
        <time>2025-08-18T20:10:21.520Z</time>
      </trkpt>
      <trkpt lat="50.684503" lon="18.024868">
        <ele>158.974055</ele>
        <time>2025-08-18T20:11:19.154Z</time>
      </trkpt>
      <trkpt lat="50.683560" lon="18.026720">
        <ele>158.612230</ele>
        <time>2025-08-18T20:12:12.733Z</time>
      </trkpt>
      <trkpt lat="50.683197" lon="18.027576">
        <ele>158.565803</ele>
        <time>2025-08-18T20:12:36.707Z</time>
      </trkpt>
      <trkpt lat="50.683104" lon="18.027939">
        <ele>158.626092</ele>
        <time>2025-08-18T20:12:46.069Z</time>
      </trkpt>
      <trkpt lat="50.683055" lon="18.028257">
        <ele>158.676484</ele>
        <time>2025-08-18T20:12:53.974Z</time>
      </trkpt>
      <trkpt lat="50.682850" lon="18.028997">
        <ele>158.800840</ele>
        <time>2025-08-18T20:13:13.729Z</time>
      </trkpt>
      <trkpt lat="50.682668" lon="18.029275">
        <ele>158.862390</ele>
        <time>2025-08-18T20:13:23.611Z</time>
      </trkpt>
      <trkpt lat="50.682198" lon="18.029789">
        <ele>158.997524</ele>
        <time>2025-08-18T20:13:45.831Z</time>
      </trkpt>
      <trkpt lat="50.682102" lon="18.029893">
        <ele>159.023960</ele>
        <time>2025-08-18T20:13:50.332Z</time>
      </trkpt>
      <trkpt lat="50.681178" lon="18.031095">
        <ele>159.295821</ele>
        <time>2025-08-18T20:14:35.734Z</time>
      </trkpt>
      <trkpt lat="50.680781" lon="18.031744">
        <ele>159.371617</ele>
        <time>2025-08-18T20:14:56.799Z</time>
      </trkpt>
      <trkpt lat="50.680439" lon="18.032220">
        <ele>159.399683</ele>
        <time>2025-08-18T20:15:13.549Z</time>
      </trkpt>
      <trkpt lat="50.679909" lon="18.033050">
        <ele>159.445639</ele>
        <time>2025-08-18T20:15:41.344Z</time>
      </trkpt>
      <trkpt lat="50.679714" lon="18.033763">
        <ele>159.491534</ele>
        <time>2025-08-18T20:15:59.962Z</time>
      </trkpt>
      <trkpt lat="50.679607" lon="18.034421">
        <ele>159.548256</ele>
        <time>2025-08-18T20:16:16.346Z</time>
      </trkpt>
      <trkpt lat="50.679492" lon="18.034761">
        <ele>159.580437</ele>
        <time>2025-08-18T20:16:25.711Z</time>
      </trkpt>
      <trkpt lat="50.679089" lon="18.035559">
        <ele>159.665642</ele>
        <time>2025-08-18T20:16:50.136Z</time>
      </trkpt>
      <trkpt lat="50.678874" lon="18.036154">
        <ele>159.702451</ele>
        <time>2025-08-18T20:17:06.057Z</time>
      </trkpt>
      <trkpt lat="50.677988" lon="18.037222">
        <ele>159.722351</ele>
        <time>2025-08-18T20:17:47.108Z</time>
      </trkpt>
      <trkpt lat="50.677843" lon="18.037283">
        <ele>159.725030</ele>
        <time>2025-08-18T20:17:52.689Z</time>
      </trkpt>
      <trkpt lat="50.676833" lon="18.037474">
        <ele>159.820060</ele>
        <time>2025-08-18T20:18:31.365Z</time>
      </trkpt>
      <trkpt lat="50.676337" lon="18.037465">
        <ele>159.886474</ele>
        <time>2025-08-18T20:18:50.197Z</time>
      </trkpt>
      <trkpt lat="50.675962" lon="18.037373">
        <ele>159.937285</ele>
        <time>2025-08-18T20:19:04.369Z</time>
      </trkpt>
      <trkpt lat="50.675844" lon="18.037306">
        <ele>159.954076</ele>
        <time>2025-08-18T20:19:09.008Z</time>
      </trkpt>
      <trkpt lat="50.675573" lon="18.036963">
        <ele>159.938017</ele>
        <time>2025-08-18T20:19:21.801Z</time>
      </trkpt>
      <trkpt lat="50.675501" lon="18.036633">
        <ele>159.902402</ele>
        <time>2025-08-18T20:19:29.886Z</time>
      </trkpt>
      <trkpt lat="50.675387" lon="18.036374">
        <ele>159.870223</ele>
        <time>2025-08-18T20:19:37.137Z</time>
      </trkpt>
      <trkpt lat="50.674110" lon="18.034864">
        <ele>159.603047</ele>
        <time>2025-08-18T20:20:35.027Z</time>
      </trkpt>
      <trkpt lat="50.673115" lon="18.033688">
        <ele>159.373343</ele>
        <time>2025-08-18T20:21:20.218Z</time>
      </trkpt>
      <trkpt lat="50.673052" lon="18.033200">
        <ele>159.324441</ele>
        <time>2025-08-18T20:21:27.252Z</time>
      </trkpt>
      <trkpt lat="50.672998" lon="18.032992">
        <ele>159.305163</ele>
        <time>2025-08-18T20:21:30.431Z</time>
      </trkpt>
      <trkpt lat="50.672866" lon="18.032669">
        <ele>159.272201</ele>
        <time>2025-08-18T20:21:35.913Z</time>
      </trkpt>
      <trkpt lat="50.672811" lon="18.032538">
        <ele>159.258724</ele>
        <time>2025-08-18T20:21:38.145Z</time>
      </trkpt>
      <trkpt lat="50.672603" lon="18.032043">
        <ele>159.207786</ele>
        <time>2025-08-18T20:21:46.658Z</time>
      </trkpt>
      <trkpt lat="50.672571" lon="18.031966">
        <ele>159.199889</ele>
        <time>2025-08-18T20:21:47.960Z</time>
      </trkpt>
      <trkpt lat="50.672102" lon="18.030798">
        <ele>159.153855</ele>
        <time>2025-08-18T20:22:07.952Z</time>
      </trkpt>
      <trkpt lat="50.671644" lon="18.030466">
        <ele>159.279705</ele>
        <time>2025-08-18T20:22:19.996Z</time>
      </trkpt>
      <trkpt lat="50.670130" lon="18.029463">
        <ele>159.599558</ele>
        <time>2025-08-18T20:23:00.584Z</time>
      </trkpt>
      <trkpt lat="50.670050" lon="18.029390">
        <ele>159.607086</ele>
        <time>2025-08-18T20:23:02.780Z</time>
      </trkpt>
      <trkpt lat="50.669986" lon="18.029328">
        <ele>159.613203</ele>
        <time>2025-08-18T20:23:04.510Z</time>
      </trkpt>
      <trkpt lat="50.669735" lon="18.029144">
        <ele>159.635748</ele>
        <time>2025-08-18T20:23:10.695Z</time>
      </trkpt>
      <trkpt lat="50.668918" lon="18.028547">
        <ele>159.800879</ele>
        <time>2025-08-18T20:23:29.966Z</time>
      </trkpt>
      <trkpt lat="50.668709" lon="18.028394">
        <ele>160.077998</ele>
        <time>2025-08-18T20:23:35.063Z</time>
      </trkpt>
      <trkpt lat="50.668415" lon="18.028145">
        <ele>160.479338</ele>
        <time>2025-08-18T20:23:43.024Z</time>
      </trkpt>
      <trkpt lat="50.668144" lon="18.027779">
        <ele>160.908395</ele>
        <time>2025-08-18T20:23:52.447Z</time>
      </trkpt>
      <trkpt lat="50.667707" lon="18.027120">
        <ele>161.635477</ele>
        <time>2025-08-18T20:24:10.754Z</time>
      </trkpt>
      <trkpt lat="50.667557" lon="18.026926">
        <ele>161.868985</ele>
        <time>2025-08-18T20:24:17.106Z</time>
      </trkpt>
      <trkpt lat="50.667375" lon="18.026810">
        <ele>162.122677</ele>
        <time>2025-08-18T20:24:23.466Z</time>
      </trkpt>
      <trkpt lat="50.667098" lon="18.026831">
        <ele>162.481094</ele>
        <time>2025-08-18T20:24:32.472Z</time>
      </trkpt>
      <trkpt lat="50.666975" lon="18.026888">
        <ele>162.646779</ele>
        <time>2025-08-18T20:24:36.525Z</time>
      </trkpt>
      <trkpt lat="50.666581" lon="18.027128">
        <ele>163.192633</ele>
        <time>2025-08-18T20:24:49.172Z</time>
      </trkpt>
      <trkpt lat="50.663355" lon="18.029356">
        <ele>164.059989</ele>
        <time>2025-08-18T20:26:07.767Z</time>
      </trkpt>
      <trkpt lat="50.663354" lon="18.029419">
        <ele>164.054108</ele>
        <time>2025-08-18T20:26:09.215Z</time>
      </trkpt>
      <trkpt lat="50.661674" lon="18.030585">
        <ele>164.100947</ele>
        <time>2025-08-18T20:26:47.935Z</time>
      </trkpt>
      <trkpt lat="50.661289" lon="18.030937">
        <ele>164.172730</ele>
        <time>2025-08-18T20:26:58.681Z</time>
      </trkpt>
      <trkpt lat="50.660027" lon="18.032297">
        <ele>164.835427</ele>
        <time>2025-08-18T20:27:38.635Z</time>
      </trkpt>
      <trkpt lat="50.659080" lon="18.033321">
        <ele>164.716554</ele>
        <time>2025-08-18T20:28:03.403Z</time>
      </trkpt>
      <trkpt lat="50.657462" lon="18.035041">
        <ele>163.413078</ele>
        <time>2025-08-18T20:28:40.665Z</time>
      </trkpt>
      <trkpt lat="50.657426" lon="18.035003">
        <ele>163.391479</ele>
        <time>2025-08-18T20:28:41.545Z</time>
      </trkpt>
      <trkpt lat="50.657219" lon="18.035220">
        <ele>163.267546</ele>
        <time>2025-08-18T20:28:46.626Z</time>
      </trkpt>
      <trkpt lat="50.657175" lon="18.035271">
        <ele>163.240319</ele>
        <time>2025-08-18T20:28:47.775Z</time>
      </trkpt>
      <trkpt lat="50.657105" lon="18.035350">
        <ele>163.197401</ele>
        <time>2025-08-18T20:28:49.570Z</time>
      </trkpt>
      <trkpt lat="50.656623" lon="18.035900">
        <ele>162.900763</ele>
        <time>2025-08-18T20:29:02.632Z</time>
      </trkpt>
      <trkpt lat="50.656283" lon="18.036303">
        <ele>162.938799</ele>
        <time>2025-08-18T20:29:12.603Z</time>
      </trkpt>
      <trkpt lat="50.656021" lon="18.036613">
        <ele>163.004057</ele>
        <time>2025-08-18T20:29:20.315Z</time>
      </trkpt>
      <trkpt lat="50.655634" lon="18.037165">
        <ele>163.108018</ele>
        <time>2025-08-18T20:29:32.557Z</time>
      </trkpt>
      <trkpt lat="50.654881" lon="18.038189">
        <ele>163.264743</ele>
        <time>2025-08-18T20:29:55.465Z</time>
      </trkpt>
      <trkpt lat="50.654688" lon="18.038460">
        <ele>163.289716</ele>
        <time>2025-08-18T20:30:01.267Z</time>
      </trkpt>
      <trkpt lat="50.654395" lon="18.038880">
        <ele>163.327981</ele>
        <time>2025-08-18T20:30:10.144Z</time>
      </trkpt>
      <trkpt lat="50.654075" lon="18.039331">
        <ele>163.369456</ele>
        <time>2025-08-18T20:30:19.792Z</time>
      </trkpt>
      <trkpt lat="50.653856" lon="18.039679">
        <ele>163.399500</ele>
        <time>2025-08-18T20:30:26.744Z</time>
      </trkpt>
      <trkpt lat="50.653274" lon="18.040442">
        <ele>163.373421</ele>
        <time>2025-08-18T20:30:43.671Z</time>
      </trkpt>
      <trkpt lat="50.652188" lon="18.041969">
        <ele>163.441889</ele>
        <time>2025-08-18T20:31:15.541Z</time>
      </trkpt>
      <trkpt lat="50.652061" lon="18.042147">
        <ele>163.485031</ele>
        <time>2025-08-18T20:31:19.249Z</time>
      </trkpt>
      <trkpt lat="50.651586" lon="18.042806">
        <ele>163.645673</ele>
        <time>2025-08-18T20:31:33.716Z</time>
      </trkpt>
      <trkpt lat="50.651255" lon="18.043277">
        <ele>163.758876</ele>
        <time>2025-08-18T20:31:44.715Z</time>
      </trkpt>
      <trkpt lat="50.651066" lon="18.043412">
        <ele>163.812792</ele>
        <time>2025-08-18T20:31:50.019Z</time>
      </trkpt>
      <trkpt lat="50.651046" lon="18.043426">
        <ele>163.818738</ele>
        <time>2025-08-18T20:31:50.556Z</time>
      </trkpt>
      <trkpt lat="50.650567" lon="18.043805">
        <ele>163.964363</ele>
        <time>2025-08-18T20:32:03.685Z</time>
      </trkpt>
      <trkpt lat="50.650367" lon="18.043979">
        <ele>164.026431</ele>
        <time>2025-08-18T20:32:09.157Z</time>
      </trkpt>
      <trkpt lat="50.650277" lon="18.044065">
        <ele>164.055026</ele>
        <time>2025-08-18T20:32:11.652Z</time>
      </trkpt>
      <trkpt lat="50.650170" lon="18.044089">
        <ele>164.084395</ele>
        <time>2025-08-18T20:32:14.214Z</time>
      </trkpt>
      <trkpt lat="50.650096" lon="18.044216">
        <ele>164.114113</ele>
        <time>2025-08-18T20:32:18.414Z</time>
      </trkpt>
      <trkpt lat="50.649746" lon="18.044545">
        <ele>164.224833</ele>
        <time>2025-08-18T20:32:33.739Z</time>
      </trkpt>
      <trkpt lat="50.648944" lon="18.045435">
        <ele>164.343088</ele>
        <time>2025-08-18T20:33:08.891Z</time>
      </trkpt>
      <trkpt lat="50.648637" lon="18.045977">
        <ele>164.379305</ele>
        <time>2025-08-18T20:33:26.098Z</time>
      </trkpt>
      <trkpt lat="50.648383" lon="18.046563">
        <ele>164.414678</ele>
        <time>2025-08-18T20:33:43.407Z</time>
      </trkpt>
      <trkpt lat="50.648149" lon="18.047090">
        <ele>164.634900</ele>
        <time>2025-08-18T20:33:59.504Z</time>
      </trkpt>
      <trkpt lat="50.647459" lon="18.048646">
        <ele>165.517154</ele>
        <time>2025-08-18T20:34:48.241Z</time>
      </trkpt>
      <trkpt lat="50.645057" lon="18.054077">
        <ele>167.973953</ele>
        <time>2025-08-18T20:37:33.676Z</time>
      </trkpt>
      <trkpt lat="50.642997" lon="18.058831">
        <ele>169.615308</ele>
        <time>2025-08-18T20:39:56.305Z</time>
      </trkpt>
      <trkpt lat="50.642942" lon="18.059086">
        <ele>169.629550</ele>
        <time>2025-08-18T20:40:02.642Z</time>
      </trkpt>
      <trkpt lat="50.642933" lon="18.059514">
        <ele>169.652194</ele>
        <time>2025-08-18T20:40:12.662Z</time>
      </trkpt>
      <trkpt lat="50.642941" lon="18.060846">
        <ele>169.722630</ele>
        <time>2025-08-18T20:40:43.544Z</time>
      </trkpt>
      <trkpt lat="50.642955" lon="18.063536">
        <ele>169.856784</ele>
        <time>2025-08-18T20:41:47.154Z</time>
      </trkpt>
      <trkpt lat="50.642963" lon="18.064960">
        <ele>170.066826</ele>
        <time>2025-08-18T20:42:21.537Z</time>
      </trkpt>
      <trkpt lat="50.643297" lon="18.064935">
        <ele>170.165011</ele>
        <time>2025-08-18T20:42:34.369Z</time>
      </trkpt>
      <trkpt lat="50.644087" lon="18.064960">
        <ele>170.397031</ele>
        <time>2025-08-18T20:43:04.741Z</time>
      </trkpt>
      <trkpt lat="50.646048" lon="18.064898">
        <ele>171.031138</ele>
        <time>2025-08-18T20:44:20.185Z</time>
      </trkpt>
      <trkpt lat="50.646425" lon="18.064915">
        <ele>171.046391</ele>
        <time>2025-08-18T20:44:34.404Z</time>
      </trkpt>
      <trkpt lat="50.646861" lon="18.064935">
        <ele>171.064032</ele>
        <time>2025-08-18T20:44:50.679Z</time>
      </trkpt>
      <trkpt lat="50.647447" lon="18.064861">
        <ele>171.087807</ele>
        <time>2025-08-18T20:45:12.338Z</time>
      </trkpt>
      <trkpt lat="50.648557" lon="18.064886">
        <ele>170.596378</ele>
        <time>2025-08-18T20:45:52.568Z</time>
      </trkpt>
      <trkpt lat="50.649810" lon="18.064729">
        <ele>169.532005</ele>
        <time>2025-08-18T20:46:35.581Z</time>
      </trkpt>
      <trkpt lat="50.649845" lon="18.067027">
        <ele>167.146256</ele>
        <time>2025-08-18T20:47:21.804Z</time>
      </trkpt>
      <trkpt lat="50.649916" lon="18.067633">
        <ele>166.605230</ele>
        <time>2025-08-18T20:47:34.322Z</time>
      </trkpt>
      <trkpt lat="50.649889" lon="18.068368">
        <ele>165.970205</ele>
        <time>2025-08-18T20:47:49.510Z</time>
      </trkpt>
      <trkpt lat="50.649915" lon="18.072153">
        <ele>163.389914</ele>
        <time>2025-08-18T20:49:10.057Z</time>
      </trkpt>
      <trkpt lat="50.649928" lon="18.072375">
        <ele>163.265544</ele>
        <time>2025-08-18T20:49:15.020Z</time>
      </trkpt>
      <trkpt lat="50.649932" lon="18.072451">
        <ele>163.223001</ele>
        <time>2025-08-18T20:49:16.696Z</time>
      </trkpt>
      <trkpt lat="50.650195" lon="18.072507">
        <ele>163.053948</ele>
        <time>2025-08-18T20:49:22.201Z</time>
      </trkpt>
      <trkpt lat="50.654893" lon="18.073976">
        <ele>162.744239</ele>
        <time>2025-08-18T20:51:07.778Z</time>
      </trkpt>
      <trkpt lat="50.659158" lon="18.075310">
        <ele>162.958934</ele>
        <time>2025-08-18T20:52:45.811Z</time>
      </trkpt>
      <trkpt lat="50.659068" lon="18.076359">
        <ele>162.908903</ele>
        <time>2025-08-18T20:53:00.542Z</time>
      </trkpt>
      <trkpt lat="50.658021" lon="18.083453">
        <ele>162.558933</ele>
        <time>2025-08-18T20:54:41.547Z</time>
      </trkpt>
      <trkpt lat="50.657433" lon="18.087616">
        <ele>162.897663</ele>
        <time>2025-08-18T20:55:42.731Z</time>
      </trkpt>
      <trkpt lat="50.657269" lon="18.088340">
        <ele>162.998266</ele>
        <time>2025-08-18T20:55:54.122Z</time>
      </trkpt>
      <trkpt lat="50.657137" lon="18.088764">
        <ele>163.063606</ele>
        <time>2025-08-18T20:56:01.224Z</time>
      </trkpt>
      <trkpt lat="50.655892" lon="18.092251">
        <ele>164.365663</ele>
        <time>2025-08-18T20:57:03.206Z</time>
      </trkpt>
      <trkpt lat="50.655603" lon="18.093157">
        <ele>164.690652</ele>
        <time>2025-08-18T20:57:18.892Z</time>
      </trkpt>
      <trkpt lat="50.655535" lon="18.093484">
        <ele>164.800927</ele>
        <time>2025-08-18T20:57:24.152Z</time>
      </trkpt>
      <trkpt lat="50.655345" lon="18.094936">
        <ele>165.261593</ele>
        <time>2025-08-18T20:57:46.046Z</time>
      </trkpt>
      <trkpt lat="50.655220" lon="18.095941">
        <ele>165.577332</ele>
        <time>2025-08-18T20:58:01.754Z</time>
      </trkpt>
      <trkpt lat="50.654936" lon="18.098090">
        <ele>166.526894</ele>
        <time>2025-08-18T20:58:37.439Z</time>
      </trkpt>
      <trkpt lat="50.654814" lon="18.098827">
        <ele>166.894164</ele>
        <time>2025-08-18T20:58:49.981Z</time>
      </trkpt>
      <trkpt lat="50.654583" lon="18.099635">
        <ele>167.111729</ele>
        <time>2025-08-18T20:59:03.580Z</time>
      </trkpt>
      <trkpt lat="50.654606" lon="18.099741">
        <ele>167.103896</ele>
        <time>2025-08-18T20:59:05.201Z</time>
      </trkpt>
      <trkpt lat="50.654668" lon="18.099819">
        <ele>167.095149</ele>
        <time>2025-08-18T20:59:07.013Z</time>
      </trkpt>
      <trkpt lat="50.654733" lon="18.099991">
        <ele>167.081149</ele>
        <time>2025-08-18T20:59:09.881Z</time>
      </trkpt>
      <trkpt lat="50.654748" lon="18.100129">
        <ele>167.071359</ele>
        <time>2025-08-18T20:59:11.869Z</time>
      </trkpt>
      <trkpt lat="50.654742" lon="18.101640">
        <ele>166.965708</ele>
        <time>2025-08-18T20:59:32.597Z</time>
      </trkpt>
      <trkpt lat="50.655126" lon="18.101808">
        <ele>166.827619</ele>
        <time>2025-08-18T20:59:40.464Z</time>
      </trkpt>
      <trkpt lat="50.655923" lon="18.102011">
        <ele>166.277458</ele>
        <time>2025-08-18T20:59:56.314Z</time>
      </trkpt>
      <trkpt lat="50.657424" lon="18.102182">
        <ele>165.697282</ele>
        <time>2025-08-18T21:00:26.741Z</time>
      </trkpt>
      <trkpt lat="50.657637" lon="18.102204">
        <ele>165.691949</ele>
        <time>2025-08-18T21:00:31.472Z</time>
      </trkpt>
      <trkpt lat="50.658293" lon="18.102276">
        <ele>165.675521</ele>
        <time>2025-08-18T21:00:46.742Z</time>
      </trkpt>
      <trkpt lat="50.659439" lon="18.102412">
        <ele>166.533088</ele>
        <time>2025-08-18T21:01:15.838Z</time>
      </trkpt>
      <trkpt lat="50.659606" lon="18.102515">
        <ele>166.705176</ele>
        <time>2025-08-18T21:01:20.706Z</time>
      </trkpt>
      <trkpt lat="50.659773" lon="18.102727">
        <ele>166.910901</ele>
        <time>2025-08-18T21:01:26.338Z</time>
      </trkpt>
      <trkpt lat="50.659878" lon="18.102950">
        <ele>167.079902</ele>
        <time>2025-08-18T21:01:30.997Z</time>
      </trkpt>
      <trkpt lat="50.659970" lon="18.103286">
        <ele>167.302573</ele>
        <time>2025-08-18T21:01:37.237Z</time>
      </trkpt>
      <trkpt lat="50.660212" lon="18.104738">
        <ele>168.558352</ele>
        <time>2025-08-18T21:02:03.894Z</time>
      </trkpt>
      <trkpt lat="50.660316" lon="18.105369">
        <ele>169.120525</ele>
        <time>2025-08-18T21:02:15.329Z</time>
      </trkpt>
      <trkpt lat="50.660435" lon="18.105806">
        <ele>169.530626</ele>
        <time>2025-08-18T21:02:23.719Z</time>
      </trkpt>
      <trkpt lat="50.660520" lon="18.105991">
        <ele>169.727636</ele>
        <time>2025-08-18T21:02:27.765Z</time>
      </trkpt>
      <trkpt lat="50.660718" lon="18.106303">
        <ele>170.059322</ele>
        <time>2025-08-18T21:02:35.568Z</time>
      </trkpt>
      <trkpt lat="50.660854" lon="18.106468">
        <ele>170.249766</ele>
        <time>2025-08-18T21:02:40.336Z</time>
      </trkpt>
      <trkpt lat="50.661141" lon="18.106692">
        <ele>170.605199</ele>
        <time>2025-08-18T21:02:49.038Z</time>
      </trkpt>
      <trkpt lat="50.661425" lon="18.106826">
        <ele>170.934242</ele>
        <time>2025-08-18T21:02:56.948Z</time>
      </trkpt>
      <trkpt lat="50.662100" lon="18.107067">
        <ele>171.702452</ele>
        <time>2025-08-18T21:03:15.007Z</time>
      </trkpt>
      <trkpt lat="50.662264" lon="18.107160">
        <ele>171.866250</ele>
        <time>2025-08-18T21:03:19.467Z</time>
      </trkpt>
      <trkpt lat="50.662430" lon="18.107311">
        <ele>171.969026</ele>
        <time>2025-08-18T21:03:24.318Z</time>
      </trkpt>
      <trkpt lat="50.662753" lon="18.107875">
        <ele>172.227447</ele>
        <time>2025-08-18T21:03:36.452Z</time>
      </trkpt>
      <trkpt lat="50.663690" lon="18.109739">
        <ele>172.784787</ele>
        <time>2025-08-18T21:04:12.254Z</time>
      </trkpt>
      <trkpt lat="50.663540" lon="18.110037">
        <ele>172.774544</ele>
        <time>2025-08-18T21:04:17.635Z</time>
      </trkpt>
      <trkpt lat="50.663373" lon="18.110500">
        <ele>172.760205</ele>
        <time>2025-08-18T21:04:25.001Z</time>
      </trkpt>
      <trkpt lat="50.663213" lon="18.111667">
        <ele>172.728066</ele>
        <time>2025-08-18T21:04:40.840Z</time>
      </trkpt>
      <trkpt lat="50.663039" lon="18.113001">
        <ele>172.585211</ele>
        <time>2025-08-18T21:04:59.448Z</time>
      </trkpt>
      <trkpt lat="50.662818" lon="18.114628">
        <ele>172.422720</ele>
        <time>2025-08-18T21:05:22.563Z</time>
      </trkpt>
      <trkpt lat="50.662701" lon="18.115180">
        <ele>172.426923</ele>
        <time>2025-08-18T21:05:30.642Z</time>
      </trkpt>
      <trkpt lat="50.662551" lon="18.115473">
        <ele>172.429643</ele>
        <time>2025-08-18T21:05:35.812Z</time>
      </trkpt>
      <trkpt lat="50.662329" lon="18.115713">
        <ele>172.432708</ele>
        <time>2025-08-18T21:05:41.659Z</time>
      </trkpt>
      <trkpt lat="50.661903" lon="18.116211">
        <ele>172.438748</ele>
        <time>2025-08-18T21:05:53.719Z</time>
      </trkpt>
      <trkpt lat="50.661087" lon="18.116812">
        <ele>172.626190</ele>
        <time>2025-08-18T21:06:15.902Z</time>
      </trkpt>
      <trkpt lat="50.660836" lon="18.117070">
        <ele>172.718090</ele>
        <time>2025-08-18T21:06:23.708Z</time>
      </trkpt>
      <trkpt lat="50.660621" lon="18.117396">
        <ele>172.809569</ele>
        <time>2025-08-18T21:06:31.366Z</time>
      </trkpt>
      <trkpt lat="50.660372" lon="18.117884">
        <ele>172.931387</ele>
        <time>2025-08-18T21:06:41.039Z</time>
      </trkpt>
      <trkpt lat="50.660274" lon="18.118084">
        <ele>172.980544</ele>
        <time>2025-08-18T21:06:44.831Z</time>
      </trkpt>
      <trkpt lat="50.660101" lon="18.118455">
        <ele>173.031210</ele>
        <time>2025-08-18T21:06:51.518Z</time>
      </trkpt>
      <trkpt lat="50.659792" lon="18.119186">
        <ele>173.114835</ele>
        <time>2025-08-18T21:07:03.482Z</time>
      </trkpt>
      <trkpt lat="50.659303" lon="18.120366">
        <ele>173.249013</ele>
        <time>2025-08-18T21:07:24.287Z</time>
      </trkpt>
      <trkpt lat="50.659202" lon="18.120805">
        <ele>173.513704</ele>
        <time>2025-08-18T21:07:32.490Z</time>
      </trkpt>
      <trkpt lat="50.658912" lon="18.122068">
        <ele>174.596429</ele>
        <time>2025-08-18T21:07:58.389Z</time>
      </trkpt>
      <trkpt lat="50.658759" lon="18.122710">
        <ele>175.149256</ele>
        <time>2025-08-18T21:08:11.312Z</time>
      </trkpt>
      <trkpt lat="50.658538" lon="18.123652">
        <ele>175.483488</ele>
        <time>2025-08-18T21:08:29.045Z</time>
      </trkpt>
      <trkpt lat="50.658358" lon="18.124266">
        <ele>175.393420</ele>
        <time>2025-08-18T21:08:39.423Z</time>
      </trkpt>
      <trkpt lat="50.658227" lon="18.124644">
        <ele>175.336063</ele>
        <time>2025-08-18T21:08:45.531Z</time>
      </trkpt>
      <trkpt lat="50.658077" lon="18.124935">
        <ele>175.286127</ele>
        <time>2025-08-18T21:08:50.801Z</time>
      </trkpt>
      <trkpt lat="50.657941" lon="18.125146">
        <ele>175.246063</ele>
        <time>2025-08-18T21:08:55.003Z</time>
      </trkpt>
      <trkpt lat="50.657551" lon="18.125574">
        <ele>175.133565</ele>
        <time>2025-08-18T21:09:05.545Z</time>
      </trkpt>
      <trkpt lat="50.656770" lon="18.126131">
        <ele>174.868268</ele>
        <time>2025-08-18T21:09:25.693Z</time>
      </trkpt>
      <trkpt lat="50.656447" lon="18.126411">
        <ele>174.754190</ele>
        <time>2025-08-18T21:09:34.825Z</time>
      </trkpt>
      <trkpt lat="50.655696" lon="18.127388">
        <ele>174.254475</ele>
        <time>2025-08-18T21:09:58.406Z</time>
      </trkpt>
      <trkpt lat="50.653804" lon="18.129984">
        <ele>172.008538</ele>
        <time>2025-08-18T21:10:53.038Z</time>
      </trkpt>
      <trkpt lat="50.653569" lon="18.130274">
        <ele>171.676801</ele>
        <time>2025-08-18T21:10:59.276Z</time>
      </trkpt>
      <trkpt lat="50.653300" lon="18.130623">
        <ele>171.288416</ele>
        <time>2025-08-18T21:11:06.496Z</time>
      </trkpt>
      <trkpt lat="50.651903" lon="18.132808">
        <ele>169.505505</ele>
        <time>2025-08-18T21:11:48.140Z</time>
      </trkpt>
      <trkpt lat="50.650897" lon="18.134945">
        <ele>170.609575</ele>
        <time>2025-08-18T21:12:36.164Z</time>
      </trkpt>
      <trkpt lat="50.651699" lon="18.139499">
        <ele>175.170612</ele>
        <time>2025-08-18T21:14:47.671Z</time>
      </trkpt>
      <trkpt lat="50.652495" lon="18.144030">
        <ele>178.219678</ele>
        <time>2025-08-18T21:16:48.273Z</time>
      </trkpt>
      <trkpt lat="50.653296" lon="18.148564">
        <ele>182.817999</ele>
        <time>2025-08-18T21:18:54.949Z</time>
      </trkpt>
      <trkpt lat="50.654067" lon="18.152941">
        <ele>193.426288</ele>
        <time>2025-08-18T21:20:56.979Z</time>
      </trkpt>
      <trkpt lat="50.654874" lon="18.157526">
        <ele>198.565141</ele>
        <time>2025-08-18T21:22:27.696Z</time>
      </trkpt>
      <trkpt lat="50.656678" lon="18.156733">
        <ele>200.146665</ele>
        <time>2025-08-18T21:23:43.123Z</time>
      </trkpt>
      <trkpt lat="50.657859" lon="18.156214">
        <ele>200.777007</ele>
        <time>2025-08-18T21:24:31.337Z</time>
      </trkpt>
      <trkpt lat="50.659767" lon="18.155393">
        <ele>200.425420</ele>
        <time>2025-08-18T21:25:42.920Z</time>
      </trkpt>
      <trkpt lat="50.660347" lon="18.155144">
        <ele>200.206939</ele>
        <time>2025-08-18T21:26:03.747Z</time>
      </trkpt>
      <trkpt lat="50.661476" lon="18.154649">
        <ele>199.981904</ele>
        <time>2025-08-18T21:26:45.570Z</time>
      </trkpt>
      <trkpt lat="50.667800" lon="18.151915">
        <ele>202.276444</ele>
        <time>2025-08-18T21:31:00.349Z</time>
      </trkpt>
      <trkpt lat="50.668448" lon="18.157219">
        <ele>201.037663</ele>
        <time>2025-08-18T21:32:14.112Z</time>
      </trkpt>
      <trkpt lat="50.669109" lon="18.162602">
        <ele>199.808277</ele>
        <time>2025-08-18T21:33:30.157Z</time>
      </trkpt>
      <trkpt lat="50.669553" lon="18.166431">
        <ele>199.270953</ele>
        <time>2025-08-18T21:34:25.948Z</time>
      </trkpt>
      <trkpt lat="50.669732" lon="18.167343">
        <ele>198.864828</ele>
        <time>2025-08-18T21:34:38.692Z</time>
      </trkpt>
      <trkpt lat="50.669882" lon="18.167959">
        <ele>198.584119</ele>
        <time>2025-08-18T21:34:47.338Z</time>
      </trkpt>
      <trkpt lat="50.670398" lon="18.170566">
        <ele>197.372021</ele>
        <time>2025-08-18T21:35:23.401Z</time>
      </trkpt>
      <trkpt lat="50.671618" lon="18.176735">
        <ele>193.727744</ele>
        <time>2025-08-18T21:36:48.396Z</time>
      </trkpt>
      <trkpt lat="50.671746" lon="18.177262">
        <ele>193.303251</ele>
        <time>2025-08-18T21:36:54.895Z</time>
      </trkpt>
      <trkpt lat="50.671859" lon="18.177098">
        <ele>192.998676</ele>
        <time>2025-08-18T21:36:59.623Z</time>
      </trkpt>
      <trkpt lat="50.671892" lon="18.177058">
        <ele>192.916124</ele>
        <time>2025-08-18T21:37:00.346Z</time>
      </trkpt>
      <trkpt lat="50.672053" lon="18.176850">
        <ele>192.503332</ele>
        <time>2025-08-18T21:37:04.050Z</time>
      </trkpt>
      <trkpt lat="50.672146" lon="18.176630">
        <ele>192.170853</ele>
        <time>2025-08-18T21:37:07.034Z</time>
      </trkpt>
      <trkpt lat="50.672176" lon="18.176182">
        <ele>191.604471</ele>
        <time>2025-08-18T21:37:12.083Z</time>
      </trkpt>
      <trkpt lat="50.672300" lon="18.175939">
        <ele>191.212237</ele>
        <time>2025-08-18T21:37:15.557Z</time>
      </trkpt>
      <trkpt lat="50.673419" lon="18.174771">
        <ele>189.402649</ele>
        <time>2025-08-18T21:37:41.669Z</time>
      </trkpt>
      <trkpt lat="50.673588" lon="18.174488">
        <ele>189.256309</ele>
        <time>2025-08-18T21:37:47.308Z</time>
      </trkpt>
      <trkpt lat="50.673921" lon="18.173653">
        <ele>188.885022</ele>
        <time>2025-08-18T21:38:01.726Z</time>
      </trkpt>
      <trkpt lat="50.674110" lon="18.172957">
        <ele>188.526179</ele>
        <time>2025-08-18T21:38:12.350Z</time>
      </trkpt>
      <trkpt lat="50.674475" lon="18.172383">
        <ele>187.990629</ele>
        <time>2025-08-18T21:38:22.885Z</time>
      </trkpt>
      <trkpt lat="50.674491" lon="18.172218">
        <ele>187.880693</ele>
        <time>2025-08-18T21:38:24.942Z</time>
      </trkpt>
      <trkpt lat="50.674420" lon="18.171760">
        <ele>187.570153</ele>
        <time>2025-08-18T21:38:30.662Z</time>
      </trkpt>
      <trkpt lat="50.674439" lon="18.171581">
        <ele>187.450619</ele>
        <time>2025-08-18T21:38:32.863Z</time>
      </trkpt>
      <trkpt lat="50.674993" lon="18.170556">
        <ele>186.737060</ele>
        <time>2025-08-18T21:38:49.568Z</time>
      </trkpt>
      <trkpt lat="50.675441" lon="18.169979">
        <ele>186.528655</ele>
        <time>2025-08-18T21:39:01.923Z</time>
      </trkpt>
      <trkpt lat="50.675682" lon="18.169593">
        <ele>186.404902</ele>
        <time>2025-08-18T21:39:09.677Z</time>
      </trkpt>
      <trkpt lat="50.676170" lon="18.169046">
        <ele>186.189180</ele>
        <time>2025-08-18T21:39:23.727Z</time>
      </trkpt>
      <trkpt lat="50.676939" lon="18.168353">
        <ele>186.384628</ele>
        <time>2025-08-18T21:39:46.029Z</time>
      </trkpt>
      <trkpt lat="50.677142" lon="18.168318">
        <ele>186.432796</ele>
        <time>2025-08-18T21:39:51.323Z</time>
      </trkpt>
      <trkpt lat="50.677985" lon="18.168319">
        <ele>186.500466</ele>
        <time>2025-08-18T21:40:11.261Z</time>
      </trkpt>
      <trkpt lat="50.678260" lon="18.168382">
        <ele>186.239362</ele>
        <time>2025-08-18T21:40:17.244Z</time>
      </trkpt>
      <trkpt lat="50.678750" lon="18.169536">
        <ele>185.412262</ele>
        <time>2025-08-18T21:40:34.665Z</time>
      </trkpt>
      <trkpt lat="50.679443" lon="18.171302">
        <ele>184.313949</ele>
        <time>2025-08-18T21:41:00.547Z</time>
      </trkpt>
      <trkpt lat="50.679512" lon="18.171244">
        <ele>184.254241</ele>
        <time>2025-08-18T21:41:02.199Z</time>
      </trkpt>
      <trkpt lat="50.680069" lon="18.171180">
        <ele>183.827705</ele>
        <time>2025-08-18T21:41:13.991Z</time>
      </trkpt>
      <trkpt lat="50.680159" lon="18.171125">
        <ele>183.753993</ele>
        <time>2025-08-18T21:41:16.084Z</time>
      </trkpt>
      <trkpt lat="50.680203" lon="18.171041">
        <ele>183.701250</ele>
        <time>2025-08-18T21:41:17.581Z</time>
      </trkpt>
      <trkpt lat="50.680196" lon="18.170159">
        <ele>183.854249</ele>
        <time>2025-08-18T21:41:30.101Z</time>
      </trkpt>
      <trkpt lat="50.680211" lon="18.170034">
        <ele>183.926305</ele>
        <time>2025-08-18T21:41:31.954Z</time>
      </trkpt>
      <trkpt lat="50.680249" lon="18.169881">
        <ele>184.019381</ele>
        <time>2025-08-18T21:41:34.407Z</time>
      </trkpt>
      <trkpt lat="50.680517" lon="18.169208">
        <ele>184.469577</ele>
        <time>2025-08-18T21:41:46.983Z</time>
      </trkpt>
      <trkpt lat="50.680517" lon="18.169031">
        <ele>184.569825</ele>
        <time>2025-08-18T21:41:50.037Z</time>
      </trkpt>
      <trkpt lat="50.680492" lon="18.168957">
        <ele>184.617322</ele>
        <time>2025-08-18T21:41:51.528Z</time>
      </trkpt>
      <trkpt lat="50.680213" lon="18.168489">
        <ele>184.981260</ele>
        <time>2025-08-18T21:42:03.787Z</time>
      </trkpt>
      <trkpt lat="50.680096" lon="18.168240">
        <ele>185.170349</ele>
        <time>2025-08-18T21:42:10.199Z</time>
      </trkpt>
      <trkpt lat="50.680058" lon="18.168043">
        <ele>185.495045</ele>
        <time>2025-08-18T21:42:14.576Z</time>
      </trkpt>
      <trkpt lat="50.680032" lon="18.167913">
        <ele>185.709992</ele>
        <time>2025-08-18T21:42:17.522Z</time>
      </trkpt>
      <trkpt lat="50.679967" lon="18.167033">
        <ele>187.106939</ele>
        <time>2025-08-18T21:42:37.386Z</time>
      </trkpt>
      <trkpt lat="50.679957" lon="18.166685">
        <ele>187.656217</ele>
        <time>2025-08-18T21:42:45.216Z</time>
      </trkpt>
      <trkpt lat="50.680350" lon="18.165654">
        <ele>189.553334</ele>
        <time>2025-08-18T21:43:10.604Z</time>
      </trkpt>
      <trkpt lat="50.680441" lon="18.165425">
        <ele>189.742340</ele>
        <time>2025-08-18T21:43:15.818Z</time>
      </trkpt>
      <trkpt lat="50.680863" lon="18.164606">
        <ele>190.293317</ele>
        <time>2025-08-18T21:43:34.260Z</time>
      </trkpt>
      <trkpt lat="50.681055" lon="18.163909">
        <ele>190.690008</ele>
        <time>2025-08-18T21:43:46.008Z</time>
      </trkpt>
      <trkpt lat="50.681125" lon="18.163295">
        <ele>191.015630</ele>
        <time>2025-08-18T21:44:00.886Z</time>
      </trkpt>
      <trkpt lat="50.681210" lon="18.162886">
        <ele>191.094994</ele>
        <time>2025-08-18T21:44:11.209Z</time>
      </trkpt>
      <trkpt lat="50.681470" lon="18.162083">
        <ele>191.054253</ele>
        <time>2025-08-18T21:44:32.449Z</time>
      </trkpt>
      <trkpt lat="50.681530" lon="18.161906">
        <ele>191.045184</ele>
        <time>2025-08-18T21:44:37.116Z</time>
      </trkpt>
      <trkpt lat="50.681681" lon="18.161609">
        <ele>191.027980</ele>
        <time>2025-08-18T21:44:45.941Z</time>
      </trkpt>
      <trkpt lat="50.681917" lon="18.161374">
        <ele>191.008084</ele>
        <time>2025-08-18T21:44:56.093Z</time>
      </trkpt>
      <trkpt lat="50.682863" lon="18.160435">
        <ele>191.143814</ele>
        <time>2025-08-18T21:45:36.382Z</time>
      </trkpt>
      <trkpt lat="50.683107" lon="18.160274">
        <ele>191.206325</ele>
        <time>2025-08-18T21:45:46.397Z</time>
      </trkpt>
      <trkpt lat="50.683550" lon="18.160130">
        <ele>191.313232</ele>
        <time>2025-08-18T21:46:04.455Z</time>
      </trkpt>
      <trkpt lat="50.684130" lon="18.160130">
        <ele>191.390986</ele>
        <time>2025-08-18T21:46:27.648Z</time>
      </trkpt>
      <trkpt lat="50.684549" lon="18.160054">
        <ele>191.364454</ele>
        <time>2025-08-18T21:46:44.274Z</time>
      </trkpt>
      <trkpt lat="50.685638" lon="18.158910">
        <ele>191.185100</ele>
        <time>2025-08-18T21:47:15.142Z</time>
      </trkpt>
      <trkpt lat="50.686113" lon="18.158191">
        <ele>190.650607</ele>
        <time>2025-08-18T21:47:28.979Z</time>
      </trkpt>
      <trkpt lat="50.686710" lon="18.157451">
        <ele>190.034123</ele>
        <time>2025-08-18T21:47:54.550Z</time>
      </trkpt>
      <trkpt lat="50.687562" lon="18.155350">
        <ele>189.860581</ele>
        <time>2025-08-18T21:48:51.581Z</time>
      </trkpt>
      <trkpt lat="50.687713" lon="18.154757">
        <ele>189.870033</ele>
        <time>2025-08-18T21:49:07.968Z</time>
      </trkpt>
      <trkpt lat="50.688372" lon="18.152175">
        <ele>191.184223</ele>
        <time>2025-08-18T21:50:20.598Z</time>
      </trkpt>
      <trkpt lat="50.688428" lon="18.151956">
        <ele>191.243932</ele>
        <time>2025-08-18T21:50:26.149Z</time>
      </trkpt>
      <trkpt lat="50.688703" lon="18.152256">
        <ele>191.123388</ele>
        <time>2025-08-18T21:50:38.247Z</time>
      </trkpt>
      <trkpt lat="50.688739" lon="18.152438">
        <ele>191.079831</ele>
        <time>2025-08-18T21:50:42.469Z</time>
      </trkpt>
      <trkpt lat="50.689016" lon="18.152556">
        <ele>190.976371</ele>
        <time>2025-08-18T21:50:52.366Z</time>
      </trkpt>
      <trkpt lat="50.689343" lon="18.152427">
        <ele>190.854829</ele>
        <time>2025-08-18T21:51:03.710Z</time>
      </trkpt>
      <trkpt lat="50.689792" lon="18.152412">
        <ele>190.692884</ele>
        <time>2025-08-18T21:51:19.029Z</time>
      </trkpt>
      <trkpt lat="50.690474" lon="18.152520">
        <ele>190.832763</ele>
        <time>2025-08-18T21:51:44.698Z</time>
      </trkpt>
      <trkpt lat="50.690982" lon="18.152565">
        <ele>191.073452</ele>
        <time>2025-08-18T21:52:05.721Z</time>
      </trkpt>
      <trkpt lat="50.691422" lon="18.152614">
        <ele>191.282113</ele>
        <time>2025-08-18T21:52:24.096Z</time>
      </trkpt>
      <trkpt lat="50.692118" lon="18.152694">
        <ele>191.108707</ele>
        <time>2025-08-18T21:52:51.529Z</time>
      </trkpt>
      <trkpt lat="50.693484" lon="18.152623">
        <ele>189.559140</ele>
        <time>2025-08-18T21:53:35.466Z</time>
      </trkpt>
      <trkpt lat="50.694758" lon="18.152118">
        <ele>187.809924</ele>
        <time>2025-08-18T21:54:07.977Z</time>
      </trkpt>
      <trkpt lat="50.695366" lon="18.151765">
        <ele>186.922938</ele>
        <time>2025-08-18T21:54:25.160Z</time>
      </trkpt>
      <trkpt lat="50.695788" lon="18.151574">
        <ele>186.214535</ele>
        <time>2025-08-18T21:54:36.726Z</time>
      </trkpt>
      <trkpt lat="50.696298" lon="18.151561">
        <ele>185.391456</ele>
        <time>2025-08-18T21:54:49.579Z</time>
      </trkpt>
      <trkpt lat="50.697255" lon="18.151270">
        <ele>183.828136</ele>
        <time>2025-08-18T21:55:07.292Z</time>
      </trkpt>
      <trkpt lat="50.697640" lon="18.151092">
        <ele>183.202942</ele>
        <time>2025-08-18T21:55:14.664Z</time>
      </trkpt>
      <trkpt lat="50.698223" lon="18.150865">
        <ele>182.267155</ele>
        <time>2025-08-18T21:55:25.989Z</time>
      </trkpt>
      <trkpt lat="50.698831" lon="18.150743">
        <ele>181.312008</ele>
        <time>2025-08-18T21:55:38.236Z</time>
      </trkpt>
      <trkpt lat="50.699386" lon="18.150678">
        <ele>181.098569</ele>
        <time>2025-08-18T21:55:49.980Z</time>
      </trkpt>
      <trkpt lat="50.699668" lon="18.150685">
        <ele>180.999529</ele>
        <time>2025-08-18T21:55:56.259Z</time>
      </trkpt>
      <trkpt lat="50.700751" lon="18.151022">
        <ele>180.585852</ele>
        <time>2025-08-18T21:56:21.547Z</time>
      </trkpt>
      <trkpt lat="50.700808" lon="18.151035">
        <ele>180.553983</ele>
        <time>2025-08-18T21:56:22.827Z</time>
      </trkpt>
      <trkpt lat="50.701025" lon="18.151084">
        <ele>180.432679</ele>
        <time>2025-08-18T21:56:27.721Z</time>
      </trkpt>
      <trkpt lat="50.701213" lon="18.151073">
        <ele>180.328573</ele>
        <time>2025-08-18T21:56:31.823Z</time>
      </trkpt>
      <trkpt lat="50.701262" lon="18.151070">
        <ele>180.301438</ele>
        <time>2025-08-18T21:56:32.891Z</time>
      </trkpt>
      <trkpt lat="50.702368" lon="18.150334">
        <ele>179.641155</ele>
        <time>2025-08-18T21:56:57.853Z</time>
      </trkpt>
      <trkpt lat="50.703237" lon="18.149603">
        <ele>179.182542</ele>
        <time>2025-08-18T21:57:18.527Z</time>
      </trkpt>
      <trkpt lat="50.703695" lon="18.149284">
        <ele>178.949386</ele>
        <time>2025-08-18T21:57:29.311Z</time>
      </trkpt>
      <trkpt lat="50.703637" lon="18.149138">
        <ele>178.898547</ele>
        <time>2025-08-18T21:57:31.740Z</time>
      </trkpt>
      <trkpt lat="50.703325" lon="18.147981">
        <ele>179.267417</ele>
        <time>2025-08-18T21:57:50.654Z</time>
      </trkpt>
      <trkpt lat="50.702160" lon="18.143610">
        <ele>182.175092</ele>
        <time>2025-08-18T21:59:13.257Z</time>
      </trkpt>
      <trkpt lat="50.702078" lon="18.143300">
        <ele>182.434579</ele>
        <time>2025-08-18T21:59:19.503Z</time>
      </trkpt>
      <trkpt lat="50.702199" lon="18.142240">
        <ele>183.266510</ele>
        <time>2025-08-18T21:59:39.463Z</time>
      </trkpt>
      <trkpt lat="50.702371" lon="18.141192">
        <ele>184.102715</ele>
        <time>2025-08-18T21:59:58.040Z</time>
      </trkpt>
      <trkpt lat="50.702418" lon="18.140960">
        <ele>184.290853</ele>
        <time>2025-08-18T22:00:02.311Z</time>
      </trkpt>
      <trkpt lat="50.702610" lon="18.140002">
        <ele>184.810544</ele>
        <time>2025-08-18T22:00:19.898Z</time>
      </trkpt>
      <trkpt lat="50.702762" lon="18.139534">
        <ele>185.077977</ele>
        <time>2025-08-18T22:00:28.792Z</time>
      </trkpt>
      <trkpt lat="50.702855" lon="18.139499">
        <ele>185.154733</ele>
        <time>2025-08-18T22:00:31.169Z</time>
      </trkpt>
      <trkpt lat="50.702553" lon="18.138344">
        <ele>185.789644</ele>
        <time>2025-08-18T22:00:51.458Z</time>
      </trkpt>
      <trkpt lat="50.702346" lon="18.137553">
        <ele>186.218038</ele>
        <time>2025-08-18T22:01:05.235Z</time>
      </trkpt>
      <trkpt lat="50.702089" lon="18.136571">
        <ele>186.749882</ele>
        <time>2025-08-18T22:01:21.748Z</time>
      </trkpt>
      <trkpt lat="50.701560" lon="18.134548">
        <ele>188.755198</ele>
        <time>2025-08-18T22:02:01.431Z</time>
      </trkpt>
      <trkpt lat="50.701561" lon="18.134468">
        <ele>188.850178</ele>
        <time>2025-08-18T22:02:02.982Z</time>
      </trkpt>
      <trkpt lat="50.701566" lon="18.133903">
        <ele>189.520910</ele>
        <time>2025-08-18T22:02:14.084Z</time>
      </trkpt>
      <trkpt lat="50.701092" lon="18.131337">
        <ele>193.761690</ele>
        <time>2025-08-18T22:03:34.532Z</time>
      </trkpt>
      <trkpt lat="50.700973" lon="18.129357">
        <ele>196.651876</ele>
        <time>2025-08-18T22:04:37.840Z</time>
      </trkpt>
      <trkpt lat="50.700893" lon="18.128140">
        <ele>197.995837</ele>
        <time>2025-08-18T22:05:11.213Z</time>
      </trkpt>
      <trkpt lat="50.700874" lon="18.127410">
        <ele>198.776846</ele>
        <time>2025-08-18T22:05:28.469Z</time>
      </trkpt>
      <trkpt lat="50.700727" lon="18.126416">
        <ele>199.569661</ele>
        <time>2025-08-18T22:05:52.553Z</time>
      </trkpt>
      <trkpt lat="50.700101" lon="18.123451">
        <ele>202.661938</ele>
        <time>2025-08-18T22:07:20.955Z</time>
      </trkpt>
      <trkpt lat="50.700096" lon="18.123064">
        <ele>203.149967</ele>
        <time>2025-08-18T22:07:32.861Z</time>
      </trkpt>
      <trkpt lat="50.699865" lon="18.121999">
        <ele>204.514038</ele>
        <time>2025-08-18T22:08:05.551Z</time>
      </trkpt>
      <trkpt lat="50.699719" lon="18.121520">
        <ele>204.549621</ele>
        <time>2025-08-18T22:08:19.979Z</time>
      </trkpt>
      <trkpt lat="50.699131" lon="18.118394">
        <ele>204.063617</ele>
        <time>2025-08-18T22:09:33.230Z</time>
      </trkpt>
      <trkpt lat="50.699095" lon="18.118152">
        <ele>203.905013</ele>
        <time>2025-08-18T22:09:38.480Z</time>
      </trkpt>
      <trkpt lat="50.698985" lon="18.117112">
        <ele>203.232280</ele>
        <time>2025-08-18T22:10:00.499Z</time>
      </trkpt>
      <trkpt lat="50.698831" lon="18.116509">
        <ele>202.775892</ele>
        <time>2025-08-18T22:10:13.986Z</time>
      </trkpt>
      <trkpt lat="50.698689" lon="18.116134">
        <ele>202.335748</ele>
        <time>2025-08-18T22:10:23.010Z</time>
      </trkpt>
      <trkpt lat="50.698272" lon="18.115211">
        <ele>201.193600</ele>
        <time>2025-08-18T22:10:46.263Z</time>
      </trkpt>
      <trkpt lat="50.697586" lon="18.113308">
        <ele>198.857982</ele>
        <time>2025-08-18T22:11:30.743Z</time>
      </trkpt>
      <trkpt lat="50.697391" lon="18.112707">
        <ele>198.092895</ele>
        <time>2025-08-18T22:11:44.281Z</time>
      </trkpt>
      <trkpt lat="50.696419" lon="18.108318">
        <ele>193.109632</ele>
        <time>2025-08-18T22:13:18.278Z</time>
      </trkpt>
      <trkpt lat="50.696317" lon="18.107806">
        <ele>192.698913</ele>
        <time>2025-08-18T22:13:29.842Z</time>
      </trkpt>
      <trkpt lat="50.696070" lon="18.106071">
        <ele>191.393212</ele>
        <time>2025-08-18T22:14:07.757Z</time>
      </trkpt>
      <trkpt lat="50.695826" lon="18.104276">
        <ele>190.644318</ele>
        <time>2025-08-18T22:14:47.752Z</time>
      </trkpt>
      <trkpt lat="50.695695" lon="18.103380">
        <ele>190.237354</ele>
        <time>2025-08-18T22:15:08.962Z</time>
      </trkpt>
      <trkpt lat="50.695601" lon="18.102724">
        <ele>189.657503</ele>
        <time>2025-08-18T22:15:24.535Z</time>
      </trkpt>
      <trkpt lat="50.695398" lon="18.101180">
        <ele>188.297991</ele>
        <time>2025-08-18T22:15:57.504Z</time>
      </trkpt>
      <trkpt lat="50.695333" lon="18.100504">
        <ele>187.626031</ele>
        <time>2025-08-18T22:16:10.304Z</time>
      </trkpt>
      <trkpt lat="50.695226" lon="18.099184">
        <ele>185.808970</ele>
        <time>2025-08-18T22:16:25.053Z</time>
      </trkpt>
      <trkpt lat="50.695142" lon="18.098229">
        <ele>184.492473</ele>
        <time>2025-08-18T22:16:36.281Z</time>
      </trkpt>
      <trkpt lat="50.694983" lon="18.096235">
        <ele>183.017827</ele>
        <time>2025-08-18T22:17:02.627Z</time>
      </trkpt>
      <trkpt lat="50.694977" lon="18.096154">
        <ele>182.970025</ele>
        <time>2025-08-18T22:17:03.736Z</time>
      </trkpt>
      <trkpt lat="50.694927" lon="18.095529">
        <ele>182.600771</ele>
        <time>2025-08-18T22:17:11.987Z</time>
      </trkpt>
      <trkpt lat="50.694919" lon="18.095429">
        <ele>182.541690</ele>
        <time>2025-08-18T22:17:13.309Z</time>
      </trkpt>
      <trkpt lat="50.694816" lon="18.094208">
        <ele>181.679607</ele>
        <time>2025-08-18T22:17:28.924Z</time>
      </trkpt>
      <trkpt lat="50.694796" lon="18.094150">
        <ele>181.629804</ele>
        <time>2025-08-18T22:17:29.720Z</time>
      </trkpt>
      <trkpt lat="50.694803" lon="18.094035">
        <ele>181.542676</ele>
        <time>2025-08-18T22:17:31.103Z</time>
      </trkpt>
      <trkpt lat="50.694795" lon="18.093940">
        <ele>181.470400</ele>
        <time>2025-08-18T22:17:32.256Z</time>
      </trkpt>
      <trkpt lat="50.694792" lon="18.093891">
        <ele>181.433274</ele>
        <time>2025-08-18T22:17:32.853Z</time>
      </trkpt>
      <trkpt lat="50.694635" lon="18.091871">
        <ele>179.917760</ele>
        <time>2025-08-18T22:17:56.984Z</time>
      </trkpt>
      <trkpt lat="50.694459" lon="18.089538">
        <ele>178.273343</ele>
        <time>2025-08-18T22:18:24.810Z</time>
      </trkpt>
      <trkpt lat="50.694421" lon="18.088511">
        <ele>178.637404</ele>
        <time>2025-08-18T22:18:39.038Z</time>
      </trkpt>
      <trkpt lat="50.694405" lon="18.087749">
        <ele>179.027399</ele>
        <time>2025-08-18T22:18:51.683Z</time>
      </trkpt>
      <trkpt lat="50.694396" lon="18.087433">
        <ele>179.189204</ele>
        <time>2025-08-18T22:18:57.359Z</time>
      </trkpt>
      <trkpt lat="50.694394" lon="18.087346">
        <ele>179.233736</ele>
        <time>2025-08-18T22:18:58.926Z</time>
      </trkpt>
      <trkpt lat="50.694541" lon="18.085985">
        <ele>180.130335</ele>
        <time>2025-08-18T22:19:37.607Z</time>
      </trkpt>
      <trkpt lat="50.694672" lon="18.084831">
        <ele>181.100827</ele>
        <time>2025-08-18T22:20:10.217Z</time>
      </trkpt>
      <trkpt lat="50.694676" lon="18.084340">
        <ele>181.507307</ele>
        <time>2025-08-18T22:20:23.262Z</time>
      </trkpt>
      <trkpt lat="50.694628" lon="18.083793">
        <ele>181.964434</ele>
        <time>2025-08-18T22:20:37.223Z</time>
      </trkpt>
      <trkpt lat="50.694465" lon="18.083095">
        <ele>181.608196</ele>
        <time>2025-08-18T22:20:54.825Z</time>
      </trkpt>
      <trkpt lat="50.694240" lon="18.082626">
        <ele>181.303188</ele>
        <time>2025-08-18T22:21:07.868Z</time>
      </trkpt>
      <trkpt lat="50.694191" lon="18.082417">
        <ele>181.187651</ele>
        <time>2025-08-18T22:21:12.633Z</time>
      </trkpt>
      <trkpt lat="50.693996" lon="18.080749">
        <ele>180.107375</ele>
        <time>2025-08-18T22:21:47.202Z</time>
      </trkpt>
      <trkpt lat="50.693799" lon="18.077780">
        <ele>177.360441</ele>
        <time>2025-08-18T22:22:47.860Z</time>
      </trkpt>
      <trkpt lat="50.693718" lon="18.076896">
        <ele>177.001699</ele>
        <time>2025-08-18T22:23:07.784Z</time>
      </trkpt>
      <trkpt lat="50.693615" lon="18.076142">
        <ele>176.691904</ele>
        <time>2025-08-18T22:23:25.817Z</time>
      </trkpt>
      <trkpt lat="50.693556" lon="18.075371">
        <ele>176.314633</ele>
        <time>2025-08-18T22:23:43.895Z</time>
      </trkpt>
      <trkpt lat="50.693488" lon="18.074546">
        <ele>175.585400</ele>
        <time>2025-08-18T22:24:02.573Z</time>
      </trkpt>
      <trkpt lat="50.693514" lon="18.071289">
        <ele>172.461925</ele>
        <time>2025-08-18T22:25:07.704Z</time>
      </trkpt>
      <trkpt lat="50.693556" lon="18.070943">
        <ele>172.084981</ele>
        <time>2025-08-18T22:25:14.696Z</time>
      </trkpt>
      <trkpt lat="50.693662" lon="18.070559">
        <ele>171.636799</ele>
        <time>2025-08-18T22:25:23.099Z</time>
      </trkpt>
      <trkpt lat="50.693910" lon="18.069883">
        <ele>170.919971</ele>
        <time>2025-08-18T22:25:39.381Z</time>
      </trkpt>
      <trkpt lat="50.693938" lon="18.069609">
        <ele>170.951745</ele>
        <time>2025-08-18T22:25:45.405Z</time>
      </trkpt>
      <trkpt lat="50.693899" lon="18.069178">
        <ele>171.001590</ele>
        <time>2025-08-18T22:25:55.121Z</time>
      </trkpt>
      <trkpt lat="50.693513" lon="18.067221">
        <ele>171.242567</ele>
        <time>2025-08-18T22:26:46.743Z</time>
      </trkpt>
      <trkpt lat="50.693073" lon="18.064669">
        <ele>172.250431</ele>
        <time>2025-08-18T22:27:55.037Z</time>
      </trkpt>
      <trkpt lat="50.693022" lon="18.059216">
        <ele>169.944656</ele>
        <time>2025-08-18T22:29:53.371Z</time>
      </trkpt>
      <trkpt lat="50.692993" lon="18.053792">
        <ele>167.692018</ele>
        <time>2025-08-18T22:31:52.769Z</time>
      </trkpt>
      <trkpt lat="50.692979" lon="18.051159">
        <ele>167.371874</ele>
        <time>2025-08-18T22:32:52.161Z</time>
      </trkpt>
      <trkpt lat="50.692969" lon="18.048375">
        <ele>167.897886</ele>
        <time>2025-08-18T22:34:02.731Z</time>
      </trkpt>
      <trkpt lat="50.692959" lon="18.042875">
        <ele>167.678775</ele>
        <time>2025-08-18T22:36:11.392Z</time>
      </trkpt>
      <trkpt lat="50.692924" lon="18.037517">
        <ele>164.422904</ele>
        <time>2025-08-18T22:38:05.949Z</time>
      </trkpt>
      <trkpt lat="50.692921" lon="18.036084">
        <ele>163.227981</ele>
        <time>2025-08-18T22:38:35.643Z</time>
      </trkpt>
      <trkpt lat="50.692918" lon="18.034789">
        <ele>161.707611</ele>
        <time>2025-08-18T22:39:01.164Z</time>
      </trkpt>
      <trkpt lat="50.692882" lon="18.033458">
        <ele>160.143562</ele>
        <time>2025-08-18T22:39:27.429Z</time>
      </trkpt>
      <trkpt lat="50.692764" lon="18.032940">
        <ele>159.931021</ele>
        <time>2025-08-18T22:39:39.228Z</time>
      </trkpt>
      <trkpt lat="50.692629" lon="18.032180">
        <ele>159.953874</ele>
        <time>2025-08-18T22:39:57.408Z</time>
      </trkpt>
      <trkpt lat="50.692340" lon="18.031027">
        <ele>159.989775</ele>
        <time>2025-08-18T22:40:28.376Z</time>
      </trkpt>
      <trkpt lat="50.692065" lon="18.029767">
        <ele>160.188527</ele>
        <time>2025-08-18T22:41:02.258Z</time>
      </trkpt>
      <trkpt lat="50.692036" lon="18.029691">
        <ele>160.207185</ele>
        <time>2025-08-18T22:41:04.480Z</time>
      </trkpt>
      <trkpt lat="50.691997" lon="18.029539">
        <ele>160.241672</ele>
        <time>2025-08-18T22:41:08.555Z</time>
      </trkpt>
      <trkpt lat="50.691988" lon="18.029470">
        <ele>160.256487</ele>
        <time>2025-08-18T22:41:10.323Z</time>
      </trkpt>
      <trkpt lat="50.691808" lon="18.029344">
        <ele>160.321853</ele>
        <time>2025-08-18T22:41:17.993Z</time>
      </trkpt>
      <trkpt lat="50.692974" lon="18.028800">
        <ele>160.315615</ele>
        <time>2025-08-18T22:42:03.168Z</time>
      </trkpt>
      <trkpt lat="50.693600" lon="18.027899">
        <ele>159.679136</ele>
        <time>2025-08-18T22:42:32.175Z</time>
      </trkpt>
      <trkpt lat="50.694442" lon="18.026140">
        <ele>158.440479</ele>
        <time>2025-08-18T22:43:18.351Z</time>
      </trkpt>
      <trkpt lat="50.695955" lon="18.024311">
        <ele>156.994325</ele>
        <time>2025-08-18T22:44:24.340Z</time>
      </trkpt>
      <trkpt lat="50.696811" lon="18.023512">
        <ele>156.498628</ele>
        <time>2025-08-18T22:44:59.942Z</time>
      </trkpt>
      <trkpt lat="50.697846" lon="18.022229">
        <ele>156.090080</ele>
        <time>2025-08-18T22:45:47.087Z</time>
      </trkpt>
      <trkpt lat="50.698892" lon="18.021285">
        <ele>155.832979</ele>
        <time>2025-08-18T22:46:30.384Z</time>
      </trkpt>
      <trkpt lat="50.699558" lon="18.020684">
        <ele>155.700575</ele>
        <time>2025-08-18T22:46:58.222Z</time>
      </trkpt>
      <trkpt lat="50.699640" lon="18.020425">
        <ele>155.669074</ele>
        <time>2025-08-18T22:47:04.985Z</time>
      </trkpt>
      <trkpt lat="50.699617" lon="18.015041">
        <ele>157.353120</ele>
        <time>2025-08-18T22:49:19.237Z</time>
      </trkpt>
      <trkpt lat="50.699694" lon="18.014848">
        <ele>157.424684</ele>
        <time>2025-08-18T22:49:24.842Z</time>
      </trkpt>
      <trkpt lat="50.701900" lon="18.012671">
        <ele>157.478757</ele>
        <time>2025-08-18T22:51:02.183Z</time>
      </trkpt>
      <trkpt lat="50.701979" lon="18.012586">
        <ele>157.450133</ele>
        <time>2025-08-18T22:51:05.580Z</time>
      </trkpt>
      <trkpt lat="50.702187" lon="18.012230">
        <ele>157.358285</ele>
        <time>2025-08-18T22:51:16.276Z</time>
      </trkpt>
      <trkpt lat="50.702022" lon="18.011936">
        <ele>157.283793</ele>
        <time>2025-08-18T22:51:21.825Z</time>
      </trkpt>
      <trkpt lat="50.701353" lon="18.010988">
        <ele>157.048513</ele>
        <time>2025-08-18T22:51:42.039Z</time>
      </trkpt>
      <trkpt lat="50.700065" lon="18.009045">
        <ele>156.809155</ele>
        <time>2025-08-18T22:52:25.989Z</time>
      </trkpt>
      <trkpt lat="50.699848" lon="18.008788">
        <ele>156.842480</ele>
        <time>2025-08-18T22:52:32.974Z</time>
      </trkpt>
      <trkpt lat="50.699689" lon="18.008802">
        <ele>156.862043</ele>
        <time>2025-08-18T22:52:37.067Z</time>
      </trkpt>
      <trkpt lat="50.698663" lon="18.009130">
        <ele>156.947541</ele>
        <time>2025-08-18T22:53:03.689Z</time>
      </trkpt>
      <trkpt lat="50.698360" lon="18.008905">
        <ele>156.905430</ele>
        <time>2025-08-18T22:53:11.982Z</time>
      </trkpt>
      <trkpt lat="50.697859" lon="18.008666">
        <ele>156.839609</ele>
        <time>2025-08-18T22:53:24.683Z</time>
      </trkpt>
      <trkpt lat="50.697025" lon="18.007944">
        <ele>156.678589</ele>
        <time>2025-08-18T22:53:46.998Z</time>
      </trkpt>
      <trkpt lat="50.696040" lon="18.005739">
        <ele>156.118933</ele>
        <time>2025-08-18T22:54:26.888Z</time>
      </trkpt>
      <trkpt lat="50.695993" lon="18.005492">
        <ele>156.130107</ele>
        <time>2025-08-18T22:54:30.872Z</time>
      </trkpt>
      <trkpt lat="50.695580" lon="18.004528">
        <ele>156.180530</ele>
        <time>2025-08-18T22:54:47.449Z</time>
      </trkpt>
      <trkpt lat="50.694582" lon="18.002333">
        <ele>156.568088</ele>
        <time>2025-08-18T22:55:27.254Z</time>
      </trkpt>
      <trkpt lat="50.693669" lon="18.000349">
        <ele>156.946301</ele>
        <time>2025-08-18T22:56:04.752Z</time>
      </trkpt>
      <trkpt lat="50.693463" lon="17.999896">
        <ele>156.973992</ele>
        <time>2025-08-18T22:56:12.805Z</time>
      </trkpt>
      <trkpt lat="50.693394" lon="17.999782">
        <ele>156.981822</ele>
        <time>2025-08-18T22:56:15.062Z</time>
      </trkpt>
      <trkpt lat="50.693332" lon="17.999659">
        <ele>156.989628</ele>
        <time>2025-08-18T22:56:17.362Z</time>
      </trkpt>
      <trkpt lat="50.693292" lon="17.999581">
        <ele>156.994611</ele>
        <time>2025-08-18T22:56:18.800Z</time>
      </trkpt>
      <trkpt lat="50.692913" lon="17.998857">
        <ele>157.018209</ele>
        <time>2025-08-18T22:56:31.440Z</time>
      </trkpt>
      <trkpt lat="50.692376" lon="17.997673">
        <ele>156.808368</ele>
        <time>2025-08-18T22:56:50.369Z</time>
      </trkpt>
      <trkpt lat="50.690501" lon="17.993484">
        <ele>156.613346</ele>
        <time>2025-08-18T22:58:03.116Z</time>
      </trkpt>
      <trkpt lat="50.688245" lon="17.988436">
        <ele>155.939850</ele>
        <time>2025-08-18T22:59:28.344Z</time>
      </trkpt>
      <trkpt lat="50.687695" lon="17.987205">
        <ele>155.537037</ele>
        <time>2025-08-18T22:59:47.352Z</time>
      </trkpt>
      <trkpt lat="50.687395" lon="17.986534">
        <ele>155.228274</ele>
        <time>2025-08-18T22:59:58.188Z</time>
      </trkpt>
      <trkpt lat="50.687196" lon="17.986100">
        <ele>155.026855</ele>
        <time>2025-08-18T23:00:05.264Z</time>
      </trkpt>
      <trkpt lat="50.687123" lon="17.985936">
        <ele>154.951500</ele>
        <time>2025-08-18T23:00:07.899Z</time>
      </trkpt>
      <trkpt lat="50.686898" lon="17.985429">
        <ele>154.718773</ele>
        <time>2025-08-18T23:00:15.752Z</time>
      </trkpt>
      <trkpt lat="50.686178" lon="17.986773">
        <ele>154.541706</ele>
        <time>2025-08-18T23:00:39.829Z</time>
      </trkpt>
      <trkpt lat="50.685496" lon="17.987942">
        <ele>154.541409</ele>
        <time>2025-08-18T23:01:02.726Z</time>
      </trkpt>
      <trkpt lat="50.684792" lon="17.989019">
        <ele>154.543468</ele>
        <time>2025-08-18T23:01:25.811Z</time>
      </trkpt>
      <trkpt lat="50.684755" lon="17.989077">
        <ele>154.543577</ele>
        <time>2025-08-18T23:01:26.995Z</time>
      </trkpt>
      <trkpt lat="50.684434" lon="17.989517">
        <ele>154.544470</ele>
        <time>2025-08-18T23:01:36.172Z</time>
      </trkpt>
      <trkpt lat="50.684305" lon="17.989710">
        <ele>154.544844</ele>
        <time>2025-08-18T23:01:39.872Z</time>
      </trkpt>
      <trkpt lat="50.684261" lon="17.989884">
        <ele>154.545093</ele>
        <time>2025-08-18T23:01:42.347Z</time>
      </trkpt>
      <trkpt lat="50.684074" lon="17.989764">
        <ele>154.506884</ele>
        <time>2025-08-18T23:01:46.502Z</time>
      </trkpt>
      <trkpt lat="50.683900" lon="17.989847">
        <ele>154.468849</ele>
        <time>2025-08-18T23:01:50.205Z</time>
      </trkpt>
      <trkpt lat="50.683855" lon="17.989828">
        <ele>154.459102</ele>
        <time>2025-08-18T23:01:51.173Z</time>
      </trkpt>
      <trkpt lat="50.683744" lon="17.989730">
        <ele>154.432489</ele>
        <time>2025-08-18T23:01:53.758Z</time>
      </trkpt>
      <trkpt lat="50.683639" lon="17.989511">
        <ele>154.396079</ele>
        <time>2025-08-18T23:01:57.329Z</time>
      </trkpt>
      <trkpt lat="50.683608" lon="17.989490">
        <ele>154.389020</ele>
        <time>2025-08-18T23:01:58.026Z</time>
      </trkpt>
      <trkpt lat="50.683656" lon="17.989447">
        <ele>154.377472</ele>
        <time>2025-08-18T23:01:59.160Z</time>
      </trkpt>
      <trkpt lat="50.683890" lon="17.989361">
        <ele>154.327199</ele>
        <time>2025-08-18T23:02:04.197Z</time>
      </trkpt>
      <trkpt lat="50.684074" lon="17.989163">
        <ele>154.280601</ele>
        <time>2025-08-18T23:02:08.913Z</time>
      </trkpt>
      <trkpt lat="50.684308" lon="17.988830">
        <ele>154.214675</ele>
        <time>2025-08-18T23:02:15.813Z</time>
      </trkpt>
      <trkpt lat="50.684393" lon="17.988573">
        <ele>154.176240</ele>
        <time>2025-08-18T23:02:20.049Z</time>
      </trkpt>
      <trkpt lat="50.684480" lon="17.988436">
        <ele>154.184751</ele>
        <time>2025-08-18T23:02:23.004Z</time>
      </trkpt>
      <trkpt lat="50.684455" lon="17.988306">
        <ele>154.200507</ele>
        <time>2025-08-18T23:02:25.329Z</time>
      </trkpt>
      <trkpt lat="50.684404" lon="17.988037">
        <ele>154.233071</ele>
        <time>2025-08-18T23:02:30.138Z</time>
      </trkpt>
      <trkpt lat="50.683966" lon="17.986656">
        <ele>154.412179</ele>
        <time>2025-08-18T23:02:55.478Z</time>
      </trkpt>
      <trkpt lat="50.683804" lon="17.986180">
        <ele>154.474844</ele>
        <time>2025-08-18T23:03:03.228Z</time>
      </trkpt>
      <trkpt lat="50.683613" lon="17.985589">
        <ele>154.597531</ele>
        <time>2025-08-18T23:03:12.873Z</time>
      </trkpt>
      <trkpt lat="50.683428" lon="17.984992">
        <ele>154.740170</ele>
        <time>2025-08-18T23:03:22.431Z</time>
      </trkpt>
      <trkpt lat="50.683248" lon="17.984413">
        <ele>154.878595</ele>
        <time>2025-08-18T23:03:32.091Z</time>
      </trkpt>
      <trkpt lat="50.683063" lon="17.983834">
        <ele>155.017774</ele>
        <time>2025-08-18T23:03:42.562Z</time>
      </trkpt>
      <trkpt lat="50.682888" lon="17.983262">
        <ele>155.209148</ele>
        <time>2025-08-18T23:03:53.763Z</time>
      </trkpt>
      <trkpt lat="50.682688" lon="17.982661">
        <ele>155.526171</ele>
        <time>2025-08-18T23:04:08.503Z</time>
      </trkpt>
      <trkpt lat="50.682471" lon="17.982009">
        <ele>155.870107</ele>
        <time>2025-08-18T23:04:24.297Z</time>
      </trkpt>
      <trkpt lat="50.682460" lon="17.981977">
        <ele>155.887109</ele>
        <time>2025-08-18T23:04:25.074Z</time>
      </trkpt>
      <trkpt lat="50.682271" lon="17.981411">
        <ele>156.185893</ele>
        <time>2025-08-18T23:04:38.379Z</time>
      </trkpt>
      <trkpt lat="50.682940" lon="17.980228">
        <ele>155.987993</ele>
        <time>2025-08-18T23:04:59.783Z</time>
      </trkpt>
      <trkpt lat="50.683160" lon="17.979876">
        <ele>155.779763</ele>
        <time>2025-08-18T23:05:05.594Z</time>
      </trkpt>
      <trkpt lat="50.683356" lon="17.979620">
        <ele>155.610658</ele>
        <time>2025-08-18T23:05:10.341Z</time>
      </trkpt>
      <trkpt lat="50.684032" lon="17.978930">
        <ele>155.329624</ele>
        <time>2025-08-18T23:05:26.012Z</time>
      </trkpt>
      <trkpt lat="50.684628" lon="17.978186">
        <ele>155.617218</ele>
        <time>2025-08-18T23:05:42.980Z</time>
      </trkpt>
      <trkpt lat="50.684696" lon="17.978038">
        <ele>155.661057</ele>
        <time>2025-08-18T23:05:45.958Z</time>
      </trkpt>
      <trkpt lat="50.684875" lon="17.977853">
        <ele>155.742036</ele>
        <time>2025-08-18T23:05:51.666Z</time>
      </trkpt>
      <trkpt lat="50.684935" lon="17.977735">
        <ele>155.778316</ele>
        <time>2025-08-18T23:05:54.376Z</time>
      </trkpt>
      <trkpt lat="50.684947" lon="17.977684">
        <ele>155.791362</ele>
        <time>2025-08-18T23:05:55.327Z</time>
      </trkpt>
      <trkpt lat="50.684951" lon="17.977666">
        <ele>155.795936</ele>
        <time>2025-08-18T23:05:55.652Z</time>
      </trkpt>
      <trkpt lat="50.684932" lon="17.977206">
        <ele>155.906475</ele>
        <time>2025-08-18T23:06:03.828Z</time>
      </trkpt>
      <trkpt lat="50.684805" lon="17.975787">
        <ele>157.112163</ele>
        <time>2025-08-18T23:06:28.945Z</time>
      </trkpt>
      <trkpt lat="50.684593" lon="17.973750">
        <ele>158.913247</ele>
        <time>2025-08-18T23:07:05.138Z</time>
      </trkpt>
      <trkpt lat="50.684573" lon="17.973507">
        <ele>159.132867</ele>
        <time>2025-08-18T23:07:09.424Z</time>
      </trkpt>
      <trkpt lat="50.683976" lon="17.966148">
        <ele>165.612058</ele>
        <time>2025-08-18T23:09:20.803Z</time>
      </trkpt>
      <trkpt lat="50.683787" lon="17.964089">
        <ele>166.686683</ele>
        <time>2025-08-18T23:09:54.131Z</time>
      </trkpt>
      <trkpt lat="50.683352" lon="17.958383">
        <ele>169.334318</ele>
        <time>2025-08-18T23:11:23.699Z</time>
      </trkpt>
      <trkpt lat="50.683526" lon="17.958202">
        <ele>169.529382</ele>
        <time>2025-08-18T23:11:29.594Z</time>
      </trkpt>
      <trkpt lat="50.683594" lon="17.958073">
        <ele>169.628904</ele>
        <time>2025-08-18T23:11:32.628Z</time>
      </trkpt>
      <trkpt lat="50.683621" lon="17.957915">
        <ele>169.725958</ele>
        <time>2025-08-18T23:11:35.606Z</time>
      </trkpt>
      <trkpt lat="50.683611" lon="17.957782">
        <ele>169.805391</ele>
        <time>2025-08-18T23:11:37.998Z</time>
      </trkpt>
      <trkpt lat="50.683402" lon="17.956597">
        <ele>170.897454</ele>
        <time>2025-08-18T23:12:00.457Z</time>
      </trkpt>
      <trkpt lat="50.683406" lon="17.956485">
        <ele>171.001187</ele>
        <time>2025-08-18T23:12:02.635Z</time>
      </trkpt>
      <trkpt lat="50.683445" lon="17.956365">
        <ele>171.125899</ele>
        <time>2025-08-18T23:12:05.189Z</time>
      </trkpt>
      <trkpt lat="50.683496" lon="17.956238">
        <ele>171.264939</ele>
        <time>2025-08-18T23:12:08.152Z</time>
      </trkpt>
      <trkpt lat="50.683525" lon="17.956171">
        <ele>171.339972</ele>
        <time>2025-08-18T23:12:09.694Z</time>
      </trkpt>
      <trkpt lat="50.683604" lon="17.955962">
        <ele>171.565017</ele>
        <time>2025-08-18T23:12:14.129Z</time>
      </trkpt>
      <trkpt lat="50.683597" lon="17.955830">
        <ele>171.687506</ele>
        <time>2025-08-18T23:12:16.512Z</time>
      </trkpt>
      <trkpt lat="50.683587" lon="17.955776">
        <ele>171.739530</ele>
        <time>2025-08-18T23:12:17.487Z</time>
      </trkpt>
      <trkpt lat="50.683478" lon="17.955845">
        <ele>171.910929</ele>
        <time>2025-08-18T23:12:20.761Z</time>
      </trkpt>
      <trkpt lat="50.683455" lon="17.955762">
        <ele>171.994700</ele>
        <time>2025-08-18T23:12:22.718Z</time>
      </trkpt>
      <trkpt lat="50.683372" lon="17.955831">
        <ele>172.131612</ele>
        <time>2025-08-18T23:12:25.940Z</time>
      </trkpt>
      <trkpt lat="50.683314" lon="17.955871">
        <ele>172.223989</ele>
        <time>2025-08-18T23:12:28.028Z</time>
      </trkpt>
      <trkpt lat="50.683268" lon="17.955837">
        <ele>172.298122</ele>
        <time>2025-08-18T23:12:29.731Z</time>
      </trkpt>
      <trkpt lat="50.683226" lon="17.955869">
        <ele>172.366188</ele>
        <time>2025-08-18T23:12:31.269Z</time>
      </trkpt>
      <trkpt lat="50.682944" lon="17.954867">
        <ele>172.662178</ele>
        <time>2025-08-18T23:12:49.856Z</time>
      </trkpt>
      <trkpt lat="50.682837" lon="17.954486">
        <ele>172.728996</ele>
        <time>2025-08-18T23:12:56.312Z</time>
      </trkpt>
      <trkpt lat="50.682956" lon="17.954393">
        <ele>172.762598</ele>
        <time>2025-08-18T23:12:59.272Z</time>
      </trkpt>
      <trkpt lat="50.683115" lon="17.954256">
        <ele>172.808438</ele>
        <time>2025-08-18T23:13:03.231Z</time>
      </trkpt>
      <trkpt lat="50.683096" lon="17.954188">
        <ele>172.820353</ele>
        <time>2025-08-18T23:13:04.578Z</time>
      </trkpt>
      <trkpt lat="50.683199" lon="17.954077">
        <ele>172.851914</ele>
        <time>2025-08-18T23:13:08.062Z</time>
      </trkpt>
      <trkpt lat="50.683304" lon="17.953875">
        <ele>172.893805</ele>
        <time>2025-08-18T23:13:12.677Z</time>
      </trkpt>
      <trkpt lat="50.683433" lon="17.953774">
        <ele>172.930243</ele>
        <time>2025-08-18T23:13:15.829Z</time>
      </trkpt>
      <trkpt lat="50.683468" lon="17.953747">
        <ele>172.940101</ele>
        <time>2025-08-18T23:13:16.670Z</time>
      </trkpt>
      <trkpt lat="50.684208" lon="17.953169">
        <ele>172.763213</ele>
        <time>2025-08-18T23:13:34.795Z</time>
      </trkpt>
      <trkpt lat="50.684645" lon="17.952911">
        <ele>172.631394</ele>
        <time>2025-08-18T23:13:44.966Z</time>
      </trkpt>
      <trkpt lat="50.684822" lon="17.952765">
        <ele>172.574970</ele>
        <time>2025-08-18T23:13:49.475Z</time>
      </trkpt>
      <trkpt lat="50.684989" lon="17.952561">
        <ele>172.515307</ele>
        <time>2025-08-18T23:13:54.293Z</time>
      </trkpt>
      <trkpt lat="50.685320" lon="17.952309">
        <ele>172.423019</ele>
        <time>2025-08-18T23:14:02.748Z</time>
      </trkpt>
      <trkpt lat="50.685360" lon="17.952274">
        <ele>172.413263</ele>
        <time>2025-08-18T23:14:03.752Z</time>
      </trkpt>
      <trkpt lat="50.685393" lon="17.952246">
        <ele>172.405271</ele>
        <time>2025-08-18T23:14:04.572Z</time>
      </trkpt>
      <trkpt lat="50.685843" lon="17.951835">
        <ele>172.294368</ele>
        <time>2025-08-18T23:14:15.640Z</time>
      </trkpt>
      <trkpt lat="50.686383" lon="17.951307">
        <ele>172.158869</ele>
        <time>2025-08-18T23:14:29.238Z</time>
      </trkpt>
      <trkpt lat="50.686807" lon="17.950943">
        <ele>172.169062</ele>
        <time>2025-08-18T23:14:40.641Z</time>
      </trkpt>
      <trkpt lat="50.686851" lon="17.950861">
        <ele>172.241043</ele>
        <time>2025-08-18T23:14:42.331Z</time>
      </trkpt>
      <trkpt lat="50.686871" lon="17.950822">
        <ele>172.274653</ele>
        <time>2025-08-18T23:14:43.097Z</time>
      </trkpt>
      <trkpt lat="50.686865" lon="17.950688">
        <ele>172.364637</ele>
        <time>2025-08-18T23:14:45.276Z</time>
      </trkpt>
      <trkpt lat="50.686837" lon="17.950658">
        <ele>172.400417</ele>
        <time>2025-08-18T23:14:46.114Z</time>
      </trkpt>
      <trkpt lat="50.685624" lon="17.949417">
        <ele>173.928764</ele>
        <time>2025-08-18T23:15:26.123Z</time>
      </trkpt>
      <trkpt lat="50.685549" lon="17.949340">
        <ele>174.014503</ele>
        <time>2025-08-18T23:15:28.634Z</time>
      </trkpt>
      <trkpt lat="50.684727" lon="17.948494">
        <ele>174.855537</ele>
        <time>2025-08-18T23:15:54.548Z</time>
      </trkpt>
      <trkpt lat="50.683950" lon="17.947692">
        <ele>175.518108</ele>
        <time>2025-08-18T23:16:17.593Z</time>
      </trkpt>
      <trkpt lat="50.683292" lon="17.947014">
        <ele>175.518108</ele>
        <time>2025-08-18T23:16:35.461Z</time>
      </trkpt>
      <trkpt lat="50.683249" lon="17.946970">
        <ele>175.518108</ele>
        <time>2025-08-18T23:16:36.600Z</time>
      </trkpt>
      <trkpt lat="50.683194" lon="17.946918">
        <ele>175.518108</ele>
        <time>2025-08-18T23:16:38.030Z</time>
      </trkpt>
      <trkpt lat="50.683149" lon="17.946871">
        <ele>175.518108</ele>
        <time>2025-08-18T23:16:39.222Z</time>
      </trkpt>
      <trkpt lat="50.682964" lon="17.947326">
        <ele>175.518108</ele>
        <time>2025-08-18T23:16:47.184Z</time>
      </trkpt>
      <trkpt lat="50.682917" lon="17.947364">
        <ele>175.518108</ele>
        <time>2025-08-18T23:16:48.399Z</time>
      </trkpt>
      <trkpt lat="50.682732" lon="17.947390">
        <ele>175.518108</ele>
        <time>2025-08-18T23:16:52.623Z</time>
      </trkpt>
      <trkpt lat="50.682641" lon="17.947403">
        <ele>175.518108</ele>
        <time>2025-08-18T23:16:54.677Z</time>
      </trkpt>
      <trkpt lat="50.682547" lon="17.947416">
        <ele>175.518108</ele>
        <time>2025-08-18T23:16:56.764Z</time>
      </trkpt>
    </trkseg>
  </trk>
</gpx>