<?xml version='1.0' encoding='UTF-8'?>
<gpx version="1.1" creator="https://www.komoot.de" xmlns="http://www.topografix.com/GPX/1/1" xmlns:xsi="http://www.w3.org/2001/XMLSchema-instance" xsi:schemaLocation="http://www.topografix.com/GPX/1/1 http://www.topografix.com/GPX/1/1/gpx.xsd">
  <metadata>
    <name>Gravelova Środa - Jeleń Express</name>
    <author>
      <link href="https://www.komoot.de">
        <text>komoot</text>
        <type>text/html</type>
      </link>
    </author>
  </metadata>
  <trk>
    <name>Gravelova Środa - Jeleń Express</name>
    <trkseg>
      <trkpt lat="50.682424" lon="17.947700">
        <ele>175.742348</ele>
        <time>2025-05-12T07:36:01.702Z</time>
      </trkpt>
      <trkpt lat="50.682417" lon="17.947549">
        <ele>175.742348</ele>
        <time>2025-05-12T07:36:08.369Z</time>
      </trkpt>
      <trkpt lat="50.682737" lon="17.947500">
        <ele>175.742348</ele>
        <time>2025-05-12T07:36:14.362Z</time>
      </trkpt>
      <trkpt lat="50.682732" lon="17.947390">
        <ele>175.742348</ele>
        <time>2025-05-12T07:36:15.649Z</time>
      </trkpt>
      <trkpt lat="50.682917" lon="17.947364">
        <ele>175.742348</ele>
        <time>2025-05-12T07:36:18.341Z</time>
      </trkpt>
      <trkpt lat="50.682964" lon="17.947326">
        <ele>175.742348</ele>
        <time>2025-05-12T07:36:19.079Z</time>
      </trkpt>
      <trkpt lat="50.683149" lon="17.946871">
        <ele>175.701525</ele>
        <time>2025-05-12T07:36:23.871Z</time>
      </trkpt>
      <trkpt lat="50.683194" lon="17.946918">
        <ele>175.688497</ele>
        <time>2025-05-12T07:36:24.616Z</time>
      </trkpt>
      <trkpt lat="50.683249" lon="17.946970">
        <ele>175.673017</ele>
        <time>2025-05-12T07:36:25.471Z</time>
      </trkpt>
      <trkpt lat="50.683292" lon="17.947014">
        <ele>175.660643</ele>
        <time>2025-05-12T07:36:26.161Z</time>
      </trkpt>
      <trkpt lat="50.683950" lon="17.947692">
        <ele>175.470910</ele>
        <time>2025-05-12T07:36:36.505Z</time>
      </trkpt>
      <trkpt lat="50.684727" lon="17.948494">
        <ele>175.190156</ele>
        <time>2025-05-12T07:36:47.975Z</time>
      </trkpt>
      <trkpt lat="50.685549" lon="17.949340">
        <ele>174.734552</ele>
        <time>2025-05-12T07:37:00.681Z</time>
      </trkpt>
      <trkpt lat="50.685559" lon="17.949526">
        <ele>174.679643</ele>
        <time>2025-05-12T07:37:02.214Z</time>
      </trkpt>
      <trkpt lat="50.685560" lon="17.949546">
        <ele>174.673742</ele>
        <time>2025-05-12T07:37:02.380Z</time>
      </trkpt>
      <trkpt lat="50.685570" lon="17.949709">
        <ele>174.625570</ele>
        <time>2025-05-12T07:37:03.726Z</time>
      </trkpt>
      <trkpt lat="50.685597" lon="17.950212">
        <ele>174.477081</ele>
        <time>2025-05-12T07:37:08.941Z</time>
      </trkpt>
      <trkpt lat="50.685605" lon="17.950337">
        <ele>174.414824</ele>
        <time>2025-05-12T07:37:10.235Z</time>
      </trkpt>
      <trkpt lat="50.685618" lon="17.950566">
        <ele>174.295150</ele>
        <time>2025-05-12T07:37:12.588Z</time>
      </trkpt>
      <trkpt lat="50.685640" lon="17.950957">
        <ele>174.090830</ele>
        <time>2025-05-12T07:37:16.654Z</time>
      </trkpt>
      <trkpt lat="50.685508" lon="17.951294">
        <ele>173.884604</ele>
        <time>2025-05-12T07:37:19.938Z</time>
      </trkpt>
      <trkpt lat="50.685437" lon="17.951464">
        <ele>173.778622</ele>
        <time>2025-05-12T07:37:21.586Z</time>
      </trkpt>
      <trkpt lat="50.685354" lon="17.951661">
        <ele>173.655479</ele>
        <time>2025-05-12T07:37:24.001Z</time>
      </trkpt>
      <trkpt lat="50.685384" lon="17.952101">
        <ele>173.425131</ele>
        <time>2025-05-12T07:37:27.432Z</time>
      </trkpt>
      <trkpt lat="50.685393" lon="17.952246">
        <ele>173.349296</ele>
        <time>2025-05-12T07:37:28.872Z</time>
      </trkpt>
      <trkpt lat="50.685360" lon="17.952274">
        <ele>173.318516</ele>
        <time>2025-05-12T07:37:29.337Z</time>
      </trkpt>
      <trkpt lat="50.685320" lon="17.952309">
        <ele>173.280942</ele>
        <time>2025-05-12T07:37:29.895Z</time>
      </trkpt>
      <trkpt lat="50.684989" lon="17.952561">
        <ele>172.995581</ele>
        <time>2025-05-12T07:37:34.463Z</time>
      </trkpt>
      <trkpt lat="50.684822" lon="17.952765">
        <ele>172.998116</ele>
        <time>2025-05-12T07:37:37.206Z</time>
      </trkpt>
      <trkpt lat="50.684645" lon="17.952911">
        <ele>173.000514</ele>
        <time>2025-05-12T07:37:39.885Z</time>
      </trkpt>
      <trkpt lat="50.684208" lon="17.953169">
        <ele>173.006116</ele>
        <time>2025-05-12T07:37:46.771Z</time>
      </trkpt>
      <trkpt lat="50.683468" lon="17.953747">
        <ele>173.016030</ele>
        <time>2025-05-12T07:37:59.093Z</time>
      </trkpt>
      <trkpt lat="50.683433" lon="17.953774">
        <ele>173.016498</ele>
        <time>2025-05-12T07:37:59.682Z</time>
      </trkpt>
      <trkpt lat="50.683304" lon="17.953875">
        <ele>172.975445</ele>
        <time>2025-05-12T07:38:01.845Z</time>
      </trkpt>
      <trkpt lat="50.683199" lon="17.954077">
        <ele>172.911424</ele>
        <time>2025-05-12T07:38:04.950Z</time>
      </trkpt>
      <trkpt lat="50.683096" lon="17.954188">
        <ele>172.863192</ele>
        <time>2025-05-12T07:38:07.248Z</time>
      </trkpt>
      <trkpt lat="50.682934" lon="17.954331">
        <ele>172.791410</ele>
        <time>2025-05-12T07:38:10.609Z</time>
      </trkpt>
      <trkpt lat="50.682943" lon="17.954356">
        <ele>172.784364</ele>
        <time>2025-05-12T07:38:11.901Z</time>
      </trkpt>
      <trkpt lat="50.682956" lon="17.954393">
        <ele>172.773998</ele>
        <time>2025-05-12T07:38:13.765Z</time>
      </trkpt>
      <trkpt lat="50.682837" lon="17.954486">
        <ele>172.722645</ele>
        <time>2025-05-12T07:38:15.525Z</time>
      </trkpt>
      <trkpt lat="50.682944" lon="17.954867">
        <ele>172.620529</ele>
        <time>2025-05-12T07:38:19.067Z</time>
      </trkpt>
      <trkpt lat="50.683226" lon="17.955869">
        <ele>172.351878</ele>
        <time>2025-05-12T07:38:27.811Z</time>
      </trkpt>
      <trkpt lat="50.683266" lon="17.955989">
        <ele>172.310915</ele>
        <time>2025-05-12T07:38:28.884Z</time>
      </trkpt>
      <trkpt lat="50.683478" lon="17.955845">
        <ele>171.966939</ele>
        <time>2025-05-12T07:38:31.604Z</time>
      </trkpt>
      <trkpt lat="50.683587" lon="17.955776">
        <ele>171.791910</ele>
        <time>2025-05-12T07:38:32.961Z</time>
      </trkpt>
      <trkpt lat="50.683597" lon="17.955830">
        <ele>171.738784</ele>
        <time>2025-05-12T07:38:33.373Z</time>
      </trkpt>
      <trkpt lat="50.683604" lon="17.955962">
        <ele>171.613701</ele>
        <time>2025-05-12T07:38:34.328Z</time>
      </trkpt>
      <trkpt lat="50.683525" lon="17.956171">
        <ele>171.383891</ele>
        <time>2025-05-12T07:38:36.070Z</time>
      </trkpt>
      <trkpt lat="50.683496" lon="17.956238">
        <ele>171.307269</ele>
        <time>2025-05-12T07:38:36.670Z</time>
      </trkpt>
      <trkpt lat="50.683445" lon="17.956365">
        <ele>171.165285</ele>
        <time>2025-05-12T07:38:37.784Z</time>
      </trkpt>
      <trkpt lat="50.683406" lon="17.956485">
        <ele>171.037931</ele>
        <time>2025-05-12T07:38:38.719Z</time>
      </trkpt>
      <trkpt lat="50.683402" lon="17.956597">
        <ele>170.932001</ele>
        <time>2025-05-12T07:38:39.503Z</time>
      </trkpt>
      <trkpt lat="50.683611" lon="17.957782">
        <ele>169.770461</ele>
        <time>2025-05-12T07:38:48.303Z</time>
      </trkpt>
      <trkpt lat="50.683621" lon="17.957915">
        <ele>169.643988</ele>
        <time>2025-05-12T07:38:49.267Z</time>
      </trkpt>
      <trkpt lat="50.683594" lon="17.958073">
        <ele>169.553941</ele>
        <time>2025-05-12T07:38:50.446Z</time>
      </trkpt>
      <trkpt lat="50.683526" lon="17.958202">
        <ele>169.463027</ele>
        <time>2025-05-12T07:38:51.653Z</time>
      </trkpt>
      <trkpt lat="50.683352" lon="17.958383">
        <ele>169.284835</ele>
        <time>2025-05-12T07:38:54.022Z</time>
      </trkpt>
      <trkpt lat="50.683787" lon="17.964089">
        <ele>166.738998</ele>
        <time>2025-05-12T07:39:39.279Z</time>
      </trkpt>
      <trkpt lat="50.683976" lon="17.966148">
        <ele>165.820365</ele>
        <time>2025-05-12T07:39:55.526Z</time>
      </trkpt>
      <trkpt lat="50.687612" lon="17.963876">
        <ele>161.923438</ele>
        <time>2025-05-12T07:40:44.148Z</time>
      </trkpt>
      <trkpt lat="50.692366" lon="17.960905">
        <ele>157.325437</ele>
        <time>2025-05-12T07:41:48.202Z</time>
      </trkpt>
      <trkpt lat="50.693455" lon="17.960741">
        <ele>157.812898</ele>
        <time>2025-05-12T07:42:04.732Z</time>
      </trkpt>
      <trkpt lat="50.694803" lon="17.960893">
        <ele>158.645426</ele>
        <time>2025-05-12T07:42:27.299Z</time>
      </trkpt>
      <trkpt lat="50.695435" lon="17.959737">
        <ele>159.415541</ele>
        <time>2025-05-12T07:42:46.831Z</time>
      </trkpt>
      <trkpt lat="50.696447" lon="17.958165">
        <ele>159.867601</ele>
        <time>2025-05-12T07:43:13.181Z</time>
      </trkpt>
      <trkpt lat="50.696546" lon="17.957989">
        <ele>159.905103</ele>
        <time>2025-05-12T07:43:15.751Z</time>
      </trkpt>
      <trkpt lat="50.696560" lon="17.957867">
        <ele>159.924857</ele>
        <time>2025-05-12T07:43:17.089Z</time>
      </trkpt>
      <trkpt lat="50.696674" lon="17.958159">
        <ele>159.979508</ele>
        <time>2025-05-12T07:43:21.876Z</time>
      </trkpt>
      <trkpt lat="50.696854" lon="17.958448">
        <ele>159.931655</ele>
        <time>2025-05-12T07:43:27.594Z</time>
      </trkpt>
      <trkpt lat="50.696935" lon="17.958513">
        <ele>159.885673</ele>
        <time>2025-05-12T07:43:29.655Z</time>
      </trkpt>
      <trkpt lat="50.697043" lon="17.958420">
        <ele>159.823417</ele>
        <time>2025-05-12T07:43:32.499Z</time>
      </trkpt>
      <trkpt lat="50.697125" lon="17.958398">
        <ele>159.781326</ele>
        <time>2025-05-12T07:43:34.402Z</time>
      </trkpt>
      <trkpt lat="50.697299" lon="17.958597">
        <ele>159.672595</ele>
        <time>2025-05-12T07:43:39.440Z</time>
      </trkpt>
      <trkpt lat="50.697353" lon="17.958572">
        <ele>159.644117</ele>
        <time>2025-05-12T07:43:40.266Z</time>
      </trkpt>
      <trkpt lat="50.698119" lon="17.959286">
        <ele>159.193958</ele>
        <time>2025-05-12T07:43:52.077Z</time>
      </trkpt>
      <trkpt lat="50.698196" lon="17.959368">
        <ele>159.146955</ele>
        <time>2025-05-12T07:43:53.168Z</time>
      </trkpt>
      <trkpt lat="50.698520" lon="17.959798">
        <ele>158.353175</ele>
        <time>2025-05-12T07:43:57.985Z</time>
      </trkpt>
      <trkpt lat="50.698589" lon="17.960113">
        <ele>157.868282</ele>
        <time>2025-05-12T07:44:02.010Z</time>
      </trkpt>
      <trkpt lat="50.698573" lon="17.960323">
        <ele>157.560570</ele>
        <time>2025-05-12T07:44:04.525Z</time>
      </trkpt>
      <trkpt lat="50.698801" lon="17.960925">
        <ele>156.540156</ele>
        <time>2025-05-12T07:44:12.802Z</time>
      </trkpt>
      <trkpt lat="50.698813" lon="17.961031">
        <ele>156.383503</ele>
        <time>2025-05-12T07:44:14.070Z</time>
      </trkpt>
      <trkpt lat="50.698847" lon="17.961108">
        <ele>156.246951</ele>
        <time>2025-05-12T07:44:15.178Z</time>
      </trkpt>
      <trkpt lat="50.698884" lon="17.961211">
        <ele>156.074686</ele>
        <time>2025-05-12T07:44:16.572Z</time>
      </trkpt>
      <trkpt lat="50.698842" lon="17.961292">
        <ele>155.922397</ele>
        <time>2025-05-12T07:44:17.802Z</time>
      </trkpt>
      <trkpt lat="50.698423" lon="17.961725">
        <ele>154.917644</ele>
        <time>2025-05-12T07:44:27.324Z</time>
      </trkpt>
      <trkpt lat="50.698226" lon="17.961999">
        <ele>154.768633</ele>
        <time>2025-05-12T07:44:32.708Z</time>
      </trkpt>
      <trkpt lat="50.698158" lon="17.962190">
        <ele>154.689865</ele>
        <time>2025-05-12T07:44:35.688Z</time>
      </trkpt>
      <trkpt lat="50.698296" lon="17.962579">
        <ele>154.529580</ele>
        <time>2025-05-12T07:44:41.847Z</time>
      </trkpt>
      <trkpt lat="50.699325" lon="17.965853">
        <ele>154.336740</ele>
        <time>2025-05-12T07:45:33.360Z</time>
      </trkpt>
      <trkpt lat="50.699481" lon="17.966309">
        <ele>154.436995</ele>
        <time>2025-05-12T07:45:41.122Z</time>
      </trkpt>
      <trkpt lat="50.699572" lon="17.966646">
        <ele>154.569301</ele>
        <time>2025-05-12T07:45:46.953Z</time>
      </trkpt>
      <trkpt lat="50.699578" lon="17.966773">
        <ele>154.701993</ele>
        <time>2025-05-12T07:45:49.051Z</time>
      </trkpt>
      <trkpt lat="50.699550" lon="17.966957">
        <ele>154.899163</ele>
        <time>2025-05-12T07:45:52.236Z</time>
      </trkpt>
      <trkpt lat="50.699343" lon="17.967770">
        <ele>155.812130</ele>
        <time>2025-05-12T07:46:07.322Z</time>
      </trkpt>
      <trkpt lat="50.699425" lon="17.968529">
        <ele>156.614376</ele>
        <time>2025-05-12T07:46:21.283Z</time>
      </trkpt>
      <trkpt lat="50.699838" lon="17.970828">
        <ele>158.603424</ele>
        <time>2025-05-12T07:47:02.982Z</time>
      </trkpt>
      <trkpt lat="50.700530" lon="17.974616">
        <ele>160.083238</ele>
        <time>2025-05-12T07:48:01.324Z</time>
      </trkpt>
      <trkpt lat="50.700475" lon="17.974683">
        <ele>160.106457</ele>
        <time>2025-05-12T07:48:02.359Z</time>
      </trkpt>
      <trkpt lat="50.700907" lon="17.977543">
        <ele>160.172197</ele>
        <time>2025-05-12T07:48:43.604Z</time>
      </trkpt>
      <trkpt lat="50.700952" lon="17.977832">
        <ele>160.215042</ele>
        <time>2025-05-12T07:48:47.864Z</time>
      </trkpt>
      <trkpt lat="50.701142" lon="17.979375">
        <ele>160.441338</ele>
        <time>2025-05-12T07:49:11.246Z</time>
      </trkpt>
      <trkpt lat="50.701468" lon="17.981279">
        <ele>160.311487</ele>
        <time>2025-05-12T07:49:39.415Z</time>
      </trkpt>
      <trkpt lat="50.702091" lon="17.985248">
        <ele>158.856013</ele>
        <time>2025-05-12T07:50:34.037Z</time>
      </trkpt>
      <trkpt lat="50.702448" lon="17.987386">
        <ele>157.863188</ele>
        <time>2025-05-12T07:51:03.776Z</time>
      </trkpt>
      <trkpt lat="50.702498" lon="17.987558">
        <ele>157.777693</ele>
        <time>2025-05-12T07:51:06.290Z</time>
      </trkpt>
      <trkpt lat="50.702650" lon="17.987868">
        <ele>157.600588</ele>
        <time>2025-05-12T07:51:11.474Z</time>
      </trkpt>
      <trkpt lat="50.702998" lon="17.988844">
        <ele>157.119529</ele>
        <time>2025-05-12T07:51:26.216Z</time>
      </trkpt>
      <trkpt lat="50.703403" lon="17.990296">
        <ele>156.475730</ele>
        <time>2025-05-12T07:51:47.337Z</time>
      </trkpt>
      <trkpt lat="50.703677" lon="17.990919">
        <ele>156.187666</ele>
        <time>2025-05-12T07:51:57.794Z</time>
      </trkpt>
      <trkpt lat="50.703916" lon="17.991550">
        <ele>156.196681</ele>
        <time>2025-05-12T07:52:08.116Z</time>
      </trkpt>
      <trkpt lat="50.704475" lon="17.993010">
        <ele>156.217600</ele>
        <time>2025-05-12T07:52:32.626Z</time>
      </trkpt>
      <trkpt lat="50.705056" lon="17.994116">
        <ele>156.147045</ele>
        <time>2025-05-12T07:52:53.023Z</time>
      </trkpt>
      <trkpt lat="50.706159" lon="17.994146">
        <ele>156.026898</ele>
        <time>2025-05-12T07:53:08.912Z</time>
      </trkpt>
      <trkpt lat="50.706217" lon="17.994170">
        <ele>156.017139</ele>
        <time>2025-05-12T07:53:09.766Z</time>
      </trkpt>
      <trkpt lat="50.708563" lon="17.994212">
        <ele>155.939454</ele>
        <time>2025-05-12T07:53:40.370Z</time>
      </trkpt>
      <trkpt lat="50.709064" lon="17.994836">
        <ele>156.174970</ele>
        <time>2025-05-12T07:53:49.777Z</time>
      </trkpt>
      <trkpt lat="50.711335" lon="17.997889">
        <ele>158.286416</ele>
        <time>2025-05-12T07:54:37.003Z</time>
      </trkpt>
      <trkpt lat="50.711564" lon="17.997606">
        <ele>158.478608</ele>
        <time>2025-05-12T07:54:44.211Z</time>
      </trkpt>
      <trkpt lat="50.711620" lon="17.997555">
        <ele>158.521335</ele>
        <time>2025-05-12T07:54:45.292Z</time>
      </trkpt>
      <trkpt lat="50.711787" lon="17.997357">
        <ele>158.659358</ele>
        <time>2025-05-12T07:54:48.735Z</time>
      </trkpt>
      <trkpt lat="50.711934" lon="17.997340">
        <ele>158.756777</ele>
        <time>2025-05-12T07:54:51.132Z</time>
      </trkpt>
      <trkpt lat="50.711906" lon="17.997601">
        <ele>158.867568</ele>
        <time>2025-05-12T07:54:53.777Z</time>
      </trkpt>
      <trkpt lat="50.711804" lon="17.998762">
        <ele>158.964456</ele>
        <time>2025-05-12T07:55:04.602Z</time>
      </trkpt>
      <trkpt lat="50.711714" lon="17.999631">
        <ele>158.840258</ele>
        <time>2025-05-12T07:55:12.144Z</time>
      </trkpt>
      <trkpt lat="50.711775" lon="17.999771">
        <ele>158.816288</ele>
        <time>2025-05-12T07:55:13.557Z</time>
      </trkpt>
      <trkpt lat="50.712503" lon="18.002850">
        <ele>158.049223</ele>
        <time>2025-05-12T07:55:40.569Z</time>
      </trkpt>
      <trkpt lat="50.712715" lon="18.003737">
        <ele>157.911682</ele>
        <time>2025-05-12T07:55:48.760Z</time>
      </trkpt>
      <trkpt lat="50.713233" lon="18.005903">
        <ele>158.220829</ele>
        <time>2025-05-12T07:56:10.132Z</time>
      </trkpt>
      <trkpt lat="50.713257" lon="18.006189">
        <ele>158.284763</ele>
        <time>2025-05-12T07:56:12.984Z</time>
      </trkpt>
      <trkpt lat="50.713251" lon="18.006505">
        <ele>158.440010</ele>
        <time>2025-05-12T07:56:16.152Z</time>
      </trkpt>
      <trkpt lat="50.713258" lon="18.007154">
        <ele>158.758759</ele>
        <time>2025-05-12T07:56:26.156Z</time>
      </trkpt>
      <trkpt lat="50.713268" lon="18.008498">
        <ele>159.418799</ele>
        <time>2025-05-12T07:56:47.232Z</time>
      </trkpt>
      <trkpt lat="50.713271" lon="18.008946">
        <ele>159.638810</ele>
        <time>2025-05-12T07:56:54.344Z</time>
      </trkpt>
      <trkpt lat="50.713287" lon="18.009691">
        <ele>160.329667</ele>
        <time>2025-05-12T07:57:06.323Z</time>
      </trkpt>
      <trkpt lat="50.713300" lon="18.010671">
        <ele>161.245183</ele>
        <time>2025-05-12T07:57:22.500Z</time>
      </trkpt>
      <trkpt lat="50.713323" lon="18.011799">
        <ele>162.299839</ele>
        <time>2025-05-12T07:57:42.350Z</time>
      </trkpt>
      <trkpt lat="50.713331" lon="18.014548">
        <ele>165.866287</ele>
        <time>2025-05-12T07:58:32.752Z</time>
      </trkpt>
      <trkpt lat="50.713332" lon="18.016772">
        <ele>167.158864</ele>
        <time>2025-05-12T07:59:09.516Z</time>
      </trkpt>
      <trkpt lat="50.713377" lon="18.021048">
        <ele>166.090614</ele>
        <time>2025-05-12T08:00:07.262Z</time>
      </trkpt>
      <trkpt lat="50.713394" lon="18.024874">
        <ele>163.623037</ele>
        <time>2025-05-12T08:00:56.242Z</time>
      </trkpt>
      <trkpt lat="50.713409" lon="18.026456">
        <ele>163.147432</ele>
        <time>2025-05-12T08:01:17.977Z</time>
      </trkpt>
      <trkpt lat="50.713414" lon="18.028389">
        <ele>163.790480</ele>
        <time>2025-05-12T08:01:47.758Z</time>
      </trkpt>
      <trkpt lat="50.713447" lon="18.031855">
        <ele>165.964703</ele>
        <time>2025-05-12T08:02:43.552Z</time>
      </trkpt>
      <trkpt lat="50.713464" lon="18.034661">
        <ele>168.171541</ele>
        <time>2025-05-12T08:03:29.803Z</time>
      </trkpt>
      <trkpt lat="50.713480" lon="18.037267">
        <ele>170.058810</ele>
        <time>2025-05-12T08:04:12.486Z</time>
      </trkpt>
      <trkpt lat="50.713532" lon="18.042665">
        <ele>171.999016</ele>
        <time>2025-05-12T08:05:35.124Z</time>
      </trkpt>
      <trkpt lat="50.713566" lon="18.048084">
        <ele>170.888780</ele>
        <time>2025-05-12T08:06:47.891Z</time>
      </trkpt>
      <trkpt lat="50.713569" lon="18.048510">
        <ele>170.849075</ele>
        <time>2025-05-12T08:06:54.166Z</time>
      </trkpt>
      <trkpt lat="50.713609" lon="18.053466">
        <ele>174.926817</ele>
        <time>2025-05-12T08:08:20.499Z</time>
      </trkpt>
      <trkpt lat="50.713642" lon="18.058860">
        <ele>175.011532</ele>
        <time>2025-05-12T08:09:34.342Z</time>
      </trkpt>
      <trkpt lat="50.713663" lon="18.061599">
        <ele>175.550332</ele>
        <time>2025-05-12T08:10:16.075Z</time>
      </trkpt>
      <trkpt lat="50.713684" lon="18.064336">
        <ele>175.837292</ele>
        <time>2025-05-12T08:10:57.017Z</time>
      </trkpt>
      <trkpt lat="50.713846" lon="18.065379">
        <ele>175.723240</ele>
        <time>2025-05-12T08:11:11.397Z</time>
      </trkpt>
      <trkpt lat="50.714430" lon="18.068527">
        <ele>173.922800</ele>
        <time>2025-05-12T08:11:54.190Z</time>
      </trkpt>
      <trkpt lat="50.714735" lon="18.070285">
        <ele>173.442227</ele>
        <time>2025-05-12T08:12:19.372Z</time>
      </trkpt>
      <trkpt lat="50.715170" lon="18.072719">
        <ele>172.632305</ele>
        <time>2025-05-12T08:12:53.704Z</time>
      </trkpt>
      <trkpt lat="50.717804" lon="18.072382">
        <ele>170.916696</ele>
        <time>2025-05-12T08:13:49.699Z</time>
      </trkpt>
      <trkpt lat="50.717916" lon="18.072368">
        <ele>170.768219</ele>
        <time>2025-05-12T08:13:52.111Z</time>
      </trkpt>
      <trkpt lat="50.718721" lon="18.072265">
        <ele>169.700884</ele>
        <time>2025-05-12T08:14:08.948Z</time>
      </trkpt>
      <trkpt lat="50.718888" lon="18.072469">
        <ele>169.421880</ele>
        <time>2025-05-12T08:14:13.182Z</time>
      </trkpt>
      <trkpt lat="50.719445" lon="18.072633">
        <ele>168.673094</ele>
        <time>2025-05-12T08:14:24.270Z</time>
      </trkpt>
      <trkpt lat="50.719660" lon="18.072662">
        <ele>168.364478</ele>
        <time>2025-05-12T08:14:28.384Z</time>
      </trkpt>
      <trkpt lat="50.719710" lon="18.072679">
        <ele>168.289867</ele>
        <time>2025-05-12T08:14:29.371Z</time>
      </trkpt>
      <trkpt lat="50.720633" lon="18.072991">
        <ele>166.912910</ele>
        <time>2025-05-12T08:14:47.719Z</time>
      </trkpt>
      <trkpt lat="50.720749" lon="18.072991">
        <ele>166.743690</ele>
        <time>2025-05-12T08:14:50.100Z</time>
      </trkpt>
      <trkpt lat="50.721184" lon="18.073350">
        <ele>166.027717</ele>
        <time>2025-05-12T08:15:00.592Z</time>
      </trkpt>
      <trkpt lat="50.721397" lon="18.073496">
        <ele>165.991853</ele>
        <time>2025-05-12T08:15:03.840Z</time>
      </trkpt>
      <trkpt lat="50.721522" lon="18.073543">
        <ele>165.993090</ele>
        <time>2025-05-12T08:15:05.712Z</time>
      </trkpt>
      <trkpt lat="50.722480" lon="18.073816">
        <ele>166.002468</ele>
        <time>2025-05-12T08:15:20.133Z</time>
      </trkpt>
      <trkpt lat="50.723146" lon="18.073739">
        <ele>165.961328</ele>
        <time>2025-05-12T08:15:29.313Z</time>
      </trkpt>
      <trkpt lat="50.723258" lon="18.073667">
        <ele>165.930056</ele>
        <time>2025-05-12T08:15:30.937Z</time>
      </trkpt>
      <trkpt lat="50.723603" lon="18.073124">
        <ele>165.804102</ele>
        <time>2025-05-12T08:15:37.365Z</time>
      </trkpt>
      <trkpt lat="50.723811" lon="18.072641">
        <ele>165.708462</ele>
        <time>2025-05-12T08:15:42.166Z</time>
      </trkpt>
      <trkpt lat="50.723880" lon="18.072442">
        <ele>165.671314</ele>
        <time>2025-05-12T08:15:44.053Z</time>
      </trkpt>
      <trkpt lat="50.724017" lon="18.072151">
        <ele>165.611941</ele>
        <time>2025-05-12T08:15:47.104Z</time>
      </trkpt>
      <trkpt lat="50.724120" lon="18.072112">
        <ele>165.584549</ele>
        <time>2025-05-12T08:15:48.541Z</time>
      </trkpt>
      <trkpt lat="50.724645" lon="18.072440">
        <ele>165.656014</ele>
        <time>2025-05-12T08:15:56.675Z</time>
      </trkpt>
      <trkpt lat="50.725036" lon="18.072687">
        <ele>165.775970</ele>
        <time>2025-05-12T08:16:02.943Z</time>
      </trkpt>
      <trkpt lat="50.725353" lon="18.072813">
        <ele>165.869086</ele>
        <time>2025-05-12T08:16:07.759Z</time>
      </trkpt>
      <trkpt lat="50.725470" lon="18.072934">
        <ele>165.908922</ele>
        <time>2025-05-12T08:16:09.877Z</time>
      </trkpt>
      <trkpt lat="50.725640" lon="18.073037">
        <ele>165.960788</ele>
        <time>2025-05-12T08:16:12.717Z</time>
      </trkpt>
      <trkpt lat="50.725874" lon="18.071998">
        <ele>166.022516</ele>
        <time>2025-05-12T08:16:23.276Z</time>
      </trkpt>
      <trkpt lat="50.726542" lon="18.072840">
        <ele>165.948805</ele>
        <time>2025-05-12T08:16:34.439Z</time>
      </trkpt>
      <trkpt lat="50.727201" lon="18.073271">
        <ele>165.840813</ele>
        <time>2025-05-12T08:16:43.460Z</time>
      </trkpt>
      <trkpt lat="50.727453" lon="18.073360">
        <ele>165.732029</ele>
        <time>2025-05-12T08:16:46.630Z</time>
      </trkpt>
      <trkpt lat="50.727731" lon="18.073383">
        <ele>165.614751</ele>
        <time>2025-05-12T08:16:50.005Z</time>
      </trkpt>
      <trkpt lat="50.728689" lon="18.073216">
        <ele>165.208712</ele>
        <time>2025-05-12T08:17:02.160Z</time>
      </trkpt>
      <trkpt lat="50.728906" lon="18.073210">
        <ele>165.167755</ele>
        <time>2025-05-12T08:17:05.028Z</time>
      </trkpt>
      <trkpt lat="50.729295" lon="18.073358">
        <ele>165.350322</ele>
        <time>2025-05-12T08:17:10.552Z</time>
      </trkpt>
      <trkpt lat="50.729642" lon="18.073688">
        <ele>165.535124</ele>
        <time>2025-05-12T08:17:16.571Z</time>
      </trkpt>
      <trkpt lat="50.729833" lon="18.073937">
        <ele>165.648114</ele>
        <time>2025-05-12T08:17:20.423Z</time>
      </trkpt>
      <trkpt lat="50.730030" lon="18.074345">
        <ele>165.796320</ele>
        <time>2025-05-12T08:17:25.537Z</time>
      </trkpt>
      <trkpt lat="50.730215" lon="18.075049">
        <ele>165.991534</ele>
        <time>2025-05-12T08:17:33.125Z</time>
      </trkpt>
      <trkpt lat="50.730441" lon="18.075795">
        <ele>166.120658</ele>
        <time>2025-05-12T08:17:40.840Z</time>
      </trkpt>
      <trkpt lat="50.730484" lon="18.075876">
        <ele>166.137163</ele>
        <time>2025-05-12T08:17:41.772Z</time>
      </trkpt>
      <trkpt lat="50.730547" lon="18.075950">
        <ele>166.156527</ele>
        <time>2025-05-12T08:17:42.858Z</time>
      </trkpt>
      <trkpt lat="50.730674" lon="18.076004">
        <ele>166.188967</ele>
        <time>2025-05-12T08:17:44.668Z</time>
      </trkpt>
      <trkpt lat="50.730697" lon="18.076014">
        <ele>166.194851</ele>
        <time>2025-05-12T08:17:44.989Z</time>
      </trkpt>
      <trkpt lat="50.731119" lon="18.076056">
        <ele>166.299147</ele>
        <time>2025-05-12T08:17:50.708Z</time>
      </trkpt>
      <trkpt lat="50.731609" lon="18.076125">
        <ele>166.412730</ele>
        <time>2025-05-12T08:17:57.325Z</time>
      </trkpt>
      <trkpt lat="50.732130" lon="18.076364">
        <ele>166.475662</ele>
        <time>2025-05-12T08:18:04.563Z</time>
      </trkpt>
      <trkpt lat="50.732543" lon="18.076496">
        <ele>166.524540</ele>
        <time>2025-05-12T08:18:10.243Z</time>
      </trkpt>
      <trkpt lat="50.732752" lon="18.076524">
        <ele>166.548871</ele>
        <time>2025-05-12T08:18:13.124Z</time>
      </trkpt>
      <trkpt lat="50.732987" lon="18.076443">
        <ele>166.576772</ele>
        <time>2025-05-12T08:18:16.461Z</time>
      </trkpt>
      <trkpt lat="50.733779" lon="18.076014">
        <ele>166.865120</ele>
        <time>2025-05-12T08:18:28.249Z</time>
      </trkpt>
      <trkpt lat="50.735184" lon="18.075457">
        <ele>167.518584</ele>
        <time>2025-05-12T08:18:50.259Z</time>
      </trkpt>
      <trkpt lat="50.735588" lon="18.075442">
        <ele>167.578126</ele>
        <time>2025-05-12T08:18:56.338Z</time>
      </trkpt>
      <trkpt lat="50.736008" lon="18.075551">
        <ele>167.640839</ele>
        <time>2025-05-12T08:19:02.147Z</time>
      </trkpt>
      <trkpt lat="50.736153" lon="18.075516">
        <ele>167.662452</ele>
        <time>2025-05-12T08:19:04.026Z</time>
      </trkpt>
      <trkpt lat="50.736223" lon="18.075447">
        <ele>167.674608</ele>
        <time>2025-05-12T08:19:05.065Z</time>
      </trkpt>
      <trkpt lat="50.736360" lon="18.075229">
        <ele>167.703257</ele>
        <time>2025-05-12T08:19:07.450Z</time>
      </trkpt>
      <trkpt lat="50.736587" lon="18.075000">
        <ele>167.742939</ele>
        <time>2025-05-12T08:19:10.978Z</time>
      </trkpt>
      <trkpt lat="50.737051" lon="18.074690">
        <ele>167.702938</ele>
        <time>2025-05-12T08:19:18.158Z</time>
      </trkpt>
      <trkpt lat="50.737201" lon="18.074724">
        <ele>167.680867</ele>
        <time>2025-05-12T08:19:20.322Z</time>
      </trkpt>
      <trkpt lat="50.737316" lon="18.074794">
        <ele>167.662917</ele>
        <time>2025-05-12T08:19:21.967Z</time>
      </trkpt>
      <trkpt lat="50.737260" lon="18.075065">
        <ele>167.636639</ele>
        <time>2025-05-12T08:19:24.364Z</time>
      </trkpt>
      <trkpt lat="50.737199" lon="18.075498">
        <ele>167.595749</ele>
        <time>2025-05-12T08:19:27.978Z</time>
      </trkpt>
      <trkpt lat="50.737202" lon="18.075716">
        <ele>167.575649</ele>
        <time>2025-05-12T08:19:29.777Z</time>
      </trkpt>
      <trkpt lat="50.737326" lon="18.076120">
        <ele>167.534261</ele>
        <time>2025-05-12T08:19:33.507Z</time>
      </trkpt>
      <trkpt lat="50.737479" lon="18.076317">
        <ele>167.505515</ele>
        <time>2025-05-12T08:19:36.135Z</time>
      </trkpt>
      <trkpt lat="50.737680" lon="18.076447">
        <ele>167.347328</ele>
        <time>2025-05-12T08:19:39.007Z</time>
      </trkpt>
      <trkpt lat="50.738909" lon="18.076677">
        <ele>166.211372</ele>
        <time>2025-05-12T08:19:53.195Z</time>
      </trkpt>
      <trkpt lat="50.739474" lon="18.076785">
        <ele>166.042005</ele>
        <time>2025-05-12T08:20:00.209Z</time>
      </trkpt>
      <trkpt lat="50.739931" lon="18.076879">
        <ele>166.565154</ele>
        <time>2025-05-12T08:20:06.972Z</time>
      </trkpt>
      <trkpt lat="50.740052" lon="18.076908">
        <ele>166.704080</ele>
        <time>2025-05-12T08:20:08.926Z</time>
      </trkpt>
      <trkpt lat="50.740101" lon="18.076939">
        <ele>166.763996</ele>
        <time>2025-05-12T08:20:09.764Z</time>
      </trkpt>
      <trkpt lat="50.740373" lon="18.077085">
        <ele>167.090089</ele>
        <time>2025-05-12T08:20:14.749Z</time>
      </trkpt>
      <trkpt lat="50.740448" lon="18.077126">
        <ele>167.180177</ele>
        <time>2025-05-12T08:20:16.233Z</time>
      </trkpt>
      <trkpt lat="50.740834" lon="18.077355">
        <ele>167.648216</ele>
        <time>2025-05-12T08:20:24.465Z</time>
      </trkpt>
      <trkpt lat="50.740932" lon="18.077420">
        <ele>167.768864</ele>
        <time>2025-05-12T08:20:26.819Z</time>
      </trkpt>
      <trkpt lat="50.741388" lon="18.077679">
        <ele>168.587273</ele>
        <time>2025-05-12T08:20:38.114Z</time>
      </trkpt>
      <trkpt lat="50.741710" lon="18.077778">
        <ele>169.191855</ele>
        <time>2025-05-12T08:20:45.121Z</time>
      </trkpt>
      <trkpt lat="50.741831" lon="18.077784">
        <ele>169.414971</ele>
        <time>2025-05-12T08:20:47.560Z</time>
      </trkpt>
      <trkpt lat="50.742222" lon="18.077687">
        <ele>170.144420</ele>
        <time>2025-05-12T08:20:55.314Z</time>
      </trkpt>
      <trkpt lat="50.742648" lon="18.077452">
        <ele>170.976013</ele>
        <time>2025-05-12T08:21:03.555Z</time>
      </trkpt>
      <trkpt lat="50.744333" lon="18.076121">
        <ele>171.692515</ele>
        <time>2025-05-12T08:21:30.579Z</time>
      </trkpt>
      <trkpt lat="50.744507" lon="18.076035">
        <ele>171.733516</ele>
        <time>2025-05-12T08:21:33.173Z</time>
      </trkpt>
      <trkpt lat="50.744935" lon="18.075945">
        <ele>171.824544</ele>
        <time>2025-05-12T08:21:39.309Z</time>
      </trkpt>
      <trkpt lat="50.746395" lon="18.075933">
        <ele>172.160347</ele>
        <time>2025-05-12T08:22:00.469Z</time>
      </trkpt>
      <trkpt lat="50.748131" lon="18.075819">
        <ele>172.497927</ele>
        <time>2025-05-12T08:22:27.032Z</time>
      </trkpt>
      <trkpt lat="50.748319" lon="18.075769">
        <ele>172.307326</ele>
        <time>2025-05-12T08:22:29.616Z</time>
      </trkpt>
      <trkpt lat="50.748710" lon="18.075594">
        <ele>171.901039</ele>
        <time>2025-05-12T08:22:34.881Z</time>
      </trkpt>
      <trkpt lat="50.749330" lon="18.075169">
        <ele>171.225383</ele>
        <time>2025-05-12T08:22:43.043Z</time>
      </trkpt>
      <trkpt lat="50.750004" lon="18.074638">
        <ele>170.388054</ele>
        <time>2025-05-12T08:22:51.718Z</time>
      </trkpt>
      <trkpt lat="50.750466" lon="18.074299">
        <ele>169.772202</ele>
        <time>2025-05-12T08:22:57.624Z</time>
      </trkpt>
      <trkpt lat="50.750858" lon="18.074069">
        <ele>169.266643</ele>
        <time>2025-05-12T08:23:02.707Z</time>
      </trkpt>
      <trkpt lat="50.751172" lon="18.073931">
        <ele>168.872592</ele>
        <time>2025-05-12T08:23:06.870Z</time>
      </trkpt>
      <trkpt lat="50.752462" lon="18.073537">
        <ele>169.538767</ele>
        <time>2025-05-12T08:23:27.353Z</time>
      </trkpt>
      <trkpt lat="50.752702" lon="18.073423">
        <ele>169.717926</ele>
        <time>2025-05-12T08:23:31.929Z</time>
      </trkpt>
      <trkpt lat="50.753285" lon="18.073065">
        <ele>170.092018</ele>
        <time>2025-05-12T08:23:43.507Z</time>
      </trkpt>
      <trkpt lat="50.754233" lon="18.072511">
        <ele>170.518451</ele>
        <time>2025-05-12T08:24:03.687Z</time>
      </trkpt>
      <trkpt lat="50.755819" lon="18.071784">
        <ele>170.274483</ele>
        <time>2025-05-12T08:24:23.570Z</time>
      </trkpt>
      <trkpt lat="50.756717" lon="18.071373">
        <ele>170.431437</ele>
        <time>2025-05-12T08:24:36.009Z</time>
      </trkpt>
      <trkpt lat="50.757179" lon="18.071323">
        <ele>171.263621</ele>
        <time>2025-05-12T08:24:44.782Z</time>
      </trkpt>
      <trkpt lat="50.758280" lon="18.072361">
        <ele>173.309604</ele>
        <time>2025-05-12T08:25:23.312Z</time>
      </trkpt>
      <trkpt lat="50.758185" lon="18.072386">
        <ele>173.355610</ele>
        <time>2025-05-12T08:25:25.455Z</time>
      </trkpt>
      <trkpt lat="50.758002" lon="18.072778">
        <ele>173.502835</ele>
        <time>2025-05-12T08:25:31.948Z</time>
      </trkpt>
      <trkpt lat="50.758002" lon="18.072778">
        <ele>173.502835</ele>
        <time>2025-05-12T08:25:31.950Z</time>
      </trkpt>
      <trkpt lat="50.757378" lon="18.073111">
        <ele>173.817450</ele>
        <time>2025-05-12T08:25:43.765Z</time>
      </trkpt>
      <trkpt lat="50.757021" lon="18.073561">
        <ele>174.035572</ele>
        <time>2025-05-12T08:25:51.264Z</time>
      </trkpt>
      <trkpt lat="50.756495" lon="18.074065">
        <ele>173.609561</ele>
        <time>2025-05-12T08:26:01.329Z</time>
      </trkpt>
      <trkpt lat="50.756170" lon="18.074049">
        <ele>173.324512</ele>
        <time>2025-05-12T08:26:06.592Z</time>
      </trkpt>
      <trkpt lat="50.755092" lon="18.073747">
        <ele>172.502106</ele>
        <time>2025-05-12T08:26:24.140Z</time>
      </trkpt>
      <trkpt lat="50.755766" lon="18.074543">
        <ele>172.520738</ele>
        <time>2025-05-12T08:26:41.840Z</time>
      </trkpt>
      <trkpt lat="50.755897" lon="18.075414">
        <ele>172.533280</ele>
        <time>2025-05-12T08:26:55.731Z</time>
      </trkpt>
      <trkpt lat="50.755913" lon="18.075999">
        <ele>172.613612</ele>
        <time>2025-05-12T08:27:05.453Z</time>
      </trkpt>
      <trkpt lat="50.756003" lon="18.076466">
        <ele>172.788794</ele>
        <time>2025-05-12T08:27:13.714Z</time>
      </trkpt>
      <trkpt lat="50.756083" lon="18.076717">
        <ele>172.889648</ele>
        <time>2025-05-12T08:27:18.482Z</time>
      </trkpt>
      <trkpt lat="50.756375" lon="18.077436">
        <ele>173.196242</ele>
        <time>2025-05-12T08:27:32.399Z</time>
      </trkpt>
      <trkpt lat="50.756543" lon="18.077775">
        <ele>173.350769</ele>
        <time>2025-05-12T08:27:38.725Z</time>
      </trkpt>
      <trkpt lat="50.756748" lon="18.077926">
        <ele>173.479054</ele>
        <time>2025-05-12T08:27:43.595Z</time>
      </trkpt>
      <trkpt lat="50.756875" lon="18.078066">
        <ele>173.544676</ele>
        <time>2025-05-12T08:27:46.780Z</time>
      </trkpt>
      <trkpt lat="50.757012" lon="18.078368">
        <ele>173.312061</ele>
        <time>2025-05-12T08:27:51.518Z</time>
      </trkpt>
      <trkpt lat="50.757165" lon="18.078531">
        <ele>173.129501</ele>
        <time>2025-05-12T08:27:55.211Z</time>
      </trkpt>
      <trkpt lat="50.757371" lon="18.078573">
        <ele>172.923983</ele>
        <time>2025-05-12T08:27:59.310Z</time>
      </trkpt>
      <trkpt lat="50.757583" lon="18.078502">
        <ele>172.709560</ele>
        <time>2025-05-12T08:28:03.667Z</time>
      </trkpt>
      <trkpt lat="50.757803" lon="18.078367">
        <ele>172.476053</ele>
        <time>2025-05-12T08:28:08.392Z</time>
      </trkpt>
      <trkpt lat="50.757861" lon="18.078331">
        <ele>172.414398</ele>
        <time>2025-05-12T08:28:09.675Z</time>
      </trkpt>
      <trkpt lat="50.757948" lon="18.078326">
        <ele>172.328258</ele>
        <time>2025-05-12T08:28:11.479Z</time>
      </trkpt>
      <trkpt lat="50.757948" lon="18.078326">
        <ele>172.328258</ele>
        <time>2025-05-12T08:28:11.490Z</time>
      </trkpt>
      <trkpt lat="50.758832" lon="18.078175">
        <ele>171.900081</ele>
        <time>2025-05-12T08:28:34.496Z</time>
      </trkpt>
      <trkpt lat="50.759717" lon="18.078024">
        <ele>172.222380</ele>
        <time>2025-05-12T08:28:57.502Z</time>
      </trkpt>
      <trkpt lat="50.759909" lon="18.078813">
        <ele>172.416003</ele>
        <time>2025-05-12T08:29:11.331Z</time>
      </trkpt>
      <trkpt lat="50.759909" lon="18.078813">
        <ele>172.416003</ele>
        <time>2025-05-12T08:29:11.338Z</time>
      </trkpt>
      <trkpt lat="50.758454" lon="18.079450">
        <ele>173.536581</ele>
        <time>2025-05-12T08:29:48.360Z</time>
      </trkpt>
      <trkpt lat="50.756381" lon="18.080391">
        <ele>175.104177</ele>
        <time>2025-05-12T08:30:41.683Z</time>
      </trkpt>
      <trkpt lat="50.756242" lon="18.080716">
        <ele>175.140886</ele>
        <time>2025-05-12T08:30:47.280Z</time>
      </trkpt>
      <trkpt lat="50.756046" lon="18.080539">
        <ele>175.174275</ele>
        <time>2025-05-12T08:30:52.342Z</time>
      </trkpt>
      <trkpt lat="50.755433" lon="18.079919">
        <ele>175.281919</ele>
        <time>2025-05-12T08:31:08.524Z</time>
      </trkpt>
      <trkpt lat="50.755440" lon="18.080114">
        <ele>175.300196</ele>
        <time>2025-05-12T08:31:11.254Z</time>
      </trkpt>
      <trkpt lat="50.755455" lon="18.080491">
        <ele>175.335543</ele>
        <time>2025-05-12T08:31:16.506Z</time>
      </trkpt>
      <trkpt lat="50.755438" lon="18.080780">
        <ele>175.362703</ele>
        <time>2025-05-12T08:31:20.572Z</time>
      </trkpt>
      <trkpt lat="50.753040" lon="18.081923">
        <ele>176.201450</ele>
        <time>2025-05-12T08:32:18.566Z</time>
      </trkpt>
      <trkpt lat="50.753087" lon="18.083296">
        <ele>176.690063</ele>
        <time>2025-05-12T08:32:40.103Z</time>
      </trkpt>
      <trkpt lat="50.752858" lon="18.084887">
        <ele>176.659739</ele>
        <time>2025-05-12T08:33:04.255Z</time>
      </trkpt>
      <trkpt lat="50.752749" lon="18.085490">
        <ele>176.575536</ele>
        <time>2025-05-12T08:33:12.703Z</time>
      </trkpt>
      <trkpt lat="50.752503" lon="18.086723">
        <ele>176.369163</ele>
        <time>2025-05-12T08:33:23.054Z</time>
      </trkpt>
      <trkpt lat="50.751802" lon="18.088976">
        <ele>175.777358</ele>
        <time>2025-05-12T08:33:44.256Z</time>
      </trkpt>
      <trkpt lat="50.751429" lon="18.089718">
        <ele>175.881397</ele>
        <time>2025-05-12T08:33:52.562Z</time>
      </trkpt>
      <trkpt lat="50.750777" lon="18.090852">
        <ele>176.054707</ele>
        <time>2025-05-12T08:34:06.585Z</time>
      </trkpt>
      <trkpt lat="50.750182" lon="18.091820">
        <ele>176.686991</ele>
        <time>2025-05-12T08:34:20.124Z</time>
      </trkpt>
      <trkpt lat="50.749982" lon="18.092077">
        <ele>176.932929</ele>
        <time>2025-05-12T08:34:24.429Z</time>
      </trkpt>
      <trkpt lat="50.749944" lon="18.092137">
        <ele>176.984179</ele>
        <time>2025-05-12T08:34:25.325Z</time>
      </trkpt>
      <trkpt lat="50.748967" lon="18.095089">
        <ele>179.395853</ele>
        <time>2025-05-12T08:35:02.630Z</time>
      </trkpt>
      <trkpt lat="50.748222" lon="18.096463">
        <ele>180.071785</ele>
        <time>2025-05-12T08:35:23.047Z</time>
      </trkpt>
      <trkpt lat="50.748096" lon="18.096278">
        <ele>180.060468</ele>
        <time>2025-05-12T08:35:25.650Z</time>
      </trkpt>
      <trkpt lat="50.748018" lon="18.096163">
        <ele>180.053448</ele>
        <time>2025-05-12T08:35:27.178Z</time>
      </trkpt>
      <trkpt lat="50.747277" lon="18.095449">
        <ele>179.996341</ele>
        <time>2025-05-12T08:35:38.178Z</time>
      </trkpt>
      <trkpt lat="50.745855" lon="18.094214">
        <ele>177.440330</ele>
        <time>2025-05-12T08:35:57.198Z</time>
      </trkpt>
      <trkpt lat="50.744400" lon="18.092990">
        <ele>175.097178</ele>
        <time>2025-05-12T08:36:16.761Z</time>
      </trkpt>
      <trkpt lat="50.743830" lon="18.092013">
        <ele>174.593137</ele>
        <time>2025-05-12T08:36:27.355Z</time>
      </trkpt>
      <trkpt lat="50.742770" lon="18.093414">
        <ele>174.710660</ele>
        <time>2025-05-12T08:37:00.053Z</time>
      </trkpt>
      <trkpt lat="50.742105" lon="18.094010">
        <ele>174.648851</ele>
        <time>2025-05-12T08:37:18.737Z</time>
      </trkpt>
      <trkpt lat="50.742190" lon="18.094707">
        <ele>174.612535</ele>
        <time>2025-05-12T08:37:24.637Z</time>
      </trkpt>
      <trkpt lat="50.742120" lon="18.094706">
        <ele>174.606875</ele>
        <time>2025-05-12T08:37:26.109Z</time>
      </trkpt>
      <trkpt lat="50.741928" lon="18.094703">
        <ele>174.591352</ele>
        <time>2025-05-12T08:37:30.143Z</time>
      </trkpt>
      <trkpt lat="50.741739" lon="18.094491">
        <ele>174.572613</ele>
        <time>2025-05-12T08:37:34.933Z</time>
      </trkpt>
      <trkpt lat="50.741536" lon="18.094377">
        <ele>174.347847</ele>
        <time>2025-05-12T08:37:39.367Z</time>
      </trkpt>
      <trkpt lat="50.741238" lon="18.094368">
        <ele>173.926078</ele>
        <time>2025-05-12T08:37:45.394Z</time>
      </trkpt>
      <trkpt lat="50.741014" lon="18.094316">
        <ele>173.605699</ele>
        <time>2025-05-12T08:37:49.915Z</time>
      </trkpt>
      <trkpt lat="50.739783" lon="18.093106">
        <ele>171.772721</ele>
        <time>2025-05-12T08:38:07.126Z</time>
      </trkpt>
      <trkpt lat="50.737211" lon="18.090683">
        <ele>170.612862</ele>
        <time>2025-05-12T08:38:46.329Z</time>
      </trkpt>
      <trkpt lat="50.737107" lon="18.090585">
        <ele>170.608743</ele>
        <time>2025-05-12T08:38:48.551Z</time>
      </trkpt>
      <trkpt lat="50.736687" lon="18.090188">
        <ele>170.968926</ele>
        <time>2025-05-12T08:38:57.871Z</time>
      </trkpt>
      <trkpt lat="50.736422" lon="18.089946">
        <ele>171.299158</ele>
        <time>2025-05-12T08:39:03.749Z</time>
      </trkpt>
      <trkpt lat="50.736256" lon="18.090430">
        <ele>171.675062</ele>
        <time>2025-05-12T08:39:46.771Z</time>
      </trkpt>
      <trkpt lat="50.735853" lon="18.090047">
        <ele>172.182460</ele>
        <time>2025-05-12T08:39:59.287Z</time>
      </trkpt>
      <trkpt lat="50.733207" lon="18.087539">
        <ele>171.957005</ele>
        <time>2025-05-12T08:41:06.303Z</time>
      </trkpt>
      <trkpt lat="50.732464" lon="18.086818">
        <ele>171.760564</ele>
        <time>2025-05-12T08:41:25.458Z</time>
      </trkpt>
      <trkpt lat="50.729526" lon="18.083967">
        <ele>171.842708</ele>
        <time>2025-05-12T08:42:42.403Z</time>
      </trkpt>
      <trkpt lat="50.728114" lon="18.082749">
        <ele>171.855290</ele>
        <time>2025-05-12T08:43:19.078Z</time>
      </trkpt>
      <trkpt lat="50.726832" lon="18.081676">
        <ele>171.446863</ele>
        <time>2025-05-12T08:43:50.027Z</time>
      </trkpt>
      <trkpt lat="50.726542" lon="18.081433">
        <ele>171.328546</ele>
        <time>2025-05-12T08:43:57.059Z</time>
      </trkpt>
      <trkpt lat="50.724735" lon="18.080727">
        <ele>171.141668</ele>
        <time>2025-05-12T08:44:38.262Z</time>
      </trkpt>
      <trkpt lat="50.723147" lon="18.080626">
        <ele>171.239749</ele>
        <time>2025-05-12T08:45:14.014Z</time>
      </trkpt>
      <trkpt lat="50.722513" lon="18.080677">
        <ele>171.290114</ele>
        <time>2025-05-12T08:45:28.400Z</time>
      </trkpt>
      <trkpt lat="50.721886" lon="18.080822">
        <ele>171.332468</ele>
        <time>2025-05-12T08:45:42.698Z</time>
      </trkpt>
      <trkpt lat="50.721283" lon="18.081016">
        <ele>171.373599</ele>
        <time>2025-05-12T08:45:56.463Z</time>
      </trkpt>
      <trkpt lat="50.720740" lon="18.081245">
        <ele>171.403088</ele>
        <time>2025-05-12T08:46:08.974Z</time>
      </trkpt>
      <trkpt lat="50.720226" lon="18.081523">
        <ele>171.413117</ele>
        <time>2025-05-12T08:46:21.096Z</time>
      </trkpt>
      <trkpt lat="50.719697" lon="18.081871">
        <ele>171.423695</ele>
        <time>2025-05-12T08:46:33.860Z</time>
      </trkpt>
      <trkpt lat="50.719192" lon="18.082266">
        <ele>171.436861</ele>
        <time>2025-05-12T08:46:46.469Z</time>
      </trkpt>
      <trkpt lat="50.718751" lon="18.082664">
        <ele>171.475374</ele>
        <time>2025-05-12T08:46:57.865Z</time>
      </trkpt>
      <trkpt lat="50.717975" lon="18.083486">
        <ele>171.546221</ele>
        <time>2025-05-12T08:47:18.855Z</time>
      </trkpt>
      <trkpt lat="50.717452" lon="18.084152">
        <ele>171.652561</ele>
        <time>2025-05-12T08:47:34.012Z</time>
      </trkpt>
      <trkpt lat="50.715088" lon="18.087123">
        <ele>173.002699</ele>
        <time>2025-05-12T08:48:43.476Z</time>
      </trkpt>
      <trkpt lat="50.712524" lon="18.090363">
        <ele>179.519454</ele>
        <time>2025-05-12T08:50:18.878Z</time>
      </trkpt>
      <trkpt lat="50.711759" lon="18.091330">
        <ele>180.741832</ele>
        <time>2025-05-12T08:50:45.654Z</time>
      </trkpt>
      <trkpt lat="50.710670" lon="18.092724">
        <ele>181.157226</ele>
        <time>2025-05-12T08:51:16.508Z</time>
      </trkpt>
      <trkpt lat="50.710664" lon="18.092846">
        <ele>181.106347</ele>
        <time>2025-05-12T08:51:18.129Z</time>
      </trkpt>
      <trkpt lat="50.710770" lon="18.093181">
        <ele>180.950635</ele>
        <time>2025-05-12T08:51:23.124Z</time>
      </trkpt>
      <trkpt lat="50.710829" lon="18.093267">
        <ele>180.897915</ele>
        <time>2025-05-12T08:51:24.811Z</time>
      </trkpt>
      <trkpt lat="50.711011" lon="18.093384">
        <ele>180.768889</ele>
        <time>2025-05-12T08:51:28.969Z</time>
      </trkpt>
      <trkpt lat="50.711297" lon="18.093734">
        <ele>180.531311</ele>
        <time>2025-05-12T08:51:36.566Z</time>
      </trkpt>
      <trkpt lat="50.711494" lon="18.094047">
        <ele>180.347820</ele>
        <time>2025-05-12T08:51:42.400Z</time>
      </trkpt>
      <trkpt lat="50.711631" lon="18.094333">
        <ele>180.198714</ele>
        <time>2025-05-12T08:51:47.190Z</time>
      </trkpt>
      <trkpt lat="50.711720" lon="18.094669">
        <ele>180.047280</ele>
        <time>2025-05-12T08:51:52.106Z</time>
      </trkpt>
      <trkpt lat="50.711977" lon="18.096479">
        <ele>178.942414</ele>
        <time>2025-05-12T08:52:16.650Z</time>
      </trkpt>
      <trkpt lat="50.712249" lon="18.098543">
        <ele>177.900141</ele>
        <time>2025-05-12T08:52:44.028Z</time>
      </trkpt>
      <trkpt lat="50.712507" lon="18.100445">
        <ele>177.261209</ele>
        <time>2025-05-12T08:53:10.476Z</time>
      </trkpt>
      <trkpt lat="50.712693" lon="18.102110">
        <ele>177.824638</ele>
        <time>2025-05-12T08:53:36.205Z</time>
      </trkpt>
      <trkpt lat="50.712720" lon="18.103227">
        <ele>178.203818</ele>
        <time>2025-05-12T08:53:53.892Z</time>
      </trkpt>
      <trkpt lat="50.712236" lon="18.106401">
        <ele>179.376141</ele>
        <time>2025-05-12T08:54:43.702Z</time>
      </trkpt>
      <trkpt lat="50.711719" lon="18.109814">
        <ele>179.884603</ele>
        <time>2025-05-12T08:55:34.528Z</time>
      </trkpt>
      <trkpt lat="50.711557" lon="18.111147">
        <ele>179.952181</ele>
        <time>2025-05-12T08:55:53.011Z</time>
      </trkpt>
      <trkpt lat="50.711411" lon="18.113173">
        <ele>181.457498</ele>
        <time>2025-05-12T08:56:25.131Z</time>
      </trkpt>
      <trkpt lat="50.711377" lon="18.113320">
        <ele>181.589876</ele>
        <time>2025-05-12T08:56:28.029Z</time>
      </trkpt>
      <trkpt lat="50.711297" lon="18.113463">
        <ele>181.751280</ele>
        <time>2025-05-12T08:56:31.539Z</time>
      </trkpt>
      <trkpt lat="50.711198" lon="18.113525">
        <ele>181.893544</ele>
        <time>2025-05-12T08:56:34.682Z</time>
      </trkpt>
      <trkpt lat="50.710849" lon="18.113510">
        <ele>182.359914</ele>
        <time>2025-05-12T08:56:45.100Z</time>
      </trkpt>
      <trkpt lat="50.710820" lon="18.113519">
        <ele>182.399649</ele>
        <time>2025-05-12T08:56:45.968Z</time>
      </trkpt>
      <trkpt lat="50.710656" lon="18.113567">
        <ele>182.624302</ele>
        <time>2025-05-12T08:56:50.862Z</time>
      </trkpt>
      <trkpt lat="50.710048" lon="18.113891">
        <ele>183.488584</ele>
        <time>2025-05-12T08:57:08.826Z</time>
      </trkpt>
      <trkpt lat="50.709888" lon="18.114028">
        <ele>183.733727</ele>
        <time>2025-05-12T08:57:13.576Z</time>
      </trkpt>
      <trkpt lat="50.709795" lon="18.114185">
        <ele>183.917090</ele>
        <time>2025-05-12T08:57:17.031Z</time>
      </trkpt>
      <trkpt lat="50.709720" lon="18.114708">
        <ele>184.374462</ele>
        <time>2025-05-12T08:57:25.347Z</time>
      </trkpt>
      <trkpt lat="50.709723" lon="18.114851">
        <ele>184.496497</ele>
        <time>2025-05-12T08:57:27.491Z</time>
      </trkpt>
      <trkpt lat="50.709765" lon="18.115022">
        <ele>184.652933</ele>
        <time>2025-05-12T08:57:30.221Z</time>
      </trkpt>
      <trkpt lat="50.710165" lon="18.115787">
        <ele>184.993524</ele>
        <time>2025-05-12T08:57:44.604Z</time>
      </trkpt>
      <trkpt lat="50.710238" lon="18.116267">
        <ele>185.113889</ele>
        <time>2025-05-12T08:57:51.906Z</time>
      </trkpt>
      <trkpt lat="50.710241" lon="18.116495">
        <ele>185.169494</ele>
        <time>2025-05-12T08:57:55.301Z</time>
      </trkpt>
      <trkpt lat="50.710123" lon="18.117193">
        <ele>185.345646</ele>
        <time>2025-05-12T08:58:06.140Z</time>
      </trkpt>
      <trkpt lat="50.709985" lon="18.117722">
        <ele>185.483079</ele>
        <time>2025-05-12T08:58:14.831Z</time>
      </trkpt>
      <trkpt lat="50.709244" lon="18.118939">
        <ele>185.308788</ele>
        <time>2025-05-12T08:58:38.633Z</time>
      </trkpt>
      <trkpt lat="50.708579" lon="18.120412">
        <ele>185.209744</ele>
        <time>2025-05-12T08:59:02.964Z</time>
      </trkpt>
      <trkpt lat="50.709003" lon="18.121279">
        <ele>185.241588</ele>
        <time>2025-05-12T08:59:18.382Z</time>
      </trkpt>
      <trkpt lat="50.709341" lon="18.121896">
        <ele>185.265304</ele>
        <time>2025-05-12T08:59:30.624Z</time>
      </trkpt>
      <trkpt lat="50.709384" lon="18.122048">
        <ele>185.270143</ele>
        <time>2025-05-12T08:59:33.176Z</time>
      </trkpt>
      <trkpt lat="50.709154" lon="18.122870">
        <ele>185.391200</ele>
        <time>2025-05-12T08:59:46.962Z</time>
      </trkpt>
      <trkpt lat="50.709136" lon="18.123141">
        <ele>185.431494</ele>
        <time>2025-05-12T08:59:51.116Z</time>
      </trkpt>
      <trkpt lat="50.709241" lon="18.124757">
        <ele>185.671715</ele>
        <time>2025-05-12T09:00:14.414Z</time>
      </trkpt>
      <trkpt lat="50.709202" lon="18.125014">
        <ele>185.643547</ele>
        <time>2025-05-12T09:00:18.052Z</time>
      </trkpt>
      <trkpt lat="50.708739" lon="18.125747">
        <ele>185.216448</ele>
        <time>2025-05-12T09:00:32.149Z</time>
      </trkpt>
      <trkpt lat="50.708459" lon="18.126966">
        <ele>184.681503</ele>
        <time>2025-05-12T09:00:49.326Z</time>
      </trkpt>
      <trkpt lat="50.708287" lon="18.127476">
        <ele>184.415232</ele>
        <time>2025-05-12T09:00:56.896Z</time>
      </trkpt>
      <trkpt lat="50.707438" lon="18.129283">
        <ele>183.155825</ele>
        <time>2025-05-12T09:01:26.286Z</time>
      </trkpt>
      <trkpt lat="50.707242" lon="18.129815">
        <ele>182.953122</ele>
        <time>2025-05-12T09:01:34.577Z</time>
      </trkpt>
      <trkpt lat="50.707170" lon="18.130115">
        <ele>182.985318</ele>
        <time>2025-05-12T09:01:38.979Z</time>
      </trkpt>
      <trkpt lat="50.707125" lon="18.130305">
        <ele>183.005675</ele>
        <time>2025-05-12T09:01:41.788Z</time>
      </trkpt>
      <trkpt lat="50.707010" lon="18.130637">
        <ele>183.043651</ele>
        <time>2025-05-12T09:01:47.106Z</time>
      </trkpt>
      <trkpt lat="50.706412" lon="18.131911">
        <ele>183.202793</ele>
        <time>2025-05-12T09:02:11.021Z</time>
      </trkpt>
      <trkpt lat="50.706286" lon="18.132273">
        <ele>183.421526</ele>
        <time>2025-05-12T09:02:17.409Z</time>
      </trkpt>
      <trkpt lat="50.705907" lon="18.132588">
        <ele>183.924406</ele>
        <time>2025-05-12T09:02:24.238Z</time>
      </trkpt>
      <trkpt lat="50.705726" lon="18.132575">
        <ele>184.137145</ele>
        <time>2025-05-12T09:02:27.149Z</time>
      </trkpt>
      <trkpt lat="50.704716" lon="18.132323">
        <ele>185.343445</ele>
        <time>2025-05-12T09:02:45.317Z</time>
      </trkpt>
      <trkpt lat="50.703654" lon="18.132239">
        <ele>187.358094</ele>
        <time>2025-05-12T09:03:07.661Z</time>
      </trkpt>
      <trkpt lat="50.703592" lon="18.132263">
        <ele>187.479041</ele>
        <time>2025-05-12T09:03:09.033Z</time>
      </trkpt>
      <trkpt lat="50.703482" lon="18.132307">
        <ele>187.694037</ele>
        <time>2025-05-12T09:03:11.409Z</time>
      </trkpt>
      <trkpt lat="50.702911" lon="18.132783">
        <ele>188.824312</ele>
        <time>2025-05-12T09:03:23.663Z</time>
      </trkpt>
      <trkpt lat="50.702562" lon="18.133074">
        <ele>189.187777</ele>
        <time>2025-05-12T09:03:30.075Z</time>
      </trkpt>
      <trkpt lat="50.701566" lon="18.133903">
        <ele>190.224660</ele>
        <time>2025-05-12T09:03:47.160Z</time>
      </trkpt>
      <trkpt lat="50.701468" lon="18.133372">
        <ele>190.778646</ele>
        <time>2025-05-12T09:03:56.023Z</time>
      </trkpt>
      <trkpt lat="50.701092" lon="18.131337">
        <ele>193.865789</ele>
        <time>2025-05-12T09:04:35.506Z</time>
      </trkpt>
      <trkpt lat="50.700973" lon="18.129357">
        <ele>196.667489</ele>
        <time>2025-05-12T09:05:15.980Z</time>
      </trkpt>
      <trkpt lat="50.700893" lon="18.128140">
        <ele>198.373761</ele>
        <time>2025-05-12T09:05:36.700Z</time>
      </trkpt>
      <trkpt lat="50.700874" lon="18.127410">
        <ele>198.887672</ele>
        <time>2025-05-12T09:05:47.070Z</time>
      </trkpt>
      <trkpt lat="50.700727" lon="18.126416">
        <ele>199.516040</ele>
        <time>2025-05-12T09:06:01.540Z</time>
      </trkpt>
      <trkpt lat="50.700101" lon="18.123451">
        <ele>202.766291</ele>
        <time>2025-05-12T09:06:56.835Z</time>
      </trkpt>
      <trkpt lat="50.700096" lon="18.123064">
        <ele>203.267224</ele>
        <time>2025-05-12T09:07:04.398Z</time>
      </trkpt>
      <trkpt lat="50.699865" lon="18.121999">
        <ele>204.126825</ele>
        <time>2025-05-12T09:07:24.952Z</time>
      </trkpt>
      <trkpt lat="50.699719" lon="18.121520">
        <ele>204.308936</ele>
        <time>2025-05-12T09:07:33.902Z</time>
      </trkpt>
      <trkpt lat="50.699131" lon="18.118394">
        <ele>204.058578</ele>
        <time>2025-05-12T09:08:18.317Z</time>
      </trkpt>
      <trkpt lat="50.699095" lon="18.118152">
        <ele>203.928643</ele>
        <time>2025-05-12T09:08:21.542Z</time>
      </trkpt>
      <trkpt lat="50.698985" lon="18.117112">
        <ele>203.358080</ele>
        <time>2025-05-12T09:08:35.092Z</time>
      </trkpt>
      <trkpt lat="50.698831" lon="18.116509">
        <ele>202.729229</ele>
        <time>2025-05-12T09:08:43.400Z</time>
      </trkpt>
      <trkpt lat="50.698689" lon="18.116134">
        <ele>202.306651</ele>
        <time>2025-05-12T09:08:48.966Z</time>
      </trkpt>
      <trkpt lat="50.698272" lon="18.115211">
        <ele>201.210084</ele>
        <time>2025-05-12T09:09:03.320Z</time>
      </trkpt>
      <trkpt lat="50.697586" lon="18.113308">
        <ele>198.848530</ele>
        <time>2025-05-12T09:09:30.821Z</time>
      </trkpt>
      <trkpt lat="50.697391" lon="18.112707">
        <ele>198.093460</ele>
        <time>2025-05-12T09:09:39.210Z</time>
      </trkpt>
      <trkpt lat="50.696419" lon="18.108318">
        <ele>193.160512</ele>
        <time>2025-05-12T09:10:37.375Z</time>
      </trkpt>
      <trkpt lat="50.696317" lon="18.107806">
        <ele>192.701138</ele>
        <time>2025-05-12T09:10:44.450Z</time>
      </trkpt>
      <trkpt lat="50.696070" lon="18.106071">
        <ele>191.461885</ele>
        <time>2025-05-12T09:11:07.690Z</time>
      </trkpt>
      <trkpt lat="50.695826" lon="18.104276">
        <ele>190.596321</ele>
        <time>2025-05-12T09:11:32.101Z</time>
      </trkpt>
      <trkpt lat="50.695695" lon="18.103380">
        <ele>190.059006</ele>
        <time>2025-05-12T09:11:44.883Z</time>
      </trkpt>
      <trkpt lat="50.695601" lon="18.102724">
        <ele>189.634771</ele>
        <time>2025-05-12T09:11:54.259Z</time>
      </trkpt>
      <trkpt lat="50.695398" lon="18.101180">
        <ele>188.588913</ele>
        <time>2025-05-12T09:12:14.542Z</time>
      </trkpt>
      <trkpt lat="50.695333" lon="18.100504">
        <ele>187.587940</ele>
        <time>2025-05-12T09:12:22.545Z</time>
      </trkpt>
      <trkpt lat="50.695226" lon="18.099184">
        <ele>185.639751</ele>
        <time>2025-05-12T09:12:31.812Z</time>
      </trkpt>
      <trkpt lat="50.695142" lon="18.098229">
        <ele>184.390427</ele>
        <time>2025-05-12T09:12:38.836Z</time>
      </trkpt>
      <trkpt lat="50.694983" lon="18.096235">
        <ele>183.072546</ele>
        <time>2025-05-12T09:12:55.035Z</time>
      </trkpt>
      <trkpt lat="50.694977" lon="18.096154">
        <ele>183.019069</ele>
        <time>2025-05-12T09:12:55.712Z</time>
      </trkpt>
      <trkpt lat="50.694927" lon="18.095529">
        <ele>182.601251</ele>
        <time>2025-05-12T09:13:00.787Z</time>
      </trkpt>
      <trkpt lat="50.694919" lon="18.095429">
        <ele>182.529388</ele>
        <time>2025-05-12T09:13:01.599Z</time>
      </trkpt>
      <trkpt lat="50.694816" lon="18.094208">
        <ele>181.651169</ele>
        <time>2025-05-12T09:13:11.258Z</time>
      </trkpt>
      <trkpt lat="50.694796" lon="18.094150">
        <ele>181.604086</ele>
        <time>2025-05-12T09:13:11.751Z</time>
      </trkpt>
      <trkpt lat="50.694803" lon="18.094035">
        <ele>181.521717</ele>
        <time>2025-05-12T09:13:12.608Z</time>
      </trkpt>
      <trkpt lat="50.694795" lon="18.093940">
        <ele>181.453389</ele>
        <time>2025-05-12T09:13:13.323Z</time>
      </trkpt>
      <trkpt lat="50.694792" lon="18.093891">
        <ele>181.418291</ele>
        <time>2025-05-12T09:13:13.692Z</time>
      </trkpt>
      <trkpt lat="50.694635" lon="18.091871">
        <ele>179.905030</ele>
        <time>2025-05-12T09:13:28.676Z</time>
      </trkpt>
      <trkpt lat="50.694459" lon="18.089538">
        <ele>178.521913</ele>
        <time>2025-05-12T09:13:45.957Z</time>
      </trkpt>
      <trkpt lat="50.694421" lon="18.088511">
        <ele>178.750271</ele>
        <time>2025-05-12T09:13:54.533Z</time>
      </trkpt>
      <trkpt lat="50.694405" lon="18.087749">
        <ele>178.919511</ele>
        <time>2025-05-12T09:14:02.406Z</time>
      </trkpt>
      <trkpt lat="50.694396" lon="18.087433">
        <ele>178.989726</ele>
        <time>2025-05-12T09:14:05.995Z</time>
      </trkpt>
      <trkpt lat="50.694394" lon="18.087346">
        <ele>179.009051</ele>
        <time>2025-05-12T09:14:06.985Z</time>
      </trkpt>
      <trkpt lat="50.694541" lon="18.085985">
        <ele>180.173373</ele>
        <time>2025-05-12T09:14:31.133Z</time>
      </trkpt>
      <trkpt lat="50.694672" lon="18.084831">
        <ele>181.283609</ele>
        <time>2025-05-12T09:14:51.459Z</time>
      </trkpt>
      <trkpt lat="50.694676" lon="18.084340">
        <ele>181.740084</ele>
        <time>2025-05-12T09:14:59.514Z</time>
      </trkpt>
      <trkpt lat="50.694628" lon="18.083793">
        <ele>181.610220</ele>
        <time>2025-05-12T09:15:08.043Z</time>
      </trkpt>
      <trkpt lat="50.694465" lon="18.083095">
        <ele>181.435275</ele>
        <time>2025-05-12T09:15:18.622Z</time>
      </trkpt>
      <trkpt lat="50.694240" lon="18.082626">
        <ele>181.296921</ele>
        <time>2025-05-12T09:15:26.555Z</time>
      </trkpt>
      <trkpt lat="50.694191" lon="18.082417">
        <ele>181.244513</ele>
        <time>2025-05-12T09:15:29.473Z</time>
      </trkpt>
      <trkpt lat="50.693996" lon="18.080749">
        <ele>180.059899</ele>
        <time>2025-05-12T09:15:50.837Z</time>
      </trkpt>
      <trkpt lat="50.693799" lon="18.077780">
        <ele>177.500373</ele>
        <time>2025-05-12T09:16:28.342Z</time>
      </trkpt>
      <trkpt lat="50.693718" lon="18.076896">
        <ele>177.013440</ele>
        <time>2025-05-12T09:16:40.440Z</time>
      </trkpt>
      <trkpt lat="50.693615" lon="18.076142">
        <ele>176.592943</ele>
        <time>2025-05-12T09:16:51.271Z</time>
      </trkpt>
      <trkpt lat="50.693556" lon="18.075371">
        <ele>176.083857</ele>
        <time>2025-05-12T09:17:02.142Z</time>
      </trkpt>
      <trkpt lat="50.693488" lon="18.074546">
        <ele>175.531120</ele>
        <time>2025-05-12T09:17:13.469Z</time>
      </trkpt>
      <trkpt lat="50.693514" lon="18.071289">
        <ele>172.359594</ele>
        <time>2025-05-12T09:17:53.841Z</time>
      </trkpt>
      <trkpt lat="50.693556" lon="18.070943">
        <ele>171.945260</ele>
        <time>2025-05-12T09:17:58.181Z</time>
      </trkpt>
      <trkpt lat="50.693662" lon="18.070559">
        <ele>171.452622</ele>
        <time>2025-05-12T09:18:03.387Z</time>
      </trkpt>
      <trkpt lat="50.693910" lon="18.069883">
        <ele>171.242931</ele>
        <time>2025-05-12T09:18:13.412Z</time>
      </trkpt>
      <trkpt lat="50.693938" lon="18.069609">
        <ele>171.205163</ele>
        <time>2025-05-12T09:18:17.091Z</time>
      </trkpt>
      <trkpt lat="50.693899" lon="18.069178">
        <ele>171.145917</ele>
        <time>2025-05-12T09:18:22.988Z</time>
      </trkpt>
      <trkpt lat="50.693513" lon="18.067221">
        <ele>171.231449</ele>
        <time>2025-05-12T09:18:54.487Z</time>
      </trkpt>
      <trkpt lat="50.693073" lon="18.064669">
        <ele>172.154801</ele>
        <time>2025-05-12T09:19:36.389Z</time>
      </trkpt>
      <trkpt lat="50.693022" lon="18.059216">
        <ele>169.937915</ele>
        <time>2025-05-12T09:20:48.676Z</time>
      </trkpt>
      <trkpt lat="50.692993" lon="18.053792">
        <ele>167.660239</ele>
        <time>2025-05-12T09:22:01.392Z</time>
      </trkpt>
      <trkpt lat="50.692979" lon="18.051159">
        <ele>167.239712</ele>
        <time>2025-05-12T09:22:37.369Z</time>
      </trkpt>
      <trkpt lat="50.692969" lon="18.048375">
        <ele>167.988451</ele>
        <time>2025-05-12T09:23:20.489Z</time>
      </trkpt>
      <trkpt lat="50.692959" lon="18.042875">
        <ele>167.768612</ele>
        <time>2025-05-12T09:24:37.758Z</time>
      </trkpt>
      <trkpt lat="50.692924" lon="18.037517">
        <ele>164.487986</ele>
        <time>2025-05-12T09:25:47.943Z</time>
      </trkpt>
      <trkpt lat="50.692921" lon="18.036084">
        <ele>163.143718</ele>
        <time>2025-05-12T09:26:06.241Z</time>
      </trkpt>
      <trkpt lat="50.692918" lon="18.034789">
        <ele>161.576341</ele>
        <time>2025-05-12T09:26:22.094Z</time>
      </trkpt>
      <trkpt lat="50.692882" lon="18.033458">
        <ele>160.342514</ele>
        <time>2025-05-12T09:26:38.410Z</time>
      </trkpt>
      <trkpt lat="50.692764" lon="18.032940">
        <ele>160.208761</ele>
        <time>2025-05-12T09:26:45.634Z</time>
      </trkpt>
      <trkpt lat="50.692629" lon="18.032180">
        <ele>160.016975</ele>
        <time>2025-05-12T09:26:56.595Z</time>
      </trkpt>
      <trkpt lat="50.692340" lon="18.031027">
        <ele>159.759042</ele>
        <time>2025-05-12T09:27:15.452Z</time>
      </trkpt>
      <trkpt lat="50.692065" lon="18.029767">
        <ele>159.873568</ele>
        <time>2025-05-12T09:27:35.701Z</time>
      </trkpt>
      <trkpt lat="50.692036" lon="18.029691">
        <ele>159.881192</ele>
        <time>2025-05-12T09:27:36.981Z</time>
      </trkpt>
      <trkpt lat="50.691997" lon="18.029539">
        <ele>159.895285</ele>
        <time>2025-05-12T09:27:39.303Z</time>
      </trkpt>
      <trkpt lat="50.691988" lon="18.029470">
        <ele>159.901339</ele>
        <time>2025-05-12T09:27:40.306Z</time>
      </trkpt>
      <trkpt lat="50.691808" lon="18.029344">
        <ele>159.928050</ele>
        <time>2025-05-12T09:27:44.632Z</time>
      </trkpt>
      <trkpt lat="50.691480" lon="18.029170">
        <ele>159.974991</ele>
        <time>2025-05-12T09:27:52.114Z</time>
      </trkpt>
      <trkpt lat="50.691086" lon="18.028836">
        <ele>159.850835</ele>
        <time>2025-05-12T09:28:01.654Z</time>
      </trkpt>
      <trkpt lat="50.690762" lon="18.028209">
        <ele>159.627938</ele>
        <time>2025-05-12T09:28:12.459Z</time>
      </trkpt>
      <trkpt lat="50.688632" lon="18.025720">
        <ele>158.724910</ele>
        <time>2025-05-12T09:29:10.011Z</time>
      </trkpt>
      <trkpt lat="50.687888" lon="18.024775">
        <ele>158.690477</ele>
        <time>2025-05-12T09:29:30.946Z</time>
      </trkpt>
      <trkpt lat="50.686932" lon="18.023885">
        <ele>158.703753</ele>
        <time>2025-05-12T09:29:56.052Z</time>
      </trkpt>
      <trkpt lat="50.686296" lon="18.023385">
        <ele>158.778203</ele>
        <time>2025-05-12T09:30:12.433Z</time>
      </trkpt>
      <trkpt lat="50.685991" lon="18.023294">
        <ele>158.810727</ele>
        <time>2025-05-12T09:30:19.457Z</time>
      </trkpt>
      <trkpt lat="50.685715" lon="18.023341">
        <ele>158.839815</ele>
        <time>2025-05-12T09:30:25.690Z</time>
      </trkpt>
      <trkpt lat="50.685630" lon="18.023252">
        <ele>158.850503</ele>
        <time>2025-05-12T09:30:27.959Z</time>
      </trkpt>
      <trkpt lat="50.685364" lon="18.022835">
        <ele>158.862186</ele>
        <time>2025-05-12T09:30:36.264Z</time>
      </trkpt>
      <trkpt lat="50.683959" lon="18.020511">
        <ele>158.752019</ele>
        <time>2025-05-12T09:31:21.070Z</time>
      </trkpt>
      <trkpt lat="50.682720" lon="18.018783">
        <ele>158.981800</ele>
        <time>2025-05-12T09:31:59.366Z</time>
      </trkpt>
      <trkpt lat="50.681953" lon="18.017630">
        <ele>158.924242</ele>
        <time>2025-05-12T09:32:22.771Z</time>
      </trkpt>
      <trkpt lat="50.682020" lon="18.017468">
        <ele>158.917581</ele>
        <time>2025-05-12T09:32:25.424Z</time>
      </trkpt>
      <trkpt lat="50.683409" lon="18.015646">
        <ele>158.469031</ele>
        <time>2025-05-12T09:33:04.658Z</time>
      </trkpt>
      <trkpt lat="50.683651" lon="18.015364">
        <ele>158.378094</ele>
        <time>2025-05-12T09:33:11.181Z</time>
      </trkpt>
      <trkpt lat="50.683855" lon="18.015190">
        <ele>158.299641</ele>
        <time>2025-05-12T09:33:16.182Z</time>
      </trkpt>
      <trkpt lat="50.686392" lon="18.013383">
        <ele>157.502698</ele>
        <time>2025-05-12T09:34:16.389Z</time>
      </trkpt>
      <trkpt lat="50.687997" lon="18.012214">
        <ele>157.230045</ele>
        <time>2025-05-12T09:34:56.283Z</time>
      </trkpt>
      <trkpt lat="50.687893" lon="18.011899">
        <ele>157.198872</ele>
        <time>2025-05-12T09:35:01.115Z</time>
      </trkpt>
      <trkpt lat="50.687734" lon="18.011570">
        <ele>157.162556</ele>
        <time>2025-05-12T09:35:06.716Z</time>
      </trkpt>
      <trkpt lat="50.687587" lon="18.011154">
        <ele>157.110188</ele>
        <time>2025-05-12T09:35:13.111Z</time>
      </trkpt>
      <trkpt lat="50.687432" lon="18.010905">
        <ele>157.053944</ele>
        <time>2025-05-12T09:35:17.768Z</time>
      </trkpt>
      <trkpt lat="50.686817" lon="18.009721">
        <ele>156.807259</ele>
        <time>2025-05-12T09:35:38.806Z</time>
      </trkpt>
      <trkpt lat="50.686289" lon="18.008864">
        <ele>156.692615</ele>
        <time>2025-05-12T09:35:55.971Z</time>
      </trkpt>
      <trkpt lat="50.686201" lon="18.008749">
        <ele>156.700499</ele>
        <time>2025-05-12T09:35:58.582Z</time>
      </trkpt>
      <trkpt lat="50.684077" lon="18.005670">
        <ele>156.843358</ele>
        <time>2025-05-12T09:37:03.122Z</time>
      </trkpt>
      <trkpt lat="50.683938" lon="18.005362">
        <ele>156.850552</ele>
        <time>2025-05-12T09:37:08.451Z</time>
      </trkpt>
      <trkpt lat="50.683296" lon="18.003344">
        <ele>156.686570</ele>
        <time>2025-05-12T09:37:40.061Z</time>
      </trkpt>
      <trkpt lat="50.680385" lon="17.994177">
        <ele>155.967020</ele>
        <time>2025-05-12T09:40:02.782Z</time>
      </trkpt>
      <trkpt lat="50.680204" lon="17.993661">
        <ele>156.062375</ele>
        <time>2025-05-12T09:40:11.560Z</time>
      </trkpt>
      <trkpt lat="50.680081" lon="17.993558">
        <ele>156.097903</ele>
        <time>2025-05-12T09:40:14.844Z</time>
      </trkpt>
      <trkpt lat="50.680225" lon="17.993153">
        <ele>156.172986</ele>
        <time>2025-05-12T09:40:20.464Z</time>
      </trkpt>
      <trkpt lat="50.680046" lon="17.992965">
        <ele>156.227848</ele>
        <time>2025-05-12T09:40:25.606Z</time>
      </trkpt>
      <trkpt lat="50.679967" lon="17.992829">
        <ele>156.257678</ele>
        <time>2025-05-12T09:40:28.404Z</time>
      </trkpt>
      <trkpt lat="50.679237" lon="17.990649">
        <ele>156.573160</ele>
        <time>2025-05-12T09:41:04.767Z</time>
      </trkpt>
      <trkpt lat="50.679221" lon="17.990531">
        <ele>156.588480</ele>
        <time>2025-05-12T09:41:06.478Z</time>
      </trkpt>
      <trkpt lat="50.678545" lon="17.987587">
        <ele>155.886427</ele>
        <time>2025-05-12T09:41:49.139Z</time>
      </trkpt>
      <trkpt lat="50.678522" lon="17.987233">
        <ele>155.843345</ele>
        <time>2025-05-12T09:41:53.840Z</time>
      </trkpt>
      <trkpt lat="50.678565" lon="17.986912">
        <ele>155.807920</ele>
        <time>2025-05-12T09:41:58.181Z</time>
      </trkpt>
      <trkpt lat="50.678666" lon="17.986563">
        <ele>155.766493</ele>
        <time>2025-05-12T09:42:03.307Z</time>
      </trkpt>
      <trkpt lat="50.678816" lon="17.986245">
        <ele>155.723690</ele>
        <time>2025-05-12T09:42:08.613Z</time>
      </trkpt>
      <trkpt lat="50.680222" lon="17.983673">
        <ele>156.449019</ele>
        <time>2025-05-12T09:42:59.195Z</time>
      </trkpt>
      <trkpt lat="50.680687" lon="17.983045">
        <ele>156.938393</ele>
        <time>2025-05-12T09:43:14.989Z</time>
      </trkpt>
      <trkpt lat="50.680711" lon="17.982969">
        <ele>157.021269</ele>
        <time>2025-05-12T09:43:16.393Z</time>
      </trkpt>
      <trkpt lat="50.680765" lon="17.982800">
        <ele>157.205997</ele>
        <time>2025-05-12T09:43:19.518Z</time>
      </trkpt>
      <trkpt lat="50.680886" lon="17.982098">
        <ele>157.916037</ele>
        <time>2025-05-12T09:43:31.658Z</time>
      </trkpt>
      <trkpt lat="50.680971" lon="17.980808">
        <ele>159.181847</ele>
        <time>2025-05-12T09:43:53.647Z</time>
      </trkpt>
      <trkpt lat="50.681076" lon="17.979031">
        <ele>161.381940</ele>
        <time>2025-05-12T09:44:25.974Z</time>
      </trkpt>
      <trkpt lat="50.681057" lon="17.978446">
        <ele>162.150320</ele>
        <time>2025-05-12T09:44:33.495Z</time>
      </trkpt>
      <trkpt lat="50.681067" lon="17.978230">
        <ele>162.434413</ele>
        <time>2025-05-12T09:44:36.264Z</time>
      </trkpt>
      <trkpt lat="50.681015" lon="17.978224">
        <ele>162.542350</ele>
        <time>2025-05-12T09:44:37.538Z</time>
      </trkpt>
      <trkpt lat="50.681023" lon="17.978072">
        <ele>162.742423</ele>
        <time>2025-05-12T09:44:39.890Z</time>
      </trkpt>
      <trkpt lat="50.681038" lon="17.977770">
        <ele>163.139787</ele>
        <time>2025-05-12T09:44:44.508Z</time>
      </trkpt>
      <trkpt lat="50.681086" lon="17.976801">
        <ele>163.884710</ele>
        <time>2025-05-12T09:44:58.758Z</time>
      </trkpt>
      <trkpt lat="50.681133" lon="17.975842">
        <ele>164.538201</ele>
        <time>2025-05-12T09:45:11.318Z</time>
      </trkpt>
      <trkpt lat="50.681156" lon="17.975261">
        <ele>164.933702</ele>
        <time>2025-05-12T09:45:18.541Z</time>
      </trkpt>
      <trkpt lat="50.681210" lon="17.974420">
        <ele>165.256371</ele>
        <time>2025-05-12T09:45:28.335Z</time>
      </trkpt>
      <trkpt lat="50.681191" lon="17.974317">
        <ele>165.259844</ele>
        <time>2025-05-12T09:45:29.513Z</time>
      </trkpt>
      <trkpt lat="50.681113" lon="17.974301">
        <ele>165.263863</ele>
        <time>2025-05-12T09:45:30.882Z</time>
      </trkpt>
      <trkpt lat="50.681104" lon="17.973866">
        <ele>165.277955</ele>
        <time>2025-05-12T09:45:34.639Z</time>
      </trkpt>
      <trkpt lat="50.681178" lon="17.973857">
        <ele>165.281747</ele>
        <time>2025-05-12T09:45:35.619Z</time>
      </trkpt>
      <trkpt lat="50.681232" lon="17.973746">
        <ele>165.286278</ele>
        <time>2025-05-12T09:45:36.794Z</time>
      </trkpt>
      <trkpt lat="50.681252" lon="17.973709">
        <ele>165.287852</ele>
        <time>2025-05-12T09:45:37.205Z</time>
      </trkpt>
      <trkpt lat="50.681253" lon="17.973509">
        <ele>165.294328</ele>
        <time>2025-05-12T09:45:38.893Z</time>
      </trkpt>
      <trkpt lat="50.681224" lon="17.972824">
        <ele>165.316555</ele>
        <time>2025-05-12T09:45:44.750Z</time>
      </trkpt>
      <trkpt lat="50.681068" lon="17.970845">
        <ele>165.243348</ele>
        <time>2025-05-12T09:46:01.727Z</time>
      </trkpt>
      <trkpt lat="50.681031" lon="17.970386">
        <ele>165.212907</ele>
        <time>2025-05-12T09:46:05.554Z</time>
      </trkpt>
      <trkpt lat="50.681002" lon="17.970040">
        <ele>165.189944</ele>
        <time>2025-05-12T09:46:08.415Z</time>
      </trkpt>
      <trkpt lat="50.680894" lon="17.968690">
        <ele>165.189475</ele>
        <time>2025-05-12T09:46:19.389Z</time>
      </trkpt>
      <trkpt lat="50.680833" lon="17.968169">
        <ele>165.218616</ele>
        <time>2025-05-12T09:46:23.734Z</time>
      </trkpt>
      <trkpt lat="50.680823" lon="17.968054">
        <ele>165.225000</ele>
        <time>2025-05-12T09:46:24.707Z</time>
      </trkpt>
      <trkpt lat="50.680808" lon="17.967612">
        <ele>165.249345</ele>
        <time>2025-05-12T09:46:28.526Z</time>
      </trkpt>
      <trkpt lat="50.680470" lon="17.963531">
        <ele>166.580063</ele>
        <time>2025-05-12T09:47:08.193Z</time>
      </trkpt>
      <trkpt lat="50.680443" lon="17.962761">
        <ele>167.021144</ele>
        <time>2025-05-12T09:47:15.848Z</time>
      </trkpt>
      <trkpt lat="50.680479" lon="17.962673">
        <ele>167.081055</ele>
        <time>2025-05-12T09:47:16.908Z</time>
      </trkpt>
      <trkpt lat="50.680468" lon="17.962552">
        <ele>167.150971</ele>
        <time>2025-05-12T09:47:18.168Z</time>
      </trkpt>
      <trkpt lat="50.680383" lon="17.961509">
        <ele>167.752436</ele>
        <time>2025-05-12T09:47:29.163Z</time>
      </trkpt>
      <trkpt lat="50.680344" lon="17.960395">
        <ele>168.321392</ele>
        <time>2025-05-12T09:47:40.814Z</time>
      </trkpt>
      <trkpt lat="50.680393" lon="17.958879">
        <ele>169.011995</ele>
        <time>2025-05-12T09:47:55.687Z</time>
      </trkpt>
      <trkpt lat="50.680404" lon="17.958628">
        <ele>169.126461</ele>
        <time>2025-05-12T09:47:58.017Z</time>
      </trkpt>
      <trkpt lat="50.680363" lon="17.958654">
        <ele>169.158186</ele>
        <time>2025-05-12T09:47:58.644Z</time>
      </trkpt>
      <trkpt lat="50.680346" lon="17.958585">
        <ele>169.191867</ele>
        <time>2025-05-12T09:47:59.544Z</time>
      </trkpt>
      <trkpt lat="50.680264" lon="17.958634">
        <ele>169.254822</ele>
        <time>2025-05-12T09:48:01.181Z</time>
      </trkpt>
      <trkpt lat="50.680202" lon="17.958670">
        <ele>169.302254</ele>
        <time>2025-05-12T09:48:02.439Z</time>
      </trkpt>
      <trkpt lat="50.679639" lon="17.958916">
        <ele>169.516261</ele>
        <time>2025-05-12T09:48:13.414Z</time>
      </trkpt>
      <trkpt lat="50.679541" lon="17.958945">
        <ele>169.548931</ele>
        <time>2025-05-12T09:48:15.274Z</time>
      </trkpt>
      <trkpt lat="50.679295" lon="17.959011">
        <ele>169.630690</ele>
        <time>2025-05-12T09:48:19.995Z</time>
      </trkpt>
      <trkpt lat="50.679223" lon="17.958978">
        <ele>169.655256</ele>
        <time>2025-05-12T09:48:21.425Z</time>
      </trkpt>
      <trkpt lat="50.679088" lon="17.957421">
        <ele>169.938766</ele>
        <time>2025-05-12T09:48:35.547Z</time>
      </trkpt>
      <trkpt lat="50.678980" lon="17.957501">
        <ele>169.943300</ele>
        <time>2025-05-12T09:48:37.102Z</time>
      </trkpt>
      <trkpt lat="50.678967" lon="17.957457">
        <ele>169.944469</ele>
        <time>2025-05-12T09:48:39.240Z</time>
      </trkpt>
      <trkpt lat="50.678943" lon="17.957374">
        <ele>169.946666</ele>
        <time>2025-05-12T09:48:43.267Z</time>
      </trkpt>
      <trkpt lat="50.678860" lon="17.957389">
        <ele>169.949841</ele>
        <time>2025-05-12T09:48:44.414Z</time>
      </trkpt>
      <trkpt lat="50.678755" lon="17.957467">
        <ele>169.954251</ele>
        <time>2025-05-12T09:48:45.997Z</time>
      </trkpt>
      <trkpt lat="50.678138" lon="17.957927">
        <ele>169.980184</ele>
        <time>2025-05-12T09:48:55.395Z</time>
      </trkpt>
      <trkpt lat="50.678039" lon="17.957999">
        <ele>169.984327</ele>
        <time>2025-05-12T09:48:56.866Z</time>
      </trkpt>
      <trkpt lat="50.677946" lon="17.958074">
        <ele>169.988296</ele>
        <time>2025-05-12T09:48:58.271Z</time>
      </trkpt>
      <trkpt lat="50.677627" lon="17.958306">
        <ele>170.002849</ele>
        <time>2025-05-12T09:49:03.185Z</time>
      </trkpt>
      <trkpt lat="50.677605" lon="17.958078">
        <ele>170.057584</ele>
        <time>2025-05-12T09:49:05.290Z</time>
      </trkpt>
      <trkpt lat="50.677509" lon="17.957068">
        <ele>170.299968</ele>
        <time>2025-05-12T09:49:15.089Z</time>
      </trkpt>
      <trkpt lat="50.677497" lon="17.956850">
        <ele>170.351901</ele>
        <time>2025-05-12T09:49:17.154Z</time>
      </trkpt>
      <trkpt lat="50.677487" lon="17.956670">
        <ele>170.394784</ele>
        <time>2025-05-12T09:49:18.836Z</time>
      </trkpt>
      <trkpt lat="50.677474" lon="17.956444">
        <ele>170.448642</ele>
        <time>2025-05-12T09:49:20.884Z</time>
      </trkpt>
      <trkpt lat="50.677462" lon="17.956194">
        <ele>170.508144</ele>
        <time>2025-05-12T09:49:23.091Z</time>
      </trkpt>
      <trkpt lat="50.677445" lon="17.955838">
        <ele>170.592874</ele>
        <time>2025-05-12T09:49:26.233Z</time>
      </trkpt>
      <trkpt lat="50.677493" lon="17.955622">
        <ele>170.647198</ele>
        <time>2025-05-12T09:49:28.880Z</time>
      </trkpt>
      <trkpt lat="50.677684" lon="17.955678">
        <ele>170.739810</ele>
        <time>2025-05-12T09:49:32.517Z</time>
      </trkpt>
      <trkpt lat="50.677909" lon="17.955562">
        <ele>170.867738</ele>
        <time>2025-05-12T09:49:37.110Z</time>
      </trkpt>
      <trkpt lat="50.678182" lon="17.955440">
        <ele>171.021084</ele>
        <time>2025-05-12T09:49:42.488Z</time>
      </trkpt>
      <trkpt lat="50.678344" lon="17.955322">
        <ele>171.117515</ele>
        <time>2025-05-12T09:49:45.913Z</time>
      </trkpt>
      <trkpt lat="50.678494" lon="17.955163">
        <ele>171.215174</ele>
        <time>2025-05-12T09:49:49.425Z</time>
      </trkpt>
      <trkpt lat="50.678689" lon="17.954868">
        <ele>171.361166</ele>
        <time>2025-05-12T09:49:54.634Z</time>
      </trkpt>
      <trkpt lat="50.678697" lon="17.954856">
        <ele>171.367131</ele>
        <time>2025-05-12T09:49:54.852Z</time>
      </trkpt>
      <trkpt lat="50.678798" lon="17.954659">
        <ele>171.453915</ele>
        <time>2025-05-12T09:49:58.016Z</time>
      </trkpt>
      <trkpt lat="50.678892" lon="17.954420">
        <ele>171.550250</ele>
        <time>2025-05-12T09:50:01.509Z</time>
      </trkpt>
      <trkpt lat="50.678958" lon="17.954170">
        <ele>171.643001</ele>
        <time>2025-05-12T09:50:04.820Z</time>
      </trkpt>
      <trkpt lat="50.678921" lon="17.954084">
        <ele>171.692491</ele>
        <time>2025-05-12T09:50:05.784Z</time>
      </trkpt>
      <trkpt lat="50.678948" lon="17.954025">
        <ele>171.728452</ele>
        <time>2025-05-12T09:50:06.500Z</time>
      </trkpt>
      <trkpt lat="50.678980" lon="17.954020">
        <ele>171.753528</ele>
        <time>2025-05-12T09:50:06.989Z</time>
      </trkpt>
      <trkpt lat="50.679001" lon="17.953312">
        <ele>172.103758</ele>
        <time>2025-05-12T09:50:13.678Z</time>
      </trkpt>
      <trkpt lat="50.678932" lon="17.952710">
        <ele>172.406054</ele>
        <time>2025-05-12T09:50:19.479Z</time>
      </trkpt>
      <trkpt lat="50.678815" lon="17.952134">
        <ele>172.704942</ele>
        <time>2025-05-12T09:50:25.521Z</time>
      </trkpt>
      <trkpt lat="50.678640" lon="17.951615">
        <ele>172.995447</ele>
        <time>2025-05-12T09:50:31.610Z</time>
      </trkpt>
      <trkpt lat="50.678591" lon="17.951445">
        <ele>173.104664</ele>
        <time>2025-05-12T09:50:33.627Z</time>
      </trkpt>
      <trkpt lat="50.678608" lon="17.951422">
        <ele>173.129925</ele>
        <time>2025-05-12T09:50:34.014Z</time>
      </trkpt>
      <trkpt lat="50.678614" lon="17.951401">
        <ele>173.146392</ele>
        <time>2025-05-12T09:50:34.259Z</time>
      </trkpt>
      <trkpt lat="50.678618" lon="17.951328">
        <ele>173.198769</ele>
        <time>2025-05-12T09:50:35.093Z</time>
      </trkpt>
      <trkpt lat="50.678573" lon="17.951254">
        <ele>173.272085</ele>
        <time>2025-05-12T09:50:36.228Z</time>
      </trkpt>
      <trkpt lat="50.678810" lon="17.950371">
        <ele>173.957575</ele>
        <time>2025-05-12T09:50:49.512Z</time>
      </trkpt>
      <trkpt lat="50.678925" lon="17.950045">
        <ele>174.224288</ele>
        <time>2025-05-12T09:50:54.727Z</time>
      </trkpt>
      <trkpt lat="50.679071" lon="17.949770">
        <ele>174.480744</ele>
        <time>2025-05-12T09:50:59.700Z</time>
      </trkpt>
      <trkpt lat="50.679186" lon="17.949635">
        <ele>174.642431</ele>
        <time>2025-05-12T09:51:02.719Z</time>
      </trkpt>
      <trkpt lat="50.679264" lon="17.949564">
        <ele>174.744010</ele>
        <time>2025-05-12T09:51:04.591Z</time>
      </trkpt>
      <trkpt lat="50.679316" lon="17.949517">
        <ele>174.811611</ele>
        <time>2025-05-12T09:51:05.814Z</time>
      </trkpt>
      <trkpt lat="50.679347" lon="17.949512">
        <ele>174.846764</ele>
        <time>2025-05-12T09:51:06.443Z</time>
      </trkpt>
      <trkpt lat="50.679551" lon="17.949475">
        <ele>175.078410</ele>
        <time>2025-05-12T09:51:10.486Z</time>
      </trkpt>
      <trkpt lat="50.679603" lon="17.949466">
        <ele>175.098866</ele>
        <time>2025-05-12T09:51:11.492Z</time>
      </trkpt>
      <trkpt lat="50.680157" lon="17.949373">
        <ele>175.313568</ele>
        <time>2025-05-12T09:51:21.500Z</time>
      </trkpt>
      <trkpt lat="50.680325" lon="17.949158">
        <ele>175.396923</ele>
        <time>2025-05-12T09:51:25.259Z</time>
      </trkpt>
      <trkpt lat="50.680296" lon="17.948635">
        <ele>175.525123</ele>
        <time>2025-05-12T09:51:31.235Z</time>
      </trkpt>
      <trkpt lat="50.680264" lon="17.948528">
        <ele>175.554015</ele>
        <time>2025-05-12T09:51:32.657Z</time>
      </trkpt>
      <trkpt lat="50.680223" lon="17.947966">
        <ele>175.692157</ele>
        <time>2025-05-12T09:51:39.830Z</time>
      </trkpt>
      <trkpt lat="50.680236" lon="17.947955">
        <ele>175.697842</ele>
        <time>2025-05-12T09:51:40.063Z</time>
      </trkpt>
      <trkpt lat="50.680456" lon="17.947753">
        <ele>175.772011</ele>
        <time>2025-05-12T09:51:43.981Z</time>
      </trkpt>
      <trkpt lat="50.680723" lon="17.947700">
        <ele>175.772011</ele>
        <time>2025-05-12T09:51:47.747Z</time>
      </trkpt>
      <trkpt lat="50.680761" lon="17.947693">
        <ele>175.772011</ele>
        <time>2025-05-12T09:51:48.460Z</time>
      </trkpt>
      <trkpt lat="50.681213" lon="17.947616">
        <ele>175.772011</ele>
        <time>2025-05-12T09:51:56.854Z</time>
      </trkpt>
      <trkpt lat="50.681226" lon="17.947613">
        <ele>175.772011</ele>
        <time>2025-05-12T09:51:57.101Z</time>
      </trkpt>
      <trkpt lat="50.681294" lon="17.947604">
        <ele>175.772011</ele>
        <time>2025-05-12T09:51:58.327Z</time>
      </trkpt>
      <trkpt lat="50.681557" lon="17.947569">
        <ele>175.772011</ele>
        <time>2025-05-12T09:52:01.997Z</time>
      </trkpt>
      <trkpt lat="50.681740" lon="17.947537">
        <ele>175.772011</ele>
        <time>2025-05-12T09:52:05.246Z</time>
      </trkpt>
      <trkpt lat="50.682105" lon="17.947478">
        <ele>175.772011</ele>
        <time>2025-05-12T09:52:11.649Z</time>
      </trkpt>
      <trkpt lat="50.682409" lon="17.947435">
        <ele>175.772011</ele>
        <time>2025-05-12T09:52:16.656Z</time>
      </trkpt>
    </trkseg>
  </trk>
</gpx>