<?xml version='1.0' encoding='UTF-8'?>
<gpx version="1.1" creator="https://www.komoot.de" xmlns="http://www.topografix.com/GPX/1/1" xmlns:xsi="http://www.w3.org/2001/XMLSchema-instance" xsi:schemaLocation="http://www.topografix.com/GPX/1/1 http://www.topografix.com/GPX/1/1/gpx.xsd">
  <metadata>
    <name>JAZDA - PAŁAC W ROGOWIE</name>
    <author>
      <link href="https://www.komoot.de">
        <text>komoot</text>
        <type>text/html</type>
      </link>
    </author>
  </metadata>
  <trk>
    <name>JAZDA - PAŁAC W ROGOWIE</name>
    <trkseg>
      <trkpt lat="50.629418" lon="17.990060">
        <ele>158.503216</ele>
        <time>2025-05-12T06:45:30.189Z</time>
      </trkpt>
      <trkpt lat="50.629330" lon="17.990141">
        <ele>158.503216</ele>
        <time>2025-05-12T06:45:32.419Z</time>
      </trkpt>
      <trkpt lat="50.629290" lon="17.990178">
        <ele>158.503216</ele>
        <time>2025-05-12T06:45:33.431Z</time>
      </trkpt>
      <trkpt lat="50.629251" lon="17.990168">
        <ele>158.503216</ele>
        <time>2025-05-12T06:45:34.306Z</time>
      </trkpt>
      <trkpt lat="50.629172" lon="17.990132">
        <ele>158.503216</ele>
        <time>2025-05-12T06:45:36.078Z</time>
      </trkpt>
      <trkpt lat="50.628802" lon="17.989617">
        <ele>158.503216</ele>
        <time>2025-05-12T06:45:47.027Z</time>
      </trkpt>
      <trkpt lat="50.628650" lon="17.989483">
        <ele>158.531191</ele>
        <time>2025-05-12T06:45:51.079Z</time>
      </trkpt>
      <trkpt lat="50.628294" lon="17.989017">
        <ele>158.867952</ele>
        <time>2025-05-12T06:46:02.137Z</time>
      </trkpt>
      <trkpt lat="50.628199" lon="17.988899">
        <ele>158.955973</ele>
        <time>2025-05-12T06:46:05.070Z</time>
      </trkpt>
      <trkpt lat="50.627686" lon="17.988060">
        <ele>159.493948</ele>
        <time>2025-05-12T06:46:23.763Z</time>
      </trkpt>
      <trkpt lat="50.627656" lon="17.988007">
        <ele>159.526741</ele>
        <time>2025-05-12T06:46:24.966Z</time>
      </trkpt>
      <trkpt lat="50.627628" lon="17.987943">
        <ele>159.562633</ele>
        <time>2025-05-12T06:46:26.277Z</time>
      </trkpt>
      <trkpt lat="50.627604" lon="17.987815">
        <ele>159.624253</ele>
        <time>2025-05-12T06:46:28.561Z</time>
      </trkpt>
      <trkpt lat="50.627601" lon="17.987710">
        <ele>159.672778</ele>
        <time>2025-05-12T06:46:30.395Z</time>
      </trkpt>
      <trkpt lat="50.627601" lon="17.987694">
        <ele>159.680164</ele>
        <time>2025-05-12T06:46:30.668Z</time>
      </trkpt>
      <trkpt lat="50.627520" lon="17.987619">
        <ele>159.748530</ele>
        <time>2025-05-12T06:46:34.684Z</time>
      </trkpt>
      <trkpt lat="50.627483" lon="17.987467">
        <ele>159.829814</ele>
        <time>2025-05-12T06:46:37.806Z</time>
      </trkpt>
      <trkpt lat="50.627425" lon="17.987414">
        <ele>159.904621</ele>
        <time>2025-05-12T06:46:39.830Z</time>
      </trkpt>
      <trkpt lat="50.627333" lon="17.987408">
        <ele>160.007367</ele>
        <time>2025-05-12T06:46:42.591Z</time>
      </trkpt>
      <trkpt lat="50.627244" lon="17.987446">
        <ele>160.110256</ele>
        <time>2025-05-12T06:46:45.306Z</time>
      </trkpt>
      <trkpt lat="50.626543" lon="17.987999">
        <ele>160.984949</ele>
        <time>2025-05-12T06:47:08.217Z</time>
      </trkpt>
      <trkpt lat="50.626064" lon="17.988463">
        <ele>161.612296</ele>
        <time>2025-05-12T06:47:23.253Z</time>
      </trkpt>
      <trkpt lat="50.624692" lon="17.989958">
        <ele>162.740882</ele>
        <time>2025-05-12T06:48:06.298Z</time>
      </trkpt>
      <trkpt lat="50.624358" lon="17.990323">
        <ele>162.857281</ele>
        <time>2025-05-12T06:48:15.198Z</time>
      </trkpt>
      <trkpt lat="50.624028" lon="17.990606">
        <ele>162.523340</ele>
        <time>2025-05-12T06:48:22.853Z</time>
      </trkpt>
      <trkpt lat="50.623655" lon="17.990840">
        <ele>162.166483</ele>
        <time>2025-05-12T06:48:30.618Z</time>
      </trkpt>
      <trkpt lat="50.622745" lon="17.991083">
        <ele>161.346054</ele>
        <time>2025-05-12T06:48:47.625Z</time>
      </trkpt>
      <trkpt lat="50.621963" lon="17.991233">
        <ele>160.892837</ele>
        <time>2025-05-12T06:49:03.363Z</time>
      </trkpt>
      <trkpt lat="50.622025" lon="17.992020">
        <ele>160.605062</ele>
        <time>2025-05-12T06:49:14.008Z</time>
      </trkpt>
      <trkpt lat="50.622102" lon="17.992809">
        <ele>160.315387</ele>
        <time>2025-05-12T06:49:24.849Z</time>
      </trkpt>
      <trkpt lat="50.620388" lon="17.993014">
        <ele>159.486407</ele>
        <time>2025-05-12T06:50:01.610Z</time>
      </trkpt>
      <trkpt lat="50.620148" lon="17.993068">
        <ele>159.417717</ele>
        <time>2025-05-12T06:50:06.840Z</time>
      </trkpt>
      <trkpt lat="50.618069" lon="17.993835">
        <ele>159.048936</ele>
        <time>2025-05-12T06:50:53.541Z</time>
      </trkpt>
      <trkpt lat="50.618025" lon="17.993806">
        <ele>159.039871</ele>
        <time>2025-05-12T06:50:54.568Z</time>
      </trkpt>
      <trkpt lat="50.618004" lon="17.993792">
        <ele>159.035538</ele>
        <time>2025-05-12T06:50:55.048Z</time>
      </trkpt>
      <trkpt lat="50.617000" lon="17.992858">
        <ele>158.813954</ele>
        <time>2025-05-12T06:51:19.778Z</time>
      </trkpt>
      <trkpt lat="50.616836" lon="17.992704">
        <ele>158.800456</ele>
        <time>2025-05-12T06:51:23.737Z</time>
      </trkpt>
      <trkpt lat="50.615720" lon="17.992028">
        <ele>158.803589</ele>
        <time>2025-05-12T06:51:50.405Z</time>
      </trkpt>
      <trkpt lat="50.615640" lon="17.992237">
        <ele>158.803994</ele>
        <time>2025-05-12T06:51:53.918Z</time>
      </trkpt>
      <trkpt lat="50.615424" lon="17.992644">
        <ele>158.805447</ele>
        <time>2025-05-12T06:52:01.609Z</time>
      </trkpt>
      <trkpt lat="50.615184" lon="17.993033">
        <ele>158.835412</ele>
        <time>2025-05-12T06:52:09.483Z</time>
      </trkpt>
      <trkpt lat="50.614955" lon="17.993258">
        <ele>158.858901</ele>
        <time>2025-05-12T06:52:15.784Z</time>
      </trkpt>
      <trkpt lat="50.614612" lon="17.993476">
        <ele>158.891092</ele>
        <time>2025-05-12T06:52:24.262Z</time>
      </trkpt>
      <trkpt lat="50.614366" lon="17.993516">
        <ele>158.912617</ele>
        <time>2025-05-12T06:52:29.726Z</time>
      </trkpt>
      <trkpt lat="50.612806" lon="17.993423">
        <ele>158.906234</ele>
        <time>2025-05-12T06:53:04.212Z</time>
      </trkpt>
      <trkpt lat="50.612674" lon="17.993454">
        <ele>158.898874</ele>
        <time>2025-05-12T06:53:07.148Z</time>
      </trkpt>
      <trkpt lat="50.611595" lon="17.993803">
        <ele>159.073194</ele>
        <time>2025-05-12T06:53:31.242Z</time>
      </trkpt>
      <trkpt lat="50.610951" lon="17.993905">
        <ele>159.385805</ele>
        <time>2025-05-12T06:53:46.377Z</time>
      </trkpt>
      <trkpt lat="50.610810" lon="17.993959">
        <ele>159.455888</ele>
        <time>2025-05-12T06:53:50.196Z</time>
      </trkpt>
      <trkpt lat="50.610727" lon="17.994012">
        <ele>159.499142</ele>
        <time>2025-05-12T06:53:52.653Z</time>
      </trkpt>
      <trkpt lat="50.610528" lon="17.994339">
        <ele>159.638006</ele>
        <time>2025-05-12T06:54:00.221Z</time>
      </trkpt>
      <trkpt lat="50.610160" lon="17.994785">
        <ele>159.890933</ele>
        <time>2025-05-12T06:54:12.324Z</time>
      </trkpt>
      <trkpt lat="50.609922" lon="17.994927">
        <ele>160.040717</ele>
        <time>2025-05-12T06:54:19.011Z</time>
      </trkpt>
      <trkpt lat="50.609872" lon="17.994951">
        <ele>160.071481</ele>
        <time>2025-05-12T06:54:21.157Z</time>
      </trkpt>
      <trkpt lat="50.609835" lon="17.995010">
        <ele>160.102462</ele>
        <time>2025-05-12T06:54:23.319Z</time>
      </trkpt>
      <trkpt lat="50.609750" lon="17.995210">
        <ele>160.192368</ele>
        <time>2025-05-12T06:54:29.577Z</time>
      </trkpt>
      <trkpt lat="50.609516" lon="17.995318">
        <ele>160.335879</ele>
        <time>2025-05-12T06:54:39.519Z</time>
      </trkpt>
      <trkpt lat="50.605362" lon="17.995321">
        <ele>160.843173</ele>
        <time>2025-05-12T06:57:15.409Z</time>
      </trkpt>
      <trkpt lat="50.605374" lon="17.997412">
        <ele>160.077405</ele>
        <time>2025-05-12T06:57:59.905Z</time>
      </trkpt>
      <trkpt lat="50.605376" lon="17.997718">
        <ele>159.947698</ele>
        <time>2025-05-12T06:58:06.538Z</time>
      </trkpt>
      <trkpt lat="50.605393" lon="18.000697">
        <ele>159.508169</ele>
        <time>2025-05-12T06:59:16.295Z</time>
      </trkpt>
      <trkpt lat="50.605455" lon="18.006113">
        <ele>159.001179</ele>
        <time>2025-05-12T07:01:22.800Z</time>
      </trkpt>
      <trkpt lat="50.605458" lon="18.006232">
        <ele>158.978566</ele>
        <time>2025-05-12T07:01:25.466Z</time>
      </trkpt>
      <trkpt lat="50.601865" lon="18.011524">
        <ele>156.071043</ele>
        <time>2025-05-12T07:04:15.347Z</time>
      </trkpt>
      <trkpt lat="50.598688" lon="18.016237">
        <ele>155.804690</ele>
        <time>2025-05-12T07:06:56.789Z</time>
      </trkpt>
      <trkpt lat="50.598173" lon="18.016935">
        <ele>156.041129</ele>
        <time>2025-05-12T07:07:24.168Z</time>
      </trkpt>
      <trkpt lat="50.594499" lon="18.022350">
        <ele>157.910537</ele>
        <time>2025-05-12T07:10:38.966Z</time>
      </trkpt>
      <trkpt lat="50.591838" lon="18.026308">
        <ele>156.017562</ele>
        <time>2025-05-12T07:12:46.225Z</time>
      </trkpt>
      <trkpt lat="50.590850" lon="18.027716">
        <ele>156.046972</ele>
        <time>2025-05-12T07:13:35.587Z</time>
      </trkpt>
      <trkpt lat="50.587173" lon="18.033207">
        <ele>158.968058</ele>
        <time>2025-05-12T07:16:56.742Z</time>
      </trkpt>
      <trkpt lat="50.586213" lon="18.034642">
        <ele>160.456219</ele>
        <time>2025-05-12T07:17:47.152Z</time>
      </trkpt>
      <trkpt lat="50.584259" lon="18.037421">
        <ele>165.985941</ele>
        <time>2025-05-12T07:19:51.439Z</time>
      </trkpt>
      <trkpt lat="50.584185" lon="18.037526">
        <ele>166.228281</ele>
        <time>2025-05-12T07:19:56.117Z</time>
      </trkpt>
      <trkpt lat="50.583750" lon="18.037911">
        <ele>167.120747</ele>
        <time>2025-05-12T07:20:18.982Z</time>
      </trkpt>
      <trkpt lat="50.583647" lon="18.038057">
        <ele>167.328811</ele>
        <time>2025-05-12T07:20:25.113Z</time>
      </trkpt>
      <trkpt lat="50.582814" lon="18.038861">
        <ele>168.795727</ele>
        <time>2025-05-12T07:21:06.520Z</time>
      </trkpt>
      <trkpt lat="50.582422" lon="18.039168">
        <ele>169.409058</ele>
        <time>2025-05-12T07:21:24.299Z</time>
      </trkpt>
      <trkpt lat="50.581973" lon="18.039281">
        <ele>169.891521</ele>
        <time>2025-05-12T07:21:42.974Z</time>
      </trkpt>
      <trkpt lat="50.581452" lon="18.039683">
        <ele>170.507120</ele>
        <time>2025-05-12T07:22:06.984Z</time>
      </trkpt>
      <trkpt lat="50.580536" lon="18.040798">
        <ele>171.272017</ele>
        <time>2025-05-12T07:22:54.965Z</time>
      </trkpt>
      <trkpt lat="50.580348" lon="18.041018">
        <ele>171.300709</ele>
        <time>2025-05-12T07:23:04.177Z</time>
      </trkpt>
      <trkpt lat="50.580096" lon="18.041402">
        <ele>171.343664</ele>
        <time>2025-05-12T07:23:17.390Z</time>
      </trkpt>
      <trkpt lat="50.579963" lon="18.041537">
        <ele>171.363048</ele>
        <time>2025-05-12T07:23:23.177Z</time>
      </trkpt>
      <trkpt lat="50.579721" lon="18.041702">
        <ele>171.395352</ele>
        <time>2025-05-12T07:23:32.636Z</time>
      </trkpt>
      <trkpt lat="50.579226" lon="18.041874">
        <ele>171.202862</ele>
        <time>2025-05-12T07:23:50.070Z</time>
      </trkpt>
      <trkpt lat="50.578935" lon="18.042068">
        <ele>170.856558</ele>
        <time>2025-05-12T07:24:00.433Z</time>
      </trkpt>
      <trkpt lat="50.578695" lon="18.042338">
        <ele>170.533322</ele>
        <time>2025-05-12T07:24:09.959Z</time>
      </trkpt>
      <trkpt lat="50.578554" lon="18.042650">
        <ele>170.266827</ele>
        <time>2025-05-12T07:24:17.792Z</time>
      </trkpt>
      <trkpt lat="50.578354" lon="18.042850">
        <ele>170.007191</ele>
        <time>2025-05-12T07:24:25.559Z</time>
      </trkpt>
      <trkpt lat="50.577507" lon="18.043095">
        <ele>169.367867</ele>
        <time>2025-05-12T07:24:55.027Z</time>
      </trkpt>
      <trkpt lat="50.577244" lon="18.043238">
        <ele>169.296595</ele>
        <time>2025-05-12T07:25:04.998Z</time>
      </trkpt>
      <trkpt lat="50.577095" lon="18.043229">
        <ele>169.258399</ele>
        <time>2025-05-12T07:25:10.409Z</time>
      </trkpt>
      <trkpt lat="50.573918" lon="18.043443">
        <ele>168.607119</ele>
        <time>2025-05-12T07:27:08.372Z</time>
      </trkpt>
      <trkpt lat="50.572770" lon="18.043820">
        <ele>167.680947</ele>
        <time>2025-05-12T07:27:30.370Z</time>
      </trkpt>
      <trkpt lat="50.572218" lon="18.043976">
        <ele>167.490895</ele>
        <time>2025-05-12T07:27:41.575Z</time>
      </trkpt>
      <trkpt lat="50.571491" lon="18.044159">
        <ele>167.515126</ele>
        <time>2025-05-12T07:27:58.662Z</time>
      </trkpt>
      <trkpt lat="50.570607" lon="18.044382">
        <ele>167.482209</ele>
        <time>2025-05-12T07:28:20.202Z</time>
      </trkpt>
      <trkpt lat="50.570518" lon="18.043782">
        <ele>167.321009</ele>
        <time>2025-05-12T07:28:28.847Z</time>
      </trkpt>
      <trkpt lat="50.569981" lon="18.041039">
        <ele>166.502569</ele>
        <time>2025-05-12T07:29:05.194Z</time>
      </trkpt>
      <trkpt lat="50.569697" lon="18.039616">
        <ele>165.997340</ele>
        <time>2025-05-12T07:29:24.352Z</time>
      </trkpt>
      <trkpt lat="50.569616" lon="18.039308">
        <ele>165.884426</ele>
        <time>2025-05-12T07:29:28.900Z</time>
      </trkpt>
      <trkpt lat="50.569515" lon="18.039030">
        <ele>165.857316</ele>
        <time>2025-05-12T07:29:33.406Z</time>
      </trkpt>
      <trkpt lat="50.569336" lon="18.038677">
        <ele>165.899106</ele>
        <time>2025-05-12T07:29:39.911Z</time>
      </trkpt>
      <trkpt lat="50.569143" lon="18.038410">
        <ele>165.936530</ele>
        <time>2025-05-12T07:29:45.813Z</time>
      </trkpt>
      <trkpt lat="50.569011" lon="18.038272">
        <ele>165.959611</ele>
        <time>2025-05-12T07:29:49.496Z</time>
      </trkpt>
      <trkpt lat="50.568642" lon="18.037978">
        <ele>166.019852</ele>
        <time>2025-05-12T07:29:59.232Z</time>
      </trkpt>
      <trkpt lat="50.566806" lon="18.036611">
        <ele>166.297985</ele>
        <time>2025-05-12T07:30:46.197Z</time>
      </trkpt>
      <trkpt lat="50.563016" lon="18.033790">
        <ele>166.009446</ele>
        <time>2025-05-12T07:32:17.935Z</time>
      </trkpt>
      <trkpt lat="50.561507" lon="18.032653">
        <ele>165.920371</ele>
        <time>2025-05-12T07:32:54.568Z</time>
      </trkpt>
      <trkpt lat="50.560965" lon="18.032245">
        <ele>166.031495</ele>
        <time>2025-05-12T07:33:07.565Z</time>
      </trkpt>
      <trkpt lat="50.559645" lon="18.031249">
        <ele>166.653602</ele>
        <time>2025-05-12T07:33:42.095Z</time>
      </trkpt>
      <trkpt lat="50.559230" lon="18.030936">
        <ele>167.138367</ele>
        <time>2025-05-12T07:33:54.974Z</time>
      </trkpt>
      <trkpt lat="50.559038" lon="18.030725">
        <ele>167.385041</ele>
        <time>2025-05-12T07:34:01.579Z</time>
      </trkpt>
      <trkpt lat="50.558992" lon="18.030700">
        <ele>167.436306</ele>
        <time>2025-05-12T07:34:03.287Z</time>
      </trkpt>
      <trkpt lat="50.558531" lon="18.030441">
        <ele>167.951943</ele>
        <time>2025-05-12T07:34:20.464Z</time>
      </trkpt>
      <trkpt lat="50.558428" lon="18.030452">
        <ele>168.060696</ele>
        <time>2025-05-12T07:34:24.903Z</time>
      </trkpt>
      <trkpt lat="50.556911" lon="18.029574">
        <ele>169.234978</ele>
        <time>2025-05-12T07:35:29.650Z</time>
      </trkpt>
      <trkpt lat="50.556738" lon="18.029428">
        <ele>169.375189</ele>
        <time>2025-05-12T07:35:37.114Z</time>
      </trkpt>
      <trkpt lat="50.556613" lon="18.029253">
        <ele>169.444752</ele>
        <time>2025-05-12T07:35:43.500Z</time>
      </trkpt>
      <trkpt lat="50.555449" lon="18.027216">
        <ele>170.023161</ele>
        <time>2025-05-12T07:36:49.466Z</time>
      </trkpt>
      <trkpt lat="50.555188" lon="18.026867">
        <ele>170.352046</ele>
        <time>2025-05-12T07:37:02.511Z</time>
      </trkpt>
      <trkpt lat="50.554535" lon="18.026121">
        <ele>171.126915</ele>
        <time>2025-05-12T07:37:36.377Z</time>
      </trkpt>
      <trkpt lat="50.554265" lon="18.025737">
        <ele>171.476380</ele>
        <time>2025-05-12T07:37:51.986Z</time>
      </trkpt>
      <trkpt lat="50.554010" lon="18.025496">
        <ele>171.736927</ele>
        <time>2025-05-12T07:38:04.791Z</time>
      </trkpt>
      <trkpt lat="50.551730" lon="18.022151">
        <ele>173.578915</ele>
        <time>2025-05-12T07:40:06.308Z</time>
      </trkpt>
      <trkpt lat="50.549987" lon="18.019465">
        <ele>174.905457</ele>
        <time>2025-05-12T07:41:43.717Z</time>
      </trkpt>
      <trkpt lat="50.549480" lon="18.018723">
        <ele>174.776373</ele>
        <time>2025-05-12T07:42:09.234Z</time>
      </trkpt>
      <trkpt lat="50.547751" lon="18.016161">
        <ele>173.576108</ele>
        <time>2025-05-12T07:43:31.938Z</time>
      </trkpt>
      <trkpt lat="50.547067" lon="18.015124">
        <ele>172.804337</ele>
        <time>2025-05-12T07:44:04.522Z</time>
      </trkpt>
      <trkpt lat="50.545174" lon="18.012255">
        <ele>170.501220</ele>
        <time>2025-05-12T07:45:33.620Z</time>
      </trkpt>
      <trkpt lat="50.545730" lon="18.011551">
        <ele>170.218732</ele>
        <time>2025-05-12T07:45:58.258Z</time>
      </trkpt>
      <trkpt lat="50.547344" lon="18.008597">
        <ele>170.597825</ele>
        <time>2025-05-12T07:47:32.695Z</time>
      </trkpt>
      <trkpt lat="50.547866" lon="18.007432">
        <ele>170.883079</ele>
        <time>2025-05-12T07:48:08.232Z</time>
      </trkpt>
      <trkpt lat="50.547900" lon="18.007070">
        <ele>170.903462</ele>
        <time>2025-05-12T07:48:17.178Z</time>
      </trkpt>
      <trkpt lat="50.548007" lon="18.006229">
        <ele>170.951237</ele>
        <time>2025-05-12T07:48:37.766Z</time>
      </trkpt>
      <trkpt lat="50.548383" lon="18.005010">
        <ele>171.001354</ele>
        <time>2025-05-12T07:49:09.451Z</time>
      </trkpt>
      <trkpt lat="50.548654" lon="18.004367">
        <ele>170.556910</ele>
        <time>2025-05-12T07:49:26.827Z</time>
      </trkpt>
      <trkpt lat="50.549020" lon="18.003837">
        <ele>170.106046</ele>
        <time>2025-05-12T07:49:43.801Z</time>
      </trkpt>
      <trkpt lat="50.548674" lon="18.001205">
        <ele>168.714814</ele>
        <time>2025-05-12T07:50:39.753Z</time>
      </trkpt>
      <trkpt lat="50.545898" lon="18.002285">
        <ele>168.076153</ele>
        <time>2025-05-12T07:52:25.411Z</time>
      </trkpt>
      <trkpt lat="50.541293" lon="18.004076">
        <ele>169.097233</ele>
        <time>2025-05-12T07:55:25.261Z</time>
      </trkpt>
      <trkpt lat="50.536695" lon="18.005912">
        <ele>171.727904</ele>
        <time>2025-05-12T07:58:29.735Z</time>
      </trkpt>
      <trkpt lat="50.536432" lon="18.004466">
        <ele>172.885723</ele>
        <time>2025-05-12T07:59:13.057Z</time>
      </trkpt>
      <trkpt lat="50.536158" lon="18.004480">
        <ele>173.034667</ele>
        <time>2025-05-12T07:59:24.794Z</time>
      </trkpt>
      <trkpt lat="50.536223" lon="18.004295">
        <ele>172.974159</ele>
        <time>2025-05-12T07:59:28.414Z</time>
      </trkpt>
      <trkpt lat="50.536460" lon="18.003509">
        <ele>172.725136</ele>
        <time>2025-05-12T07:59:41.360Z</time>
      </trkpt>
      <trkpt lat="50.536559" lon="18.002958">
        <ele>172.561234</ele>
        <time>2025-05-12T07:59:48.660Z</time>
      </trkpt>
      <trkpt lat="50.536618" lon="18.002538">
        <ele>172.438110</ele>
        <time>2025-05-12T07:59:53.692Z</time>
      </trkpt>
      <trkpt lat="50.536701" lon="18.001634">
        <ele>172.258295</ele>
        <time>2025-05-12T08:00:04.728Z</time>
      </trkpt>
      <trkpt lat="50.536758" lon="18.000984">
        <ele>172.227584</ele>
        <time>2025-05-12T08:00:13.260Z</time>
      </trkpt>
      <trkpt lat="50.537165" lon="17.996583">
        <ele>173.089720</ele>
        <time>2025-05-12T08:01:25.912Z</time>
      </trkpt>
      <trkpt lat="50.535089" lon="17.995986">
        <ele>173.548401</ele>
        <time>2025-05-12T08:02:45.930Z</time>
      </trkpt>
      <trkpt lat="50.534660" lon="17.995863">
        <ele>173.455515</ele>
        <time>2025-05-12T08:03:01.692Z</time>
      </trkpt>
      <trkpt lat="50.533984" lon="17.995982">
        <ele>173.310621</ele>
        <time>2025-05-12T08:03:25.971Z</time>
      </trkpt>
      <trkpt lat="50.533422" lon="17.995934">
        <ele>173.223587</ele>
        <time>2025-05-12T08:03:46.161Z</time>
      </trkpt>
      <trkpt lat="50.532846" lon="17.995794">
        <ele>173.445591</ele>
        <time>2025-05-12T08:04:07.597Z</time>
      </trkpt>
      <trkpt lat="50.531774" lon="17.995829">
        <ele>173.854009</ele>
        <time>2025-05-12T08:04:49.258Z</time>
      </trkpt>
      <trkpt lat="50.531487" lon="17.995845">
        <ele>174.218916</ele>
        <time>2025-05-12T08:05:01.300Z</time>
      </trkpt>
      <trkpt lat="50.531234" lon="17.995791">
        <ele>174.644135</ele>
        <time>2025-05-12T08:05:12.269Z</time>
      </trkpt>
      <trkpt lat="50.530482" lon="17.995418">
        <ele>175.957333</ele>
        <time>2025-05-12T08:05:47.537Z</time>
      </trkpt>
      <trkpt lat="50.529950" lon="17.995118">
        <ele>176.895222</ele>
        <time>2025-05-12T08:06:13.303Z</time>
      </trkpt>
      <trkpt lat="50.529429" lon="17.994963">
        <ele>177.586722</ele>
        <time>2025-05-12T08:06:36.636Z</time>
      </trkpt>
      <trkpt lat="50.529172" lon="17.994574">
        <ele>178.051839</ele>
        <time>2025-05-12T08:06:51.752Z</time>
      </trkpt>
      <trkpt lat="50.528816" lon="17.994214">
        <ele>178.603765</ele>
        <time>2025-05-12T08:07:09.153Z</time>
      </trkpt>
      <trkpt lat="50.528343" lon="17.993736">
        <ele>179.296861</ele>
        <time>2025-05-12T08:07:31.995Z</time>
      </trkpt>
      <trkpt lat="50.527848" lon="17.993387">
        <ele>179.741934</ele>
        <time>2025-05-12T08:07:53.961Z</time>
      </trkpt>
      <trkpt lat="50.527404" lon="17.993271">
        <ele>180.111223</ele>
        <time>2025-05-12T08:08:12.131Z</time>
      </trkpt>
      <trkpt lat="50.525992" lon="17.993235">
        <ele>181.039890</ele>
        <time>2025-05-12T08:09:08.366Z</time>
      </trkpt>
      <trkpt lat="50.525548" lon="17.993224">
        <ele>181.255974</ele>
        <time>2025-05-12T08:09:25.625Z</time>
      </trkpt>
      <trkpt lat="50.525334" lon="17.993309">
        <ele>181.363379</ele>
        <time>2025-05-12T08:09:34.126Z</time>
      </trkpt>
      <trkpt lat="50.525243" lon="17.993352">
        <ele>181.409616</ele>
        <time>2025-05-12T08:09:37.819Z</time>
      </trkpt>
      <trkpt lat="50.523329" lon="17.994248">
        <ele>182.117797</ele>
        <time>2025-05-12T08:10:54.355Z</time>
      </trkpt>
      <trkpt lat="50.522892" lon="17.994531">
        <ele>182.281186</ele>
        <time>2025-05-12T08:11:12.564Z</time>
      </trkpt>
      <trkpt lat="50.522765" lon="17.994575">
        <ele>182.327322</ele>
        <time>2025-05-12T08:11:17.573Z</time>
      </trkpt>
      <trkpt lat="50.522070" lon="17.992188">
        <ele>182.707108</ele>
        <time>2025-05-12T08:12:22.148Z</time>
      </trkpt>
      <trkpt lat="50.521901" lon="17.991490">
        <ele>182.561947</ele>
        <time>2025-05-12T08:12:39.466Z</time>
      </trkpt>
      <trkpt lat="50.521080" lon="17.988584">
        <ele>182.391079</ele>
        <time>2025-05-12T08:13:49.827Z</time>
      </trkpt>
      <trkpt lat="50.520951" lon="17.988255">
        <ele>182.423737</ele>
        <time>2025-05-12T08:13:59.558Z</time>
      </trkpt>
      <trkpt lat="50.520798" lon="17.987919">
        <ele>182.458655</ele>
        <time>2025-05-12T08:14:10.302Z</time>
      </trkpt>
      <trkpt lat="50.520726" lon="17.987758">
        <ele>182.475286</ele>
        <time>2025-05-12T08:14:15.527Z</time>
      </trkpt>
      <trkpt lat="50.520672" lon="17.987551">
        <ele>182.494191</ele>
        <time>2025-05-12T08:14:21.552Z</time>
      </trkpt>
      <trkpt lat="50.520645" lon="17.987190">
        <ele>182.804376</ele>
        <time>2025-05-12T08:14:31.527Z</time>
      </trkpt>
      <trkpt lat="50.520584" lon="17.986870">
        <ele>183.092971</ele>
        <time>2025-05-12T08:14:41.000Z</time>
      </trkpt>
      <trkpt lat="50.519901" lon="17.984304">
        <ele>184.694013</ele>
        <time>2025-05-12T08:15:57.057Z</time>
      </trkpt>
      <trkpt lat="50.517930" lon="17.977371">
        <ele>181.050311</ele>
        <time>2025-05-12T08:18:41.248Z</time>
      </trkpt>
      <trkpt lat="50.517890" lon="17.977304">
        <ele>180.988177</ele>
        <time>2025-05-12T08:18:43.114Z</time>
      </trkpt>
      <trkpt lat="50.517917" lon="17.977200">
        <ele>180.912230</ele>
        <time>2025-05-12T08:18:44.466Z</time>
      </trkpt>
      <trkpt lat="50.517924" lon="17.977080">
        <ele>180.793937</ele>
        <time>2025-05-12T08:18:45.832Z</time>
      </trkpt>
      <trkpt lat="50.518008" lon="17.975652">
        <ele>179.149046</ele>
        <time>2025-05-12T08:19:01.992Z</time>
      </trkpt>
      <trkpt lat="50.518196" lon="17.974569">
        <ele>177.861401</ele>
        <time>2025-05-12T08:19:14.499Z</time>
      </trkpt>
      <trkpt lat="50.518375" lon="17.973747">
        <ele>176.625595</ele>
        <time>2025-05-12T08:19:24.508Z</time>
      </trkpt>
      <trkpt lat="50.518566" lon="17.972969">
        <ele>175.373477</ele>
        <time>2025-05-12T08:19:33.953Z</time>
      </trkpt>
      <trkpt lat="50.518709" lon="17.972240">
        <ele>174.228074</ele>
        <time>2025-05-12T08:19:42.212Z</time>
      </trkpt>
      <trkpt lat="50.518775" lon="17.971250">
        <ele>172.414009</ele>
        <time>2025-05-12T08:19:52.473Z</time>
      </trkpt>
      <trkpt lat="50.518932" lon="17.968846">
        <ele>167.057526</ele>
        <time>2025-05-12T08:20:16.679Z</time>
      </trkpt>
      <trkpt lat="50.518974" lon="17.968206">
        <ele>166.427201</ele>
        <time>2025-05-12T08:20:23.728Z</time>
      </trkpt>
      <trkpt lat="50.518272" lon="17.968091">
        <ele>165.339705</ele>
        <time>2025-05-12T08:20:36.926Z</time>
      </trkpt>
      <trkpt lat="50.518128" lon="17.968067">
        <ele>165.116586</ele>
        <time>2025-05-12T08:20:39.892Z</time>
      </trkpt>
      <trkpt lat="50.517788" lon="17.967997">
        <ele>164.588243</ele>
        <time>2025-05-12T08:20:46.901Z</time>
      </trkpt>
      <trkpt lat="50.517064" lon="17.967905">
        <ele>163.811886</ele>
        <time>2025-05-12T08:21:01.283Z</time>
      </trkpt>
      <trkpt lat="50.516947" lon="17.967889">
        <ele>163.704529</ele>
        <time>2025-05-12T08:21:03.563Z</time>
      </trkpt>
      <trkpt lat="50.514750" lon="17.967618">
        <ele>161.879995</ele>
        <time>2025-05-12T08:21:46.164Z</time>
      </trkpt>
      <trkpt lat="50.514743" lon="17.967225">
        <ele>161.695867</ele>
        <time>2025-05-12T08:21:51.005Z</time>
      </trkpt>
      <trkpt lat="50.514425" lon="17.966760">
        <ele>161.376051</ele>
        <time>2025-05-12T08:21:59.801Z</time>
      </trkpt>
      <trkpt lat="50.514216" lon="17.966130">
        <ele>161.740596</ele>
        <time>2025-05-12T08:22:10.142Z</time>
      </trkpt>
      <trkpt lat="50.514163" lon="17.965892">
        <ele>161.897221</ele>
        <time>2025-05-12T08:22:14.130Z</time>
      </trkpt>
      <trkpt lat="50.514145" lon="17.965589">
        <ele>162.086236</ele>
        <time>2025-05-12T08:22:19.053Z</time>
      </trkpt>
      <trkpt lat="50.514232" lon="17.964252">
        <ele>162.920991</ele>
        <time>2025-05-12T08:22:42.585Z</time>
      </trkpt>
      <trkpt lat="50.513751" lon="17.964107">
        <ele>163.939188</ele>
        <time>2025-05-12T08:22:57.141Z</time>
      </trkpt>
      <trkpt lat="50.512857" lon="17.963554">
        <ele>166.568842</ele>
        <time>2025-05-12T08:23:28.820Z</time>
      </trkpt>
      <trkpt lat="50.512711" lon="17.963391">
        <ele>167.058963</ele>
        <time>2025-05-12T08:23:35.222Z</time>
      </trkpt>
      <trkpt lat="50.512593" lon="17.963119">
        <ele>167.632109</ele>
        <time>2025-05-12T08:23:42.877Z</time>
      </trkpt>
      <trkpt lat="50.512575" lon="17.962487">
        <ele>168.531247</ele>
        <time>2025-05-12T08:23:57.820Z</time>
      </trkpt>
      <trkpt lat="50.512541" lon="17.962340">
        <ele>168.726037</ele>
        <time>2025-05-12T08:24:01.519Z</time>
      </trkpt>
      <trkpt lat="50.512402" lon="17.962096">
        <ele>169.133980</ele>
        <time>2025-05-12T08:24:09.120Z</time>
      </trkpt>
      <trkpt lat="50.511927" lon="17.961363">
        <ele>170.437223</ele>
        <time>2025-05-12T08:24:30.451Z</time>
      </trkpt>
      <trkpt lat="50.511752" lon="17.961011">
        <ele>170.993631</ele>
        <time>2025-05-12T08:24:37.756Z</time>
      </trkpt>
      <trkpt lat="50.511780" lon="17.960483">
        <ele>171.457957</ele>
        <time>2025-05-12T08:24:45.345Z</time>
      </trkpt>
      <trkpt lat="50.511763" lon="17.960265">
        <ele>171.235974</ele>
        <time>2025-05-12T08:24:48.228Z</time>
      </trkpt>
      <trkpt lat="50.511978" lon="17.958493">
        <ele>169.412715</ele>
        <time>2025-05-12T08:25:08.878Z</time>
      </trkpt>
      <trkpt lat="50.512309" lon="17.955278">
        <ele>164.888494</ele>
        <time>2025-05-12T08:25:43.836Z</time>
      </trkpt>
      <trkpt lat="50.512339" lon="17.955190">
        <ele>164.739103</ele>
        <time>2025-05-12T08:25:44.949Z</time>
      </trkpt>
      <trkpt lat="50.512411" lon="17.955065">
        <ele>164.486764</ele>
        <time>2025-05-12T08:25:46.863Z</time>
      </trkpt>
      <trkpt lat="50.512485" lon="17.955011">
        <ele>164.398382</ele>
        <time>2025-05-12T08:25:48.314Z</time>
      </trkpt>
      <trkpt lat="50.512605" lon="17.955002">
        <ele>164.298499</ele>
        <time>2025-05-12T08:25:50.514Z</time>
      </trkpt>
      <trkpt lat="50.513013" lon="17.955147">
        <ele>163.950729</ele>
        <time>2025-05-12T08:25:58.421Z</time>
      </trkpt>
      <trkpt lat="50.514103" lon="17.955606">
        <ele>163.012561</ele>
        <time>2025-05-12T08:26:21.783Z</time>
      </trkpt>
      <trkpt lat="50.514394" lon="17.955721">
        <ele>162.850335</ele>
        <time>2025-05-12T08:26:28.477Z</time>
      </trkpt>
      <trkpt lat="50.514804" lon="17.955805">
        <ele>162.659218</ele>
        <time>2025-05-12T08:26:37.359Z</time>
      </trkpt>
      <trkpt lat="50.514833" lon="17.955882">
        <ele>162.632914</ele>
        <time>2025-05-12T08:26:39.459Z</time>
      </trkpt>
      <trkpt lat="50.514936" lon="17.955973">
        <ele>162.578305</ele>
        <time>2025-05-12T08:26:54.090Z</time>
      </trkpt>
      <trkpt lat="50.517090" lon="17.951390">
        <ele>160.244546</ele>
        <time>2025-05-12T08:28:06.755Z</time>
      </trkpt>
      <trkpt lat="50.517072" lon="17.951369">
        <ele>160.227619</ele>
        <time>2025-05-12T08:28:09.514Z</time>
      </trkpt>
      <trkpt lat="50.516974" lon="17.951570">
        <ele>160.105981</ele>
        <time>2025-05-12T08:28:29.430Z</time>
      </trkpt>
      <trkpt lat="50.516851" lon="17.951581">
        <ele>160.012933</ele>
        <time>2025-05-12T08:28:33.576Z</time>
      </trkpt>
      <trkpt lat="50.516830" lon="17.951393">
        <ele>159.921266</ele>
        <time>2025-05-12T08:28:35.892Z</time>
      </trkpt>
      <trkpt lat="50.516876" lon="17.951125">
        <ele>159.787956</ele>
        <time>2025-05-12T08:28:39.289Z</time>
      </trkpt>
      <trkpt lat="50.517588" lon="17.949572">
        <ele>160.523122</ele>
        <time>2025-05-12T08:29:04.448Z</time>
      </trkpt>
      <trkpt lat="50.517995" lon="17.948751">
        <ele>161.275427</ele>
        <time>2025-05-12T08:29:23.470Z</time>
      </trkpt>
      <trkpt lat="50.518091" lon="17.948509">
        <ele>161.481551</ele>
        <time>2025-05-12T08:29:29.881Z</time>
      </trkpt>
      <trkpt lat="50.518196" lon="17.948064">
        <ele>162.562432</ele>
        <time>2025-05-12T08:29:41.558Z</time>
      </trkpt>
      <trkpt lat="50.518226" lon="17.948002">
        <ele>162.784070</ele>
        <time>2025-05-12T08:29:43.681Z</time>
      </trkpt>
      <trkpt lat="50.518214" lon="17.947848">
        <ele>163.225437</ele>
        <time>2025-05-12T08:29:47.855Z</time>
      </trkpt>
      <trkpt lat="50.518354" lon="17.947114">
        <ele>165.405397</ele>
        <time>2025-05-12T08:30:09.428Z</time>
      </trkpt>
      <trkpt lat="50.518349" lon="17.946077">
        <ele>168.355467</ele>
        <time>2025-05-12T08:30:39.072Z</time>
      </trkpt>
      <trkpt lat="50.518329" lon="17.944718">
        <ele>170.911935</ele>
        <time>2025-05-12T08:31:11.174Z</time>
      </trkpt>
      <trkpt lat="50.518364" lon="17.943869">
        <ele>172.113175</ele>
        <time>2025-05-12T08:31:27.153Z</time>
      </trkpt>
      <trkpt lat="50.518495" lon="17.942144">
        <ele>173.847096</ele>
        <time>2025-05-12T08:31:58.705Z</time>
      </trkpt>
      <trkpt lat="50.518596" lon="17.941217">
        <ele>174.171654</ele>
        <time>2025-05-12T08:32:13.838Z</time>
      </trkpt>
      <trkpt lat="50.518215" lon="17.941285">
        <ele>174.379763</ele>
        <time>2025-05-12T08:32:23.068Z</time>
      </trkpt>
      <trkpt lat="50.517837" lon="17.941422">
        <ele>174.590294</ele>
        <time>2025-05-12T08:32:32.203Z</time>
      </trkpt>
      <trkpt lat="50.517360" lon="17.941679">
        <ele>174.410100</ele>
        <time>2025-05-12T08:32:43.269Z</time>
      </trkpt>
      <trkpt lat="50.516870" lon="17.941992">
        <ele>174.220343</ele>
        <time>2025-05-12T08:32:54.790Z</time>
      </trkpt>
      <trkpt lat="50.516139" lon="17.942312">
        <ele>173.948093</ele>
        <time>2025-05-12T08:33:11.070Z</time>
      </trkpt>
      <trkpt lat="50.515605" lon="17.942500">
        <ele>173.823223</ele>
        <time>2025-05-12T08:33:22.999Z</time>
      </trkpt>
      <trkpt lat="50.515362" lon="17.942505">
        <ele>173.768212</ele>
        <time>2025-05-12T08:33:28.496Z</time>
      </trkpt>
      <trkpt lat="50.515318" lon="17.942325">
        <ele>173.740455</ele>
        <time>2025-05-12T08:33:31.338Z</time>
      </trkpt>
      <trkpt lat="50.515191" lon="17.940136">
        <ele>173.217203</ele>
        <time>2025-05-12T08:34:03.092Z</time>
      </trkpt>
      <trkpt lat="50.514187" lon="17.940764">
        <ele>172.529459</ele>
        <time>2025-05-12T08:34:25.095Z</time>
      </trkpt>
      <trkpt lat="50.513399" lon="17.941265">
        <ele>172.106560</ele>
        <time>2025-05-12T08:34:42.777Z</time>
      </trkpt>
      <trkpt lat="50.512553" lon="17.941942">
        <ele>171.678590</ele>
        <time>2025-05-12T08:35:05.288Z</time>
      </trkpt>
      <trkpt lat="50.512415" lon="17.942019">
        <ele>171.612571</ele>
        <time>2025-05-12T08:35:08.502Z</time>
      </trkpt>
      <trkpt lat="50.512254" lon="17.941997">
        <ele>171.446000</ele>
        <time>2025-05-12T08:35:11.881Z</time>
      </trkpt>
      <trkpt lat="50.512205" lon="17.941929">
        <ele>171.351949</ele>
        <time>2025-05-12T08:35:13.220Z</time>
      </trkpt>
      <trkpt lat="50.512157" lon="17.941758">
        <ele>171.180887</ele>
        <time>2025-05-12T08:35:15.593Z</time>
      </trkpt>
      <trkpt lat="50.512134" lon="17.941523">
        <ele>170.963289</ele>
        <time>2025-05-12T08:35:18.469Z</time>
      </trkpt>
      <trkpt lat="50.511919" lon="17.941571">
        <ele>170.650771</ele>
        <time>2025-05-12T08:35:23.444Z</time>
      </trkpt>
      <trkpt lat="50.511848" lon="17.941594">
        <ele>170.546446</ele>
        <time>2025-05-12T08:35:25.036Z</time>
      </trkpt>
      <trkpt lat="50.511909" lon="17.942004">
        <ele>170.161091</ele>
        <time>2025-05-12T08:35:31.055Z</time>
      </trkpt>
      <trkpt lat="50.511522" lon="17.942207">
        <ele>169.573975</ele>
        <time>2025-05-12T08:35:41.445Z</time>
      </trkpt>
      <trkpt lat="50.511511" lon="17.942163">
        <ele>169.530707</ele>
        <time>2025-05-12T08:35:42.249Z</time>
      </trkpt>
      <trkpt lat="50.511076" lon="17.942307">
        <ele>169.050223</ele>
        <time>2025-05-12T08:35:53.824Z</time>
      </trkpt>
      <trkpt lat="50.511511" lon="17.942163">
        <ele>169.399696</ele>
        <time>2025-05-12T08:36:06.094Z</time>
      </trkpt>
      <trkpt lat="50.511297" lon="17.940933">
        <ele>170.037216</ele>
        <time>2025-05-12T08:36:30.000Z</time>
      </trkpt>
      <trkpt lat="50.511274" lon="17.940669">
        <ele>170.170432</ele>
        <time>2025-05-12T08:36:35.494Z</time>
      </trkpt>
      <trkpt lat="50.511379" lon="17.940122">
        <ele>170.458313</ele>
        <time>2025-05-12T08:36:45.481Z</time>
      </trkpt>
      <trkpt lat="50.511620" lon="17.939505">
        <ele>170.837085</ele>
        <time>2025-05-12T08:36:57.914Z</time>
      </trkpt>
      <trkpt lat="50.511845" lon="17.939019">
        <ele>171.151545</ele>
        <time>2025-05-12T08:37:08.380Z</time>
      </trkpt>
      <trkpt lat="50.512047" lon="17.938695">
        <ele>171.388892</ele>
        <time>2025-05-12T08:37:16.351Z</time>
      </trkpt>
      <trkpt lat="50.512528" lon="17.938184">
        <ele>171.866381</ele>
        <time>2025-05-12T08:37:31.300Z</time>
      </trkpt>
      <trkpt lat="50.512675" lon="17.938112">
        <ele>171.849251</ele>
        <time>2025-05-12T08:37:34.968Z</time>
      </trkpt>
      <trkpt lat="50.512897" lon="17.938215">
        <ele>171.780245</ele>
        <time>2025-05-12T08:37:40.222Z</time>
      </trkpt>
      <trkpt lat="50.512993" lon="17.938255">
        <ele>171.750637</ele>
        <time>2025-05-12T08:37:42.337Z</time>
      </trkpt>
      <trkpt lat="50.514047" lon="17.938271">
        <ele>171.436392</ele>
        <time>2025-05-12T08:38:04.766Z</time>
      </trkpt>
      <trkpt lat="50.514965" lon="17.938153">
        <ele>171.586641</ele>
        <time>2025-05-12T08:38:25.004Z</time>
      </trkpt>
      <trkpt lat="50.516324" lon="17.937649">
        <ele>172.415722</ele>
        <time>2025-05-12T08:39:00.965Z</time>
      </trkpt>
      <trkpt lat="50.517736" lon="17.937151">
        <ele>174.887733</ele>
        <time>2025-05-12T08:39:46.108Z</time>
      </trkpt>
      <trkpt lat="50.517940" lon="17.937128">
        <ele>175.176025</ele>
        <time>2025-05-12T08:39:52.280Z</time>
      </trkpt>
      <trkpt lat="50.518150" lon="17.937040">
        <ele>175.393106</ele>
        <time>2025-05-12T08:39:58.690Z</time>
      </trkpt>
      <trkpt lat="50.518405" lon="17.936823">
        <ele>175.682712</ele>
        <time>2025-05-12T08:40:06.996Z</time>
      </trkpt>
      <trkpt lat="50.518783" lon="17.936353">
        <ele>176.164027</ele>
        <time>2025-05-12T08:40:20.147Z</time>
      </trkpt>
      <trkpt lat="50.519009" lon="17.936196">
        <ele>176.410812</ele>
        <time>2025-05-12T08:40:26.377Z</time>
      </trkpt>
      <trkpt lat="50.519235" lon="17.936116">
        <ele>176.642203</ele>
        <time>2025-05-12T08:40:31.859Z</time>
      </trkpt>
      <trkpt lat="50.519592" lon="17.936015">
        <ele>176.825226</ele>
        <time>2025-05-12T08:40:40.025Z</time>
      </trkpt>
      <trkpt lat="50.521406" lon="17.935691">
        <ele>176.094505</ele>
        <time>2025-05-12T08:41:16.033Z</time>
      </trkpt>
      <trkpt lat="50.521943" lon="17.935579">
        <ele>176.629519</ele>
        <time>2025-05-12T08:41:29.019Z</time>
      </trkpt>
      <trkpt lat="50.523505" lon="17.935226">
        <ele>177.862681</ele>
        <time>2025-05-12T08:42:15.102Z</time>
      </trkpt>
      <trkpt lat="50.524218" lon="17.935083">
        <ele>178.070843</ele>
        <time>2025-05-12T08:42:31.929Z</time>
      </trkpt>
      <trkpt lat="50.524917" lon="17.934884">
        <ele>178.205736</ele>
        <time>2025-05-12T08:42:45.869Z</time>
      </trkpt>
      <trkpt lat="50.525321" lon="17.934644">
        <ele>178.014288</ele>
        <time>2025-05-12T08:42:54.149Z</time>
      </trkpt>
      <trkpt lat="50.525668" lon="17.934318">
        <ele>177.835107</ele>
        <time>2025-05-12T08:43:02.178Z</time>
      </trkpt>
      <trkpt lat="50.525885" lon="17.934034">
        <ele>177.709963</ele>
        <time>2025-05-12T08:43:08.102Z</time>
      </trkpt>
      <trkpt lat="50.526164" lon="17.933537">
        <ele>177.523101</ele>
        <time>2025-05-12T08:43:17.400Z</time>
      </trkpt>
      <trkpt lat="50.526252" lon="17.933355">
        <ele>177.458658</ele>
        <time>2025-05-12T08:43:20.709Z</time>
      </trkpt>
      <trkpt lat="50.526996" lon="17.931820">
        <ele>177.495238</ele>
        <time>2025-05-12T08:43:49.243Z</time>
      </trkpt>
      <trkpt lat="50.527214" lon="17.931421">
        <ele>177.507406</ele>
        <time>2025-05-12T08:43:56.749Z</time>
      </trkpt>
      <trkpt lat="50.527459" lon="17.931071">
        <ele>177.412023</ele>
        <time>2025-05-12T08:44:03.838Z</time>
      </trkpt>
      <trkpt lat="50.527633" lon="17.930883">
        <ele>177.125450</ele>
        <time>2025-05-12T08:44:08.235Z</time>
      </trkpt>
      <trkpt lat="50.527886" lon="17.930660">
        <ele>176.731739</ele>
        <time>2025-05-12T08:44:14.030Z</time>
      </trkpt>
      <trkpt lat="50.528245" lon="17.930464">
        <ele>176.215848</ele>
        <time>2025-05-12T08:44:21.294Z</time>
      </trkpt>
      <trkpt lat="50.528571" lon="17.930357">
        <ele>175.763746</ele>
        <time>2025-05-12T08:44:27.267Z</time>
      </trkpt>
      <trkpt lat="50.529317" lon="17.930196">
        <ele>174.720186</ele>
        <time>2025-05-12T08:44:40.034Z</time>
      </trkpt>
      <trkpt lat="50.529478" lon="17.930164">
        <ele>174.485789</ele>
        <time>2025-05-12T08:44:42.842Z</time>
      </trkpt>
      <trkpt lat="50.530102" lon="17.930043">
        <ele>173.577660</ele>
        <time>2025-05-12T08:44:54.232Z</time>
      </trkpt>
      <trkpt lat="50.530301" lon="17.930009">
        <ele>173.288534</ele>
        <time>2025-05-12T08:44:58.056Z</time>
      </trkpt>
      <trkpt lat="50.530571" lon="17.929962">
        <ele>172.896165</ele>
        <time>2025-05-12T08:45:03.330Z</time>
      </trkpt>
      <trkpt lat="50.531158" lon="17.929845">
        <ele>172.263830</ele>
        <time>2025-05-12T08:45:15.525Z</time>
      </trkpt>
      <trkpt lat="50.531211" lon="17.929836">
        <ele>172.226150</ele>
        <time>2025-05-12T08:45:16.666Z</time>
      </trkpt>
      <trkpt lat="50.532924" lon="17.929545">
        <ele>171.003078</ele>
        <time>2025-05-12T08:45:50.963Z</time>
      </trkpt>
      <trkpt lat="50.534535" lon="17.929241">
        <ele>169.935182</ele>
        <time>2025-05-12T08:46:23.023Z</time>
      </trkpt>
      <trkpt lat="50.534792" lon="17.929149">
        <ele>170.023989</ele>
        <time>2025-05-12T08:46:28.659Z</time>
      </trkpt>
      <trkpt lat="50.535351" lon="17.928937">
        <ele>170.217733</ele>
        <time>2025-05-12T08:46:41.839Z</time>
      </trkpt>
      <trkpt lat="50.535918" lon="17.928745">
        <ele>170.413153</ele>
        <time>2025-05-12T08:46:56.405Z</time>
      </trkpt>
      <trkpt lat="50.537435" lon="17.928563">
        <ele>172.259856</ele>
        <time>2025-05-12T08:47:37.731Z</time>
      </trkpt>
      <trkpt lat="50.537413" lon="17.928467">
        <ele>172.351252</ele>
        <time>2025-05-12T08:47:39.587Z</time>
      </trkpt>
      <trkpt lat="50.537306" lon="17.927930">
        <ele>172.855275</ele>
        <time>2025-05-12T08:47:50.012Z</time>
      </trkpt>
      <trkpt lat="50.537381" lon="17.927127">
        <ele>173.821214</ele>
        <time>2025-05-12T08:48:05.513Z</time>
      </trkpt>
      <trkpt lat="50.537524" lon="17.926126">
        <ele>175.146000</ele>
        <time>2025-05-12T08:48:25.687Z</time>
      </trkpt>
      <trkpt lat="50.537867" lon="17.924204">
        <ele>177.441423</ele>
        <time>2025-05-12T08:49:04.281Z</time>
      </trkpt>
      <trkpt lat="50.537923" lon="17.923885">
        <ele>177.751453</ele>
        <time>2025-05-12T08:49:10.335Z</time>
      </trkpt>
      <trkpt lat="50.538017" lon="17.923526">
        <ele>178.115186</ele>
        <time>2025-05-12T08:49:17.381Z</time>
      </trkpt>
      <trkpt lat="50.538660" lon="17.921994">
        <ele>179.603703</ele>
        <time>2025-05-12T08:49:48.384Z</time>
      </trkpt>
      <trkpt lat="50.538978" lon="17.921065">
        <ele>180.124226</ele>
        <time>2025-05-12T08:50:05.444Z</time>
      </trkpt>
      <trkpt lat="50.539051" lon="17.920775">
        <ele>180.278097</ele>
        <time>2025-05-12T08:50:10.528Z</time>
      </trkpt>
      <trkpt lat="50.539240" lon="17.919857">
        <ele>180.754178</ele>
        <time>2025-05-12T08:50:26.051Z</time>
      </trkpt>
      <trkpt lat="50.539314" lon="17.918981">
        <ele>181.192395</ele>
        <time>2025-05-12T08:50:40.686Z</time>
      </trkpt>
      <trkpt lat="50.539781" lon="17.910864">
        <ele>185.234373</ele>
        <time>2025-05-12T08:52:57.179Z</time>
      </trkpt>
      <trkpt lat="50.539953" lon="17.910859">
        <ele>185.350424</ele>
        <time>2025-05-12T08:53:01.704Z</time>
      </trkpt>
      <trkpt lat="50.542412" lon="17.911711">
        <ele>186.993903</ele>
        <time>2025-05-12T08:54:06.303Z</time>
      </trkpt>
      <trkpt lat="50.543547" lon="17.912138">
        <ele>187.776835</ele>
        <time>2025-05-12T08:54:36.192Z</time>
      </trkpt>
      <trkpt lat="50.543889" lon="17.912233">
        <ele>188.022173</ele>
        <time>2025-05-12T08:54:45.758Z</time>
      </trkpt>
      <trkpt lat="50.543962" lon="17.912155">
        <ele>188.084508</ele>
        <time>2025-05-12T08:54:48.176Z</time>
      </trkpt>
      <trkpt lat="50.544536" lon="17.910943">
        <ele>188.508849</ele>
        <time>2025-05-12T08:55:13.649Z</time>
      </trkpt>
      <trkpt lat="50.546233" lon="17.907342">
        <ele>186.618750</ele>
        <time>2025-05-12T08:56:12.911Z</time>
      </trkpt>
      <trkpt lat="50.546280" lon="17.907239">
        <ele>186.545006</ele>
        <time>2025-05-12T08:56:15.590Z</time>
      </trkpt>
      <trkpt lat="50.548626" lon="17.902284">
        <ele>182.291269</ele>
        <time>2025-05-12T08:58:25.858Z</time>
      </trkpt>
      <trkpt lat="50.552603" lon="17.893991">
        <ele>183.152256</ele>
        <time>2025-05-12T09:02:36.638Z</time>
      </trkpt>
      <trkpt lat="50.555219" lon="17.888415">
        <ele>181.922063</ele>
        <time>2025-05-12T09:05:14.056Z</time>
      </trkpt>
      <trkpt lat="50.556597" lon="17.885519">
        <ele>181.842585</ele>
        <time>2025-05-12T09:06:37.013Z</time>
      </trkpt>
      <trkpt lat="50.560986" lon="17.881930">
        <ele>185.165691</ele>
        <time>2025-05-12T09:09:56.075Z</time>
      </trkpt>
      <trkpt lat="50.561327" lon="17.881651">
        <ele>185.240477</ele>
        <time>2025-05-12T09:10:12.440Z</time>
      </trkpt>
      <trkpt lat="50.562063" lon="17.881135">
        <ele>185.397263</ele>
        <time>2025-05-12T09:10:43.545Z</time>
      </trkpt>
      <trkpt lat="50.562123" lon="17.881069">
        <ele>185.411507</ele>
        <time>2025-05-12T09:10:46.160Z</time>
      </trkpt>
      <trkpt lat="50.563189" lon="17.879988">
        <ele>184.443855</ele>
        <time>2025-05-12T09:11:10.229Z</time>
      </trkpt>
      <trkpt lat="50.563818" lon="17.879172">
        <ele>183.471830</ele>
        <time>2025-05-12T09:11:25.388Z</time>
      </trkpt>
      <trkpt lat="50.564489" lon="17.878140">
        <ele>181.966492</ele>
        <time>2025-05-12T09:11:42.859Z</time>
      </trkpt>
      <trkpt lat="50.564670" lon="17.877898">
        <ele>181.572671</ele>
        <time>2025-05-12T09:11:47.032Z</time>
      </trkpt>
      <trkpt lat="50.566140" lon="17.876773">
        <ele>179.550951</ele>
        <time>2025-05-12T09:12:16.107Z</time>
      </trkpt>
      <trkpt lat="50.567429" lon="17.875792">
        <ele>178.652327</ele>
        <time>2025-05-12T09:12:48.244Z</time>
      </trkpt>
      <trkpt lat="50.568931" lon="17.874671">
        <ele>178.329388</ele>
        <time>2025-05-12T09:13:23.416Z</time>
      </trkpt>
      <trkpt lat="50.569305" lon="17.874393">
        <ele>178.230636</ele>
        <time>2025-05-12T09:13:32.374Z</time>
      </trkpt>
      <trkpt lat="50.569411" lon="17.874314">
        <ele>178.202634</ele>
        <time>2025-05-12T09:13:34.998Z</time>
      </trkpt>
      <trkpt lat="50.569548" lon="17.874216">
        <ele>178.166705</ele>
        <time>2025-05-12T09:13:38.253Z</time>
      </trkpt>
      <trkpt lat="50.570436" lon="17.873592">
        <ele>177.959241</ele>
        <time>2025-05-12T09:13:59.128Z</time>
      </trkpt>
      <trkpt lat="50.570532" lon="17.873541">
        <ele>177.944872</ele>
        <time>2025-05-12T09:14:01.215Z</time>
      </trkpt>
      <trkpt lat="50.570872" lon="17.873356">
        <ele>177.893854</ele>
        <time>2025-05-12T09:14:08.478Z</time>
      </trkpt>
      <trkpt lat="50.571363" lon="17.873140">
        <ele>177.821553</ele>
        <time>2025-05-12T09:14:18.672Z</time>
      </trkpt>
      <trkpt lat="50.571564" lon="17.872988">
        <ele>177.789929</ele>
        <time>2025-05-12T09:14:23.410Z</time>
      </trkpt>
      <trkpt lat="50.571694" lon="17.872843">
        <ele>177.767335</ele>
        <time>2025-05-12T09:14:27.064Z</time>
      </trkpt>
      <trkpt lat="50.571776" lon="17.872806">
        <ele>177.755237</ele>
        <time>2025-05-12T09:14:29.108Z</time>
      </trkpt>
      <trkpt lat="50.572120" lon="17.872919">
        <ele>178.255421</ele>
        <time>2025-05-12T09:14:38.007Z</time>
      </trkpt>
      <trkpt lat="50.572255" lon="17.872929">
        <ele>178.538161</ele>
        <time>2025-05-12T09:14:41.743Z</time>
      </trkpt>
      <trkpt lat="50.573108" lon="17.872824">
        <ele>180.328126</ele>
        <time>2025-05-12T09:15:09.150Z</time>
      </trkpt>
      <trkpt lat="50.573204" lon="17.872815">
        <ele>180.529319</ele>
        <time>2025-05-12T09:15:12.448Z</time>
      </trkpt>
      <trkpt lat="50.573840" lon="17.872729">
        <ele>181.734857</ele>
        <time>2025-05-12T09:15:34.308Z</time>
      </trkpt>
      <trkpt lat="50.574203" lon="17.872684">
        <ele>182.222951</ele>
        <time>2025-05-12T09:15:45.985Z</time>
      </trkpt>
      <trkpt lat="50.574520" lon="17.872637">
        <ele>182.649757</ele>
        <time>2025-05-12T09:15:55.613Z</time>
      </trkpt>
      <trkpt lat="50.574917" lon="17.872577">
        <ele>183.184366</ele>
        <time>2025-05-12T09:16:05.994Z</time>
      </trkpt>
      <trkpt lat="50.575320" lon="17.872469">
        <ele>183.732340</ele>
        <time>2025-05-12T09:16:15.218Z</time>
      </trkpt>
      <trkpt lat="50.575565" lon="17.872338">
        <ele>183.912554</ele>
        <time>2025-05-12T09:16:20.696Z</time>
      </trkpt>
      <trkpt lat="50.575830" lon="17.872114">
        <ele>183.908563</ele>
        <time>2025-05-12T09:16:27.084Z</time>
      </trkpt>
      <trkpt lat="50.576518" lon="17.871501">
        <ele>183.898073</ele>
        <time>2025-05-12T09:16:44.051Z</time>
      </trkpt>
      <trkpt lat="50.576596" lon="17.871436">
        <ele>183.896902</ele>
        <time>2025-05-12T09:16:46.028Z</time>
      </trkpt>
      <trkpt lat="50.576636" lon="17.871503">
        <ele>183.896127</ele>
        <time>2025-05-12T09:16:47.359Z</time>
      </trkpt>
      <trkpt lat="50.576723" lon="17.871508">
        <ele>183.894972</ele>
        <time>2025-05-12T09:16:49.366Z</time>
      </trkpt>
      <trkpt lat="50.576775" lon="17.871404">
        <ele>183.893857</ele>
        <time>2025-05-12T09:16:51.362Z</time>
      </trkpt>
      <trkpt lat="50.576770" lon="17.871315">
        <ele>183.893104</ele>
        <time>2025-05-12T09:16:52.741Z</time>
      </trkpt>
      <trkpt lat="50.576825" lon="17.871289">
        <ele>183.892342</ele>
        <time>2025-05-12T09:16:54.140Z</time>
      </trkpt>
      <trkpt lat="50.577043" lon="17.871176">
        <ele>183.849690</ele>
        <time>2025-05-12T09:16:59.609Z</time>
      </trkpt>
      <trkpt lat="50.577187" lon="17.871004">
        <ele>183.754491</ele>
        <time>2025-05-12T09:17:03.843Z</time>
      </trkpt>
      <trkpt lat="50.577571" lon="17.870254">
        <ele>183.432245</ele>
        <time>2025-05-12T09:17:18.070Z</time>
      </trkpt>
      <trkpt lat="50.577710" lon="17.870139">
        <ele>183.349541</ele>
        <time>2025-05-12T09:17:21.377Z</time>
      </trkpt>
      <trkpt lat="50.577820" lon="17.870110">
        <ele>183.290796</ele>
        <time>2025-05-12T09:17:23.637Z</time>
      </trkpt>
      <trkpt lat="50.577973" lon="17.870085">
        <ele>183.209775</ele>
        <time>2025-05-12T09:17:26.747Z</time>
      </trkpt>
      <trkpt lat="50.578027" lon="17.870083">
        <ele>183.181324</ele>
        <time>2025-05-12T09:17:27.836Z</time>
      </trkpt>
      <trkpt lat="50.578362" lon="17.870065">
        <ele>183.004770</ele>
        <time>2025-05-12T09:17:34.136Z</time>
      </trkpt>
      <trkpt lat="50.578526" lon="17.870045">
        <ele>182.804788</ele>
        <time>2025-05-12T09:17:37.031Z</time>
      </trkpt>
      <trkpt lat="50.578663" lon="17.870027">
        <ele>182.401551</ele>
        <time>2025-05-12T09:17:39.358Z</time>
      </trkpt>
      <trkpt lat="50.578719" lon="17.870012">
        <ele>182.234936</ele>
        <time>2025-05-12T09:17:40.313Z</time>
      </trkpt>
      <trkpt lat="50.578795" lon="17.869991">
        <ele>182.008611</ele>
        <time>2025-05-12T09:17:41.607Z</time>
      </trkpt>
      <trkpt lat="50.579188" lon="17.869899">
        <ele>180.843218</ele>
        <time>2025-05-12T09:17:48.292Z</time>
      </trkpt>
      <trkpt lat="50.579371" lon="17.869856">
        <ele>180.300511</ele>
        <time>2025-05-12T09:17:51.358Z</time>
      </trkpt>
      <trkpt lat="50.579412" lon="17.869847">
        <ele>180.179089</ele>
        <time>2025-05-12T09:17:52.053Z</time>
      </trkpt>
      <trkpt lat="50.579504" lon="17.869823">
        <ele>179.905562</ele>
        <time>2025-05-12T09:17:53.566Z</time>
      </trkpt>
      <trkpt lat="50.579760" lon="17.869753">
        <ele>179.143442</ele>
        <time>2025-05-12T09:17:57.727Z</time>
      </trkpt>
      <trkpt lat="50.579844" lon="17.869732">
        <ele>178.893972</ele>
        <time>2025-05-12T09:17:59.065Z</time>
      </trkpt>
      <trkpt lat="50.579941" lon="17.869717">
        <ele>178.608089</ele>
        <time>2025-05-12T09:18:00.622Z</time>
      </trkpt>
      <trkpt lat="50.580088" lon="17.869733">
        <ele>178.175888</ele>
        <time>2025-05-12T09:18:02.954Z</time>
      </trkpt>
      <trkpt lat="50.580218" lon="17.869805">
        <ele>177.771685</ele>
        <time>2025-05-12T09:18:05.120Z</time>
      </trkpt>
      <trkpt lat="50.580302" lon="17.869868">
        <ele>177.532065</ele>
        <time>2025-05-12T09:18:06.581Z</time>
      </trkpt>
      <trkpt lat="50.580430" lon="17.869986">
        <ele>177.182962</ele>
        <time>2025-05-12T09:18:08.905Z</time>
      </trkpt>
      <trkpt lat="50.580975" lon="17.870722">
        <ele>175.493109</ele>
        <time>2025-05-12T09:18:20.687Z</time>
      </trkpt>
      <trkpt lat="50.581191" lon="17.871025">
        <ele>174.812256</ele>
        <time>2025-05-12T09:18:25.566Z</time>
      </trkpt>
      <trkpt lat="50.581633" lon="17.871646">
        <ele>173.436368</ele>
        <time>2025-05-12T09:18:36.546Z</time>
      </trkpt>
      <trkpt lat="50.581928" lon="17.872060">
        <ele>173.593613</ele>
        <time>2025-05-12T09:18:45.625Z</time>
      </trkpt>
      <trkpt lat="50.582640" lon="17.872149">
        <ele>173.877847</ele>
        <time>2025-05-12T09:19:03.875Z</time>
      </trkpt>
      <trkpt lat="50.582752" lon="17.872164">
        <ele>173.922579</ele>
        <time>2025-05-12T09:19:06.859Z</time>
      </trkpt>
      <trkpt lat="50.582876" lon="17.872181">
        <ele>173.972112</ele>
        <time>2025-05-12T09:19:10.162Z</time>
      </trkpt>
      <trkpt lat="50.583562" lon="17.872273">
        <ele>174.141768</ele>
        <time>2025-05-12T09:19:27.852Z</time>
      </trkpt>
      <trkpt lat="50.585113" lon="17.872457">
        <ele>174.092241</ele>
        <time>2025-05-12T09:20:01.476Z</time>
      </trkpt>
      <trkpt lat="50.585443" lon="17.872418">
        <ele>173.969693</ele>
        <time>2025-05-12T09:20:08.050Z</time>
      </trkpt>
      <trkpt lat="50.585714" lon="17.872282">
        <ele>173.864216</ele>
        <time>2025-05-12T09:20:13.675Z</time>
      </trkpt>
      <trkpt lat="50.585993" lon="17.872080">
        <ele>173.750343</ele>
        <time>2025-05-12T09:20:19.741Z</time>
      </trkpt>
      <trkpt lat="50.589877" lon="17.867963">
        <ele>173.452328</ele>
        <time>2025-05-12T09:22:02.331Z</time>
      </trkpt>
      <trkpt lat="50.591475" lon="17.866265">
        <ele>174.963110</ele>
        <time>2025-05-12T09:22:53.697Z</time>
      </trkpt>
      <trkpt lat="50.591946" lon="17.865850">
        <ele>175.194247</ele>
        <time>2025-05-12T09:23:07.600Z</time>
      </trkpt>
      <trkpt lat="50.592053" lon="17.865766">
        <ele>175.245449</ele>
        <time>2025-05-12T09:23:10.446Z</time>
      </trkpt>
      <trkpt lat="50.592065" lon="17.865814">
        <ele>175.259476</ele>
        <time>2025-05-12T09:23:11.298Z</time>
      </trkpt>
      <trkpt lat="50.592710" lon="17.865524">
        <ele>175.546753</ele>
        <time>2025-05-12T09:23:30.964Z</time>
      </trkpt>
      <trkpt lat="50.594260" lon="17.864929">
        <ele>174.663365</ele>
        <time>2025-05-12T09:24:13.639Z</time>
      </trkpt>
      <trkpt lat="50.596640" lon="17.864162">
        <ele>172.839833</ele>
        <time>2025-05-12T09:25:20.472Z</time>
      </trkpt>
      <trkpt lat="50.598149" lon="17.863822">
        <ele>170.158827</ele>
        <time>2025-05-12T09:25:56.993Z</time>
      </trkpt>
      <trkpt lat="50.598151" lon="17.863761">
        <ele>170.089411</ele>
        <time>2025-05-12T09:25:58.161Z</time>
      </trkpt>
      <trkpt lat="50.598095" lon="17.863772">
        <ele>169.988373</ele>
        <time>2025-05-12T09:25:59.122Z</time>
      </trkpt>
      <trkpt lat="50.598112" lon="17.863157">
        <ele>169.288790</ele>
        <time>2025-05-12T09:26:08.277Z</time>
      </trkpt>
      <trkpt lat="50.598185" lon="17.862906">
        <ele>168.975023</ele>
        <time>2025-05-12T09:26:12.448Z</time>
      </trkpt>
      <trkpt lat="50.598385" lon="17.862369">
        <ele>168.267455</ele>
        <time>2025-05-12T09:26:24.992Z</time>
      </trkpt>
      <trkpt lat="50.598483" lon="17.862064">
        <ele>167.878960</ele>
        <time>2025-05-12T09:26:32.025Z</time>
      </trkpt>
      <trkpt lat="50.598819" lon="17.862381">
        <ele>167.177770</ele>
        <time>2025-05-12T09:26:44.851Z</time>
      </trkpt>
      <trkpt lat="50.599072" lon="17.862482">
        <ele>166.863731</ele>
        <time>2025-05-12T09:26:53.583Z</time>
      </trkpt>
      <trkpt lat="50.599176" lon="17.862482">
        <ele>166.765517</ele>
        <time>2025-05-12T09:26:57.124Z</time>
      </trkpt>
      <trkpt lat="50.599430" lon="17.862312">
        <ele>166.504898</ele>
        <time>2025-05-12T09:27:06.656Z</time>
      </trkpt>
      <trkpt lat="50.599637" lon="17.862176">
        <ele>166.293096</ele>
        <time>2025-05-12T09:27:14.407Z</time>
      </trkpt>
      <trkpt lat="50.599889" lon="17.862136">
        <ele>166.053910</ele>
        <time>2025-05-12T09:27:23.047Z</time>
      </trkpt>
      <trkpt lat="50.600009" lon="17.862078">
        <ele>165.935373</ele>
        <time>2025-05-12T09:27:27.300Z</time>
      </trkpt>
      <trkpt lat="50.600239" lon="17.861874">
        <ele>165.686112</ele>
        <time>2025-05-12T09:27:36.161Z</time>
      </trkpt>
      <trkpt lat="50.600541" lon="17.861528">
        <ele>165.337379</ele>
        <time>2025-05-12T09:27:48.746Z</time>
      </trkpt>
      <trkpt lat="50.600691" lon="17.861399">
        <ele>165.406743</ele>
        <time>2025-05-12T09:27:54.579Z</time>
      </trkpt>
      <trkpt lat="50.601201" lon="17.861192">
        <ele>165.620508</ele>
        <time>2025-05-12T09:28:13.053Z</time>
      </trkpt>
      <trkpt lat="50.601353" lon="17.861226">
        <ele>165.682822</ele>
        <time>2025-05-12T09:28:18.754Z</time>
      </trkpt>
      <trkpt lat="50.601661" lon="17.861500">
        <ele>165.826389</ele>
        <time>2025-05-12T09:28:32.677Z</time>
      </trkpt>
      <trkpt lat="50.602066" lon="17.861997">
        <ele>166.034756</ele>
        <time>2025-05-12T09:28:54.434Z</time>
      </trkpt>
      <trkpt lat="50.602653" lon="17.862379">
        <ele>167.152648</ele>
        <time>2025-05-12T09:29:23.660Z</time>
      </trkpt>
      <trkpt lat="50.602866" lon="17.862596">
        <ele>167.646946</ele>
        <time>2025-05-12T09:29:35.643Z</time>
      </trkpt>
      <trkpt lat="50.602967" lon="17.862561">
        <ele>167.848473</ele>
        <time>2025-05-12T09:29:42.787Z</time>
      </trkpt>
      <trkpt lat="50.602683" lon="17.864489">
        <ele>169.509994</ele>
        <time>2025-05-12T09:30:21.539Z</time>
      </trkpt>
      <trkpt lat="50.603051" lon="17.864644">
        <ele>169.447178</ele>
        <time>2025-05-12T09:30:30.692Z</time>
      </trkpt>
      <trkpt lat="50.604998" lon="17.865142">
        <ele>168.856251</ele>
        <time>2025-05-12T09:31:07.752Z</time>
      </trkpt>
      <trkpt lat="50.605437" lon="17.865333">
        <ele>168.650618</ele>
        <time>2025-05-12T09:31:17.568Z</time>
      </trkpt>
      <trkpt lat="50.606194" lon="17.865766">
        <ele>168.893368</ele>
        <time>2025-05-12T09:31:38.226Z</time>
      </trkpt>
      <trkpt lat="50.607435" lon="17.866499">
        <ele>170.360872</ele>
        <time>2025-05-12T09:32:14.386Z</time>
      </trkpt>
      <trkpt lat="50.607831" lon="17.866670">
        <ele>170.711965</ele>
        <time>2025-05-12T09:32:25.524Z</time>
      </trkpt>
      <trkpt lat="50.607978" lon="17.868581">
        <ele>171.676932</ele>
        <time>2025-05-12T09:32:56.756Z</time>
      </trkpt>
      <trkpt lat="50.608047" lon="17.869481">
        <ele>171.901782</ele>
        <time>2025-05-12T09:33:10.670Z</time>
      </trkpt>
      <trkpt lat="50.608776" lon="17.869456">
        <ele>171.962004</ele>
        <time>2025-05-12T09:33:26.957Z</time>
      </trkpt>
      <trkpt lat="50.611844" lon="17.868913">
        <ele>171.993635</ele>
        <time>2025-05-12T09:34:40.606Z</time>
      </trkpt>
      <trkpt lat="50.612114" lon="17.868867">
        <ele>171.837886</ele>
        <time>2025-05-12T09:34:46.725Z</time>
      </trkpt>
      <trkpt lat="50.612374" lon="17.868811">
        <ele>171.687389</ele>
        <time>2025-05-12T09:34:52.438Z</time>
      </trkpt>
      <trkpt lat="50.612045" lon="17.874709">
        <ele>167.312680</ele>
        <time>2025-05-12T09:36:02.037Z</time>
      </trkpt>
      <trkpt lat="50.611955" lon="17.876385">
        <ele>166.403674</ele>
        <time>2025-05-12T09:36:23.436Z</time>
      </trkpt>
      <trkpt lat="50.611971" lon="17.876650">
        <ele>166.317161</ele>
        <time>2025-05-12T09:36:26.919Z</time>
      </trkpt>
      <trkpt lat="50.612000" lon="17.876734">
        <ele>166.286082</ele>
        <time>2025-05-12T09:36:28.159Z</time>
      </trkpt>
      <trkpt lat="50.612407" lon="17.877308">
        <ele>166.006350</ele>
        <time>2025-05-12T09:36:39.385Z</time>
      </trkpt>
      <trkpt lat="50.612711" lon="17.877954">
        <ele>165.744973</ele>
        <time>2025-05-12T09:36:49.854Z</time>
      </trkpt>
      <trkpt lat="50.613544" lon="17.879583">
        <ele>165.771580</ele>
        <time>2025-05-12T09:37:18.532Z</time>
      </trkpt>
      <trkpt lat="50.613758" lon="17.880197">
        <ele>165.781606</ele>
        <time>2025-05-12T09:37:29.213Z</time>
      </trkpt>
      <trkpt lat="50.613855" lon="17.880678">
        <ele>166.197731</ele>
        <time>2025-05-12T09:37:37.276Z</time>
      </trkpt>
      <trkpt lat="50.613866" lon="17.881269">
        <ele>166.739887</ele>
        <time>2025-05-12T09:37:47.223Z</time>
      </trkpt>
      <trkpt lat="50.613827" lon="17.881764">
        <ele>167.197268</ele>
        <time>2025-05-12T09:37:55.965Z</time>
      </trkpt>
      <trkpt lat="50.613545" lon="17.883438">
        <ele>169.078272</ele>
        <time>2025-05-12T09:38:29.088Z</time>
      </trkpt>
      <trkpt lat="50.613479" lon="17.884695">
        <ele>171.073322</ele>
        <time>2025-05-12T09:38:54.503Z</time>
      </trkpt>
      <trkpt lat="50.613457" lon="17.885045">
        <ele>171.629643</ele>
        <time>2025-05-12T09:39:01.745Z</time>
      </trkpt>
      <trkpt lat="50.613399" lon="17.886129">
        <ele>173.588324</ele>
        <time>2025-05-12T09:39:25.076Z</time>
      </trkpt>
      <trkpt lat="50.613404" lon="17.886365">
        <ele>174.144969</ele>
        <time>2025-05-12T09:39:30.234Z</time>
      </trkpt>
      <trkpt lat="50.613461" lon="17.887485">
        <ele>176.793680</ele>
        <time>2025-05-12T09:39:56.184Z</time>
      </trkpt>
      <trkpt lat="50.613453" lon="17.887873">
        <ele>177.708815</ele>
        <time>2025-05-12T09:40:05.569Z</time>
      </trkpt>
      <trkpt lat="50.613354" lon="17.889580">
        <ele>181.700529</ele>
        <time>2025-05-12T09:40:49.312Z</time>
      </trkpt>
      <trkpt lat="50.613335" lon="17.889906">
        <ele>182.455073</ele>
        <time>2025-05-12T09:40:57.564Z</time>
      </trkpt>
      <trkpt lat="50.613279" lon="17.890233">
        <ele>183.235725</ele>
        <time>2025-05-12T09:41:05.761Z</time>
      </trkpt>
      <trkpt lat="50.613063" lon="17.891315">
        <ele>185.850083</ele>
        <time>2025-05-12T09:41:31.225Z</time>
      </trkpt>
      <trkpt lat="50.612865" lon="17.892212">
        <ele>186.603383</ele>
        <time>2025-05-12T09:41:48.903Z</time>
      </trkpt>
      <trkpt lat="50.612624" lon="17.893285">
        <ele>187.304170</ele>
        <time>2025-05-12T09:42:06.923Z</time>
      </trkpt>
      <trkpt lat="50.612478" lon="17.893886">
        <ele>187.700384</ele>
        <time>2025-05-12T09:42:16.043Z</time>
      </trkpt>
      <trkpt lat="50.612502" lon="17.893917">
        <ele>187.730493</ele>
        <time>2025-05-12T09:42:16.710Z</time>
      </trkpt>
      <trkpt lat="50.612652" lon="17.894156">
        <ele>187.788103</ele>
        <time>2025-05-12T09:42:21.394Z</time>
      </trkpt>
      <trkpt lat="50.613071" lon="17.894709">
        <ele>187.612626</ele>
        <time>2025-05-12T09:42:33.524Z</time>
      </trkpt>
      <trkpt lat="50.613368" lon="17.894745">
        <ele>187.516985</ele>
        <time>2025-05-12T09:42:40.063Z</time>
      </trkpt>
      <trkpt lat="50.613738" lon="17.894869">
        <ele>187.395532</ele>
        <time>2025-05-12T09:42:48.135Z</time>
      </trkpt>
      <trkpt lat="50.614121" lon="17.895088">
        <ele>187.264716</ele>
        <time>2025-05-12T09:42:56.444Z</time>
      </trkpt>
      <trkpt lat="50.614118" lon="17.895173">
        <ele>187.245861</ele>
        <time>2025-05-12T09:42:57.520Z</time>
      </trkpt>
      <trkpt lat="50.614088" lon="17.895751">
        <ele>186.644446</ele>
        <time>2025-05-12T09:43:04.777Z</time>
      </trkpt>
      <trkpt lat="50.613974" lon="17.896505">
        <ele>185.840621</ele>
        <time>2025-05-12T09:43:14.126Z</time>
      </trkpt>
      <trkpt lat="50.613936" lon="17.896707">
        <ele>185.622125</ele>
        <time>2025-05-12T09:43:16.602Z</time>
      </trkpt>
      <trkpt lat="50.613900" lon="17.896925">
        <ele>185.388517</ele>
        <time>2025-05-12T09:43:19.226Z</time>
      </trkpt>
      <trkpt lat="50.613757" lon="17.897793">
        <ele>184.458511</ele>
        <time>2025-05-12T09:43:29.560Z</time>
      </trkpt>
      <trkpt lat="50.613749" lon="17.897922">
        <ele>184.324093</ele>
        <time>2025-05-12T09:43:32.125Z</time>
      </trkpt>
      <trkpt lat="50.614236" lon="17.900768">
        <ele>181.527684</ele>
        <time>2025-05-12T09:44:32.467Z</time>
      </trkpt>
      <trkpt lat="50.616324" lon="17.901297">
        <ele>180.632090</ele>
        <time>2025-05-12T09:45:48.625Z</time>
      </trkpt>
      <trkpt lat="50.622113" lon="17.902765">
        <ele>178.289280</ele>
        <time>2025-05-12T09:49:21.442Z</time>
      </trkpt>
      <trkpt lat="50.621973" lon="17.903770">
        <ele>177.299628</ele>
        <time>2025-05-12T09:49:41.663Z</time>
      </trkpt>
      <trkpt lat="50.621791" lon="17.904271">
        <ele>176.643398</ele>
        <time>2025-05-12T09:49:52.491Z</time>
      </trkpt>
      <trkpt lat="50.621454" lon="17.906218">
        <ele>172.747815</ele>
        <time>2025-05-12T09:50:29.868Z</time>
      </trkpt>
      <trkpt lat="50.621306" lon="17.906652">
        <ele>171.796727</ele>
        <time>2025-05-12T09:50:39.234Z</time>
      </trkpt>
      <trkpt lat="50.620605" lon="17.908203">
        <ele>169.359631</ele>
        <time>2025-05-12T09:51:17.182Z</time>
      </trkpt>
      <trkpt lat="50.620168" lon="17.909472">
        <ele>167.728693</ele>
        <time>2025-05-12T09:51:47.215Z</time>
      </trkpt>
      <trkpt lat="50.619812" lon="17.910672">
        <ele>166.571734</ele>
        <time>2025-05-12T09:52:14.794Z</time>
      </trkpt>
      <trkpt lat="50.619690" lon="17.911216">
        <ele>166.067809</ele>
        <time>2025-05-12T09:52:26.770Z</time>
      </trkpt>
      <trkpt lat="50.619619" lon="17.911910">
        <ele>165.461723</ele>
        <time>2025-05-12T09:52:41.352Z</time>
      </trkpt>
      <trkpt lat="50.619059" lon="17.915171">
        <ele>163.136176</ele>
        <time>2025-05-12T09:53:52.715Z</time>
      </trkpt>
      <trkpt lat="50.619025" lon="17.915629">
        <ele>162.945820</ele>
        <time>2025-05-12T09:54:02.841Z</time>
      </trkpt>
      <trkpt lat="50.619127" lon="17.917127">
        <ele>162.323882</ele>
        <time>2025-05-12T09:54:36.698Z</time>
      </trkpt>
      <trkpt lat="50.619110" lon="17.917312">
        <ele>162.246716</ele>
        <time>2025-05-12T09:54:40.973Z</time>
      </trkpt>
      <trkpt lat="50.619033" lon="17.917404">
        <ele>162.203986</ele>
        <time>2025-05-12T09:54:44.460Z</time>
      </trkpt>
      <trkpt lat="50.618831" lon="17.917467">
        <ele>162.153133</ele>
        <time>2025-05-12T09:54:51.930Z</time>
      </trkpt>
      <trkpt lat="50.618974" lon="17.920110">
        <ele>161.677230</ele>
        <time>2025-05-12T09:55:53.162Z</time>
      </trkpt>
      <trkpt lat="50.618992" lon="17.920455">
        <ele>161.528550</ele>
        <time>2025-05-12T09:56:00.990Z</time>
      </trkpt>
      <trkpt lat="50.618963" lon="17.921298">
        <ele>161.165945</ele>
        <time>2025-05-12T09:56:19.756Z</time>
      </trkpt>
      <trkpt lat="50.618924" lon="17.922465">
        <ele>160.664016</ele>
        <time>2025-05-12T09:56:45.071Z</time>
      </trkpt>
      <trkpt lat="50.618877" lon="17.922944">
        <ele>160.417555</ele>
        <time>2025-05-12T09:56:55.419Z</time>
      </trkpt>
      <trkpt lat="50.618889" lon="17.923641">
        <ele>160.001910</ele>
        <time>2025-05-12T09:57:10.058Z</time>
      </trkpt>
      <trkpt lat="50.619057" lon="17.924117">
        <ele>159.677213</ele>
        <time>2025-05-12T09:57:21.396Z</time>
      </trkpt>
      <trkpt lat="50.619142" lon="17.924641">
        <ele>159.354803</ele>
        <time>2025-05-12T09:57:32.935Z</time>
      </trkpt>
      <trkpt lat="50.619165" lon="17.924831">
        <ele>159.239499</ele>
        <time>2025-05-12T09:57:36.246Z</time>
      </trkpt>
      <trkpt lat="50.619237" lon="17.924813">
        <ele>159.171007</ele>
        <time>2025-05-12T09:57:37.728Z</time>
      </trkpt>
      <trkpt lat="50.619376" lon="17.924780">
        <ele>159.038938</ele>
        <time>2025-05-12T09:57:40.601Z</time>
      </trkpt>
      <trkpt lat="50.619789" lon="17.924681">
        <ele>158.666486</ele>
        <time>2025-05-12T09:57:49.379Z</time>
      </trkpt>
      <trkpt lat="50.619805" lon="17.924905">
        <ele>158.544456</ele>
        <time>2025-05-12T09:57:52.530Z</time>
      </trkpt>
      <trkpt lat="50.619829" lon="17.925254">
        <ele>158.354417</ele>
        <time>2025-05-12T09:57:57.466Z</time>
      </trkpt>
      <trkpt lat="50.620444" lon="17.925285">
        <ele>157.829402</ele>
        <time>2025-05-12T09:58:11.166Z</time>
      </trkpt>
      <trkpt lat="50.621399" lon="17.925342">
        <ele>156.471182</ele>
        <time>2025-05-12T09:58:29.185Z</time>
      </trkpt>
      <trkpt lat="50.621589" lon="17.926965">
        <ele>154.043061</ele>
        <time>2025-05-12T09:58:47.451Z</time>
      </trkpt>
      <trkpt lat="50.621325" lon="17.927116">
        <ele>153.391797</ele>
        <time>2025-05-12T09:58:52.410Z</time>
      </trkpt>
      <trkpt lat="50.621247" lon="17.927205">
        <ele>153.168499</ele>
        <time>2025-05-12T09:58:54.154Z</time>
      </trkpt>
      <trkpt lat="50.620991" lon="17.927962">
        <ele>152.795771</ele>
        <time>2025-05-12T09:59:04.636Z</time>
      </trkpt>
      <trkpt lat="50.620997" lon="17.928123">
        <ele>152.726965</ele>
        <time>2025-05-12T09:59:06.783Z</time>
      </trkpt>
      <trkpt lat="50.621098" lon="17.928483">
        <ele>152.559031</ele>
        <time>2025-05-12T09:59:12.250Z</time>
      </trkpt>
      <trkpt lat="50.621444" lon="17.929564">
        <ele>152.042478</ele>
        <time>2025-05-12T09:59:29.813Z</time>
      </trkpt>
      <trkpt lat="50.622173" lon="17.929907">
        <ele>152.033266</ele>
        <time>2025-05-12T09:59:48.048Z</time>
      </trkpt>
      <trkpt lat="50.622265" lon="17.929939">
        <ele>152.045944</ele>
        <time>2025-05-12T09:59:50.331Z</time>
      </trkpt>
      <trkpt lat="50.622401" lon="17.929976">
        <ele>152.064516</ele>
        <time>2025-05-12T09:59:53.693Z</time>
      </trkpt>
      <trkpt lat="50.622667" lon="17.930152">
        <ele>152.103337</ele>
        <time>2025-05-12T10:00:00.713Z</time>
      </trkpt>
      <trkpt lat="50.623042" lon="17.930626">
        <ele>152.168022</ele>
        <time>2025-05-12T10:00:12.111Z</time>
      </trkpt>
      <trkpt lat="50.623382" lon="17.931120">
        <ele>152.153427</ele>
        <time>2025-05-12T10:00:22.804Z</time>
      </trkpt>
      <trkpt lat="50.623708" lon="17.931490">
        <ele>152.100209</ele>
        <time>2025-05-12T10:00:31.962Z</time>
      </trkpt>
      <trkpt lat="50.626237" lon="17.932969">
        <ele>151.667911</ele>
        <time>2025-05-12T10:01:32.092Z</time>
      </trkpt>
      <trkpt lat="50.626276" lon="17.933005">
        <ele>151.659790</ele>
        <time>2025-05-12T10:01:33.103Z</time>
      </trkpt>
      <trkpt lat="50.626927" lon="17.933604">
        <ele>151.785554</ele>
        <time>2025-05-12T10:01:50.619Z</time>
      </trkpt>
      <trkpt lat="50.627071" lon="17.933904">
        <ele>151.848594</ele>
        <time>2025-05-12T10:01:56.418Z</time>
      </trkpt>
      <trkpt lat="50.627702" lon="17.936085">
        <ele>152.167351</ele>
        <time>2025-05-12T10:02:34.846Z</time>
      </trkpt>
      <trkpt lat="50.627779" lon="17.936471">
        <ele>152.196397</ele>
        <time>2025-05-12T10:02:40.985Z</time>
      </trkpt>
      <trkpt lat="50.627786" lon="17.936508">
        <ele>152.199168</ele>
        <time>2025-05-12T10:02:41.555Z</time>
      </trkpt>
      <trkpt lat="50.628254" lon="17.936704">
        <ele>152.253963</ele>
        <time>2025-05-12T10:02:59.366Z</time>
      </trkpt>
      <trkpt lat="50.628579" lon="17.936785">
        <ele>152.291196</ele>
        <time>2025-05-12T10:03:11.235Z</time>
      </trkpt>
      <trkpt lat="50.628937" lon="17.936790">
        <ele>152.285164</ele>
        <time>2025-05-12T10:03:24.094Z</time>
      </trkpt>
      <trkpt lat="50.629384" lon="17.936730">
        <ele>152.233060</ele>
        <time>2025-05-12T10:03:40.257Z</time>
      </trkpt>
      <trkpt lat="50.630234" lon="17.936469">
        <ele>152.132483</ele>
        <time>2025-05-12T10:04:12.104Z</time>
      </trkpt>
      <trkpt lat="50.631278" lon="17.935875">
        <ele>152.049564</ele>
        <time>2025-05-12T10:04:53.313Z</time>
      </trkpt>
      <trkpt lat="50.633747" lon="17.934302">
        <ele>151.874267</ele>
        <time>2025-05-12T10:06:31.051Z</time>
      </trkpt>
      <trkpt lat="50.634246" lon="17.933778">
        <ele>151.934857</ele>
        <time>2025-05-12T10:06:53.465Z</time>
      </trkpt>
      <trkpt lat="50.635833" lon="17.932844">
        <ele>152.114734</ele>
        <time>2025-05-12T10:07:57.377Z</time>
      </trkpt>
      <trkpt lat="50.638937" lon="17.930607">
        <ele>151.998476</ele>
        <time>2025-05-12T10:10:03.340Z</time>
      </trkpt>
      <trkpt lat="50.639644" lon="17.930097">
        <ele>151.917373</ele>
        <time>2025-05-12T10:10:31.923Z</time>
      </trkpt>
      <trkpt lat="50.640435" lon="17.929172">
        <ele>151.807516</ele>
        <time>2025-05-12T10:11:07.883Z</time>
      </trkpt>
      <trkpt lat="50.641323" lon="17.927461">
        <ele>151.601981</ele>
        <time>2025-05-12T10:11:37.971Z</time>
      </trkpt>
      <trkpt lat="50.641543" lon="17.926934">
        <ele>151.625162</ele>
        <time>2025-05-12T10:11:46.894Z</time>
      </trkpt>
      <trkpt lat="50.641750" lon="17.926327">
        <ele>151.768792</ele>
        <time>2025-05-12T10:11:56.958Z</time>
      </trkpt>
      <trkpt lat="50.642039" lon="17.925333">
        <ele>151.996675</ele>
        <time>2025-05-12T10:12:13.740Z</time>
      </trkpt>
      <trkpt lat="50.642137" lon="17.924888">
        <ele>152.094845</ele>
        <time>2025-05-12T10:12:25.459Z</time>
      </trkpt>
      <trkpt lat="50.642198" lon="17.924537">
        <ele>152.156000</ele>
        <time>2025-05-12T10:12:34.448Z</time>
      </trkpt>
      <trkpt lat="50.642358" lon="17.923895">
        <ele>152.108581</ele>
        <time>2025-05-12T10:12:51.135Z</time>
      </trkpt>
      <trkpt lat="50.642603" lon="17.923191">
        <ele>152.053378</ele>
        <time>2025-05-12T10:13:09.907Z</time>
      </trkpt>
      <trkpt lat="50.643019" lon="17.922266">
        <ele>151.975425</ele>
        <time>2025-05-12T10:13:35.394Z</time>
      </trkpt>
      <trkpt lat="50.643503" lon="17.921399">
        <ele>151.769349</ele>
        <time>2025-05-12T10:14:01.325Z</time>
      </trkpt>
      <trkpt lat="50.643889" lon="17.920823">
        <ele>151.605444</ele>
        <time>2025-05-12T10:14:20.604Z</time>
      </trkpt>
      <trkpt lat="50.644449" lon="17.920103">
        <ele>151.385934</ele>
        <time>2025-05-12T10:14:46.864Z</time>
      </trkpt>
      <trkpt lat="50.645148" lon="17.919302">
        <ele>151.152003</ele>
        <time>2025-05-12T10:15:17.818Z</time>
      </trkpt>
      <trkpt lat="50.645542" lon="17.918982">
        <ele>151.032018</ele>
        <time>2025-05-12T10:15:33.424Z</time>
      </trkpt>
      <trkpt lat="50.646361" lon="17.918410">
        <ele>151.186669</ele>
        <time>2025-05-12T10:16:06.245Z</time>
      </trkpt>
      <trkpt lat="50.646417" lon="17.918559">
        <ele>151.245425</ele>
        <time>2025-05-12T10:16:08.817Z</time>
      </trkpt>
      <trkpt lat="50.647367" lon="17.921241">
        <ele>152.740882</ele>
        <time>2025-05-12T10:16:58.895Z</time>
      </trkpt>
      <trkpt lat="50.647387" lon="17.921309">
        <ele>152.794959</ele>
        <time>2025-05-12T10:17:00.271Z</time>
      </trkpt>
      <trkpt lat="50.647428" lon="17.921268">
        <ele>152.850192</ele>
        <time>2025-05-12T10:17:01.564Z</time>
      </trkpt>
      <trkpt lat="50.647781" lon="17.920899">
        <ele>153.332020</ele>
        <time>2025-05-12T10:17:13.286Z</time>
      </trkpt>
      <trkpt lat="50.648387" lon="17.920362">
        <ele>154.096237</ele>
        <time>2025-05-12T10:17:32.750Z</time>
      </trkpt>
      <trkpt lat="50.648529" lon="17.920461">
        <ele>154.248298</ele>
        <time>2025-05-12T10:17:37.042Z</time>
      </trkpt>
      <trkpt lat="50.648746" lon="17.920599">
        <ele>154.477460</ele>
        <time>2025-05-12T10:17:43.465Z</time>
      </trkpt>
      <trkpt lat="50.649433" lon="17.920397">
        <ele>155.161913</ele>
        <time>2025-05-12T10:18:01.956Z</time>
      </trkpt>
      <trkpt lat="50.649457" lon="17.920391">
        <ele>155.185713</ele>
        <time>2025-05-12T10:18:02.612Z</time>
      </trkpt>
      <trkpt lat="50.650488" lon="17.920107">
        <ele>155.612746</ele>
        <time>2025-05-12T10:18:27.677Z</time>
      </trkpt>
      <trkpt lat="50.650687" lon="17.920012">
        <ele>155.581115</ele>
        <time>2025-05-12T10:18:32.193Z</time>
      </trkpt>
      <trkpt lat="50.650816" lon="17.919887">
        <ele>155.558081</ele>
        <time>2025-05-12T10:18:35.423Z</time>
      </trkpt>
      <trkpt lat="50.651058" lon="17.919482">
        <ele>155.504400</ele>
        <time>2025-05-12T10:18:42.749Z</time>
      </trkpt>
      <trkpt lat="50.651183" lon="17.919339">
        <ele>155.480907</ele>
        <time>2025-05-12T10:18:45.929Z</time>
      </trkpt>
      <trkpt lat="50.651527" lon="17.919068">
        <ele>155.422407</ele>
        <time>2025-05-12T10:18:53.773Z</time>
      </trkpt>
      <trkpt lat="50.651671" lon="17.919015">
        <ele>155.358232</ele>
        <time>2025-05-12T10:18:56.757Z</time>
      </trkpt>
      <trkpt lat="50.651899" lon="17.919003">
        <ele>155.249731</ele>
        <time>2025-05-12T10:19:01.347Z</time>
      </trkpt>
      <trkpt lat="50.652340" lon="17.919040">
        <ele>155.039688</ele>
        <time>2025-05-12T10:19:10.089Z</time>
      </trkpt>
      <trkpt lat="50.652945" lon="17.919338">
        <ele>154.738234</ele>
        <time>2025-05-12T10:19:22.868Z</time>
      </trkpt>
      <trkpt lat="50.653782" lon="17.919821">
        <ele>154.550966</ele>
        <time>2025-05-12T10:19:42.780Z</time>
      </trkpt>
      <trkpt lat="50.654544" lon="17.920311">
        <ele>154.530461</ele>
        <time>2025-05-12T10:20:02.309Z</time>
      </trkpt>
      <trkpt lat="50.655153" lon="17.920890">
        <ele>154.377974</ele>
        <time>2025-05-12T10:20:17.245Z</time>
      </trkpt>
      <trkpt lat="50.655282" lon="17.920973">
        <ele>154.302386</ele>
        <time>2025-05-12T10:20:20.016Z</time>
      </trkpt>
      <trkpt lat="50.655322" lon="17.920746">
        <ele>154.221346</ele>
        <time>2025-05-12T10:20:22.952Z</time>
      </trkpt>
      <trkpt lat="50.655449" lon="17.920397">
        <ele>154.082932</ele>
        <time>2025-05-12T10:20:27.839Z</time>
      </trkpt>
      <trkpt lat="50.655453" lon="17.920387">
        <ele>154.078865</ele>
        <time>2025-05-12T10:20:27.993Z</time>
      </trkpt>
      <trkpt lat="50.655746" lon="17.919927">
        <ele>153.854576</ele>
        <time>2025-05-12T10:20:35.974Z</time>
      </trkpt>
      <trkpt lat="50.655926" lon="17.919915">
        <ele>153.756830</ele>
        <time>2025-05-12T10:20:39.461Z</time>
      </trkpt>
      <trkpt lat="50.656223" lon="17.919964">
        <ele>153.594814</ele>
        <time>2025-05-12T10:20:45.451Z</time>
      </trkpt>
      <trkpt lat="50.656350" lon="17.920065">
        <ele>153.567185</ele>
        <time>2025-05-12T10:20:48.630Z</time>
      </trkpt>
      <trkpt lat="50.656533" lon="17.920127">
        <ele>153.661158</ele>
        <time>2025-05-12T10:20:53.182Z</time>
      </trkpt>
      <trkpt lat="50.656881" lon="17.920183">
        <ele>153.836784</ele>
        <time>2025-05-12T10:21:02.366Z</time>
      </trkpt>
      <trkpt lat="50.657044" lon="17.920288">
        <ele>153.925181</ele>
        <time>2025-05-12T10:21:07.214Z</time>
      </trkpt>
      <trkpt lat="50.657183" lon="17.920456">
        <ele>154.013099</ele>
        <time>2025-05-12T10:21:11.966Z</time>
      </trkpt>
      <trkpt lat="50.657238" lon="17.920550">
        <ele>154.053813</ele>
        <time>2025-05-12T10:21:14.726Z</time>
      </trkpt>
      <trkpt lat="50.657582" lon="17.921092">
        <ele>154.297922</ele>
        <time>2025-05-12T10:21:27.207Z</time>
      </trkpt>
      <trkpt lat="50.657594" lon="17.921259">
        <ele>154.351416</ele>
        <time>2025-05-12T10:21:29.801Z</time>
      </trkpt>
      <trkpt lat="50.657553" lon="17.921473">
        <ele>154.422571</ele>
        <time>2025-05-12T10:21:33.092Z</time>
      </trkpt>
      <trkpt lat="50.657644" lon="17.921519">
        <ele>154.409414</ele>
        <time>2025-05-12T10:21:35.879Z</time>
      </trkpt>
      <trkpt lat="50.659321" lon="17.922394">
        <ele>153.054991</ele>
        <time>2025-05-12T10:22:10.033Z</time>
      </trkpt>
      <trkpt lat="50.659360" lon="17.922415">
        <ele>153.036038</ele>
        <time>2025-05-12T10:22:10.861Z</time>
      </trkpt>
      <trkpt lat="50.659446" lon="17.922457">
        <ele>152.994633</ele>
        <time>2025-05-12T10:22:12.594Z</time>
      </trkpt>
      <trkpt lat="50.659439" lon="17.922486">
        <ele>152.985585</ele>
        <time>2025-05-12T10:22:12.989Z</time>
      </trkpt>
      <trkpt lat="50.659426" lon="17.922542">
        <ele>152.968197</ele>
        <time>2025-05-12T10:22:13.770Z</time>
      </trkpt>
      <trkpt lat="50.659408" lon="17.922629">
        <ele>152.941515</ele>
        <time>2025-05-12T10:22:14.892Z</time>
      </trkpt>
      <trkpt lat="50.659399" lon="17.922674">
        <ele>152.927757</ele>
        <time>2025-05-12T10:22:15.486Z</time>
      </trkpt>
      <trkpt lat="50.659369" lon="17.922893">
        <ele>152.862432</ele>
        <time>2025-05-12T10:22:18.270Z</time>
      </trkpt>
      <trkpt lat="50.659356" lon="17.923011">
        <ele>152.827512</ele>
        <time>2025-05-12T10:22:19.796Z</time>
      </trkpt>
      <trkpt lat="50.659342" lon="17.923143">
        <ele>152.788492</ele>
        <time>2025-05-12T10:22:21.421Z</time>
      </trkpt>
      <trkpt lat="50.659335" lon="17.923288">
        <ele>152.746093</ele>
        <time>2025-05-12T10:22:23.232Z</time>
      </trkpt>
      <trkpt lat="50.659333" lon="17.923593">
        <ele>152.657163</ele>
        <time>2025-05-12T10:22:26.967Z</time>
      </trkpt>
      <trkpt lat="50.659471" lon="17.923897">
        <ele>152.548147</ele>
        <time>2025-05-12T10:22:31.728Z</time>
      </trkpt>
      <trkpt lat="50.659545" lon="17.924023">
        <ele>152.498068</ele>
        <time>2025-05-12T10:22:34.745Z</time>
      </trkpt>
      <trkpt lat="50.659568" lon="17.924110">
        <ele>152.470585</ele>
        <time>2025-05-12T10:22:36.502Z</time>
      </trkpt>
      <trkpt lat="50.659552" lon="17.924221">
        <ele>152.437396</ele>
        <time>2025-05-12T10:22:38.556Z</time>
      </trkpt>
      <trkpt lat="50.659136" lon="17.924841">
        <ele>152.394433</ele>
        <time>2025-05-12T10:22:55.517Z</time>
      </trkpt>
      <trkpt lat="50.659118" lon="17.924932">
        <ele>152.467266</ele>
        <time>2025-05-12T10:22:57.356Z</time>
      </trkpt>
      <trkpt lat="50.659253" lon="17.925125">
        <ele>152.686852</ele>
        <time>2025-05-12T10:23:01.883Z</time>
      </trkpt>
      <trkpt lat="50.659300" lon="17.925122">
        <ele>152.743544</ele>
        <time>2025-05-12T10:23:03.446Z</time>
      </trkpt>
      <trkpt lat="50.659450" lon="17.925213">
        <ele>152.937238</ele>
        <time>2025-05-12T10:23:08.828Z</time>
      </trkpt>
      <trkpt lat="50.659512" lon="17.925093">
        <ele>153.055516</ele>
        <time>2025-05-12T10:23:12.179Z</time>
      </trkpt>
      <trkpt lat="50.659916" lon="17.924439">
        <ele>153.753199</ele>
        <time>2025-05-12T10:23:33.016Z</time>
      </trkpt>
      <trkpt lat="50.660245" lon="17.923939">
        <ele>154.303801</ele>
        <time>2025-05-12T10:23:50.154Z</time>
      </trkpt>
      <trkpt lat="50.660399" lon="17.923722">
        <ele>154.454543</ele>
        <time>2025-05-12T10:23:57.354Z</time>
      </trkpt>
      <trkpt lat="50.660928" lon="17.922975">
        <ele>154.749964</ele>
        <time>2025-05-12T10:24:20.523Z</time>
      </trkpt>
      <trkpt lat="50.661226" lon="17.922636">
        <ele>154.902838</ele>
        <time>2025-05-12T10:24:30.966Z</time>
      </trkpt>
      <trkpt lat="50.661395" lon="17.922543">
        <ele>154.977314</ele>
        <time>2025-05-12T10:24:35.911Z</time>
      </trkpt>
      <trkpt lat="50.661674" lon="17.922389">
        <ele>155.100306</ele>
        <time>2025-05-12T10:24:44.120Z</time>
      </trkpt>
      <trkpt lat="50.661916" lon="17.922304">
        <ele>155.194701</ele>
        <time>2025-05-12T10:24:51.161Z</time>
      </trkpt>
      <trkpt lat="50.662025" lon="17.922286">
        <ele>155.232654</ele>
        <time>2025-05-12T10:24:54.335Z</time>
      </trkpt>
      <trkpt lat="50.662200" lon="17.922250">
        <ele>155.293770</ele>
        <time>2025-05-12T10:24:59.568Z</time>
      </trkpt>
      <trkpt lat="50.662261" lon="17.922243">
        <ele>155.314950</ele>
        <time>2025-05-12T10:25:01.379Z</time>
      </trkpt>
      <trkpt lat="50.662503" lon="17.922373">
        <ele>155.403480</ele>
        <time>2025-05-12T10:25:09.314Z</time>
      </trkpt>
      <trkpt lat="50.662668" lon="17.922528">
        <ele>155.469983</ele>
        <time>2025-05-12T10:25:15.343Z</time>
      </trkpt>
      <trkpt lat="50.662729" lon="17.922549">
        <ele>155.491604</ele>
        <time>2025-05-12T10:25:17.314Z</time>
      </trkpt>
      <trkpt lat="50.662904" lon="17.922615">
        <ele>155.553915</ele>
        <time>2025-05-12T10:25:23.043Z</time>
      </trkpt>
      <trkpt lat="50.663604" lon="17.923080">
        <ele>155.774082</ele>
        <time>2025-05-12T10:25:47.200Z</time>
      </trkpt>
      <trkpt lat="50.663678" lon="17.923194">
        <ele>155.774082</ele>
        <time>2025-05-12T10:25:50.428Z</time>
      </trkpt>
      <trkpt lat="50.663714" lon="17.923571">
        <ele>155.774082</ele>
        <time>2025-05-12T10:25:57.904Z</time>
      </trkpt>
      <trkpt lat="50.663767" lon="17.923524">
        <ele>155.774082</ele>
        <time>2025-05-12T10:25:59.362Z</time>
      </trkpt>
      <trkpt lat="50.664150" lon="17.923409">
        <ele>155.774082</ele>
        <time>2025-05-12T10:26:08.844Z</time>
      </trkpt>
      <trkpt lat="50.664728" lon="17.923313">
        <ele>155.774082</ele>
        <time>2025-05-12T10:26:23.706Z</time>
      </trkpt>
      <trkpt lat="50.664741" lon="17.923392">
        <ele>155.774082</ele>
        <time>2025-05-12T10:26:25.405Z</time>
      </trkpt>
      <trkpt lat="50.664825" lon="17.923901">
        <ele>155.774082</ele>
        <time>2025-05-12T10:26:36.347Z</time>
      </trkpt>
      <trkpt lat="50.664892" lon="17.924303">
        <ele>155.774082</ele>
        <time>2025-05-12T10:26:45.133Z</time>
      </trkpt>
      <trkpt lat="50.664732" lon="17.924353">
        <ele>155.774082</ele>
        <time>2025-05-12T10:26:50.602Z</time>
      </trkpt>
      <trkpt lat="50.664774" lon="17.924578">
        <ele>155.774082</ele>
        <time>2025-05-12T10:26:55.593Z</time>
      </trkpt>
      <trkpt lat="50.664613" lon="17.924653">
        <ele>155.774082</ele>
        <time>2025-05-12T10:27:01.246Z</time>
      </trkpt>
    </trkseg>
  </trk>
</gpx>