<?xml version='1.0' encoding='UTF-8'?>
<gpx version="1.1" creator="https://www.komoot.de" xmlns="http://www.topografix.com/GPX/1/1" xmlns:xsi="http://www.w3.org/2001/XMLSchema-instance" xsi:schemaLocation="http://www.topografix.com/GPX/1/1 http://www.topografix.com/GPX/1/1/gpx.xsd">
  <metadata>
    <name>GŚ - Szlakiem muflona</name>
    <author>
      <link href="https://www.komoot.de">
        <text>komoot</text>
        <type>text/html</type>
      </link>
    </author>
  </metadata>
  <trk>
    <name>GŚ - Szlakiem muflona</name>
    <trkseg>
      <trkpt lat="50.656527" lon="17.913921">
        <ele>150.754513</ele>
        <time>2025-04-22T06:47:41.775Z</time>
      </trkpt>
      <trkpt lat="50.656430" lon="17.913905">
        <ele>150.754513</ele>
        <time>2025-04-22T06:47:44.184Z</time>
      </trkpt>
      <trkpt lat="50.656334" lon="17.913924">
        <ele>150.754513</ele>
        <time>2025-04-22T06:47:46.563Z</time>
      </trkpt>
      <trkpt lat="50.656168" lon="17.913998">
        <ele>150.754513</ele>
        <time>2025-04-22T06:47:50.803Z</time>
      </trkpt>
      <trkpt lat="50.656278" lon="17.914000">
        <ele>150.754513</ele>
        <time>2025-04-22T06:47:53.382Z</time>
      </trkpt>
      <trkpt lat="50.656320" lon="17.914130">
        <ele>150.754513</ele>
        <time>2025-04-22T06:47:55.603Z</time>
      </trkpt>
      <trkpt lat="50.656253" lon="17.914156">
        <ele>150.754513</ele>
        <time>2025-04-22T06:47:57.228Z</time>
      </trkpt>
      <trkpt lat="50.656140" lon="17.914262">
        <ele>150.754513</ele>
        <time>2025-04-22T06:48:00.343Z</time>
      </trkpt>
      <trkpt lat="50.656120" lon="17.914415">
        <ele>150.754513</ele>
        <time>2025-04-22T06:48:02.702Z</time>
      </trkpt>
      <trkpt lat="50.656155" lon="17.914529">
        <ele>150.759991</ele>
        <time>2025-04-22T06:48:04.591Z</time>
      </trkpt>
      <trkpt lat="50.656293" lon="17.914644">
        <ele>150.777165</ele>
        <time>2025-04-22T06:48:08.291Z</time>
      </trkpt>
      <trkpt lat="50.656373" lon="17.914625">
        <ele>150.786068</ele>
        <time>2025-04-22T06:48:10.222Z</time>
      </trkpt>
      <trkpt lat="50.656451" lon="17.914492">
        <ele>150.798708</ele>
        <time>2025-04-22T06:48:12.947Z</time>
      </trkpt>
      <trkpt lat="50.656463" lon="17.914411">
        <ele>150.804511</ele>
        <time>2025-04-22T06:48:14.208Z</time>
      </trkpt>
      <trkpt lat="50.656423" lon="17.914153">
        <ele>150.823040</ele>
        <time>2025-04-22T06:48:18.160Z</time>
      </trkpt>
      <trkpt lat="50.656445" lon="17.910616">
        <ele>151.153256</ele>
        <time>2025-04-22T06:49:08.261Z</time>
      </trkpt>
      <trkpt lat="50.656439" lon="17.910189">
        <ele>151.204239</ele>
        <time>2025-04-22T06:49:14.611Z</time>
      </trkpt>
      <trkpt lat="50.656364" lon="17.909295">
        <ele>151.312935</ele>
        <time>2025-04-22T06:49:28.737Z</time>
      </trkpt>
      <trkpt lat="50.656368" lon="17.909216">
        <ele>151.322873</ele>
        <time>2025-04-22T06:49:29.952Z</time>
      </trkpt>
      <trkpt lat="50.656411" lon="17.908996">
        <ele>151.351743</ele>
        <time>2025-04-22T06:49:33.483Z</time>
      </trkpt>
      <trkpt lat="50.656402" lon="17.908890">
        <ele>151.365154</ele>
        <time>2025-04-22T06:49:35.161Z</time>
      </trkpt>
      <trkpt lat="50.656393" lon="17.908827">
        <ele>151.373253</ele>
        <time>2025-04-22T06:49:36.122Z</time>
      </trkpt>
      <trkpt lat="50.656389" lon="17.908787">
        <ele>151.378331</ele>
        <time>2025-04-22T06:49:36.709Z</time>
      </trkpt>
      <trkpt lat="50.656385" lon="17.908737">
        <ele>151.384650</ele>
        <time>2025-04-22T06:49:37.475Z</time>
      </trkpt>
      <trkpt lat="50.655836" lon="17.908853">
        <ele>151.494214</ele>
        <time>2025-04-22T06:49:50.793Z</time>
      </trkpt>
      <trkpt lat="50.654959" lon="17.909039">
        <ele>151.681946</ele>
        <time>2025-04-22T06:50:10.542Z</time>
      </trkpt>
      <trkpt lat="50.654295" lon="17.909174">
        <ele>151.889531</ele>
        <time>2025-04-22T06:50:24.910Z</time>
      </trkpt>
      <trkpt lat="50.654265" lon="17.908713">
        <ele>151.980630</ele>
        <time>2025-04-22T06:50:31.187Z</time>
      </trkpt>
      <trkpt lat="50.654275" lon="17.908123">
        <ele>152.096653</ele>
        <time>2025-04-22T06:50:39.452Z</time>
      </trkpt>
      <trkpt lat="50.654286" lon="17.907503">
        <ele>152.293640</ele>
        <time>2025-04-22T06:50:50.592Z</time>
      </trkpt>
      <trkpt lat="50.654320" lon="17.907050">
        <ele>152.863713</ele>
        <time>2025-04-22T06:51:00.733Z</time>
      </trkpt>
      <trkpt lat="50.654319" lon="17.907041">
        <ele>152.875132</ele>
        <time>2025-04-22T06:51:00.947Z</time>
      </trkpt>
      <trkpt lat="50.654296" lon="17.906808">
        <ele>153.169824</ele>
        <time>2025-04-22T06:51:06.267Z</time>
      </trkpt>
      <trkpt lat="50.654362" lon="17.906716">
        <ele>153.343444</ele>
        <time>2025-04-22T06:51:09.408Z</time>
      </trkpt>
      <trkpt lat="50.654410" lon="17.906424">
        <ele>153.720427</ele>
        <time>2025-04-22T06:51:16.104Z</time>
      </trkpt>
      <trkpt lat="50.654390" lon="17.906329">
        <ele>153.845524</ele>
        <time>2025-04-22T06:51:18.373Z</time>
      </trkpt>
      <trkpt lat="50.654359" lon="17.906227">
        <ele>153.986884</ele>
        <time>2025-04-22T06:51:20.869Z</time>
      </trkpt>
      <trkpt lat="50.654321" lon="17.906180">
        <ele>154.082071</ele>
        <time>2025-04-22T06:51:22.548Z</time>
      </trkpt>
      <trkpt lat="50.654280" lon="17.906103">
        <ele>154.207735</ele>
        <time>2025-04-22T06:51:24.871Z</time>
      </trkpt>
      <trkpt lat="50.654225" lon="17.905941">
        <ele>154.437389</ele>
        <time>2025-04-22T06:51:29.028Z</time>
      </trkpt>
      <trkpt lat="50.654265" lon="17.905806">
        <ele>154.623616</ele>
        <time>2025-04-22T06:51:32.393Z</time>
      </trkpt>
      <trkpt lat="50.654223" lon="17.905769">
        <ele>154.718443</ele>
        <time>2025-04-22T06:51:34.160Z</time>
      </trkpt>
      <trkpt lat="50.654294" lon="17.905505">
        <ele>155.076824</ele>
        <time>2025-04-22T06:51:40.698Z</time>
      </trkpt>
      <trkpt lat="50.654304" lon="17.905319">
        <ele>155.310105</ele>
        <time>2025-04-22T06:51:44.896Z</time>
      </trkpt>
      <trkpt lat="50.654272" lon="17.902694">
        <ele>156.097972</ele>
        <time>2025-04-22T06:52:26.442Z</time>
      </trkpt>
      <trkpt lat="50.654270" lon="17.902575">
        <ele>156.116193</ele>
        <time>2025-04-22T06:52:27.954Z</time>
      </trkpt>
      <trkpt lat="50.654256" lon="17.901701">
        <ele>155.815261</ele>
        <time>2025-04-22T06:52:38.664Z</time>
      </trkpt>
      <trkpt lat="50.654254" lon="17.901646">
        <ele>155.767973</ele>
        <time>2025-04-22T06:52:39.325Z</time>
      </trkpt>
      <trkpt lat="50.654246" lon="17.901170">
        <ele>155.359240</ele>
        <time>2025-04-22T06:52:45.007Z</time>
      </trkpt>
      <trkpt lat="50.654243" lon="17.900951">
        <ele>155.171211</ele>
        <time>2025-04-22T06:52:47.615Z</time>
      </trkpt>
      <trkpt lat="50.654221" lon="17.899871">
        <ele>154.243683</ele>
        <time>2025-04-22T06:53:00.552Z</time>
      </trkpt>
      <trkpt lat="50.654199" lon="17.898892">
        <ele>153.608572</ele>
        <time>2025-04-22T06:53:12.530Z</time>
      </trkpt>
      <trkpt lat="50.654177" lon="17.897881">
        <ele>153.256336</ele>
        <time>2025-04-22T06:53:25.858Z</time>
      </trkpt>
      <trkpt lat="50.654171" lon="17.897565">
        <ele>153.146255</ele>
        <time>2025-04-22T06:53:30.189Z</time>
      </trkpt>
      <trkpt lat="50.654171" lon="17.897541">
        <ele>153.137899</ele>
        <time>2025-04-22T06:53:30.519Z</time>
      </trkpt>
      <trkpt lat="50.654170" lon="17.897496">
        <ele>153.122220</ele>
        <time>2025-04-22T06:53:31.146Z</time>
      </trkpt>
      <trkpt lat="50.654136" lon="17.895292">
        <ele>152.588704</ele>
        <time>2025-04-22T06:54:01.457Z</time>
      </trkpt>
      <trkpt lat="50.654120" lon="17.894361">
        <ele>152.451149</ele>
        <time>2025-04-22T06:54:14.126Z</time>
      </trkpt>
      <trkpt lat="50.654108" lon="17.893626">
        <ele>152.342558</ele>
        <time>2025-04-22T06:54:24.005Z</time>
      </trkpt>
      <trkpt lat="50.654047" lon="17.893090">
        <ele>152.421019</ele>
        <time>2025-04-22T06:54:31.472Z</time>
      </trkpt>
      <trkpt lat="50.653964" lon="17.892700">
        <ele>152.480872</ele>
        <time>2025-04-22T06:54:37.225Z</time>
      </trkpt>
      <trkpt lat="50.653941" lon="17.892464">
        <ele>152.515612</ele>
        <time>2025-04-22T06:54:40.778Z</time>
      </trkpt>
      <trkpt lat="50.653902" lon="17.892316">
        <ele>152.538930</ele>
        <time>2025-04-22T06:54:43.244Z</time>
      </trkpt>
      <trkpt lat="50.653922" lon="17.892278">
        <ele>152.546116</ele>
        <time>2025-04-22T06:54:43.977Z</time>
      </trkpt>
      <trkpt lat="50.653941" lon="17.892182">
        <ele>152.560748</ele>
        <time>2025-04-22T06:54:45.516Z</time>
      </trkpt>
      <trkpt lat="50.653926" lon="17.892085">
        <ele>152.575274</ele>
        <time>2025-04-22T06:54:47.099Z</time>
      </trkpt>
      <trkpt lat="50.653974" lon="17.891980">
        <ele>152.594108</ele>
        <time>2025-04-22T06:54:49.105Z</time>
      </trkpt>
      <trkpt lat="50.654078" lon="17.891742">
        <ele>152.636163</ele>
        <time>2025-04-22T06:54:53.800Z</time>
      </trkpt>
      <trkpt lat="50.654535" lon="17.890939">
        <ele>152.877130</ele>
        <time>2025-04-22T06:55:11.392Z</time>
      </trkpt>
      <trkpt lat="50.654037" lon="17.890627">
        <ele>153.270178</ele>
        <time>2025-04-22T06:55:25.478Z</time>
      </trkpt>
      <trkpt lat="50.653657" lon="17.890315">
        <ele>153.584415</ele>
        <time>2025-04-22T06:55:36.468Z</time>
      </trkpt>
      <trkpt lat="50.653525" lon="17.890207">
        <ele>153.693490</ele>
        <time>2025-04-22T06:55:40.284Z</time>
      </trkpt>
      <trkpt lat="50.653230" lon="17.889909">
        <ele>153.950449</ele>
        <time>2025-04-22T06:55:49.557Z</time>
      </trkpt>
      <trkpt lat="50.652699" lon="17.889258">
        <ele>154.265274</ele>
        <time>2025-04-22T06:56:06.844Z</time>
      </trkpt>
      <trkpt lat="50.652590" lon="17.889105">
        <ele>154.320604</ele>
        <time>2025-04-22T06:56:10.527Z</time>
      </trkpt>
      <trkpt lat="50.652400" lon="17.888839">
        <ele>154.416940</ele>
        <time>2025-04-22T06:56:16.867Z</time>
      </trkpt>
      <trkpt lat="50.651889" lon="17.888228">
        <ele>154.660095</ele>
        <time>2025-04-22T06:56:32.350Z</time>
      </trkpt>
      <trkpt lat="50.650689" lon="17.887172">
        <ele>154.429833</ele>
        <time>2025-04-22T06:57:01.759Z</time>
      </trkpt>
      <trkpt lat="50.650548" lon="17.887035">
        <ele>154.381584</ele>
        <time>2025-04-22T06:57:05.205Z</time>
      </trkpt>
      <trkpt lat="50.650248" lon="17.886835">
        <ele>154.286693</ele>
        <time>2025-04-22T06:57:12.008Z</time>
      </trkpt>
      <trkpt lat="50.650233" lon="17.886796">
        <ele>154.278267</ele>
        <time>2025-04-22T06:57:12.613Z</time>
      </trkpt>
      <trkpt lat="50.650182" lon="17.886694">
        <ele>154.254271</ele>
        <time>2025-04-22T06:57:14.331Z</time>
      </trkpt>
      <trkpt lat="50.649407" lon="17.885547">
        <ele>154.217358</ele>
        <time>2025-04-22T06:57:37.349Z</time>
      </trkpt>
      <trkpt lat="50.648605" lon="17.884375">
        <ele>154.342927</ele>
        <time>2025-04-22T06:58:19.283Z</time>
      </trkpt>
      <trkpt lat="50.648289" lon="17.883965">
        <ele>154.542930</ele>
        <time>2025-04-22T06:58:35.602Z</time>
      </trkpt>
      <trkpt lat="50.647350" lon="17.882989">
        <ele>155.090788</ele>
        <time>2025-04-22T06:59:20.494Z</time>
      </trkpt>
      <trkpt lat="50.647135" lon="17.882647">
        <ele>155.207695</ele>
        <time>2025-04-22T06:59:32.596Z</time>
      </trkpt>
      <trkpt lat="50.646936" lon="17.882205">
        <ele>155.339289</ele>
        <time>2025-04-22T06:59:46.038Z</time>
      </trkpt>
      <trkpt lat="50.646118" lon="17.880885">
        <ele>155.784867</ele>
        <time>2025-04-22T07:00:31.212Z</time>
      </trkpt>
      <trkpt lat="50.645486" lon="17.880295">
        <ele>156.018144</ele>
        <time>2025-04-22T07:00:59.563Z</time>
      </trkpt>
      <trkpt lat="50.645179" lon="17.880077">
        <ele>156.125085</ele>
        <time>2025-04-22T07:01:12.703Z</time>
      </trkpt>
      <trkpt lat="50.644763" lon="17.879325">
        <ele>156.326083</ele>
        <time>2025-04-22T07:01:37.297Z</time>
      </trkpt>
      <trkpt lat="50.644575" lon="17.879130">
        <ele>156.385460</ele>
        <time>2025-04-22T07:01:45.899Z</time>
      </trkpt>
      <trkpt lat="50.644219" lon="17.878858">
        <ele>156.482665</ele>
        <time>2025-04-22T07:02:00.871Z</time>
      </trkpt>
      <trkpt lat="50.643758" lon="17.878432">
        <ele>156.613962</ele>
        <time>2025-04-22T07:02:21.205Z</time>
      </trkpt>
      <trkpt lat="50.643228" lon="17.878159">
        <ele>156.750968</ele>
        <time>2025-04-22T07:02:42.607Z</time>
      </trkpt>
      <trkpt lat="50.642432" lon="17.877836">
        <ele>156.984858</ele>
        <time>2025-04-22T07:03:14.638Z</time>
      </trkpt>
      <trkpt lat="50.642329" lon="17.877728">
        <ele>157.021068</ele>
        <time>2025-04-22T07:03:19.496Z</time>
      </trkpt>
      <trkpt lat="50.641518" lon="17.877224">
        <ele>157.276249</ele>
        <time>2025-04-22T07:03:52.774Z</time>
      </trkpt>
      <trkpt lat="50.641092" lon="17.876766">
        <ele>157.367337</ele>
        <time>2025-04-22T07:04:12.299Z</time>
      </trkpt>
      <trkpt lat="50.640969" lon="17.876546">
        <ele>157.393341</ele>
        <time>2025-04-22T07:04:19.481Z</time>
      </trkpt>
      <trkpt lat="50.640961" lon="17.876439">
        <ele>157.402894</ele>
        <time>2025-04-22T07:04:22.078Z</time>
      </trkpt>
      <trkpt lat="50.641174" lon="17.875854">
        <ele>157.462704</ele>
        <time>2025-04-22T07:04:38.513Z</time>
      </trkpt>
      <trkpt lat="50.641201" lon="17.875788">
        <ele>157.469668</ele>
        <time>2025-04-22T07:04:39.722Z</time>
      </trkpt>
      <trkpt lat="50.641464" lon="17.875081">
        <ele>157.542343</ele>
        <time>2025-04-22T07:04:59.498Z</time>
      </trkpt>
      <trkpt lat="50.641446" lon="17.874863">
        <ele>157.561835</ele>
        <time>2025-04-22T07:05:04.638Z</time>
      </trkpt>
      <trkpt lat="50.641461" lon="17.874703">
        <ele>157.543161</ele>
        <time>2025-04-22T07:05:08.392Z</time>
      </trkpt>
      <trkpt lat="50.641654" lon="17.874221">
        <ele>157.455586</ele>
        <time>2025-04-22T07:05:21.475Z</time>
      </trkpt>
      <trkpt lat="50.641751" lon="17.874099">
        <ele>157.425528</ele>
        <time>2025-04-22T07:05:25.941Z</time>
      </trkpt>
      <trkpt lat="50.641808" lon="17.874036">
        <ele>157.408665</ele>
        <time>2025-04-22T07:05:28.437Z</time>
      </trkpt>
      <trkpt lat="50.641875" lon="17.873993">
        <ele>157.391141</ele>
        <time>2025-04-22T07:05:30.006Z</time>
      </trkpt>
      <trkpt lat="50.641520" lon="17.873413">
        <ele>157.267303</ele>
        <time>2025-04-22T07:05:48.212Z</time>
      </trkpt>
      <trkpt lat="50.641117" lon="17.872857">
        <ele>157.137582</ele>
        <time>2025-04-22T07:06:07.604Z</time>
      </trkpt>
      <trkpt lat="50.640919" lon="17.872629">
        <ele>157.211842</ele>
        <time>2025-04-22T07:06:16.712Z</time>
      </trkpt>
      <trkpt lat="50.640599" lon="17.872321">
        <ele>157.362934</ele>
        <time>2025-04-22T07:06:31.585Z</time>
      </trkpt>
      <trkpt lat="50.639893" lon="17.871853">
        <ele>157.671584</ele>
        <time>2025-04-22T07:07:02.939Z</time>
      </trkpt>
      <trkpt lat="50.640240" lon="17.870457">
        <ele>157.831498</ele>
        <time>2025-04-22T07:07:39.530Z</time>
      </trkpt>
      <trkpt lat="50.640222" lon="17.870252">
        <ele>157.825790</ele>
        <time>2025-04-22T07:07:44.354Z</time>
      </trkpt>
      <trkpt lat="50.640185" lon="17.870202">
        <ele>157.823671</ele>
        <time>2025-04-22T07:07:46.134Z</time>
      </trkpt>
      <trkpt lat="50.640046" lon="17.870042">
        <ele>157.816187</ele>
        <time>2025-04-22T07:07:52.392Z</time>
      </trkpt>
      <trkpt lat="50.639137" lon="17.869417">
        <ele>157.785775</ele>
        <time>2025-04-22T07:08:28.274Z</time>
      </trkpt>
      <trkpt lat="50.638203" lon="17.869015">
        <ele>158.015714</ele>
        <time>2025-04-22T07:09:04.498Z</time>
      </trkpt>
      <trkpt lat="50.637994" lon="17.868874">
        <ele>158.069704</ele>
        <time>2025-04-22T07:09:13.455Z</time>
      </trkpt>
      <trkpt lat="50.637857" lon="17.868713">
        <ele>158.110284</ele>
        <time>2025-04-22T07:09:20.265Z</time>
      </trkpt>
      <trkpt lat="50.637720" lon="17.868604">
        <ele>158.146729</ele>
        <time>2025-04-22T07:09:26.444Z</time>
      </trkpt>
      <trkpt lat="50.637240" lon="17.868316">
        <ele>158.330365</ele>
        <time>2025-04-22T07:09:47.441Z</time>
      </trkpt>
      <trkpt lat="50.636515" lon="17.867659">
        <ele>158.713121</ele>
        <time>2025-04-22T07:10:21.049Z</time>
      </trkpt>
      <trkpt lat="50.636279" lon="17.867092">
        <ele>158.910005</ele>
        <time>2025-04-22T07:10:37.407Z</time>
      </trkpt>
      <trkpt lat="50.636152" lon="17.866917">
        <ele>158.987208</ele>
        <time>2025-04-22T07:10:43.727Z</time>
      </trkpt>
      <trkpt lat="50.635685" lon="17.866580">
        <ele>159.093865</ele>
        <time>2025-04-22T07:11:02.760Z</time>
      </trkpt>
      <trkpt lat="50.636238" lon="17.864981">
        <ele>159.277567</ele>
        <time>2025-04-22T07:11:30.586Z</time>
      </trkpt>
      <trkpt lat="50.636496" lon="17.864145">
        <ele>159.313992</ele>
        <time>2025-04-22T07:11:45.146Z</time>
      </trkpt>
      <trkpt lat="50.637232" lon="17.862179">
        <ele>159.323708</ele>
        <time>2025-04-22T07:12:18.533Z</time>
      </trkpt>
      <trkpt lat="50.637363" lon="17.861636">
        <ele>159.329519</ele>
        <time>2025-04-22T07:12:26.639Z</time>
      </trkpt>
      <trkpt lat="50.637311" lon="17.861629">
        <ele>159.330342</ele>
        <time>2025-04-22T07:12:30.240Z</time>
      </trkpt>
      <trkpt lat="50.636469" lon="17.861130">
        <ele>159.344529</ele>
        <time>2025-04-22T07:12:50.126Z</time>
      </trkpt>
      <trkpt lat="50.636368" lon="17.861064">
        <ele>159.346253</ele>
        <time>2025-04-22T07:12:52.595Z</time>
      </trkpt>
      <trkpt lat="50.636294" lon="17.861059">
        <ele>159.347421</ele>
        <time>2025-04-22T07:12:54.264Z</time>
      </trkpt>
      <trkpt lat="50.636238" lon="17.861061">
        <ele>159.348305</ele>
        <time>2025-04-22T07:12:55.579Z</time>
      </trkpt>
      <trkpt lat="50.636085" lon="17.860963">
        <ele>159.350909</ele>
        <time>2025-04-22T07:12:59.455Z</time>
      </trkpt>
      <trkpt lat="50.635885" lon="17.860830">
        <ele>159.451999</ele>
        <time>2025-04-22T07:13:04.731Z</time>
      </trkpt>
      <trkpt lat="50.635461" lon="17.860549">
        <ele>159.725813</ele>
        <time>2025-04-22T07:13:16.526Z</time>
      </trkpt>
      <trkpt lat="50.635111" lon="17.860316">
        <ele>159.951992</ele>
        <time>2025-04-22T07:13:26.576Z</time>
      </trkpt>
      <trkpt lat="50.634774" lon="17.860094">
        <ele>160.169428</ele>
        <time>2025-04-22T07:13:35.756Z</time>
      </trkpt>
      <trkpt lat="50.634264" lon="17.859757">
        <ele>160.449322</ele>
        <time>2025-04-22T07:13:49.677Z</time>
      </trkpt>
      <trkpt lat="50.633975" lon="17.859565">
        <ele>160.515148</ele>
        <time>2025-04-22T07:13:57.443Z</time>
      </trkpt>
      <trkpt lat="50.633637" lon="17.859342">
        <ele>160.592056</ele>
        <time>2025-04-22T07:14:06.159Z</time>
      </trkpt>
      <trkpt lat="50.633556" lon="17.859213">
        <ele>160.616222</ele>
        <time>2025-04-22T07:14:08.818Z</time>
      </trkpt>
      <trkpt lat="50.633299" lon="17.859039">
        <ele>160.674930</ele>
        <time>2025-04-22T07:14:15.258Z</time>
      </trkpt>
      <trkpt lat="50.633315" lon="17.858978">
        <ele>160.683718</ele>
        <time>2025-04-22T07:14:16.212Z</time>
      </trkpt>
      <trkpt lat="50.633115" lon="17.858845">
        <ele>160.729279</ele>
        <time>2025-04-22T07:14:21.083Z</time>
      </trkpt>
      <trkpt lat="50.631537" lon="17.857793">
        <ele>160.907529</ele>
        <time>2025-04-22T07:14:59.049Z</time>
      </trkpt>
      <trkpt lat="50.629945" lon="17.856735">
        <ele>161.292003</ele>
        <time>2025-04-22T07:15:40.014Z</time>
      </trkpt>
      <trkpt lat="50.629526" lon="17.856532">
        <ele>161.410028</ele>
        <time>2025-04-22T07:15:50.426Z</time>
      </trkpt>
      <trkpt lat="50.627861" lon="17.855749">
        <ele>162.024077</ele>
        <time>2025-04-22T07:16:31.608Z</time>
      </trkpt>
      <trkpt lat="50.627519" lon="17.855684">
        <ele>162.175665</ele>
        <time>2025-04-22T07:16:40.436Z</time>
      </trkpt>
      <trkpt lat="50.627166" lon="17.855705">
        <ele>162.346173</ele>
        <time>2025-04-22T07:16:49.452Z</time>
      </trkpt>
      <trkpt lat="50.627007" lon="17.855764">
        <ele>162.425017</ele>
        <time>2025-04-22T07:16:53.572Z</time>
      </trkpt>
      <trkpt lat="50.626912" lon="17.855846">
        <ele>162.477296</ele>
        <time>2025-04-22T07:16:56.320Z</time>
      </trkpt>
      <trkpt lat="50.626684" lon="17.856099">
        <ele>162.611879</ele>
        <time>2025-04-22T07:17:03.287Z</time>
      </trkpt>
      <trkpt lat="50.626586" lon="17.856155">
        <ele>162.662194</ele>
        <time>2025-04-22T07:17:05.800Z</time>
      </trkpt>
      <trkpt lat="50.626342" lon="17.856150">
        <ele>162.779978</ele>
        <time>2025-04-22T07:17:11.757Z</time>
      </trkpt>
      <trkpt lat="50.625466" lon="17.855843">
        <ele>162.852798</ele>
        <time>2025-04-22T07:17:32.881Z</time>
      </trkpt>
      <trkpt lat="50.624913" lon="17.855781">
        <ele>162.775467</ele>
        <time>2025-04-22T07:17:44.810Z</time>
      </trkpt>
      <trkpt lat="50.624494" lon="17.855793">
        <ele>162.717013</ele>
        <time>2025-04-22T07:17:53.595Z</time>
      </trkpt>
      <trkpt lat="50.624274" lon="17.855837">
        <ele>162.686080</ele>
        <time>2025-04-22T07:17:58.176Z</time>
      </trkpt>
      <trkpt lat="50.624055" lon="17.856057">
        <ele>162.778391</ele>
        <time>2025-04-22T07:18:03.675Z</time>
      </trkpt>
      <trkpt lat="50.623899" lon="17.856361">
        <ele>162.879213</ele>
        <time>2025-04-22T07:18:09.015Z</time>
      </trkpt>
      <trkpt lat="50.623725" lon="17.857048">
        <ele>163.069956</ele>
        <time>2025-04-22T07:18:19.266Z</time>
      </trkpt>
      <trkpt lat="50.623580" lon="17.857652">
        <ele>163.236480</ele>
        <time>2025-04-22T07:18:29.816Z</time>
      </trkpt>
      <trkpt lat="50.623469" lon="17.857970">
        <ele>163.330072</ele>
        <time>2025-04-22T07:18:36.335Z</time>
      </trkpt>
      <trkpt lat="50.623375" lon="17.858131">
        <ele>163.386492</ele>
        <time>2025-04-22T07:18:40.399Z</time>
      </trkpt>
      <trkpt lat="50.623224" lon="17.858307">
        <ele>163.582990</ele>
        <time>2025-04-22T07:18:46.101Z</time>
      </trkpt>
      <trkpt lat="50.623133" lon="17.858397">
        <ele>163.733600</ele>
        <time>2025-04-22T07:18:49.432Z</time>
      </trkpt>
      <trkpt lat="50.622745" lon="17.858790">
        <ele>164.380177</ele>
        <time>2025-04-22T07:19:04.022Z</time>
      </trkpt>
      <trkpt lat="50.620979" lon="17.860542">
        <ele>166.725522</ele>
        <time>2025-04-22T07:20:03.887Z</time>
      </trkpt>
      <trkpt lat="50.620644" lon="17.860747">
        <ele>167.016053</ele>
        <time>2025-04-22T07:20:13.026Z</time>
      </trkpt>
      <trkpt lat="50.620425" lon="17.860790">
        <ele>167.194475</ele>
        <time>2025-04-22T07:20:18.326Z</time>
      </trkpt>
      <trkpt lat="50.619916" lon="17.860763">
        <ele>167.239534</ele>
        <time>2025-04-22T07:20:29.658Z</time>
      </trkpt>
      <trkpt lat="50.619702" lon="17.860757">
        <ele>167.119824</ele>
        <time>2025-04-22T07:20:34.210Z</time>
      </trkpt>
      <trkpt lat="50.619635" lon="17.860759">
        <ele>167.082344</ele>
        <time>2025-04-22T07:20:35.621Z</time>
      </trkpt>
      <trkpt lat="50.619126" lon="17.860796">
        <ele>166.797356</ele>
        <time>2025-04-22T07:20:46.171Z</time>
      </trkpt>
      <trkpt lat="50.618729" lon="17.860899">
        <ele>166.572324</ele>
        <time>2025-04-22T07:20:54.131Z</time>
      </trkpt>
      <trkpt lat="50.618277" lon="17.861024">
        <ele>166.313558</ele>
        <time>2025-04-22T07:21:03.226Z</time>
      </trkpt>
      <trkpt lat="50.618153" lon="17.860770">
        <ele>166.196311</ele>
        <time>2025-04-22T07:21:07.346Z</time>
      </trkpt>
      <trkpt lat="50.618307" lon="17.860194">
        <ele>165.967641</ele>
        <time>2025-04-22T07:21:15.455Z</time>
      </trkpt>
      <trkpt lat="50.619084" lon="17.857459">
        <ele>164.723103</ele>
        <time>2025-04-22T07:21:55.724Z</time>
      </trkpt>
      <trkpt lat="50.619127" lon="17.857199">
        <ele>164.594133</ele>
        <time>2025-04-22T07:21:59.210Z</time>
      </trkpt>
      <trkpt lat="50.619118" lon="17.857075">
        <ele>164.534225</ele>
        <time>2025-04-22T07:22:00.788Z</time>
      </trkpt>
      <trkpt lat="50.619063" lon="17.856949">
        <ele>164.460814</ele>
        <time>2025-04-22T07:22:02.733Z</time>
      </trkpt>
      <trkpt lat="50.618956" lon="17.856805">
        <ele>164.354369</ele>
        <time>2025-04-22T07:22:05.503Z</time>
      </trkpt>
      <trkpt lat="50.618550" lon="17.856724">
        <ele>164.044766</ele>
        <time>2025-04-22T07:22:13.845Z</time>
      </trkpt>
      <trkpt lat="50.618285" lon="17.856725">
        <ele>163.869998</ele>
        <time>2025-04-22T07:22:19.233Z</time>
      </trkpt>
      <trkpt lat="50.618202" lon="17.856715">
        <ele>163.818477</ele>
        <time>2025-04-22T07:22:20.941Z</time>
      </trkpt>
      <trkpt lat="50.618109" lon="17.856695">
        <ele>163.760383</ele>
        <time>2025-04-22T07:22:22.847Z</time>
      </trkpt>
      <trkpt lat="50.617921" lon="17.856635">
        <ele>163.641663</ele>
        <time>2025-04-22T07:22:26.748Z</time>
      </trkpt>
      <trkpt lat="50.617654" lon="17.856492">
        <ele>163.467128</ele>
        <time>2025-04-22T07:22:32.545Z</time>
      </trkpt>
      <trkpt lat="50.617010" lon="17.856091">
        <ele>163.038557</ele>
        <time>2025-04-22T07:22:47.740Z</time>
      </trkpt>
      <trkpt lat="50.616732" lon="17.855953">
        <ele>162.886054</ele>
        <time>2025-04-22T07:22:54.693Z</time>
      </trkpt>
      <trkpt lat="50.616356" lon="17.855779">
        <ele>163.117776</ele>
        <time>2025-04-22T07:23:04.642Z</time>
      </trkpt>
      <trkpt lat="50.614027" lon="17.854839">
        <ele>164.635589</ele>
        <time>2025-04-22T07:24:09.318Z</time>
      </trkpt>
      <trkpt lat="50.612569" lon="17.854291">
        <ele>165.746924</ele>
        <time>2025-04-22T07:24:48.757Z</time>
      </trkpt>
      <trkpt lat="50.612353" lon="17.854175">
        <ele>165.929882</ele>
        <time>2025-04-22T07:24:54.877Z</time>
      </trkpt>
      <trkpt lat="50.612270" lon="17.854097">
        <ele>166.007362</ele>
        <time>2025-04-22T07:24:57.480Z</time>
      </trkpt>
      <trkpt lat="50.612135" lon="17.853893">
        <ele>166.157318</ele>
        <time>2025-04-22T07:25:02.574Z</time>
      </trkpt>
      <trkpt lat="50.612058" lon="17.853702">
        <ele>166.272444</ele>
        <time>2025-04-22T07:25:06.505Z</time>
      </trkpt>
      <trkpt lat="50.610759" lon="17.850250">
        <ele>168.820988</ele>
        <time>2025-04-22T07:26:19.882Z</time>
      </trkpt>
      <trkpt lat="50.609996" lon="17.850570">
        <ele>169.370036</ele>
        <time>2025-04-22T07:26:40.632Z</time>
      </trkpt>
      <trkpt lat="50.609480" lon="17.850727">
        <ele>169.735481</ele>
        <time>2025-04-22T07:26:53.551Z</time>
      </trkpt>
      <trkpt lat="50.608855" lon="17.850857">
        <ele>169.825198</ele>
        <time>2025-04-22T07:27:08.258Z</time>
      </trkpt>
      <trkpt lat="50.607312" lon="17.851600">
        <ele>169.588873</ele>
        <time>2025-04-22T07:27:43.534Z</time>
      </trkpt>
      <trkpt lat="50.603707" lon="17.853425">
        <ele>167.568856</ele>
        <time>2025-04-22T07:29:00.539Z</time>
      </trkpt>
      <trkpt lat="50.603373" lon="17.853539">
        <ele>167.737922</ele>
        <time>2025-04-22T07:29:09.103Z</time>
      </trkpt>
      <trkpt lat="50.602247" lon="17.853612">
        <ele>168.326205</ele>
        <time>2025-04-22T07:29:40.633Z</time>
      </trkpt>
      <trkpt lat="50.601623" lon="17.853676">
        <ele>168.766830</ele>
        <time>2025-04-22T07:29:57.793Z</time>
      </trkpt>
      <trkpt lat="50.601438" lon="17.853708">
        <ele>168.897971</ele>
        <time>2025-04-22T07:30:02.587Z</time>
      </trkpt>
      <trkpt lat="50.601363" lon="17.853753">
        <ele>168.954521</ele>
        <time>2025-04-22T07:30:04.609Z</time>
      </trkpt>
      <trkpt lat="50.601330" lon="17.853650">
        <ele>169.006123</ele>
        <time>2025-04-22T07:30:06.600Z</time>
      </trkpt>
      <trkpt lat="50.601256" lon="17.853034">
        <ele>169.286516</ele>
        <time>2025-04-22T07:30:17.172Z</time>
      </trkpt>
      <trkpt lat="50.600811" lon="17.851156">
        <ele>169.768648</ele>
        <time>2025-04-22T07:30:50.505Z</time>
      </trkpt>
      <trkpt lat="50.600713" lon="17.850576">
        <ele>169.876497</ele>
        <time>2025-04-22T07:31:00.520Z</time>
      </trkpt>
      <trkpt lat="50.600657" lon="17.849647">
        <ele>170.006244</ele>
        <time>2025-04-22T07:31:15.867Z</time>
      </trkpt>
      <trkpt lat="50.600632" lon="17.849234">
        <ele>170.017458</ele>
        <time>2025-04-22T07:31:22.518Z</time>
      </trkpt>
      <trkpt lat="50.600633" lon="17.848501">
        <ele>170.037273</ele>
        <time>2025-04-22T07:31:34.018Z</time>
      </trkpt>
      <trkpt lat="50.600499" lon="17.846604">
        <ele>170.322753</ele>
        <time>2025-04-22T07:32:03.610Z</time>
      </trkpt>
      <trkpt lat="50.600468" lon="17.845833">
        <ele>170.726977</ele>
        <time>2025-04-22T07:32:16.874Z</time>
      </trkpt>
      <trkpt lat="50.600433" lon="17.844835">
        <ele>171.249965</ele>
        <time>2025-04-22T07:32:36.270Z</time>
      </trkpt>
      <trkpt lat="50.600384" lon="17.844430">
        <ele>171.465692</ele>
        <time>2025-04-22T07:32:44.908Z</time>
      </trkpt>
      <trkpt lat="50.600299" lon="17.844076">
        <ele>171.637296</ele>
        <time>2025-04-22T07:32:52.927Z</time>
      </trkpt>
      <trkpt lat="50.600188" lon="17.843816">
        <ele>171.759929</ele>
        <time>2025-04-22T07:32:59.404Z</time>
      </trkpt>
      <trkpt lat="50.599890" lon="17.843425">
        <ele>171.999053</ele>
        <time>2025-04-22T07:33:11.510Z</time>
      </trkpt>
      <trkpt lat="50.599710" lon="17.843039">
        <ele>172.186512</ele>
        <time>2025-04-22T07:33:20.362Z</time>
      </trkpt>
      <trkpt lat="50.599226" lon="17.841826">
        <ele>172.738888</ele>
        <time>2025-04-22T07:33:42.261Z</time>
      </trkpt>
      <trkpt lat="50.598894" lon="17.841376">
        <ele>172.980439</ele>
        <time>2025-04-22T07:33:57.658Z</time>
      </trkpt>
      <trkpt lat="50.598399" lon="17.840772">
        <ele>173.325758</ele>
        <time>2025-04-22T07:34:21.159Z</time>
      </trkpt>
      <trkpt lat="50.596162" lon="17.838121">
        <ele>177.034168</ele>
        <time>2025-04-22T07:36:32.815Z</time>
      </trkpt>
      <trkpt lat="50.595104" lon="17.836894">
        <ele>177.008991</ele>
        <time>2025-04-22T07:37:03.968Z</time>
      </trkpt>
      <trkpt lat="50.594042" lon="17.835693">
        <ele>174.444643</ele>
        <time>2025-04-22T07:37:30.785Z</time>
      </trkpt>
      <trkpt lat="50.593428" lon="17.834961">
        <ele>173.165091</ele>
        <time>2025-04-22T07:37:45.836Z</time>
      </trkpt>
      <trkpt lat="50.592766" lon="17.834167">
        <ele>172.920031</ele>
        <time>2025-04-22T07:38:03.512Z</time>
      </trkpt>
      <trkpt lat="50.592736" lon="17.834138">
        <ele>172.909664</ele>
        <time>2025-04-22T07:38:04.350Z</time>
      </trkpt>
      <trkpt lat="50.590740" lon="17.831871">
        <ele>176.082684</ele>
        <time>2025-04-22T07:39:30.780Z</time>
      </trkpt>
      <trkpt lat="50.590657" lon="17.831792">
        <ele>176.269441</ele>
        <time>2025-04-22T07:39:34.017Z</time>
      </trkpt>
      <trkpt lat="50.589859" lon="17.830862">
        <ele>177.942996</ele>
        <time>2025-04-22T07:40:04.991Z</time>
      </trkpt>
      <trkpt lat="50.589687" lon="17.830649">
        <ele>178.311860</ele>
        <time>2025-04-22T07:40:11.686Z</time>
      </trkpt>
      <trkpt lat="50.587367" lon="17.827966">
        <ele>183.609989</ele>
        <time>2025-04-22T07:41:54.543Z</time>
      </trkpt>
      <trkpt lat="50.585194" lon="17.825420">
        <ele>185.693876</ele>
        <time>2025-04-22T07:43:07.221Z</time>
      </trkpt>
      <trkpt lat="50.584368" lon="17.824466">
        <ele>186.484228</ele>
        <time>2025-04-22T07:43:35.406Z</time>
      </trkpt>
      <trkpt lat="50.583877" lon="17.823900">
        <ele>187.022653</ele>
        <time>2025-04-22T07:43:52.084Z</time>
      </trkpt>
      <trkpt lat="50.582794" lon="17.822652">
        <ele>187.952529</ele>
        <time>2025-04-22T07:44:26.106Z</time>
      </trkpt>
      <trkpt lat="50.582437" lon="17.822240">
        <ele>188.200903</ele>
        <time>2025-04-22T07:44:36.710Z</time>
      </trkpt>
      <trkpt lat="50.580988" lon="17.820569">
        <ele>189.630876</ele>
        <time>2025-04-22T07:45:21.799Z</time>
      </trkpt>
      <trkpt lat="50.579735" lon="17.819123">
        <ele>191.380900</ele>
        <time>2025-04-22T07:46:08.877Z</time>
      </trkpt>
      <trkpt lat="50.579679" lon="17.819059">
        <ele>191.467650</ele>
        <time>2025-04-22T07:46:10.932Z</time>
      </trkpt>
      <trkpt lat="50.579705" lon="17.819004">
        <ele>191.522239</ele>
        <time>2025-04-22T07:46:12.230Z</time>
      </trkpt>
      <trkpt lat="50.581814" lon="17.814740">
        <ele>193.585376</ele>
        <time>2025-04-22T07:47:44.675Z</time>
      </trkpt>
      <trkpt lat="50.581917" lon="17.814525">
        <ele>193.561417</ele>
        <time>2025-04-22T07:47:48.391Z</time>
      </trkpt>
      <trkpt lat="50.582826" lon="17.812647">
        <ele>192.669561</ele>
        <time>2025-04-22T07:48:18.937Z</time>
      </trkpt>
      <trkpt lat="50.583836" lon="17.810559">
        <ele>192.017043</ele>
        <time>2025-04-22T07:48:54.100Z</time>
      </trkpt>
      <trkpt lat="50.585859" lon="17.806378">
        <ele>194.922896</ele>
        <time>2025-04-22T07:51:19.052Z</time>
      </trkpt>
      <trkpt lat="50.587895" lon="17.802170">
        <ele>195.679484</ele>
        <time>2025-04-22T07:53:23.743Z</time>
      </trkpt>
      <trkpt lat="50.589714" lon="17.798366">
        <ele>198.294905</ele>
        <time>2025-04-22T07:55:30.240Z</time>
      </trkpt>
      <trkpt lat="50.591506" lon="17.794650">
        <ele>201.244626</ele>
        <time>2025-04-22T07:57:34.249Z</time>
      </trkpt>
      <trkpt lat="50.592674" lon="17.795422">
        <ele>202.607532</ele>
        <time>2025-04-22T07:58:29.726Z</time>
      </trkpt>
      <trkpt lat="50.594229" lon="17.793067">
        <ele>203.730911</ele>
        <time>2025-04-22T07:59:57.381Z</time>
      </trkpt>
      <trkpt lat="50.595226" lon="17.791518">
        <ele>203.061300</ele>
        <time>2025-04-22T08:00:27.204Z</time>
      </trkpt>
      <trkpt lat="50.598332" lon="17.786719">
        <ele>196.680571</ele>
        <time>2025-04-22T08:01:53.655Z</time>
      </trkpt>
      <trkpt lat="50.600469" lon="17.783371">
        <ele>192.796811</ele>
        <time>2025-04-22T08:02:54.243Z</time>
      </trkpt>
      <trkpt lat="50.602902" lon="17.779558">
        <ele>191.339395</ele>
        <time>2025-04-22T08:04:09.070Z</time>
      </trkpt>
      <trkpt lat="50.603945" lon="17.777920">
        <ele>192.970157</ele>
        <time>2025-04-22T08:04:56.403Z</time>
      </trkpt>
      <trkpt lat="50.606359" lon="17.774127">
        <ele>194.060120</ele>
        <time>2025-04-22T08:06:21.218Z</time>
      </trkpt>
      <trkpt lat="50.607697" lon="17.772026">
        <ele>193.012140</ele>
        <time>2025-04-22T08:07:00.567Z</time>
      </trkpt>
      <trkpt lat="50.609516" lon="17.769164">
        <ele>193.053949</ele>
        <time>2025-04-22T08:08:01.935Z</time>
      </trkpt>
      <trkpt lat="50.611222" lon="17.766499">
        <ele>193.025393</ele>
        <time>2025-04-22T08:09:00.448Z</time>
      </trkpt>
      <trkpt lat="50.613344" lon="17.763167">
        <ele>189.699262</ele>
        <time>2025-04-22T08:10:02.129Z</time>
      </trkpt>
      <trkpt lat="50.613305" lon="17.761773">
        <ele>187.834814</ele>
        <time>2025-04-22T08:10:25.026Z</time>
      </trkpt>
      <trkpt lat="50.613267" lon="17.760380">
        <ele>185.992493</ele>
        <time>2025-04-22T08:10:47.924Z</time>
      </trkpt>
      <trkpt lat="50.613228" lon="17.758986">
        <ele>184.163044</ele>
        <time>2025-04-22T08:11:10.819Z</time>
      </trkpt>
      <trkpt lat="50.613262" lon="17.758560">
        <ele>183.600115</ele>
        <time>2025-04-22T08:11:15.993Z</time>
      </trkpt>
      <trkpt lat="50.613450" lon="17.757754">
        <ele>183.827571</ele>
        <time>2025-04-22T08:11:27.138Z</time>
      </trkpt>
      <trkpt lat="50.613429" lon="17.757502">
        <ele>184.004540</ele>
        <time>2025-04-22T08:11:30.713Z</time>
      </trkpt>
      <trkpt lat="50.613382" lon="17.757372">
        <ele>184.108717</ele>
        <time>2025-04-22T08:11:32.930Z</time>
      </trkpt>
      <trkpt lat="50.613301" lon="17.757262">
        <ele>184.226044</ele>
        <time>2025-04-22T08:11:35.523Z</time>
      </trkpt>
      <trkpt lat="50.612349" lon="17.756419">
        <ele>185.468455</ele>
        <time>2025-04-22T08:12:12.794Z</time>
      </trkpt>
      <trkpt lat="50.612250" lon="17.756315">
        <ele>185.661370</ele>
        <time>2025-04-22T08:12:17.139Z</time>
      </trkpt>
      <trkpt lat="50.612117" lon="17.756099">
        <ele>185.971038</ele>
        <time>2025-04-22T08:12:24.052Z</time>
      </trkpt>
      <trkpt lat="50.612036" lon="17.755787">
        <ele>186.317879</ele>
        <time>2025-04-22T08:12:31.614Z</time>
      </trkpt>
      <trkpt lat="50.612010" lon="17.755591">
        <ele>186.523901</ele>
        <time>2025-04-22T08:12:35.969Z</time>
      </trkpt>
      <trkpt lat="50.611928" lon="17.753494">
        <ele>188.222388</ele>
        <time>2025-04-22T08:13:13.058Z</time>
      </trkpt>
      <trkpt lat="50.611730" lon="17.752105">
        <ele>188.136304</ele>
        <time>2025-04-22T08:13:32.687Z</time>
      </trkpt>
      <trkpt lat="50.611595" lon="17.750744">
        <ele>187.588845</ele>
        <time>2025-04-22T08:13:50.896Z</time>
      </trkpt>
      <trkpt lat="50.611546" lon="17.750253">
        <ele>186.970136</ele>
        <time>2025-04-22T08:13:56.986Z</time>
      </trkpt>
      <trkpt lat="50.611424" lon="17.749044">
        <ele>185.446257</ele>
        <time>2025-04-22T08:14:10.834Z</time>
      </trkpt>
      <trkpt lat="50.611668" lon="17.749138">
        <ele>184.953524</ele>
        <time>2025-04-22T08:14:15.217Z</time>
      </trkpt>
      <trkpt lat="50.611824" lon="17.749277">
        <ele>184.601980</ele>
        <time>2025-04-22T08:14:20.779Z</time>
      </trkpt>
      <trkpt lat="50.611974" lon="17.749576">
        <ele>184.394787</ele>
        <time>2025-04-22T08:14:28.369Z</time>
      </trkpt>
      <trkpt lat="50.612132" lon="17.749922">
        <ele>184.201098</ele>
        <time>2025-04-22T08:14:37.037Z</time>
      </trkpt>
      <trkpt lat="50.612218" lon="17.750007">
        <ele>184.128409</ele>
        <time>2025-04-22T08:14:40.316Z</time>
      </trkpt>
      <trkpt lat="50.612325" lon="17.750027">
        <ele>184.051255</ele>
        <time>2025-04-22T08:14:43.797Z</time>
      </trkpt>
      <trkpt lat="50.612653" lon="17.749954">
        <ele>183.814063</ele>
        <time>2025-04-22T08:14:54.979Z</time>
      </trkpt>
      <trkpt lat="50.616409" lon="17.748870">
        <ele>187.217936</ele>
        <time>2025-04-22T08:17:37.832Z</time>
      </trkpt>
      <trkpt lat="50.618585" lon="17.748248">
        <ele>191.699620</ele>
        <time>2025-04-22T08:19:28.654Z</time>
      </trkpt>
      <trkpt lat="50.619883" lon="17.747876">
        <ele>191.360567</ele>
        <time>2025-04-22T08:20:18.098Z</time>
      </trkpt>
      <trkpt lat="50.620390" lon="17.747688">
        <ele>191.077824</ele>
        <time>2025-04-22T08:20:35.304Z</time>
      </trkpt>
      <trkpt lat="50.622214" lon="17.747076">
        <ele>185.861135</ele>
        <time>2025-04-22T08:21:32.987Z</time>
      </trkpt>
      <trkpt lat="50.623072" lon="17.746821">
        <ele>183.843669</ele>
        <time>2025-04-22T08:21:59.875Z</time>
      </trkpt>
      <trkpt lat="50.624945" lon="17.746158">
        <ele>180.986188</ele>
        <time>2025-04-22T08:23:04.047Z</time>
      </trkpt>
      <trkpt lat="50.626529" lon="17.745583">
        <ele>180.389261</ele>
        <time>2025-04-22T08:24:05.920Z</time>
      </trkpt>
      <trkpt lat="50.628105" lon="17.745011">
        <ele>180.765614</ele>
        <time>2025-04-22T08:25:04.891Z</time>
      </trkpt>
      <trkpt lat="50.628895" lon="17.744716">
        <ele>181.296541</ele>
        <time>2025-04-22T08:25:37.056Z</time>
      </trkpt>
      <trkpt lat="50.629655" lon="17.744416">
        <ele>182.649697</ele>
        <time>2025-04-22T08:26:13.958Z</time>
      </trkpt>
      <trkpt lat="50.630038" lon="17.744319">
        <ele>183.708914</ele>
        <time>2025-04-22T08:26:33.935Z</time>
      </trkpt>
      <trkpt lat="50.630076" lon="17.744327">
        <ele>183.813596</ele>
        <time>2025-04-22T08:26:35.432Z</time>
      </trkpt>
      <trkpt lat="50.630280" lon="17.744393">
        <ele>184.382241</ele>
        <time>2025-04-22T08:26:43.312Z</time>
      </trkpt>
      <trkpt lat="50.630398" lon="17.744475">
        <ele>184.734362</ele>
        <time>2025-04-22T08:26:48.232Z</time>
      </trkpt>
      <trkpt lat="50.630521" lon="17.744612">
        <ele>185.145590</ele>
        <time>2025-04-22T08:26:53.939Z</time>
      </trkpt>
      <trkpt lat="50.630887" lon="17.745216">
        <ele>186.527726</ele>
        <time>2025-04-22T08:27:14.531Z</time>
      </trkpt>
      <trkpt lat="50.631303" lon="17.745959">
        <ele>187.433887</ele>
        <time>2025-04-22T08:27:37.157Z</time>
      </trkpt>
      <trkpt lat="50.631516" lon="17.746300">
        <ele>187.871479</ele>
        <time>2025-04-22T08:27:47.047Z</time>
      </trkpt>
      <trkpt lat="50.631609" lon="17.746395">
        <ele>188.031219</ele>
        <time>2025-04-22T08:27:50.378Z</time>
      </trkpt>
      <trkpt lat="50.631773" lon="17.746478">
        <ele>188.279505</ele>
        <time>2025-04-22T08:27:55.252Z</time>
      </trkpt>
      <trkpt lat="50.632040" lon="17.746480">
        <ele>188.664388</ele>
        <time>2025-04-22T08:28:01.977Z</time>
      </trkpt>
      <trkpt lat="50.632256" lon="17.746330">
        <ele>189.004617</ele>
        <time>2025-04-22T08:28:07.090Z</time>
      </trkpt>
      <trkpt lat="50.632343" lon="17.746206">
        <ele>188.771458</ele>
        <time>2025-04-22T08:28:09.488Z</time>
      </trkpt>
      <trkpt lat="50.632483" lon="17.745878">
        <ele>187.974683</ele>
        <time>2025-04-22T08:28:14.208Z</time>
      </trkpt>
      <trkpt lat="50.632718" lon="17.745155">
        <ele>186.337399</ele>
        <time>2025-04-22T08:28:23.083Z</time>
      </trkpt>
      <trkpt lat="50.632883" lon="17.744797">
        <ele>185.445540</ele>
        <time>2025-04-22T08:28:27.694Z</time>
      </trkpt>
      <trkpt lat="50.633525" lon="17.743856">
        <ele>182.751781</ele>
        <time>2025-04-22T08:28:41.756Z</time>
      </trkpt>
      <trkpt lat="50.634069" lon="17.743067">
        <ele>180.722413</ele>
        <time>2025-04-22T08:28:54.006Z</time>
      </trkpt>
      <trkpt lat="50.634467" lon="17.742689">
        <ele>179.446780</ele>
        <time>2025-04-22T08:29:02.338Z</time>
      </trkpt>
      <trkpt lat="50.636657" lon="17.741887">
        <ele>177.883954</ele>
        <time>2025-04-22T08:30:24.546Z</time>
      </trkpt>
      <trkpt lat="50.638322" lon="17.741241">
        <ele>177.151165</ele>
        <time>2025-04-22T08:31:27.288Z</time>
      </trkpt>
      <trkpt lat="50.638764" lon="17.740531">
        <ele>176.018779</ele>
        <time>2025-04-22T08:31:47.663Z</time>
      </trkpt>
      <trkpt lat="50.638962" lon="17.740350">
        <ele>175.599176</ele>
        <time>2025-04-22T08:31:54.870Z</time>
      </trkpt>
      <trkpt lat="50.639356" lon="17.740022">
        <ele>174.782329</ele>
        <time>2025-04-22T08:32:08.917Z</time>
      </trkpt>
      <trkpt lat="50.639478" lon="17.739888">
        <ele>174.509741</ele>
        <time>2025-04-22T08:32:13.692Z</time>
      </trkpt>
      <trkpt lat="50.639806" lon="17.739419">
        <ele>173.820592</ele>
        <time>2025-04-22T08:32:28.307Z</time>
      </trkpt>
      <trkpt lat="50.640477" lon="17.738445">
        <ele>173.532213</ele>
        <time>2025-04-22T08:33:01.117Z</time>
      </trkpt>
      <trkpt lat="50.640926" lon="17.737852">
        <ele>173.347022</ele>
        <time>2025-04-22T08:33:23.346Z</time>
      </trkpt>
      <trkpt lat="50.641449" lon="17.737557">
        <ele>173.644448</ele>
        <time>2025-04-22T08:33:37.041Z</time>
      </trkpt>
      <trkpt lat="50.641754" lon="17.737386">
        <ele>173.998720</ele>
        <time>2025-04-22T08:33:45.381Z</time>
      </trkpt>
      <trkpt lat="50.642119" lon="17.737232">
        <ele>174.412238</ele>
        <time>2025-04-22T08:33:55.170Z</time>
      </trkpt>
      <trkpt lat="50.642727" lon="17.737096">
        <ele>175.084311</ele>
        <time>2025-04-22T08:34:13.504Z</time>
      </trkpt>
      <trkpt lat="50.643493" lon="17.736961">
        <ele>176.318456</ele>
        <time>2025-04-22T08:34:38.395Z</time>
      </trkpt>
      <trkpt lat="50.643860" lon="17.736860">
        <ele>176.959710</ele>
        <time>2025-04-22T08:34:50.398Z</time>
      </trkpt>
      <trkpt lat="50.644763" lon="17.736412">
        <ele>178.542061</ele>
        <time>2025-04-22T08:35:18.814Z</time>
      </trkpt>
      <trkpt lat="50.645083" lon="17.736377">
        <ele>178.989094</ele>
        <time>2025-04-22T08:35:27.863Z</time>
      </trkpt>
      <trkpt lat="50.645533" lon="17.736383">
        <ele>179.616250</ele>
        <time>2025-04-22T08:35:40.404Z</time>
      </trkpt>
      <trkpt lat="50.645569" lon="17.736384">
        <ele>179.666428</ele>
        <time>2025-04-22T08:35:41.387Z</time>
      </trkpt>
      <trkpt lat="50.649215" lon="17.736080">
        <ele>185.990624</ele>
        <time>2025-04-22T08:37:31.329Z</time>
      </trkpt>
      <trkpt lat="50.650282" lon="17.735981">
        <ele>188.387697</ele>
        <time>2025-04-22T08:38:12.160Z</time>
      </trkpt>
      <trkpt lat="50.650763" lon="17.735969">
        <ele>189.419780</ele>
        <time>2025-04-22T08:38:29.650Z</time>
      </trkpt>
      <trkpt lat="50.650981" lon="17.735993">
        <ele>189.888623</ele>
        <time>2025-04-22T08:38:36.990Z</time>
      </trkpt>
      <trkpt lat="50.651632" lon="17.736200">
        <ele>191.313403</ele>
        <time>2025-04-22T08:38:57.039Z</time>
      </trkpt>
      <trkpt lat="50.653331" lon="17.736777">
        <ele>193.197501</ele>
        <time>2025-04-22T08:39:43.568Z</time>
      </trkpt>
      <trkpt lat="50.654183" lon="17.736838">
        <ele>194.139514</ele>
        <time>2025-04-22T08:40:06.365Z</time>
      </trkpt>
      <trkpt lat="50.654357" lon="17.736912">
        <ele>194.346667</ele>
        <time>2025-04-22T08:40:11.406Z</time>
      </trkpt>
      <trkpt lat="50.655079" lon="17.736863">
        <ele>195.177360</ele>
        <time>2025-04-22T08:40:42.920Z</time>
      </trkpt>
      <trkpt lat="50.655486" lon="17.736738">
        <ele>195.544646</ele>
        <time>2025-04-22T08:41:01.211Z</time>
      </trkpt>
      <trkpt lat="50.655743" lon="17.736627">
        <ele>195.657415</ele>
        <time>2025-04-22T08:41:12.938Z</time>
      </trkpt>
      <trkpt lat="50.656102" lon="17.736386">
        <ele>195.822535</ele>
        <time>2025-04-22T08:41:29.515Z</time>
      </trkpt>
      <trkpt lat="50.656575" lon="17.736077">
        <ele>196.039203</ele>
        <time>2025-04-22T08:41:49.708Z</time>
      </trkpt>
      <trkpt lat="50.656996" lon="17.735870">
        <ele>196.225830</ele>
        <time>2025-04-22T08:42:05.552Z</time>
      </trkpt>
      <trkpt lat="50.657335" lon="17.735780">
        <ele>195.659039</ele>
        <time>2025-04-22T08:42:17.339Z</time>
      </trkpt>
      <trkpt lat="50.657444" lon="17.735769">
        <ele>195.450387</ele>
        <time>2025-04-22T08:42:21.026Z</time>
      </trkpt>
      <trkpt lat="50.658963" lon="17.736198">
        <ele>192.153959</ele>
        <time>2025-04-22T08:43:10.664Z</time>
      </trkpt>
      <trkpt lat="50.659202" lon="17.736218">
        <ele>191.172069</ele>
        <time>2025-04-22T08:43:18.056Z</time>
      </trkpt>
      <trkpt lat="50.659579" lon="17.736093">
        <ele>189.591610</ele>
        <time>2025-04-22T08:43:29.830Z</time>
      </trkpt>
      <trkpt lat="50.659716" lon="17.736016">
        <ele>188.994951</ele>
        <time>2025-04-22T08:43:34.208Z</time>
      </trkpt>
      <trkpt lat="50.661048" lon="17.735225">
        <ele>182.519486</ele>
        <time>2025-04-22T08:44:14.954Z</time>
      </trkpt>
      <trkpt lat="50.661561" lon="17.734914">
        <ele>179.632945</ele>
        <time>2025-04-22T08:44:30.038Z</time>
      </trkpt>
      <trkpt lat="50.662257" lon="17.734640">
        <ele>175.941886</ele>
        <time>2025-04-22T08:44:50.677Z</time>
      </trkpt>
      <trkpt lat="50.662614" lon="17.734647">
        <ele>175.318061</ele>
        <time>2025-04-22T08:45:01.863Z</time>
      </trkpt>
      <trkpt lat="50.662683" lon="17.734690">
        <ele>175.188433</ele>
        <time>2025-04-22T08:45:04.223Z</time>
      </trkpt>
      <trkpt lat="50.662892" lon="17.734913">
        <ele>174.747571</ele>
        <time>2025-04-22T08:45:12.568Z</time>
      </trkpt>
      <trkpt lat="50.663037" lon="17.735149">
        <ele>174.383551</ele>
        <time>2025-04-22T08:45:19.744Z</time>
      </trkpt>
      <trkpt lat="50.663283" lon="17.735571">
        <ele>173.748566</ele>
        <time>2025-04-22T08:45:33.109Z</time>
      </trkpt>
      <trkpt lat="50.664853" lon="17.730597">
        <ele>170.654117</ele>
        <time>2025-04-22T08:47:34.396Z</time>
      </trkpt>
      <trkpt lat="50.666401" lon="17.725838">
        <ele>173.818902</ele>
        <time>2025-04-22T08:49:15.523Z</time>
      </trkpt>
      <trkpt lat="50.666617" lon="17.725134">
        <ele>174.589153</ele>
        <time>2025-04-22T08:49:33.596Z</time>
      </trkpt>
      <trkpt lat="50.667966" lon="17.726240">
        <ele>177.198025</ele>
        <time>2025-04-22T08:50:26.509Z</time>
      </trkpt>
      <trkpt lat="50.668064" lon="17.726000">
        <ele>177.516001</ele>
        <time>2025-04-22T08:50:32.138Z</time>
      </trkpt>
      <trkpt lat="50.668183" lon="17.725874">
        <ele>177.767840</ele>
        <time>2025-04-22T08:50:36.592Z</time>
      </trkpt>
      <trkpt lat="50.668346" lon="17.725862">
        <ele>178.054585</ele>
        <time>2025-04-22T08:50:41.599Z</time>
      </trkpt>
      <trkpt lat="50.668875" lon="17.726053">
        <ele>178.656934</ele>
        <time>2025-04-22T08:50:57.982Z</time>
      </trkpt>
      <trkpt lat="50.669553" lon="17.726311">
        <ele>179.330776</ele>
        <time>2025-04-22T08:51:18.445Z</time>
      </trkpt>
      <trkpt lat="50.669735" lon="17.726456">
        <ele>179.527763</ele>
        <time>2025-04-22T08:51:24.265Z</time>
      </trkpt>
      <trkpt lat="50.670638" lon="17.728015">
        <ele>181.211053</ele>
        <time>2025-04-22T08:52:03.001Z</time>
      </trkpt>
      <trkpt lat="50.670986" lon="17.728615">
        <ele>181.936191</ele>
        <time>2025-04-22T08:52:19.776Z</time>
      </trkpt>
      <trkpt lat="50.671645" lon="17.729759">
        <ele>183.929794</ele>
        <time>2025-04-22T08:52:55.327Z</time>
      </trkpt>
      <trkpt lat="50.673134" lon="17.732351">
        <ele>188.659361</ele>
        <time>2025-04-22T08:54:18.892Z</time>
      </trkpt>
      <trkpt lat="50.674171" lon="17.734283">
        <ele>190.489758</ele>
        <time>2025-04-22T08:55:04.049Z</time>
      </trkpt>
      <trkpt lat="50.674470" lon="17.734706">
        <ele>190.713336</ele>
        <time>2025-04-22T08:55:14.485Z</time>
      </trkpt>
      <trkpt lat="50.676069" lon="17.736457">
        <ele>192.061495</ele>
        <time>2025-04-22T08:56:08.078Z</time>
      </trkpt>
      <trkpt lat="50.676919" lon="17.737380">
        <ele>192.898471</ele>
        <time>2025-04-22T08:56:40.177Z</time>
      </trkpt>
      <trkpt lat="50.677495" lon="17.738052">
        <ele>193.511496</ele>
        <time>2025-04-22T08:57:01.741Z</time>
      </trkpt>
      <trkpt lat="50.678847" lon="17.740162">
        <ele>194.069846</ele>
        <time>2025-04-22T08:58:13.547Z</time>
      </trkpt>
      <trkpt lat="50.679653" lon="17.741393">
        <ele>194.047551</ele>
        <time>2025-04-22T08:58:54.702Z</time>
      </trkpt>
      <trkpt lat="50.679347" lon="17.742985">
        <ele>193.960986</ele>
        <time>2025-04-22T08:59:25.556Z</time>
      </trkpt>
      <trkpt lat="50.678860" lon="17.745608">
        <ele>193.493889</ele>
        <time>2025-04-22T09:00:15.298Z</time>
      </trkpt>
      <trkpt lat="50.678851" lon="17.745701">
        <ele>193.477722</ele>
        <time>2025-04-22T09:00:16.887Z</time>
      </trkpt>
      <trkpt lat="50.678857" lon="17.745729">
        <ele>193.472643</ele>
        <time>2025-04-22T09:00:17.399Z</time>
      </trkpt>
      <trkpt lat="50.678486" lon="17.745896">
        <ele>193.025703</ele>
        <time>2025-04-22T09:00:25.180Z</time>
      </trkpt>
      <trkpt lat="50.677703" lon="17.746322">
        <ele>192.062262</ele>
        <time>2025-04-22T09:00:41.262Z</time>
      </trkpt>
      <trkpt lat="50.678089" lon="17.747645">
        <ele>190.600195</ele>
        <time>2025-04-22T09:00:58.778Z</time>
      </trkpt>
      <trkpt lat="50.678193" lon="17.748351">
        <ele>189.535344</ele>
        <time>2025-04-22T09:01:07.367Z</time>
      </trkpt>
      <trkpt lat="50.678198" lon="17.748611">
        <ele>189.153199</ele>
        <time>2025-04-22T09:01:10.385Z</time>
      </trkpt>
      <trkpt lat="50.677980" lon="17.749903">
        <ele>187.171389</ele>
        <time>2025-04-22T09:01:25.304Z</time>
      </trkpt>
      <trkpt lat="50.677692" lon="17.751283">
        <ele>183.238346</ele>
        <time>2025-04-22T09:01:40.476Z</time>
      </trkpt>
      <trkpt lat="50.676936" lon="17.754639">
        <ele>173.143468</ele>
        <time>2025-04-22T09:02:16.396Z</time>
      </trkpt>
      <trkpt lat="50.676936" lon="17.754639">
        <ele>173.143468</ele>
        <time>2025-04-22T09:02:16.407Z</time>
      </trkpt>
      <trkpt lat="50.676655" lon="17.755921">
        <ele>170.005087</ele>
        <time>2025-04-22T09:02:38.649Z</time>
      </trkpt>
      <trkpt lat="50.676383" lon="17.757157">
        <ele>167.696240</ele>
        <time>2025-04-22T09:03:00.106Z</time>
      </trkpt>
      <trkpt lat="50.676110" lon="17.758394">
        <ele>165.978075</ele>
        <time>2025-04-22T09:03:21.559Z</time>
      </trkpt>
      <trkpt lat="50.675838" lon="17.759630">
        <ele>165.258027</ele>
        <time>2025-04-22T09:03:43.009Z</time>
      </trkpt>
      <trkpt lat="50.675565" lon="17.760866">
        <ele>164.596712</ele>
        <time>2025-04-22T09:04:04.459Z</time>
      </trkpt>
      <trkpt lat="50.675293" lon="17.762103">
        <ele>164.164926</ele>
        <time>2025-04-22T09:04:25.909Z</time>
      </trkpt>
      <trkpt lat="50.675021" lon="17.763339">
        <ele>163.729950</ele>
        <time>2025-04-22T09:04:47.359Z</time>
      </trkpt>
      <trkpt lat="50.674748" lon="17.764575">
        <ele>163.201062</ele>
        <time>2025-04-22T09:05:08.810Z</time>
      </trkpt>
      <trkpt lat="50.674476" lon="17.765812">
        <ele>162.671999</ele>
        <time>2025-04-22T09:05:30.261Z</time>
      </trkpt>
      <trkpt lat="50.674203" lon="17.767048">
        <ele>162.327772</ele>
        <time>2025-04-22T09:05:51.712Z</time>
      </trkpt>
      <trkpt lat="50.673931" lon="17.768284">
        <ele>162.011766</ele>
        <time>2025-04-22T09:06:13.162Z</time>
      </trkpt>
      <trkpt lat="50.673658" lon="17.769521">
        <ele>161.795872</ele>
        <time>2025-04-22T09:06:34.613Z</time>
      </trkpt>
      <trkpt lat="50.673386" lon="17.770757">
        <ele>161.623346</ele>
        <time>2025-04-22T09:06:56.064Z</time>
      </trkpt>
      <trkpt lat="50.673386" lon="17.770757">
        <ele>161.623346</ele>
        <time>2025-04-22T09:06:56.074Z</time>
      </trkpt>
      <trkpt lat="50.672485" lon="17.774912">
        <ele>161.434081</ele>
        <time>2025-04-22T09:07:56.922Z</time>
      </trkpt>
      <trkpt lat="50.672264" lon="17.775803">
        <ele>161.577194</ele>
        <time>2025-04-22T09:08:10.782Z</time>
      </trkpt>
      <trkpt lat="50.669935" lon="17.783581">
        <ele>164.321359</ele>
        <time>2025-04-22T09:10:30.430Z</time>
      </trkpt>
      <trkpt lat="50.668616" lon="17.787982">
        <ele>162.296558</ele>
        <time>2025-04-22T09:11:31.755Z</time>
      </trkpt>
      <trkpt lat="50.668349" lon="17.788857">
        <ele>162.001604</ele>
        <time>2025-04-22T09:11:44.822Z</time>
      </trkpt>
      <trkpt lat="50.666307" lon="17.795651">
        <ele>162.232555</ele>
        <time>2025-04-22T09:13:34.235Z</time>
      </trkpt>
      <trkpt lat="50.666265" lon="17.795781">
        <ele>162.225117</ele>
        <time>2025-04-22T09:13:36.276Z</time>
      </trkpt>
      <trkpt lat="50.666197" lon="17.795891">
        <ele>162.217283</ele>
        <time>2025-04-22T09:13:38.435Z</time>
      </trkpt>
      <trkpt lat="50.666189" lon="17.796087">
        <ele>162.207271</ele>
        <time>2025-04-22T09:13:41.174Z</time>
      </trkpt>
      <trkpt lat="50.665636" lon="17.800549">
        <ele>161.519414</ele>
        <time>2025-04-22T09:14:43.510Z</time>
      </trkpt>
      <trkpt lat="50.665290" lon="17.802783">
        <ele>160.636131</ele>
        <time>2025-04-22T09:15:13.162Z</time>
      </trkpt>
      <trkpt lat="50.664826" lon="17.805351">
        <ele>159.660307</ele>
        <time>2025-04-22T09:15:48.218Z</time>
      </trkpt>
      <trkpt lat="50.664758" lon="17.805740">
        <ele>159.582201</ele>
        <time>2025-04-22T09:15:53.524Z</time>
      </trkpt>
      <trkpt lat="50.664721" lon="17.805964">
        <ele>159.570712</ele>
        <time>2025-04-22T09:15:56.612Z</time>
      </trkpt>
      <trkpt lat="50.664623" lon="17.806390">
        <ele>159.548219</ele>
        <time>2025-04-22T09:16:02.801Z</time>
      </trkpt>
      <trkpt lat="50.664450" lon="17.807097">
        <ele>159.510605</ele>
        <time>2025-04-22T09:16:13.728Z</time>
      </trkpt>
      <trkpt lat="50.664434" lon="17.807385">
        <ele>159.496255</ele>
        <time>2025-04-22T09:16:17.876Z</time>
      </trkpt>
      <trkpt lat="50.664474" lon="17.807915">
        <ele>159.469764</ele>
        <time>2025-04-22T09:16:25.602Z</time>
      </trkpt>
      <trkpt lat="50.664519" lon="17.808409">
        <ele>159.447874</ele>
        <time>2025-04-22T09:16:32.732Z</time>
      </trkpt>
      <trkpt lat="50.664478" lon="17.808411">
        <ele>159.445936</ele>
        <time>2025-04-22T09:16:35.604Z</time>
      </trkpt>
      <trkpt lat="50.664399" lon="17.808415">
        <ele>159.442201</ele>
        <time>2025-04-22T09:16:41.056Z</time>
      </trkpt>
      <trkpt lat="50.664302" lon="17.808393">
        <ele>159.437570</ele>
        <time>2025-04-22T09:16:44.771Z</time>
      </trkpt>
      <trkpt lat="50.664079" lon="17.808203">
        <ele>159.425594</ele>
        <time>2025-04-22T09:16:54.406Z</time>
      </trkpt>
      <trkpt lat="50.663732" lon="17.808186">
        <ele>159.409189</ele>
        <time>2025-04-22T09:17:07.226Z</time>
      </trkpt>
      <trkpt lat="50.663578" lon="17.808279">
        <ele>159.401397</ele>
        <time>2025-04-22T09:17:18.648Z</time>
      </trkpt>
      <trkpt lat="50.663483" lon="17.808521">
        <ele>159.392871</ele>
        <time>2025-04-22T09:17:31.221Z</time>
      </trkpt>
      <trkpt lat="50.663376" lon="17.808704">
        <ele>159.385413</ele>
        <time>2025-04-22T09:17:42.146Z</time>
      </trkpt>
      <trkpt lat="50.663134" lon="17.808991">
        <ele>159.371107</ele>
        <time>2025-04-22T09:18:03.225Z</time>
      </trkpt>
      <trkpt lat="50.663046" lon="17.809248">
        <ele>159.384160</ele>
        <time>2025-04-22T09:18:16.058Z</time>
      </trkpt>
      <trkpt lat="50.662989" lon="17.809316">
        <ele>159.395784</ele>
        <time>2025-04-22T09:18:21.069Z</time>
      </trkpt>
      <trkpt lat="50.662903" lon="17.809287">
        <ele>159.410088</ele>
        <time>2025-04-22T09:18:27.127Z</time>
      </trkpt>
      <trkpt lat="50.662883" lon="17.809261">
        <ele>159.414303</ele>
        <time>2025-04-22T09:18:28.966Z</time>
      </trkpt>
      <trkpt lat="50.662848" lon="17.809228">
        <ele>159.420935</ele>
        <time>2025-04-22T09:18:31.764Z</time>
      </trkpt>
      <trkpt lat="50.662678" lon="17.809271">
        <ele>159.448940</ele>
        <time>2025-04-22T09:18:43.774Z</time>
      </trkpt>
      <trkpt lat="50.662425" lon="17.809369">
        <ele>159.491313</ele>
        <time>2025-04-22T09:19:01.866Z</time>
      </trkpt>
      <trkpt lat="50.662225" lon="17.809516">
        <ele>159.527201</ele>
        <time>2025-04-22T09:19:17.190Z</time>
      </trkpt>
      <trkpt lat="50.662121" lon="17.809740">
        <ele>159.555829</ele>
        <time>2025-04-22T09:19:29.438Z</time>
      </trkpt>
      <trkpt lat="50.662100" lon="17.809914">
        <ele>159.574092</ele>
        <time>2025-04-22T09:19:37.227Z</time>
      </trkpt>
      <trkpt lat="50.662057" lon="17.810062">
        <ele>159.590878</ele>
        <time>2025-04-22T09:19:44.417Z</time>
      </trkpt>
      <trkpt lat="50.662094" lon="17.810106">
        <ele>159.598414</ele>
        <time>2025-04-22T09:19:47.616Z</time>
      </trkpt>
      <trkpt lat="50.662081" lon="17.810500">
        <ele>159.639093</ele>
        <time>2025-04-22T09:20:05.006Z</time>
      </trkpt>
      <trkpt lat="50.662096" lon="17.810645">
        <ele>159.654241</ele>
        <time>2025-04-22T09:20:11.489Z</time>
      </trkpt>
      <trkpt lat="50.662131" lon="17.810794">
        <ele>159.675116</ele>
        <time>2025-04-22T09:20:18.483Z</time>
      </trkpt>
      <trkpt lat="50.662233" lon="17.811018">
        <ele>159.715376</ele>
        <time>2025-04-22T09:20:30.624Z</time>
      </trkpt>
      <trkpt lat="50.662500" lon="17.811444">
        <ele>159.802824</ele>
        <time>2025-04-22T09:20:57.016Z</time>
      </trkpt>
      <trkpt lat="50.662500" lon="17.811444">
        <ele>159.802824</ele>
        <time>2025-04-22T09:20:57.030Z</time>
      </trkpt>
      <trkpt lat="50.662769" lon="17.811672">
        <ele>159.873145</ele>
        <time>2025-04-22T09:21:18.269Z</time>
      </trkpt>
      <trkpt lat="50.662928" lon="17.811770">
        <ele>159.912454</ele>
        <time>2025-04-22T09:21:30.140Z</time>
      </trkpt>
      <trkpt lat="50.663003" lon="17.811754">
        <ele>159.929883</ele>
        <time>2025-04-22T09:21:35.388Z</time>
      </trkpt>
      <trkpt lat="50.663121" lon="17.811612">
        <ele>159.964059</ele>
        <time>2025-04-22T09:21:45.705Z</time>
      </trkpt>
      <trkpt lat="50.663220" lon="17.810785">
        <ele>160.129869</ele>
        <time>2025-04-22T09:22:22.756Z</time>
      </trkpt>
      <trkpt lat="50.663194" lon="17.810560">
        <ele>160.274471</ele>
        <time>2025-04-22T09:22:32.855Z</time>
      </trkpt>
      <trkpt lat="50.663054" lon="17.810264">
        <ele>160.507974</ele>
        <time>2025-04-22T09:22:49.113Z</time>
      </trkpt>
      <trkpt lat="50.663239" lon="17.810281">
        <ele>160.692813</ele>
        <time>2025-04-22T09:23:02.006Z</time>
      </trkpt>
      <trkpt lat="50.663604" lon="17.810371">
        <ele>161.061298</ele>
        <time>2025-04-22T09:23:27.715Z</time>
      </trkpt>
      <trkpt lat="50.663764" lon="17.810483">
        <ele>161.235892</ele>
        <time>2025-04-22T09:23:39.857Z</time>
      </trkpt>
      <trkpt lat="50.664118" lon="17.810770">
        <ele>161.632881</ele>
        <time>2025-04-22T09:24:07.470Z</time>
      </trkpt>
      <trkpt lat="50.664128" lon="17.810951">
        <ele>161.747751</ele>
        <time>2025-04-22T09:24:15.471Z</time>
      </trkpt>
      <trkpt lat="50.664471" lon="17.810913">
        <ele>161.728352</ele>
        <time>2025-04-22T09:24:25.709Z</time>
      </trkpt>
      <trkpt lat="50.664608" lon="17.810897">
        <ele>161.642386</ele>
        <time>2025-04-22T09:24:29.423Z</time>
      </trkpt>
      <trkpt lat="50.664674" lon="17.810888">
        <ele>161.600930</ele>
        <time>2025-04-22T09:24:31.219Z</time>
      </trkpt>
      <trkpt lat="50.664679" lon="17.810957">
        <ele>161.573383</ele>
        <time>2025-04-22T09:24:32.090Z</time>
      </trkpt>
      <trkpt lat="50.664690" lon="17.811206">
        <ele>161.474376</ele>
        <time>2025-04-22T09:24:35.266Z</time>
      </trkpt>
      <trkpt lat="50.664695" lon="17.811313">
        <ele>161.431819</ele>
        <time>2025-04-22T09:24:36.656Z</time>
      </trkpt>
      <trkpt lat="50.664737" lon="17.811835">
        <ele>161.223104</ele>
        <time>2025-04-22T09:24:43.437Z</time>
      </trkpt>
      <trkpt lat="50.664780" lon="17.812178">
        <ele>161.084416</ele>
        <time>2025-04-22T09:24:47.901Z</time>
      </trkpt>
      <trkpt lat="50.664815" lon="17.812302">
        <ele>161.030575</ele>
        <time>2025-04-22T09:24:49.576Z</time>
      </trkpt>
      <trkpt lat="50.665064" lon="17.812906">
        <ele>160.744782</ele>
        <time>2025-04-22T09:24:58.407Z</time>
      </trkpt>
      <trkpt lat="50.665094" lon="17.812979">
        <ele>160.737043</ele>
        <time>2025-04-22T09:24:59.500Z</time>
      </trkpt>
      <trkpt lat="50.665340" lon="17.813583">
        <ele>160.688853</ele>
        <time>2025-04-22T09:25:08.861Z</time>
      </trkpt>
      <trkpt lat="50.665380" lon="17.813753">
        <ele>160.676681</ele>
        <time>2025-04-22T09:25:11.251Z</time>
      </trkpt>
      <trkpt lat="50.665376" lon="17.814054">
        <ele>160.656473</ele>
        <time>2025-04-22T09:25:15.218Z</time>
      </trkpt>
      <trkpt lat="50.665298" lon="17.814325">
        <ele>160.636495</ele>
        <time>2025-04-22T09:25:19.172Z</time>
      </trkpt>
      <trkpt lat="50.665124" lon="17.814720">
        <ele>160.604207</ele>
        <time>2025-04-22T09:25:25.855Z</time>
      </trkpt>
      <trkpt lat="50.665091" lon="17.814797">
        <ele>160.597968</ele>
        <time>2025-04-22T09:25:27.187Z</time>
      </trkpt>
      <trkpt lat="50.664975" lon="17.815099">
        <ele>160.574265</ele>
        <time>2025-04-22T09:25:32.721Z</time>
      </trkpt>
      <trkpt lat="50.664929" lon="17.815423">
        <ele>160.552813</ele>
        <time>2025-04-22T09:25:38.369Z</time>
      </trkpt>
      <trkpt lat="50.664946" lon="17.815771">
        <ele>160.952635</ele>
        <time>2025-04-22T09:25:44.800Z</time>
      </trkpt>
      <trkpt lat="50.665032" lon="17.816114">
        <ele>161.375169</ele>
        <time>2025-04-22T09:25:51.936Z</time>
      </trkpt>
      <trkpt lat="50.665475" lon="17.817532">
        <ele>163.186083</ele>
        <time>2025-04-22T09:26:24.901Z</time>
      </trkpt>
      <trkpt lat="50.665640" lon="17.817887">
        <ele>163.690349</ele>
        <time>2025-04-22T09:26:34.598Z</time>
      </trkpt>
      <trkpt lat="50.665777" lon="17.818111">
        <ele>163.954093</ele>
        <time>2025-04-22T09:26:41.146Z</time>
      </trkpt>
      <trkpt lat="50.665948" lon="17.818322">
        <ele>164.197381</ele>
        <time>2025-04-22T09:26:48.002Z</time>
      </trkpt>
      <trkpt lat="50.666393" lon="17.818869">
        <ele>164.829582</ele>
        <time>2025-04-22T09:27:04.452Z</time>
      </trkpt>
      <trkpt lat="50.666635" lon="17.819173">
        <ele>165.176255</ele>
        <time>2025-04-22T09:27:12.479Z</time>
      </trkpt>
      <trkpt lat="50.666837" lon="17.819438">
        <ele>165.470669</ele>
        <time>2025-04-22T09:27:19.151Z</time>
      </trkpt>
      <trkpt lat="50.666941" lon="17.819582">
        <ele>165.625739</ele>
        <time>2025-04-22T09:27:22.584Z</time>
      </trkpt>
      <trkpt lat="50.667008" lon="17.819690">
        <ele>165.733084</ele>
        <time>2025-04-22T09:27:24.934Z</time>
      </trkpt>
      <trkpt lat="50.667119" lon="17.819909">
        <ele>165.794929</ele>
        <time>2025-04-22T09:27:29.169Z</time>
      </trkpt>
      <trkpt lat="50.667243" lon="17.820301">
        <ele>165.731170</ele>
        <time>2025-04-22T09:27:35.451Z</time>
      </trkpt>
      <trkpt lat="50.667492" lon="17.821712">
        <ele>165.518014</ele>
        <time>2025-04-22T09:27:55.378Z</time>
      </trkpt>
      <trkpt lat="50.667566" lon="17.822321">
        <ele>165.427771</ele>
        <time>2025-04-22T09:28:03.773Z</time>
      </trkpt>
      <trkpt lat="50.667539" lon="17.822633">
        <ele>165.300082</ele>
        <time>2025-04-22T09:28:07.894Z</time>
      </trkpt>
      <trkpt lat="50.667478" lon="17.822882">
        <ele>165.125035</ele>
        <time>2025-04-22T09:28:11.296Z</time>
      </trkpt>
      <trkpt lat="50.667207" lon="17.823687">
        <ele>164.527337</ele>
        <time>2025-04-22T09:28:22.582Z</time>
      </trkpt>
      <trkpt lat="50.667012" lon="17.824400">
        <ele>164.018133</ele>
        <time>2025-04-22T09:28:32.208Z</time>
      </trkpt>
      <trkpt lat="50.666761" lon="17.825472">
        <ele>163.317303</ele>
        <time>2025-04-22T09:28:46.382Z</time>
      </trkpt>
      <trkpt lat="50.666638" lon="17.826002">
        <ele>163.012360</ele>
        <time>2025-04-22T09:28:53.329Z</time>
      </trkpt>
      <trkpt lat="50.666543" lon="17.826413">
        <ele>162.775997</ele>
        <time>2025-04-22T09:28:58.828Z</time>
      </trkpt>
      <trkpt lat="50.666519" lon="17.826515">
        <ele>162.717213</ele>
        <time>2025-04-22T09:29:00.203Z</time>
      </trkpt>
      <trkpt lat="50.666498" lon="17.826601">
        <ele>162.667419</ele>
        <time>2025-04-22T09:29:01.365Z</time>
      </trkpt>
      <trkpt lat="50.666278" lon="17.827493">
        <ele>162.150281</ele>
        <time>2025-04-22T09:29:13.750Z</time>
      </trkpt>
      <trkpt lat="50.666265" lon="17.827545">
        <ele>162.120079</ele>
        <time>2025-04-22T09:29:14.476Z</time>
      </trkpt>
      <trkpt lat="50.665316" lon="17.831436">
        <ele>161.595910</ele>
        <time>2025-04-22T09:30:12.906Z</time>
      </trkpt>
      <trkpt lat="50.665230" lon="17.831935">
        <ele>161.491255</ele>
        <time>2025-04-22T09:30:19.937Z</time>
      </trkpt>
      <trkpt lat="50.665186" lon="17.832466">
        <ele>161.382876</ele>
        <time>2025-04-22T09:30:27.214Z</time>
      </trkpt>
      <trkpt lat="50.665161" lon="17.833234">
        <ele>161.171841</ele>
        <time>2025-04-22T09:30:37.361Z</time>
      </trkpt>
      <trkpt lat="50.665130" lon="17.834347">
        <ele>160.405396</ele>
        <time>2025-04-22T09:30:51.264Z</time>
      </trkpt>
      <trkpt lat="50.665095" lon="17.835323">
        <ele>159.732867</ele>
        <time>2025-04-22T09:31:03.257Z</time>
      </trkpt>
      <trkpt lat="50.665071" lon="17.836070">
        <ele>159.264484</ele>
        <time>2025-04-22T09:31:12.360Z</time>
      </trkpt>
      <trkpt lat="50.665002" lon="17.837888">
        <ele>158.736406</ele>
        <time>2025-04-22T09:31:35.761Z</time>
      </trkpt>
      <trkpt lat="50.664936" lon="17.838393">
        <ele>158.586900</ele>
        <time>2025-04-22T09:31:43.351Z</time>
      </trkpt>
      <trkpt lat="50.664768" lon="17.838929">
        <ele>158.558784</ele>
        <time>2025-04-22T09:31:52.752Z</time>
      </trkpt>
      <trkpt lat="50.664768" lon="17.838929">
        <ele>158.558784</ele>
        <time>2025-04-22T09:31:52.755Z</time>
      </trkpt>
      <trkpt lat="50.664361" lon="17.839764">
        <ele>158.970905</ele>
        <time>2025-04-22T09:32:10.413Z</time>
      </trkpt>
      <trkpt lat="50.664017" lon="17.840441">
        <ele>159.310388</ele>
        <time>2025-04-22T09:32:25.087Z</time>
      </trkpt>
      <trkpt lat="50.663097" lon="17.842235">
        <ele>159.408504</ele>
        <time>2025-04-22T09:32:59.631Z</time>
      </trkpt>
      <trkpt lat="50.662825" lon="17.842819">
        <ele>159.328514</ele>
        <time>2025-04-22T09:33:09.259Z</time>
      </trkpt>
      <trkpt lat="50.662390" lon="17.843753">
        <ele>158.769971</ele>
        <time>2025-04-22T09:33:23.893Z</time>
      </trkpt>
      <trkpt lat="50.662336" lon="17.843870">
        <ele>158.658180</ele>
        <time>2025-04-22T09:33:25.678Z</time>
      </trkpt>
      <trkpt lat="50.661451" lon="17.845788">
        <ele>156.968875</ele>
        <time>2025-04-22T09:33:54.431Z</time>
      </trkpt>
      <trkpt lat="50.661136" lon="17.846472">
        <ele>156.682557</ele>
        <time>2025-04-22T09:34:05.375Z</time>
      </trkpt>
      <trkpt lat="50.660981" lon="17.846809">
        <ele>156.541552</ele>
        <time>2025-04-22T09:34:10.954Z</time>
      </trkpt>
      <trkpt lat="50.660722" lon="17.847379">
        <ele>156.304047</ele>
        <time>2025-04-22T09:34:20.636Z</time>
      </trkpt>
      <trkpt lat="50.660648" lon="17.847550">
        <ele>156.233928</ele>
        <time>2025-04-22T09:34:23.592Z</time>
      </trkpt>
      <trkpt lat="50.659308" lon="17.850701">
        <ele>156.117179</ele>
        <time>2025-04-22T09:35:17.135Z</time>
      </trkpt>
      <trkpt lat="50.659088" lon="17.851234">
        <ele>156.134808</ele>
        <time>2025-04-22T09:35:26.236Z</time>
      </trkpt>
      <trkpt lat="50.658992" lon="17.851461">
        <ele>156.142371</ele>
        <time>2025-04-22T09:35:30.132Z</time>
      </trkpt>
      <trkpt lat="50.658696" lon="17.852225">
        <ele>156.167189</ele>
        <time>2025-04-22T09:35:43.006Z</time>
      </trkpt>
      <trkpt lat="50.658488" lon="17.852916">
        <ele>156.173748</ele>
        <time>2025-04-22T09:35:53.828Z</time>
      </trkpt>
      <trkpt lat="50.658392" lon="17.853400">
        <ele>156.166694</ele>
        <time>2025-04-22T09:36:01.149Z</time>
      </trkpt>
      <trkpt lat="50.658291" lon="17.856642">
        <ele>156.187316</ele>
        <time>2025-04-22T09:36:46.530Z</time>
      </trkpt>
      <trkpt lat="50.658278" lon="17.857108">
        <ele>156.205032</ele>
        <time>2025-04-22T09:36:53.345Z</time>
      </trkpt>
      <trkpt lat="50.658253" lon="17.857982">
        <ele>156.238259</ele>
        <time>2025-04-22T09:37:06.231Z</time>
      </trkpt>
      <trkpt lat="50.658248" lon="17.858170">
        <ele>156.245405</ele>
        <time>2025-04-22T09:37:08.982Z</time>
      </trkpt>
      <trkpt lat="50.658232" lon="17.858664">
        <ele>156.262550</ele>
        <time>2025-04-22T09:37:16.173Z</time>
      </trkpt>
      <trkpt lat="50.658192" lon="17.859173">
        <ele>156.280177</ele>
        <time>2025-04-22T09:37:23.372Z</time>
      </trkpt>
      <trkpt lat="50.657974" lon="17.860463">
        <ele>156.326058</ele>
        <time>2025-04-22T09:37:42.108Z</time>
      </trkpt>
      <trkpt lat="50.657874" lon="17.861070">
        <ele>156.357464</ele>
        <time>2025-04-22T09:37:51.098Z</time>
      </trkpt>
      <trkpt lat="50.657819" lon="17.861413">
        <ele>156.407351</ele>
        <time>2025-04-22T09:37:56.264Z</time>
      </trkpt>
      <trkpt lat="50.657782" lon="17.861646">
        <ele>156.441220</ele>
        <time>2025-04-22T09:37:59.792Z</time>
      </trkpt>
      <trkpt lat="50.657677" lon="17.862272">
        <ele>156.532525</ele>
        <time>2025-04-22T09:38:09.438Z</time>
      </trkpt>
      <trkpt lat="50.657664" lon="17.862350">
        <ele>156.543897</ele>
        <time>2025-04-22T09:38:10.678Z</time>
      </trkpt>
      <trkpt lat="50.657541" lon="17.862750">
        <ele>156.606583</ele>
        <time>2025-04-22T09:38:17.552Z</time>
      </trkpt>
      <trkpt lat="50.657443" lon="17.863031">
        <ele>156.651805</ele>
        <time>2025-04-22T09:38:22.561Z</time>
      </trkpt>
      <trkpt lat="50.657414" lon="17.863123">
        <ele>156.666292</ele>
        <time>2025-04-22T09:38:24.155Z</time>
      </trkpt>
      <trkpt lat="50.657334" lon="17.863549">
        <ele>156.728940</ele>
        <time>2025-04-22T09:38:30.860Z</time>
      </trkpt>
      <trkpt lat="50.657300" lon="17.864037">
        <ele>156.678690</ele>
        <time>2025-04-22T09:38:38.080Z</time>
      </trkpt>
      <trkpt lat="50.657252" lon="17.865731">
        <ele>156.385576</ele>
        <time>2025-04-22T09:39:01.035Z</time>
      </trkpt>
      <trkpt lat="50.657287" lon="17.866207">
        <ele>156.302744</ele>
        <time>2025-04-22T09:39:07.281Z</time>
      </trkpt>
      <trkpt lat="50.657621" lon="17.867461">
        <ele>155.946052</ele>
        <time>2025-04-22T09:39:25.015Z</time>
      </trkpt>
      <trkpt lat="50.657656" lon="17.867748">
        <ele>155.862589</ele>
        <time>2025-04-22T09:39:28.877Z</time>
      </trkpt>
      <trkpt lat="50.657646" lon="17.868094">
        <ele>155.763676</ele>
        <time>2025-04-22T09:39:33.548Z</time>
      </trkpt>
      <trkpt lat="50.657524" lon="17.868597">
        <ele>155.609877</ele>
        <time>2025-04-22T09:39:40.910Z</time>
      </trkpt>
      <trkpt lat="50.656697" lon="17.870869">
        <ele>155.136601</ele>
        <time>2025-04-22T09:40:17.028Z</time>
      </trkpt>
      <trkpt lat="50.656605" lon="17.871115">
        <ele>155.093553</ele>
        <time>2025-04-22T09:40:20.852Z</time>
      </trkpt>
      <trkpt lat="50.656449" lon="17.871662">
        <ele>155.003126</ele>
        <time>2025-04-22T09:40:29.206Z</time>
      </trkpt>
      <trkpt lat="50.656351" lon="17.871845">
        <ele>154.966949</ele>
        <time>2025-04-22T09:40:32.520Z</time>
      </trkpt>
      <trkpt lat="50.655459" lon="17.873899">
        <ele>154.590958</ele>
        <time>2025-04-22T09:41:07.858Z</time>
      </trkpt>
      <trkpt lat="50.655298" lon="17.873720">
        <ele>154.572010</ele>
        <time>2025-04-22T09:41:15.359Z</time>
      </trkpt>
      <trkpt lat="50.655104" lon="17.873439">
        <ele>154.549407</ele>
        <time>2025-04-22T09:41:25.454Z</time>
      </trkpt>
      <trkpt lat="50.654993" lon="17.873637">
        <ele>154.535027</ele>
        <time>2025-04-22T09:41:29.539Z</time>
      </trkpt>
      <trkpt lat="50.654434" lon="17.874616">
        <ele>154.463345</ele>
        <time>2025-04-22T09:41:48.737Z</time>
      </trkpt>
      <trkpt lat="50.654285" lon="17.874761">
        <ele>154.448321</ele>
        <time>2025-04-22T09:41:52.642Z</time>
      </trkpt>
      <trkpt lat="50.654061" lon="17.874878">
        <ele>154.432281</ele>
        <time>2025-04-22T09:42:01.107Z</time>
      </trkpt>
      <trkpt lat="50.653606" lon="17.875114">
        <ele>154.423582</ele>
        <time>2025-04-22T09:42:18.384Z</time>
      </trkpt>
      <trkpt lat="50.653173" lon="17.875325">
        <ele>154.415351</ele>
        <time>2025-04-22T09:42:34.875Z</time>
      </trkpt>
      <trkpt lat="50.653064" lon="17.875420">
        <ele>154.413089</ele>
        <time>2025-04-22T09:42:39.465Z</time>
      </trkpt>
      <trkpt lat="50.653002" lon="17.875520">
        <ele>154.411479</ele>
        <time>2025-04-22T09:42:42.800Z</time>
      </trkpt>
      <trkpt lat="50.652456" lon="17.877115">
        <ele>154.539609</ele>
        <time>2025-04-22T09:43:27.756Z</time>
      </trkpt>
      <trkpt lat="50.652392" lon="17.877187">
        <ele>154.559166</ele>
        <time>2025-04-22T09:43:30.821Z</time>
      </trkpt>
      <trkpt lat="50.652235" lon="17.877184">
        <ele>154.598226</ele>
        <time>2025-04-22T09:43:36.832Z</time>
      </trkpt>
      <trkpt lat="50.651713" lon="17.876381">
        <ele>154.779627</ele>
        <time>2025-04-22T09:44:04.471Z</time>
      </trkpt>
      <trkpt lat="50.651650" lon="17.876535">
        <ele>154.808535</ele>
        <time>2025-04-22T09:44:07.118Z</time>
      </trkpt>
      <trkpt lat="50.651603" lon="17.876652">
        <ele>154.830382</ele>
        <time>2025-04-22T09:44:09.106Z</time>
      </trkpt>
      <trkpt lat="50.651590" lon="17.876689">
        <ele>154.837055</ele>
        <time>2025-04-22T09:44:09.696Z</time>
      </trkpt>
      <trkpt lat="50.650477" lon="17.879969">
        <ele>155.152784</ele>
        <time>2025-04-22T09:45:05.198Z</time>
      </trkpt>
      <trkpt lat="50.649993" lon="17.881390">
        <ele>154.966838</ele>
        <time>2025-04-22T09:45:27.135Z</time>
      </trkpt>
      <trkpt lat="50.649847" lon="17.881877">
        <ele>154.881098</ele>
        <time>2025-04-22T09:45:34.184Z</time>
      </trkpt>
      <trkpt lat="50.649636" lon="17.882959">
        <ele>154.541056</ele>
        <time>2025-04-22T09:45:49.014Z</time>
      </trkpt>
      <trkpt lat="50.649523" lon="17.883750">
        <ele>154.297493</ele>
        <time>2025-04-22T09:45:59.660Z</time>
      </trkpt>
      <trkpt lat="50.649436" lon="17.884462">
        <ele>154.079682</ele>
        <time>2025-04-22T09:46:09.350Z</time>
      </trkpt>
      <trkpt lat="50.649393" lon="17.884759">
        <ele>154.085676</ele>
        <time>2025-04-22T09:46:13.518Z</time>
      </trkpt>
      <trkpt lat="50.649354" lon="17.885037">
        <ele>154.105468</ele>
        <time>2025-04-22T09:46:17.484Z</time>
      </trkpt>
      <trkpt lat="50.649350" lon="17.885283">
        <ele>154.122574</ele>
        <time>2025-04-22T09:46:20.909Z</time>
      </trkpt>
      <trkpt lat="50.649407" lon="17.885547">
        <ele>154.141960</ele>
        <time>2025-04-22T09:46:24.789Z</time>
      </trkpt>
      <trkpt lat="50.650182" lon="17.886694">
        <ele>154.258476</ele>
        <time>2025-04-22T09:46:49.806Z</time>
      </trkpt>
      <trkpt lat="50.650233" lon="17.886796">
        <ele>154.270656</ele>
        <time>2025-04-22T09:46:51.848Z</time>
      </trkpt>
      <trkpt lat="50.650248" lon="17.886835">
        <ele>154.277195</ele>
        <time>2025-04-22T09:46:52.559Z</time>
      </trkpt>
      <trkpt lat="50.650548" lon="17.887035">
        <ele>154.350831</ele>
        <time>2025-04-22T09:47:00.666Z</time>
      </trkpt>
      <trkpt lat="50.650689" lon="17.887172">
        <ele>154.388273</ele>
        <time>2025-04-22T09:47:04.796Z</time>
      </trkpt>
      <trkpt lat="50.650782" lon="17.887253">
        <ele>154.412293</ele>
        <time>2025-04-22T09:47:07.464Z</time>
      </trkpt>
      <trkpt lat="50.651889" lon="17.888228">
        <ele>154.569114</ele>
        <time>2025-04-22T09:47:37.414Z</time>
      </trkpt>
      <trkpt lat="50.652400" lon="17.888839">
        <ele>154.036054</ele>
        <time>2025-04-22T09:47:50.280Z</time>
      </trkpt>
      <trkpt lat="50.652590" lon="17.889105">
        <ele>153.824863</ele>
        <time>2025-04-22T09:47:55.108Z</time>
      </trkpt>
      <trkpt lat="50.652699" lon="17.889258">
        <ele>153.703565</ele>
        <time>2025-04-22T09:47:57.911Z</time>
      </trkpt>
      <trkpt lat="50.652394" lon="17.890379">
        <ele>153.131519</ele>
        <time>2025-04-22T09:48:24.597Z</time>
      </trkpt>
      <trkpt lat="50.652553" lon="17.890556">
        <ele>153.069150</ele>
        <time>2025-04-22T09:48:28.790Z</time>
      </trkpt>
      <trkpt lat="50.652797" lon="17.890827">
        <ele>152.973511</ele>
        <time>2025-04-22T09:48:35.348Z</time>
      </trkpt>
      <trkpt lat="50.652996" lon="17.891047">
        <ele>152.895630</ele>
        <time>2025-04-22T09:48:40.798Z</time>
      </trkpt>
      <trkpt lat="50.653497" lon="17.891624">
        <ele>152.696823</ele>
        <time>2025-04-22T09:48:55.203Z</time>
      </trkpt>
      <trkpt lat="50.653596" lon="17.891774">
        <ele>152.652828</ele>
        <time>2025-04-22T09:48:58.527Z</time>
      </trkpt>
      <trkpt lat="50.653669" lon="17.891970">
        <ele>152.606641</ele>
        <time>2025-04-22T09:49:01.846Z</time>
      </trkpt>
      <trkpt lat="50.653717" lon="17.892080">
        <ele>152.597025</ele>
        <time>2025-04-22T09:49:03.765Z</time>
      </trkpt>
      <trkpt lat="50.653701" lon="17.892196">
        <ele>152.593966</ele>
        <time>2025-04-22T09:49:05.468Z</time>
      </trkpt>
      <trkpt lat="50.653731" lon="17.892304">
        <ele>152.590928</ele>
        <time>2025-04-22T09:49:07.127Z</time>
      </trkpt>
      <trkpt lat="50.653835" lon="17.892365">
        <ele>152.586419</ele>
        <time>2025-04-22T09:49:09.579Z</time>
      </trkpt>
      <trkpt lat="50.653884" lon="17.892507">
        <ele>152.582254</ele>
        <time>2025-04-22T09:49:11.847Z</time>
      </trkpt>
      <trkpt lat="50.653964" lon="17.892700">
        <ele>152.576313</ele>
        <time>2025-04-22T09:49:15.100Z</time>
      </trkpt>
      <trkpt lat="50.654047" lon="17.893090">
        <ele>152.565714</ele>
        <time>2025-04-22T09:49:20.683Z</time>
      </trkpt>
      <trkpt lat="50.654108" lon="17.893626">
        <ele>152.551683</ele>
        <time>2025-04-22T09:49:28.238Z</time>
      </trkpt>
      <trkpt lat="50.654120" lon="17.894361">
        <ele>152.532740</ele>
        <time>2025-04-22T09:49:39.081Z</time>
      </trkpt>
      <trkpt lat="50.654136" lon="17.895292">
        <ele>152.626262</ele>
        <time>2025-04-22T09:49:53.031Z</time>
      </trkpt>
      <trkpt lat="50.654170" lon="17.897496">
        <ele>152.969914</ele>
        <time>2025-04-22T09:50:25.453Z</time>
      </trkpt>
      <trkpt lat="50.654171" lon="17.897541">
        <ele>152.995770</ele>
        <time>2025-04-22T09:50:26.129Z</time>
      </trkpt>
      <trkpt lat="50.654171" lon="17.897565">
        <ele>153.009551</ele>
        <time>2025-04-22T09:50:26.483Z</time>
      </trkpt>
      <trkpt lat="50.654177" lon="17.897881">
        <ele>153.191089</ele>
        <time>2025-04-22T09:50:31.147Z</time>
      </trkpt>
      <trkpt lat="50.654199" lon="17.898892">
        <ele>153.771976</ele>
        <time>2025-04-22T09:50:47.190Z</time>
      </trkpt>
      <trkpt lat="50.654221" lon="17.899871">
        <ele>154.334499</ele>
        <time>2025-04-22T09:51:05.202Z</time>
      </trkpt>
      <trkpt lat="50.654243" lon="17.900951">
        <ele>155.020481</ele>
        <time>2025-04-22T09:51:25.930Z</time>
      </trkpt>
      <trkpt lat="50.654246" lon="17.901170">
        <ele>155.167495</ele>
        <time>2025-04-22T09:51:30.172Z</time>
      </trkpt>
      <trkpt lat="50.654254" lon="17.901646">
        <ele>155.487070</ele>
        <time>2025-04-22T09:51:39.372Z</time>
      </trkpt>
      <trkpt lat="50.654256" lon="17.901701">
        <ele>155.524044</ele>
        <time>2025-04-22T09:51:40.425Z</time>
      </trkpt>
      <trkpt lat="50.654270" lon="17.902575">
        <ele>156.110807</ele>
        <time>2025-04-22T09:51:56.370Z</time>
      </trkpt>
      <trkpt lat="50.654272" lon="17.902694">
        <ele>156.190701</ele>
        <time>2025-04-22T09:51:58.429Z</time>
      </trkpt>
      <trkpt lat="50.654304" lon="17.905319">
        <ele>155.093528</ele>
        <time>2025-04-22T09:52:33.073Z</time>
      </trkpt>
      <trkpt lat="50.654294" lon="17.905505">
        <ele>154.977079</ele>
        <time>2025-04-22T09:52:35.186Z</time>
      </trkpt>
      <trkpt lat="50.654223" lon="17.905769">
        <ele>154.798183</ele>
        <time>2025-04-22T09:52:38.360Z</time>
      </trkpt>
      <trkpt lat="50.654265" lon="17.905806">
        <ele>154.750848</ele>
        <time>2025-04-22T09:52:39.194Z</time>
      </trkpt>
      <trkpt lat="50.654225" lon="17.905941">
        <ele>154.625583</ele>
        <time>2025-04-22T09:52:40.855Z</time>
      </trkpt>
      <trkpt lat="50.654280" lon="17.906103">
        <ele>154.425290</ele>
        <time>2025-04-22T09:52:42.909Z</time>
      </trkpt>
      <trkpt lat="50.654321" lon="17.906180">
        <ele>154.315693</ele>
        <time>2025-04-22T09:52:44.003Z</time>
      </trkpt>
      <trkpt lat="50.654359" lon="17.906227">
        <ele>154.232675</ele>
        <time>2025-04-22T09:52:44.863Z</time>
      </trkpt>
      <trkpt lat="50.654390" lon="17.906329">
        <ele>154.109388</ele>
        <time>2025-04-22T09:52:46.125Z</time>
      </trkpt>
      <trkpt lat="50.654410" lon="17.906424">
        <ele>154.000285</ele>
        <time>2025-04-22T09:52:47.232Z</time>
      </trkpt>
      <trkpt lat="50.654362" lon="17.906716">
        <ele>153.671500</ele>
        <time>2025-04-22T09:52:50.645Z</time>
      </trkpt>
      <trkpt lat="50.654296" lon="17.906808">
        <ele>153.520077</ele>
        <time>2025-04-22T09:52:52.163Z</time>
      </trkpt>
      <trkpt lat="50.654233" lon="17.906845">
        <ele>153.404507</ele>
        <time>2025-04-22T09:52:53.380Z</time>
      </trkpt>
      <trkpt lat="50.654266" lon="17.906999">
        <ele>153.227328</ele>
        <time>2025-04-22T09:52:55.169Z</time>
      </trkpt>
      <trkpt lat="50.654268" lon="17.907049">
        <ele>153.172723</ele>
        <time>2025-04-22T09:52:55.744Z</time>
      </trkpt>
      <trkpt lat="50.654286" lon="17.907503">
        <ele>152.676925</ele>
        <time>2025-04-22T09:53:00.864Z</time>
      </trkpt>
      <trkpt lat="50.654275" lon="17.908123">
        <ele>152.000899</ele>
        <time>2025-04-22T09:53:08.712Z</time>
      </trkpt>
      <trkpt lat="50.654265" lon="17.908713">
        <ele>151.611910</ele>
        <time>2025-04-22T09:53:17.127Z</time>
      </trkpt>
      <trkpt lat="50.654295" lon="17.909174">
        <ele>151.617779</ele>
        <time>2025-04-22T09:53:24.019Z</time>
      </trkpt>
      <trkpt lat="50.654959" lon="17.909039">
        <ele>151.631152</ele>
        <time>2025-04-22T09:53:39.888Z</time>
      </trkpt>
      <trkpt lat="50.655836" lon="17.908853">
        <ele>151.586716</ele>
        <time>2025-04-22T09:53:59.531Z</time>
      </trkpt>
      <trkpt lat="50.656385" lon="17.908737">
        <ele>151.422047</ele>
        <time>2025-04-22T09:54:11.279Z</time>
      </trkpt>
      <trkpt lat="50.656389" lon="17.908787">
        <ele>151.412549</ele>
        <time>2025-04-22T09:54:11.970Z</time>
      </trkpt>
      <trkpt lat="50.656393" lon="17.908827">
        <ele>151.404917</ele>
        <time>2025-04-22T09:54:12.517Z</time>
      </trkpt>
      <trkpt lat="50.656402" lon="17.908890">
        <ele>151.392746</ele>
        <time>2025-04-22T09:54:13.397Z</time>
      </trkpt>
      <trkpt lat="50.656411" lon="17.908996">
        <ele>151.372589</ele>
        <time>2025-04-22T09:54:14.828Z</time>
      </trkpt>
      <trkpt lat="50.656368" lon="17.909216">
        <ele>151.329200</ele>
        <time>2025-04-22T09:54:17.906Z</time>
      </trkpt>
      <trkpt lat="50.656364" lon="17.909295">
        <ele>151.314263</ele>
        <time>2025-04-22T09:54:18.968Z</time>
      </trkpt>
      <trkpt lat="50.656439" lon="17.910189">
        <ele>151.144302</ele>
        <time>2025-04-22T09:54:30.943Z</time>
      </trkpt>
      <trkpt lat="50.656445" lon="17.910616">
        <ele>151.094382</ele>
        <time>2025-04-22T09:54:36.790Z</time>
      </trkpt>
      <trkpt lat="50.656423" lon="17.914153">
        <ele>150.927863</ele>
        <time>2025-04-22T09:55:26.518Z</time>
      </trkpt>
      <trkpt lat="50.656463" lon="17.914411">
        <ele>150.927863</ele>
        <time>2025-04-22T09:55:30.146Z</time>
      </trkpt>
      <trkpt lat="50.656451" lon="17.914492">
        <ele>150.927863</ele>
        <time>2025-04-22T09:55:31.277Z</time>
      </trkpt>
      <trkpt lat="50.656373" lon="17.914625">
        <ele>150.927863</ele>
        <time>2025-04-22T09:55:33.733Z</time>
      </trkpt>
      <trkpt lat="50.656293" lon="17.914644">
        <ele>150.927863</ele>
        <time>2025-04-22T09:55:35.455Z</time>
      </trkpt>
      <trkpt lat="50.656155" lon="17.914529">
        <ele>150.927863</ele>
        <time>2025-04-22T09:55:38.795Z</time>
      </trkpt>
      <trkpt lat="50.656120" lon="17.914415">
        <ele>150.927863</ele>
        <time>2025-04-22T09:55:40.517Z</time>
      </trkpt>
      <trkpt lat="50.656140" lon="17.914262">
        <ele>150.927863</ele>
        <time>2025-04-22T09:55:42.638Z</time>
      </trkpt>
      <trkpt lat="50.656253" lon="17.914156">
        <ele>150.927863</ele>
        <time>2025-04-22T09:55:45.446Z</time>
      </trkpt>
      <trkpt lat="50.656320" lon="17.914130">
        <ele>150.927863</ele>
        <time>2025-04-22T09:55:46.936Z</time>
      </trkpt>
      <trkpt lat="50.656278" lon="17.914000">
        <ele>150.927863</ele>
        <time>2025-04-22T09:55:48.919Z</time>
      </trkpt>
      <trkpt lat="50.656168" lon="17.913998">
        <ele>150.927863</ele>
        <time>2025-04-22T09:55:51.257Z</time>
      </trkpt>
      <trkpt lat="50.656334" lon="17.913924">
        <ele>150.927863</ele>
        <time>2025-04-22T09:55:55.096Z</time>
      </trkpt>
      <trkpt lat="50.656430" lon="17.913905">
        <ele>150.927863</ele>
        <time>2025-04-22T09:55:57.266Z</time>
      </trkpt>
      <trkpt lat="50.656527" lon="17.913921">
        <ele>150.927863</ele>
        <time>2025-04-22T09:55:59.446Z</time>
      </trkpt>
    </trkseg>
  </trk>
</gpx>