<?xml version='1.0' encoding='UTF-8'?>
<gpx version="1.1" creator="https://www.komoot.de" xmlns="http://www.topografix.com/GPX/1/1" xmlns:xsi="http://www.w3.org/2001/XMLSchema-instance" xsi:schemaLocation="http://www.topografix.com/GPX/1/1 http://www.topografix.com/GPX/1/1/gpx.xsd">
  <metadata>
    <name>GraveLova Środa #076 - Nie Drażnij Padalca</name>
    <author>
      <link href="https://www.komoot.de">
        <text>komoot</text>
        <type>text/html</type>
      </link>
    </author>
  </metadata>
  <trk>
    <name>GraveLova Środa #076 - Nie Drażnij Padalca</name>
    <trkseg>
      <trkpt lat="50.682105" lon="17.947478">
        <ele>175.909360</ele>
        <time>2025-10-13T20:30:33.736Z</time>
      </trkpt>
      <trkpt lat="50.682409" lon="17.947435">
        <ele>175.909360</ele>
        <time>2025-10-13T20:30:42.713Z</time>
      </trkpt>
      <trkpt lat="50.682547" lon="17.947416">
        <ele>175.909360</ele>
        <time>2025-10-13T20:30:46.742Z</time>
      </trkpt>
      <trkpt lat="50.682641" lon="17.947403">
        <ele>175.909360</ele>
        <time>2025-10-13T20:30:49.468Z</time>
      </trkpt>
      <trkpt lat="50.682732" lon="17.947390">
        <ele>175.909360</ele>
        <time>2025-10-13T20:30:52.127Z</time>
      </trkpt>
      <trkpt lat="50.682917" lon="17.947364">
        <ele>175.909360</ele>
        <time>2025-10-13T20:30:56.328Z</time>
      </trkpt>
      <trkpt lat="50.682964" lon="17.947326">
        <ele>175.909360</ele>
        <time>2025-10-13T20:30:57.501Z</time>
      </trkpt>
      <trkpt lat="50.683149" lon="17.946871">
        <ele>175.815633</ele>
        <time>2025-10-13T20:31:05.088Z</time>
      </trkpt>
      <trkpt lat="50.683194" lon="17.946918">
        <ele>175.799383</ele>
        <time>2025-10-13T20:31:06.270Z</time>
      </trkpt>
      <trkpt lat="50.683249" lon="17.946970">
        <ele>175.780076</ele>
        <time>2025-10-13T20:31:07.658Z</time>
      </trkpt>
      <trkpt lat="50.683292" lon="17.947014">
        <ele>175.764644</ele>
        <time>2025-10-13T20:31:08.768Z</time>
      </trkpt>
      <trkpt lat="50.683950" lon="17.947692">
        <ele>175.528003</ele>
        <time>2025-10-13T20:31:26.000Z</time>
      </trkpt>
      <trkpt lat="50.684727" lon="17.948494">
        <ele>175.189384</ele>
        <time>2025-10-13T20:31:45.116Z</time>
      </trkpt>
      <trkpt lat="50.685549" lon="17.949340">
        <ele>174.747616</ele>
        <time>2025-10-13T20:32:06.294Z</time>
      </trkpt>
      <trkpt lat="50.685559" lon="17.949526">
        <ele>174.694374</ele>
        <time>2025-10-13T20:32:08.848Z</time>
      </trkpt>
      <trkpt lat="50.685560" lon="17.949546">
        <ele>174.688652</ele>
        <time>2025-10-13T20:32:09.126Z</time>
      </trkpt>
      <trkpt lat="50.685570" lon="17.949709">
        <ele>174.641943</ele>
        <time>2025-10-13T20:32:11.369Z</time>
      </trkpt>
      <trkpt lat="50.685597" lon="17.950212">
        <ele>174.449290</ele>
        <time>2025-10-13T20:32:20.060Z</time>
      </trkpt>
      <trkpt lat="50.685605" lon="17.950337">
        <ele>174.384408</ele>
        <time>2025-10-13T20:32:22.216Z</time>
      </trkpt>
      <trkpt lat="50.685618" lon="17.950566">
        <ele>174.265673</ele>
        <time>2025-10-13T20:32:26.139Z</time>
      </trkpt>
      <trkpt lat="50.685640" lon="17.950957">
        <ele>174.062956</ele>
        <time>2025-10-13T20:32:32.916Z</time>
      </trkpt>
      <trkpt lat="50.685508" lon="17.951294">
        <ele>173.858347</ele>
        <time>2025-10-13T20:32:38.388Z</time>
      </trkpt>
      <trkpt lat="50.685437" lon="17.951464">
        <ele>173.753197</ele>
        <time>2025-10-13T20:32:41.135Z</time>
      </trkpt>
      <trkpt lat="50.685354" lon="17.951661">
        <ele>173.631020</ele>
        <time>2025-10-13T20:32:45.160Z</time>
      </trkpt>
      <trkpt lat="50.685384" lon="17.952101">
        <ele>173.402479</ele>
        <time>2025-10-13T20:32:50.878Z</time>
      </trkpt>
      <trkpt lat="50.685393" lon="17.952246">
        <ele>173.327239</ele>
        <time>2025-10-13T20:32:53.279Z</time>
      </trkpt>
      <trkpt lat="50.685360" lon="17.952274">
        <ele>173.296700</ele>
        <time>2025-10-13T20:32:54.054Z</time>
      </trkpt>
      <trkpt lat="50.685320" lon="17.952309">
        <ele>173.259421</ele>
        <time>2025-10-13T20:32:54.983Z</time>
      </trkpt>
      <trkpt lat="50.684989" lon="17.952561">
        <ele>173.081698</ele>
        <time>2025-10-13T20:33:02.597Z</time>
      </trkpt>
      <trkpt lat="50.684822" lon="17.952765">
        <ele>173.068351</ele>
        <time>2025-10-13T20:33:07.168Z</time>
      </trkpt>
      <trkpt lat="50.684645" lon="17.952911">
        <ele>173.055728</ele>
        <time>2025-10-13T20:33:11.633Z</time>
      </trkpt>
      <trkpt lat="50.684208" lon="17.953169">
        <ele>173.026239</ele>
        <time>2025-10-13T20:33:23.110Z</time>
      </trkpt>
      <trkpt lat="50.683468" lon="17.953747">
        <ele>172.959794</ele>
        <time>2025-10-13T20:33:43.647Z</time>
      </trkpt>
      <trkpt lat="50.683433" lon="17.953774">
        <ele>172.948978</ele>
        <time>2025-10-13T20:33:44.628Z</time>
      </trkpt>
      <trkpt lat="50.683304" lon="17.953875">
        <ele>172.908997</ele>
        <time>2025-10-13T20:33:48.233Z</time>
      </trkpt>
      <trkpt lat="50.683199" lon="17.954077">
        <ele>172.863035</ele>
        <time>2025-10-13T20:33:53.408Z</time>
      </trkpt>
      <trkpt lat="50.683096" lon="17.954188">
        <ele>172.828407</ele>
        <time>2025-10-13T20:33:57.239Z</time>
      </trkpt>
      <trkpt lat="50.682934" lon="17.954331">
        <ele>172.776873</ele>
        <time>2025-10-13T20:34:02.844Z</time>
      </trkpt>
      <trkpt lat="50.682943" lon="17.954356">
        <ele>172.771815</ele>
        <time>2025-10-13T20:34:04.134Z</time>
      </trkpt>
      <trkpt lat="50.682956" lon="17.954393">
        <ele>172.764372</ele>
        <time>2025-10-13T20:34:05.997Z</time>
      </trkpt>
      <trkpt lat="50.682837" lon="17.954486">
        <ele>172.727504</ele>
        <time>2025-10-13T20:34:08.932Z</time>
      </trkpt>
      <trkpt lat="50.682944" lon="17.954867">
        <ele>172.654192</ele>
        <time>2025-10-13T20:34:14.835Z</time>
      </trkpt>
      <trkpt lat="50.683226" lon="17.955869">
        <ele>172.386062</ele>
        <time>2025-10-13T20:34:29.408Z</time>
      </trkpt>
      <trkpt lat="50.683266" lon="17.955989">
        <ele>172.260007</ele>
        <time>2025-10-13T20:34:31.196Z</time>
      </trkpt>
      <trkpt lat="50.683478" lon="17.955845">
        <ele>171.921367</ele>
        <time>2025-10-13T20:34:35.730Z</time>
      </trkpt>
      <trkpt lat="50.683587" lon="17.955776">
        <ele>171.749053</ele>
        <time>2025-10-13T20:34:37.991Z</time>
      </trkpt>
      <trkpt lat="50.683597" lon="17.955830">
        <ele>171.696752</ele>
        <time>2025-10-13T20:34:38.678Z</time>
      </trkpt>
      <trkpt lat="50.683604" lon="17.955962">
        <ele>171.573609</ele>
        <time>2025-10-13T20:34:40.269Z</time>
      </trkpt>
      <trkpt lat="50.683525" lon="17.956171">
        <ele>171.347364</ele>
        <time>2025-10-13T20:34:43.173Z</time>
      </trkpt>
      <trkpt lat="50.683496" lon="17.956238">
        <ele>171.271931</ele>
        <time>2025-10-13T20:34:44.173Z</time>
      </trkpt>
      <trkpt lat="50.683445" lon="17.956365">
        <ele>171.132150</ele>
        <time>2025-10-13T20:34:46.029Z</time>
      </trkpt>
      <trkpt lat="50.683406" lon="17.956485">
        <ele>171.006772</ele>
        <time>2025-10-13T20:34:47.587Z</time>
      </trkpt>
      <trkpt lat="50.683402" lon="17.956597">
        <ele>170.902485</ele>
        <time>2025-10-13T20:34:48.894Z</time>
      </trkpt>
      <trkpt lat="50.683611" lon="17.957782">
        <ele>169.789118</ele>
        <time>2025-10-13T20:35:03.560Z</time>
      </trkpt>
      <trkpt lat="50.683621" lon="17.957915">
        <ele>169.711030</ele>
        <time>2025-10-13T20:35:05.167Z</time>
      </trkpt>
      <trkpt lat="50.683594" lon="17.958073">
        <ele>169.615619</ele>
        <time>2025-10-13T20:35:07.132Z</time>
      </trkpt>
      <trkpt lat="50.683526" lon="17.958202">
        <ele>169.517782</ele>
        <time>2025-10-13T20:35:09.144Z</time>
      </trkpt>
      <trkpt lat="50.683352" lon="17.958383">
        <ele>169.326019</ele>
        <time>2025-10-13T20:35:13.091Z</time>
      </trkpt>
      <trkpt lat="50.683787" lon="17.964089">
        <ele>166.735667</ele>
        <time>2025-10-13T20:36:28.520Z</time>
      </trkpt>
      <trkpt lat="50.683976" lon="17.966148">
        <ele>165.798075</ele>
        <time>2025-10-13T20:36:55.598Z</time>
      </trkpt>
      <trkpt lat="50.691752" lon="17.961289">
        <ele>157.575890</ele>
        <time>2025-10-13T20:39:48.824Z</time>
      </trkpt>
      <trkpt lat="50.692366" lon="17.960905">
        <ele>157.264011</ele>
        <time>2025-10-13T20:40:03.524Z</time>
      </trkpt>
      <trkpt lat="50.693455" lon="17.960741">
        <ele>157.756362</ele>
        <time>2025-10-13T20:40:31.075Z</time>
      </trkpt>
      <trkpt lat="50.694803" lon="17.960893">
        <ele>158.657432</ele>
        <time>2025-10-13T20:41:08.687Z</time>
      </trkpt>
      <trkpt lat="50.695435" lon="17.959737">
        <ele>159.447197</ele>
        <time>2025-10-13T20:41:41.241Z</time>
      </trkpt>
      <trkpt lat="50.696447" lon="17.958165">
        <ele>159.873941</ele>
        <time>2025-10-13T20:42:25.157Z</time>
      </trkpt>
      <trkpt lat="50.696546" lon="17.957989">
        <ele>159.916973</ele>
        <time>2025-10-13T20:42:29.441Z</time>
      </trkpt>
      <trkpt lat="50.696560" lon="17.957867">
        <ele>159.939640</ele>
        <time>2025-10-13T20:42:31.670Z</time>
      </trkpt>
      <trkpt lat="50.696674" lon="17.958159">
        <ele>159.982079</ele>
        <time>2025-10-13T20:42:39.649Z</time>
      </trkpt>
      <trkpt lat="50.696854" lon="17.958448">
        <ele>159.902388</ele>
        <time>2025-10-13T20:42:49.179Z</time>
      </trkpt>
      <trkpt lat="50.696929" lon="17.958509">
        <ele>159.876200</ele>
        <time>2025-10-13T20:42:52.374Z</time>
      </trkpt>
      <trkpt lat="50.696935" lon="17.958513">
        <ele>159.874178</ele>
        <time>2025-10-13T20:42:52.613Z</time>
      </trkpt>
      <trkpt lat="50.697043" lon="17.958420">
        <ele>159.835992</ele>
        <time>2025-10-13T20:42:57.354Z</time>
      </trkpt>
      <trkpt lat="50.697125" lon="17.958398">
        <ele>159.810174</ele>
        <time>2025-10-13T20:43:00.526Z</time>
      </trkpt>
      <trkpt lat="50.697299" lon="17.958597">
        <ele>159.743480</ele>
        <time>2025-10-13T20:43:08.825Z</time>
      </trkpt>
      <trkpt lat="50.697353" lon="17.958572">
        <ele>159.726013</ele>
        <time>2025-10-13T20:43:10.150Z</time>
      </trkpt>
      <trkpt lat="50.698119" lon="17.959286">
        <ele>159.449894</ele>
        <time>2025-10-13T20:43:30.280Z</time>
      </trkpt>
      <trkpt lat="50.698143" lon="17.959220">
        <ele>159.434931</ele>
        <time>2025-10-13T20:43:31.209Z</time>
      </trkpt>
      <trkpt lat="50.698221" lon="17.959307">
        <ele>159.224910</ele>
        <time>2025-10-13T20:43:33.046Z</time>
      </trkpt>
      <trkpt lat="50.698478" lon="17.959620">
        <ele>158.497232</ele>
        <time>2025-10-13T20:43:38.948Z</time>
      </trkpt>
      <trkpt lat="50.698532" lon="17.959709">
        <ele>158.322223</ele>
        <time>2025-10-13T20:43:40.337Z</time>
      </trkpt>
      <trkpt lat="50.698520" lon="17.959798">
        <ele>158.193010</ele>
        <time>2025-10-13T20:43:42.196Z</time>
      </trkpt>
      <trkpt lat="50.698589" lon="17.960113">
        <ele>157.719713</ele>
        <time>2025-10-13T20:43:48.850Z</time>
      </trkpt>
      <trkpt lat="50.698573" lon="17.960323">
        <ele>157.419362</ele>
        <time>2025-10-13T20:43:53.035Z</time>
      </trkpt>
      <trkpt lat="50.698801" lon="17.960925">
        <ele>156.423353</ele>
        <time>2025-10-13T20:44:06.849Z</time>
      </trkpt>
      <trkpt lat="50.698813" lon="17.961031">
        <ele>156.270447</ele>
        <time>2025-10-13T20:44:08.971Z</time>
      </trkpt>
      <trkpt lat="50.698847" lon="17.961108">
        <ele>156.137160</ele>
        <time>2025-10-13T20:44:10.830Z</time>
      </trkpt>
      <trkpt lat="50.698884" lon="17.961211">
        <ele>155.969015</ele>
        <time>2025-10-13T20:44:13.159Z</time>
      </trkpt>
      <trkpt lat="50.698842" lon="17.961292">
        <ele>155.820369</ele>
        <time>2025-10-13T20:44:15.222Z</time>
      </trkpt>
      <trkpt lat="50.698423" lon="17.961725">
        <ele>155.145842</ele>
        <time>2025-10-13T20:44:31.093Z</time>
      </trkpt>
      <trkpt lat="50.698226" lon="17.961999">
        <ele>154.931815</ele>
        <time>2025-10-13T20:44:40.067Z</time>
      </trkpt>
      <trkpt lat="50.698158" lon="17.962190">
        <ele>154.818680</ele>
        <time>2025-10-13T20:44:45.036Z</time>
      </trkpt>
      <trkpt lat="50.698296" lon="17.962579">
        <ele>154.588461</ele>
        <time>2025-10-13T20:44:55.298Z</time>
      </trkpt>
      <trkpt lat="50.699325" lon="17.965853">
        <ele>154.243321</ele>
        <time>2025-10-13T20:46:21.153Z</time>
      </trkpt>
      <trkpt lat="50.699481" lon="17.966309">
        <ele>154.367527</ele>
        <time>2025-10-13T20:46:34.089Z</time>
      </trkpt>
      <trkpt lat="50.699572" lon="17.966646">
        <ele>154.719044</ele>
        <time>2025-10-13T20:46:43.809Z</time>
      </trkpt>
      <trkpt lat="50.699578" lon="17.966773">
        <ele>154.841241</ele>
        <time>2025-10-13T20:46:47.305Z</time>
      </trkpt>
      <trkpt lat="50.699550" lon="17.966957">
        <ele>155.022816</ele>
        <time>2025-10-13T20:46:52.613Z</time>
      </trkpt>
      <trkpt lat="50.699343" lon="17.967770">
        <ele>155.863573</ele>
        <time>2025-10-13T20:47:17.758Z</time>
      </trkpt>
      <trkpt lat="50.699425" lon="17.968529">
        <ele>156.602366</ele>
        <time>2025-10-13T20:47:41.026Z</time>
      </trkpt>
      <trkpt lat="50.699838" lon="17.970828">
        <ele>158.644506</ele>
        <time>2025-10-13T20:48:50.526Z</time>
      </trkpt>
      <trkpt lat="50.700530" lon="17.974616">
        <ele>160.052554</ele>
        <time>2025-10-13T20:50:28.046Z</time>
      </trkpt>
      <trkpt lat="50.700475" lon="17.974683">
        <ele>160.039734</ele>
        <time>2025-10-13T20:50:29.807Z</time>
      </trkpt>
      <trkpt lat="50.698670" lon="17.976425">
        <ele>159.340651</ele>
        <time>2025-10-13T20:51:16.916Z</time>
      </trkpt>
      <trkpt lat="50.697202" lon="17.977771">
        <ele>158.195675</ele>
        <time>2025-10-13T20:51:52.297Z</time>
      </trkpt>
      <trkpt lat="50.697106" lon="17.977826">
        <ele>158.159047</ele>
        <time>2025-10-13T20:51:54.456Z</time>
      </trkpt>
      <trkpt lat="50.697029" lon="17.977864">
        <ele>158.130112</ele>
        <time>2025-10-13T20:51:57.301Z</time>
      </trkpt>
      <trkpt lat="50.696923" lon="17.977948">
        <ele>158.087574</ele>
        <time>2025-10-13T20:51:59.855Z</time>
      </trkpt>
      <trkpt lat="50.696907" lon="17.978066">
        <ele>158.060159</ele>
        <time>2025-10-13T20:52:01.508Z</time>
      </trkpt>
      <trkpt lat="50.696277" lon="17.978646">
        <ele>157.798591</ele>
        <time>2025-10-13T20:52:17.879Z</time>
      </trkpt>
      <trkpt lat="50.694945" lon="17.979937">
        <ele>158.123361</ele>
        <time>2025-10-13T20:52:57.767Z</time>
      </trkpt>
      <trkpt lat="50.694879" lon="17.980034">
        <ele>158.152879</ele>
        <time>2025-10-13T20:53:01.261Z</time>
      </trkpt>
      <trkpt lat="50.694422" lon="17.981153">
        <ele>158.179198</ele>
        <time>2025-10-13T20:53:33.254Z</time>
      </trkpt>
      <trkpt lat="50.694038" lon="17.982157">
        <ele>157.986325</ele>
        <time>2025-10-13T20:54:00.334Z</time>
      </trkpt>
      <trkpt lat="50.693372" lon="17.984037">
        <ele>157.324909</ele>
        <time>2025-10-13T20:54:48.567Z</time>
      </trkpt>
      <trkpt lat="50.692383" lon="17.986185">
        <ele>156.563802</ele>
        <time>2025-10-13T20:55:47.543Z</time>
      </trkpt>
      <trkpt lat="50.693260" lon="17.988090">
        <ele>156.401028</ele>
        <time>2025-10-13T20:56:45.589Z</time>
      </trkpt>
      <trkpt lat="50.694443" lon="17.990646">
        <ele>156.097266</ele>
        <time>2025-10-13T20:57:57.346Z</time>
      </trkpt>
      <trkpt lat="50.694587" lon="17.990886">
        <ele>156.143181</ele>
        <time>2025-10-13T20:58:05.079Z</time>
      </trkpt>
      <trkpt lat="50.695871" lon="17.991588">
        <ele>156.360415</ele>
        <time>2025-10-13T20:58:59.633Z</time>
      </trkpt>
      <trkpt lat="50.696112" lon="17.991683">
        <ele>156.345056</ele>
        <time>2025-10-13T20:59:09.472Z</time>
      </trkpt>
      <trkpt lat="50.696153" lon="17.991699">
        <ele>156.342445</ele>
        <time>2025-10-13T20:59:11.137Z</time>
      </trkpt>
      <trkpt lat="50.696373" lon="17.991808">
        <ele>156.328188</ele>
        <time>2025-10-13T20:59:19.964Z</time>
      </trkpt>
      <trkpt lat="50.698474" lon="17.992985">
        <ele>155.819395</ele>
        <time>2025-10-13T21:00:11.869Z</time>
      </trkpt>
      <trkpt lat="50.700287" lon="17.993974">
        <ele>155.655852</ele>
        <time>2025-10-13T21:00:59.597Z</time>
      </trkpt>
      <trkpt lat="50.700502" lon="17.994048">
        <ele>155.662101</ele>
        <time>2025-10-13T21:01:05.146Z</time>
      </trkpt>
      <trkpt lat="50.701050" lon="17.994044">
        <ele>155.691423</ele>
        <time>2025-10-13T21:01:18.854Z</time>
      </trkpt>
      <trkpt lat="50.701968" lon="17.994039">
        <ele>155.756002</ele>
        <time>2025-10-13T21:01:41.770Z</time>
      </trkpt>
      <trkpt lat="50.705056" lon="17.994116">
        <ele>156.052052</ele>
        <time>2025-10-13T21:03:00.500Z</time>
      </trkpt>
      <trkpt lat="50.706159" lon="17.994146">
        <ele>156.007688</ele>
        <time>2025-10-13T21:03:27.180Z</time>
      </trkpt>
      <trkpt lat="50.706217" lon="17.994170">
        <ele>155.997932</ele>
        <time>2025-10-13T21:03:28.603Z</time>
      </trkpt>
      <trkpt lat="50.708563" lon="17.994212">
        <ele>155.919615</ele>
        <time>2025-10-13T21:04:19.611Z</time>
      </trkpt>
      <trkpt lat="50.709064" lon="17.994836">
        <ele>156.114056</ele>
        <time>2025-10-13T21:04:35.289Z</time>
      </trkpt>
      <trkpt lat="50.711335" lon="17.997889">
        <ele>157.563188</ele>
        <time>2025-10-13T21:05:51.943Z</time>
      </trkpt>
      <trkpt lat="50.710423" lon="17.999153">
        <ele>157.632840</ele>
        <time>2025-10-13T21:06:36.002Z</time>
      </trkpt>
      <trkpt lat="50.710050" lon="17.999672">
        <ele>157.538909</ele>
        <time>2025-10-13T21:06:47.082Z</time>
      </trkpt>
      <trkpt lat="50.709582" lon="18.000377">
        <ele>157.416703</ele>
        <time>2025-10-13T21:07:10.678Z</time>
      </trkpt>
      <trkpt lat="50.707873" lon="18.002873">
        <ele>157.336382</ele>
        <time>2025-10-13T21:08:36.716Z</time>
      </trkpt>
      <trkpt lat="50.706924" lon="18.004327">
        <ele>157.513166</ele>
        <time>2025-10-13T21:09:26.927Z</time>
      </trkpt>
      <trkpt lat="50.706060" lon="18.005544">
        <ele>157.578056</ele>
        <time>2025-10-13T21:10:10.731Z</time>
      </trkpt>
      <trkpt lat="50.705121" lon="18.006928">
        <ele>157.579637</ele>
        <time>2025-10-13T21:10:57.929Z</time>
      </trkpt>
      <trkpt lat="50.704133" lon="18.008714">
        <ele>157.718228</ele>
        <time>2025-10-13T21:11:54.155Z</time>
      </trkpt>
      <trkpt lat="50.702187" lon="18.012230">
        <ele>158.221961</ele>
        <time>2025-10-13T21:13:46.532Z</time>
      </trkpt>
      <trkpt lat="50.701979" lon="18.012586">
        <ele>158.280625</ele>
        <time>2025-10-13T21:13:58.160Z</time>
      </trkpt>
      <trkpt lat="50.701959" lon="18.012787">
        <ele>158.305269</ele>
        <time>2025-10-13T21:14:03.052Z</time>
      </trkpt>
      <trkpt lat="50.702037" lon="18.012997">
        <ele>158.334756</ele>
        <time>2025-10-13T21:14:08.906Z</time>
      </trkpt>
      <trkpt lat="50.702075" lon="18.013039">
        <ele>158.343627</ele>
        <time>2025-10-13T21:14:10.688Z</time>
      </trkpt>
      <trkpt lat="50.703300" lon="18.014141">
        <ele>158.867093</ele>
        <time>2025-10-13T21:15:04.726Z</time>
      </trkpt>
      <trkpt lat="50.703932" lon="18.014650">
        <ele>159.235889</ele>
        <time>2025-10-13T21:15:32.982Z</time>
      </trkpt>
      <trkpt lat="50.704143" lon="18.014867">
        <ele>159.483752</ele>
        <time>2025-10-13T21:15:43.478Z</time>
      </trkpt>
      <trkpt lat="50.704450" lon="18.015083">
        <ele>159.814582</ele>
        <time>2025-10-13T21:15:57.839Z</time>
      </trkpt>
      <trkpt lat="50.704245" lon="18.015442">
        <ele>160.115919</ele>
        <time>2025-10-13T21:16:11.062Z</time>
      </trkpt>
      <trkpt lat="50.704002" lon="18.015788">
        <ele>160.438001</ele>
        <time>2025-10-13T21:16:25.215Z</time>
      </trkpt>
      <trkpt lat="50.703887" lon="18.016017">
        <ele>160.620192</ele>
        <time>2025-10-13T21:16:33.172Z</time>
      </trkpt>
      <trkpt lat="50.703810" lon="18.016236">
        <ele>160.776344</ele>
        <time>2025-10-13T21:16:39.935Z</time>
      </trkpt>
      <trkpt lat="50.703698" lon="18.016358">
        <ele>160.865798</ele>
        <time>2025-10-13T21:16:45.692Z</time>
      </trkpt>
      <trkpt lat="50.703399" lon="18.016825">
        <ele>160.916548</ele>
        <time>2025-10-13T21:17:02.950Z</time>
      </trkpt>
      <trkpt lat="50.703299" lon="18.017053">
        <ele>160.937742</ele>
        <time>2025-10-13T21:17:09.929Z</time>
      </trkpt>
      <trkpt lat="50.702942" lon="18.017525">
        <ele>160.993929</ele>
        <time>2025-10-13T21:17:27.590Z</time>
      </trkpt>
      <trkpt lat="50.702491" lon="18.018123">
        <ele>161.064994</ele>
        <time>2025-10-13T21:17:48.891Z</time>
      </trkpt>
      <trkpt lat="50.701920" lon="18.018511">
        <ele>160.259456</ele>
        <time>2025-10-13T21:18:10.372Z</time>
      </trkpt>
      <trkpt lat="50.701690" lon="18.018870">
        <ele>159.756316</ele>
        <time>2025-10-13T21:18:21.232Z</time>
      </trkpt>
      <trkpt lat="50.701500" lon="18.019094">
        <ele>159.387424</ele>
        <time>2025-10-13T21:18:29.024Z</time>
      </trkpt>
      <trkpt lat="50.700492" lon="18.019832">
        <ele>157.777073</ele>
        <time>2025-10-13T21:19:04.772Z</time>
      </trkpt>
      <trkpt lat="50.700296" lon="18.020075">
        <ele>157.463334</ele>
        <time>2025-10-13T21:19:12.886Z</time>
      </trkpt>
      <trkpt lat="50.700228" lon="18.020103">
        <ele>157.374862</ele>
        <time>2025-10-13T21:19:15.215Z</time>
      </trkpt>
      <trkpt lat="50.699924" lon="18.020402">
        <ele>156.923952</ele>
        <time>2025-10-13T21:19:27.257Z</time>
      </trkpt>
      <trkpt lat="50.699731" lon="18.020519">
        <ele>156.663680</ele>
        <time>2025-10-13T21:19:34.342Z</time>
      </trkpt>
      <trkpt lat="50.699558" lon="18.020684">
        <ele>156.409225</ele>
        <time>2025-10-13T21:19:41.443Z</time>
      </trkpt>
      <trkpt lat="50.697846" lon="18.022229">
        <ele>156.162555</ele>
        <time>2025-10-13T21:20:55.435Z</time>
      </trkpt>
      <trkpt lat="50.696811" lon="18.023512">
        <ele>156.532212</ele>
        <time>2025-10-13T21:21:46.336Z</time>
      </trkpt>
      <trkpt lat="50.695955" lon="18.024311">
        <ele>156.959790</ele>
        <time>2025-10-13T21:22:24.914Z</time>
      </trkpt>
      <trkpt lat="50.694442" lon="18.026140">
        <ele>158.391434</ele>
        <time>2025-10-13T21:23:42.191Z</time>
      </trkpt>
      <trkpt lat="50.693600" lon="18.027899">
        <ele>159.847562</ele>
        <time>2025-10-13T21:24:42.949Z</time>
      </trkpt>
      <trkpt lat="50.693600" lon="18.027899">
        <ele>159.847562</ele>
        <time>2025-10-13T21:24:42.966Z</time>
      </trkpt>
      <trkpt lat="50.692974" lon="18.028800">
        <ele>160.212578</ele>
        <time>2025-10-13T21:25:17.851Z</time>
      </trkpt>
      <trkpt lat="50.691808" lon="18.029344">
        <ele>160.421208</ele>
        <time>2025-10-13T21:26:02.858Z</time>
      </trkpt>
      <trkpt lat="50.691988" lon="18.029470">
        <ele>160.323728</ele>
        <time>2025-10-13T21:26:09.878Z</time>
      </trkpt>
      <trkpt lat="50.691997" lon="18.029539">
        <ele>160.301634</ele>
        <time>2025-10-13T21:26:11.469Z</time>
      </trkpt>
      <trkpt lat="50.692036" lon="18.029691">
        <ele>160.250203</ele>
        <time>2025-10-13T21:26:15.158Z</time>
      </trkpt>
      <trkpt lat="50.692065" lon="18.029767">
        <ele>160.222378</ele>
        <time>2025-10-13T21:26:17.132Z</time>
      </trkpt>
      <trkpt lat="50.692340" lon="18.031027">
        <ele>159.804428</ele>
        <time>2025-10-13T21:26:46.699Z</time>
      </trkpt>
      <trkpt lat="50.692629" lon="18.032180">
        <ele>160.004306</ele>
        <time>2025-10-13T21:27:14.560Z</time>
      </trkpt>
      <trkpt lat="50.692764" lon="18.032940">
        <ele>160.270351</ele>
        <time>2025-10-13T21:27:33.578Z</time>
      </trkpt>
      <trkpt lat="50.692882" lon="18.033458">
        <ele>160.455892</ele>
        <time>2025-10-13T21:27:48.169Z</time>
      </trkpt>
      <trkpt lat="50.692918" lon="18.034789">
        <ele>161.542983</ele>
        <time>2025-10-13T21:28:28.735Z</time>
      </trkpt>
      <trkpt lat="50.692921" lon="18.036084">
        <ele>163.099831</ele>
        <time>2025-10-13T21:29:08.164Z</time>
      </trkpt>
      <trkpt lat="50.692924" lon="18.037517">
        <ele>164.518467</ele>
        <time>2025-10-13T21:29:48.249Z</time>
      </trkpt>
      <trkpt lat="50.692959" lon="18.042875">
        <ele>167.811648</ele>
        <time>2025-10-13T21:32:11.202Z</time>
      </trkpt>
      <trkpt lat="50.692969" lon="18.048375">
        <ele>168.015238</ele>
        <time>2025-10-13T21:34:20.943Z</time>
      </trkpt>
      <trkpt lat="50.692979" lon="18.051159">
        <ele>167.181541</ele>
        <time>2025-10-13T21:35:22.848Z</time>
      </trkpt>
      <trkpt lat="50.692993" lon="18.053792">
        <ele>167.677659</ele>
        <time>2025-10-13T21:36:27.957Z</time>
      </trkpt>
      <trkpt lat="50.693022" lon="18.059216">
        <ele>169.944435</ele>
        <time>2025-10-13T21:38:46.670Z</time>
      </trkpt>
      <trkpt lat="50.693073" lon="18.064669">
        <ele>172.083267</ele>
        <time>2025-10-13T21:41:09.069Z</time>
      </trkpt>
      <trkpt lat="50.693513" lon="18.067221">
        <ele>171.247563</ele>
        <time>2025-10-13T21:42:07.158Z</time>
      </trkpt>
      <trkpt lat="50.693899" lon="18.069178">
        <ele>171.153645</ele>
        <time>2025-10-13T21:42:52.916Z</time>
      </trkpt>
      <trkpt lat="50.693938" lon="18.069609">
        <ele>171.257600</ele>
        <time>2025-10-13T21:43:03.786Z</time>
      </trkpt>
      <trkpt lat="50.693910" lon="18.069883">
        <ele>171.323869</ele>
        <time>2025-10-13T21:43:11.032Z</time>
      </trkpt>
      <trkpt lat="50.693662" lon="18.070559">
        <ele>171.510394</ele>
        <time>2025-10-13T21:43:32.730Z</time>
      </trkpt>
      <trkpt lat="50.693556" lon="18.070943">
        <ele>171.925975</ele>
        <time>2025-10-13T21:43:45.102Z</time>
      </trkpt>
      <trkpt lat="50.693514" lon="18.071289">
        <ele>172.363070</ele>
        <time>2025-10-13T21:43:55.735Z</time>
      </trkpt>
      <trkpt lat="50.693488" lon="18.074546">
        <ele>175.955989</ele>
        <time>2025-10-13T21:45:33.672Z</time>
      </trkpt>
      <trkpt lat="50.693556" lon="18.075371">
        <ele>176.644430</ele>
        <time>2025-10-13T21:45:56.590Z</time>
      </trkpt>
      <trkpt lat="50.694171" lon="18.074783">
        <ele>177.394102</ele>
        <time>2025-10-13T21:46:25.571Z</time>
      </trkpt>
      <trkpt lat="50.694783" lon="18.074197">
        <ele>177.322465</ele>
        <time>2025-10-13T21:46:51.262Z</time>
      </trkpt>
      <trkpt lat="50.694977" lon="18.075225">
        <ele>177.254462</ele>
        <time>2025-10-13T21:47:15.462Z</time>
      </trkpt>
      <trkpt lat="50.695764" lon="18.079468">
        <ele>178.828171</ele>
        <time>2025-10-13T21:49:04.986Z</time>
      </trkpt>
      <trkpt lat="50.695942" lon="18.080427">
        <ele>179.635093</ele>
        <time>2025-10-13T21:49:33.159Z</time>
      </trkpt>
      <trkpt lat="50.699076" lon="18.079874">
        <ele>185.374540</ele>
        <time>2025-10-13T21:52:07.705Z</time>
      </trkpt>
      <trkpt lat="50.699527" lon="18.082513">
        <ele>184.711616</ele>
        <time>2025-10-13T21:53:10.086Z</time>
      </trkpt>
      <trkpt lat="50.699961" lon="18.084851">
        <ele>181.699660</ele>
        <time>2025-10-13T21:53:57.508Z</time>
      </trkpt>
      <trkpt lat="50.699965" lon="18.084962">
        <ele>181.551021</ele>
        <time>2025-10-13T21:53:59.713Z</time>
      </trkpt>
      <trkpt lat="50.700760" lon="18.084773">
        <ele>179.854035</ele>
        <time>2025-10-13T21:54:25.818Z</time>
      </trkpt>
      <trkpt lat="50.703456" lon="18.084133">
        <ele>178.682855</ele>
        <time>2025-10-13T21:56:02.950Z</time>
      </trkpt>
      <trkpt lat="50.704329" lon="18.088963">
        <ele>182.686205</ele>
        <time>2025-10-13T21:58:26.571Z</time>
      </trkpt>
      <trkpt lat="50.704891" lon="18.092267">
        <ele>184.687824</ele>
        <time>2025-10-13T21:59:56.157Z</time>
      </trkpt>
      <trkpt lat="50.704817" lon="18.092167">
        <ele>184.754113</ele>
        <time>2025-10-13T21:59:58.759Z</time>
      </trkpt>
      <trkpt lat="50.704759" lon="18.092139">
        <ele>184.795391</ele>
        <time>2025-10-13T22:00:00.374Z</time>
      </trkpt>
      <trkpt lat="50.704238" lon="18.092097">
        <ele>185.150437</ele>
        <time>2025-10-13T22:00:14.399Z</time>
      </trkpt>
      <trkpt lat="50.703021" lon="18.092415">
        <ele>184.945549</ele>
        <time>2025-10-13T22:00:43.652Z</time>
      </trkpt>
      <trkpt lat="50.700916" lon="18.093017">
        <ele>182.211540</ele>
        <time>2025-10-13T22:01:23.987Z</time>
      </trkpt>
      <trkpt lat="50.700322" lon="18.093155">
        <ele>181.176663</ele>
        <time>2025-10-13T22:01:35.003Z</time>
      </trkpt>
      <trkpt lat="50.699840" lon="18.093253">
        <ele>180.617769</ele>
        <time>2025-10-13T22:01:44.086Z</time>
      </trkpt>
      <trkpt lat="50.699692" lon="18.093285">
        <ele>180.500085</ele>
        <time>2025-10-13T22:01:46.902Z</time>
      </trkpt>
      <trkpt lat="50.699250" lon="18.093356">
        <ele>180.150075</ele>
        <time>2025-10-13T22:01:55.522Z</time>
      </trkpt>
      <trkpt lat="50.698494" lon="18.093501">
        <ele>179.550112</ele>
        <time>2025-10-13T22:02:11.863Z</time>
      </trkpt>
      <trkpt lat="50.698498" lon="18.093566">
        <ele>179.517524</ele>
        <time>2025-10-13T22:02:12.849Z</time>
      </trkpt>
      <trkpt lat="50.698626" lon="18.094180">
        <ele>179.751995</ele>
        <time>2025-10-13T22:02:22.587Z</time>
      </trkpt>
      <trkpt lat="50.698747" lon="18.095025">
        <ele>180.321017</ele>
        <time>2025-10-13T22:02:37.123Z</time>
      </trkpt>
      <trkpt lat="50.698811" lon="18.095476">
        <ele>180.624588</ele>
        <time>2025-10-13T22:02:45.634Z</time>
      </trkpt>
      <trkpt lat="50.698863" lon="18.096021">
        <ele>180.986594</ele>
        <time>2025-10-13T22:02:56.277Z</time>
      </trkpt>
      <trkpt lat="50.698960" lon="18.097638">
        <ele>182.508277</ele>
        <time>2025-10-13T22:03:28.619Z</time>
      </trkpt>
      <trkpt lat="50.698989" lon="18.098541">
        <ele>183.460966</ele>
        <time>2025-10-13T22:03:47.067Z</time>
      </trkpt>
      <trkpt lat="50.698973" lon="18.099588">
        <ele>184.547550</ele>
        <time>2025-10-13T22:04:07.300Z</time>
      </trkpt>
      <trkpt lat="50.698989" lon="18.099888">
        <ele>184.845005</ele>
        <time>2025-10-13T22:04:13.406Z</time>
      </trkpt>
      <trkpt lat="50.699369" lon="18.099824">
        <ele>185.441124</ele>
        <time>2025-10-13T22:04:26.033Z</time>
      </trkpt>
      <trkpt lat="50.699506" lon="18.100561">
        <ele>186.200001</ele>
        <time>2025-10-13T22:04:48.490Z</time>
      </trkpt>
      <trkpt lat="50.699695" lon="18.101574">
        <ele>187.181389</ele>
        <time>2025-10-13T22:05:17.306Z</time>
      </trkpt>
      <trkpt lat="50.699884" lon="18.102588">
        <ele>187.779227</ele>
        <time>2025-10-13T22:05:46.173Z</time>
      </trkpt>
      <trkpt lat="50.700169" lon="18.104299">
        <ele>188.756817</ele>
        <time>2025-10-13T22:06:31.149Z</time>
      </trkpt>
      <trkpt lat="50.700184" lon="18.104388">
        <ele>188.792963</ele>
        <time>2025-10-13T22:06:33.601Z</time>
      </trkpt>
      <trkpt lat="50.700566" lon="18.106458">
        <ele>189.639157</ele>
        <time>2025-10-13T22:07:28.621Z</time>
      </trkpt>
      <trkpt lat="50.698947" lon="18.107184">
        <ele>190.530722</ele>
        <time>2025-10-13T22:08:35.266Z</time>
      </trkpt>
      <trkpt lat="50.696419" lon="18.108318">
        <ele>192.062948</ele>
        <time>2025-10-13T22:10:19.808Z</time>
      </trkpt>
      <trkpt lat="50.694073" lon="18.109332">
        <ele>194.354511</ele>
        <time>2025-10-13T22:11:59.137Z</time>
      </trkpt>
      <trkpt lat="50.690371" lon="18.110994">
        <ele>200.621380</ele>
        <time>2025-10-13T22:15:00.099Z</time>
      </trkpt>
      <trkpt lat="50.688447" lon="18.111856">
        <ele>200.848777</ele>
        <time>2025-10-13T22:16:12.788Z</time>
      </trkpt>
      <trkpt lat="50.689999" lon="18.114491">
        <ele>199.775879</ele>
        <time>2025-10-13T22:17:33.253Z</time>
      </trkpt>
      <trkpt lat="50.691070" lon="18.116308">
        <ele>200.177980</ele>
        <time>2025-10-13T22:18:31.897Z</time>
      </trkpt>
      <trkpt lat="50.688740" lon="18.117358">
        <ele>205.193240</ele>
        <time>2025-10-13T22:20:32.091Z</time>
      </trkpt>
      <trkpt lat="50.686293" lon="18.118448">
        <ele>208.807639</ele>
        <time>2025-10-13T22:22:25.414Z</time>
      </trkpt>
      <trkpt lat="50.682436" lon="18.120166">
        <ele>208.815458</ele>
        <time>2025-10-13T22:24:53.292Z</time>
      </trkpt>
      <trkpt lat="50.679166" lon="18.121623">
        <ele>203.789039</ele>
        <time>2025-10-13T22:26:46.106Z</time>
      </trkpt>
      <trkpt lat="50.675858" lon="18.123098">
        <ele>199.276897</ele>
        <time>2025-10-13T22:28:42.257Z</time>
      </trkpt>
      <trkpt lat="50.674525" lon="18.123760">
        <ele>197.120290</ele>
        <time>2025-10-13T22:29:30.926Z</time>
      </trkpt>
      <trkpt lat="50.674383" lon="18.123588">
        <ele>196.819007</ele>
        <time>2025-10-13T22:29:36.721Z</time>
      </trkpt>
      <trkpt lat="50.674200" lon="18.123440">
        <ele>196.472916</ele>
        <time>2025-10-13T22:29:43.296Z</time>
      </trkpt>
      <trkpt lat="50.673810" lon="18.123125">
        <ele>195.728637</ele>
        <time>2025-10-13T22:29:57.020Z</time>
      </trkpt>
      <trkpt lat="50.673064" lon="18.122831">
        <ele>193.784717</ele>
        <time>2025-10-13T22:30:20.574Z</time>
      </trkpt>
      <trkpt lat="50.672660" lon="18.122771">
        <ele>192.758838</ele>
        <time>2025-10-13T22:30:33.445Z</time>
      </trkpt>
      <trkpt lat="50.672673" lon="18.121578">
        <ele>190.944843</ele>
        <time>2025-10-13T22:30:58.244Z</time>
      </trkpt>
      <trkpt lat="50.672555" lon="18.120749">
        <ele>189.958277</ele>
        <time>2025-10-13T22:31:16.044Z</time>
      </trkpt>
      <trkpt lat="50.672447" lon="18.119931">
        <ele>188.988070</ele>
        <time>2025-10-13T22:31:33.586Z</time>
      </trkpt>
      <trkpt lat="50.672446" lon="18.119929">
        <ele>188.985112</ele>
        <time>2025-10-13T22:31:33.641Z</time>
      </trkpt>
      <trkpt lat="50.672196" lon="18.118435">
        <ele>187.224137</ele>
        <time>2025-10-13T22:32:05.412Z</time>
      </trkpt>
      <trkpt lat="50.671880" lon="18.117499">
        <ele>186.049878</ele>
        <time>2025-10-13T22:32:27.482Z</time>
      </trkpt>
      <trkpt lat="50.671721" lon="18.117220">
        <ele>185.634426</ele>
        <time>2025-10-13T22:32:35.368Z</time>
      </trkpt>
      <trkpt lat="50.671533" lon="18.116790">
        <ele>185.056003</ele>
        <time>2025-10-13T22:32:46.395Z</time>
      </trkpt>
      <trkpt lat="50.671458" lon="18.116340">
        <ele>184.584527</ele>
        <time>2025-10-13T22:32:56.303Z</time>
      </trkpt>
      <trkpt lat="50.671083" lon="18.114352">
        <ele>182.737351</ele>
        <time>2025-10-13T22:33:40.664Z</time>
      </trkpt>
      <trkpt lat="50.670622" lon="18.112762">
        <ele>181.559963</ele>
        <time>2025-10-13T22:34:17.668Z</time>
      </trkpt>
      <trkpt lat="50.670509" lon="18.111863">
        <ele>181.037094</ele>
        <time>2025-10-13T22:34:37.791Z</time>
      </trkpt>
      <trkpt lat="50.670221" lon="18.110220">
        <ele>180.805002</ele>
        <time>2025-10-13T22:35:18.196Z</time>
      </trkpt>
      <trkpt lat="50.670111" lon="18.108844">
        <ele>181.072787</ele>
        <time>2025-10-13T22:35:54.067Z</time>
      </trkpt>
      <trkpt lat="50.669959" lon="18.107836">
        <ele>180.583352</ele>
        <time>2025-10-13T22:36:19.105Z</time>
      </trkpt>
      <trkpt lat="50.669896" lon="18.107461">
        <ele>180.176099</ele>
        <time>2025-10-13T22:36:27.568Z</time>
      </trkpt>
      <trkpt lat="50.669776" lon="18.106939">
        <ele>179.593194</ele>
        <time>2025-10-13T22:36:39.010Z</time>
      </trkpt>
      <trkpt lat="50.669636" lon="18.106485">
        <ele>179.063185</ele>
        <time>2025-10-13T22:36:49.159Z</time>
      </trkpt>
      <trkpt lat="50.669553" lon="18.106045">
        <ele>178.581265</ele>
        <time>2025-10-13T22:36:58.253Z</time>
      </trkpt>
      <trkpt lat="50.669528" lon="18.105327">
        <ele>177.906186</ele>
        <time>2025-10-13T22:37:12.417Z</time>
      </trkpt>
      <trkpt lat="50.669482" lon="18.105193">
        <ele>177.781646</ele>
        <time>2025-10-13T22:37:15.421Z</time>
      </trkpt>
      <trkpt lat="50.669511" lon="18.105010">
        <ele>177.627488</ele>
        <time>2025-10-13T22:37:17.610Z</time>
      </trkpt>
      <trkpt lat="50.669092" lon="18.102798">
        <ele>175.954838</ele>
        <time>2025-10-13T22:37:48.026Z</time>
      </trkpt>
      <trkpt lat="50.669818" lon="18.102013">
        <ele>176.738790</ele>
        <time>2025-10-13T22:38:13.702Z</time>
      </trkpt>
      <trkpt lat="50.670104" lon="18.101683">
        <ele>177.054391</ele>
        <time>2025-10-13T22:38:29.798Z</time>
      </trkpt>
      <trkpt lat="50.671574" lon="18.099435">
        <ele>178.915357</ele>
        <time>2025-10-13T22:39:56.337Z</time>
      </trkpt>
      <trkpt lat="50.671827" lon="18.099121">
        <ele>179.135239</ele>
        <time>2025-10-13T22:40:08.759Z</time>
      </trkpt>
      <trkpt lat="50.672857" lon="18.098004">
        <ele>179.386310</ele>
        <time>2025-10-13T22:40:55.214Z</time>
      </trkpt>
      <trkpt lat="50.673378" lon="18.096773">
        <ele>179.679775</ele>
        <time>2025-10-13T22:41:31.729Z</time>
      </trkpt>
      <trkpt lat="50.673534" lon="18.096351">
        <ele>179.807834</ele>
        <time>2025-10-13T22:41:44.151Z</time>
      </trkpt>
      <trkpt lat="50.673805" lon="18.095831">
        <ele>179.984306</ele>
        <time>2025-10-13T22:42:01.351Z</time>
      </trkpt>
      <trkpt lat="50.677138" lon="18.090653">
        <ele>180.956595</ele>
        <time>2025-10-13T22:45:00.015Z</time>
      </trkpt>
      <trkpt lat="50.677307" lon="18.090387">
        <ele>180.911676</ele>
        <time>2025-10-13T22:45:08.754Z</time>
      </trkpt>
      <trkpt lat="50.678295" lon="18.088783">
        <ele>180.528486</ele>
        <time>2025-10-13T22:45:59.794Z</time>
      </trkpt>
      <trkpt lat="50.681152" lon="18.084430">
        <ele>178.388015</ele>
        <time>2025-10-13T22:48:20.856Z</time>
      </trkpt>
      <trkpt lat="50.682171" lon="18.083818">
        <ele>177.775469</ele>
        <time>2025-10-13T22:48:59.392Z</time>
      </trkpt>
      <trkpt lat="50.682642" lon="18.083585">
        <ele>177.612020</ele>
        <time>2025-10-13T22:49:17.330Z</time>
      </trkpt>
      <trkpt lat="50.682909" lon="18.083411">
        <ele>177.516365</ele>
        <time>2025-10-13T22:49:27.886Z</time>
      </trkpt>
      <trkpt lat="50.683280" lon="18.083264">
        <ele>177.389700</ele>
        <time>2025-10-13T22:49:41.976Z</time>
      </trkpt>
      <trkpt lat="50.685789" lon="18.082026">
        <ele>176.281106</ele>
        <time>2025-10-13T22:51:15.942Z</time>
      </trkpt>
      <trkpt lat="50.686040" lon="18.081867">
        <ele>176.221751</ele>
        <time>2025-10-13T22:51:25.595Z</time>
      </trkpt>
      <trkpt lat="50.686792" lon="18.080995">
        <ele>176.016970</ele>
        <time>2025-10-13T22:51:59.361Z</time>
      </trkpt>
      <trkpt lat="50.687363" lon="18.080394">
        <ele>176.091396</ele>
        <time>2025-10-13T22:52:25.351Z</time>
      </trkpt>
      <trkpt lat="50.688827" lon="18.079653">
        <ele>176.821295</ele>
        <time>2025-10-13T22:53:27.498Z</time>
      </trkpt>
      <trkpt lat="50.688173" lon="18.076058">
        <ele>176.910848</ele>
        <time>2025-10-13T22:54:58.862Z</time>
      </trkpt>
      <trkpt lat="50.687670" lon="18.073264">
        <ele>174.628496</ele>
        <time>2025-10-13T22:56:00.411Z</time>
      </trkpt>
      <trkpt lat="50.687160" lon="18.070216">
        <ele>171.019926</ele>
        <time>2025-10-13T22:57:04.968Z</time>
      </trkpt>
      <trkpt lat="50.686486" lon="18.066613">
        <ele>167.888886</ele>
        <time>2025-10-13T22:58:25.834Z</time>
      </trkpt>
      <trkpt lat="50.686173" lon="18.064808">
        <ele>166.766714</ele>
        <time>2025-10-13T22:59:07.521Z</time>
      </trkpt>
      <trkpt lat="50.686129" lon="18.059277">
        <ele>163.410602</ele>
        <time>2025-10-13T23:01:08.156Z</time>
      </trkpt>
      <trkpt lat="50.686102" lon="18.053787">
        <ele>160.554868</ele>
        <time>2025-10-13T23:03:10.013Z</time>
      </trkpt>
      <trkpt lat="50.686100" lon="18.053364">
        <ele>160.330574</ele>
        <time>2025-10-13T23:03:19.185Z</time>
      </trkpt>
      <trkpt lat="50.686098" lon="18.048450">
        <ele>158.326446</ele>
        <time>2025-10-13T23:05:07.822Z</time>
      </trkpt>
      <trkpt lat="50.686033" lon="18.042891">
        <ele>159.821917</ele>
        <time>2025-10-13T23:07:29.578Z</time>
      </trkpt>
      <trkpt lat="50.684788" lon="18.042910">
        <ele>160.093381</ele>
        <time>2025-10-13T23:08:16.809Z</time>
      </trkpt>
      <trkpt lat="50.683863" lon="18.042924">
        <ele>160.016585</ele>
        <time>2025-10-13T23:08:50.717Z</time>
      </trkpt>
      <trkpt lat="50.680676" lon="18.043002">
        <ele>159.391693</ele>
        <time>2025-10-13T23:10:46.547Z</time>
      </trkpt>
      <trkpt lat="50.679168" lon="18.042995">
        <ele>159.349407</ele>
        <time>2025-10-13T23:11:42.701Z</time>
      </trkpt>
      <trkpt lat="50.678261" lon="18.043020">
        <ele>159.432758</ele>
        <time>2025-10-13T23:12:17.069Z</time>
      </trkpt>
      <trkpt lat="50.677300" lon="18.043031">
        <ele>159.523639</ele>
        <time>2025-10-13T23:12:52.972Z</time>
      </trkpt>
      <trkpt lat="50.677137" lon="18.042969">
        <ele>159.544542</ele>
        <time>2025-10-13T23:12:59.204Z</time>
      </trkpt>
      <trkpt lat="50.677033" lon="18.042784">
        <ele>159.564079</ele>
        <time>2025-10-13T23:13:04.999Z</time>
      </trkpt>
      <trkpt lat="50.676202" lon="18.040846">
        <ele>159.735284</ele>
        <time>2025-10-13T23:14:01.126Z</time>
      </trkpt>
      <trkpt lat="50.676201" lon="18.040607">
        <ele>159.730449</ele>
        <time>2025-10-13T23:14:06.825Z</time>
      </trkpt>
      <trkpt lat="50.676167" lon="18.040548">
        <ele>159.728835</ele>
        <time>2025-10-13T23:14:08.713Z</time>
      </trkpt>
      <trkpt lat="50.676178" lon="18.040476">
        <ele>159.727337</ele>
        <time>2025-10-13T23:14:10.488Z</time>
      </trkpt>
      <trkpt lat="50.677932" lon="18.037775">
        <ele>159.656013</ele>
        <time>2025-10-13T23:15:40.826Z</time>
      </trkpt>
      <trkpt lat="50.678122" lon="18.037625">
        <ele>159.650717</ele>
        <time>2025-10-13T23:15:48.707Z</time>
      </trkpt>
      <trkpt lat="50.678133" lon="18.037536">
        <ele>159.649285</ele>
        <time>2025-10-13T23:15:50.841Z</time>
      </trkpt>
      <trkpt lat="50.678115" lon="18.037464">
        <ele>159.648062</ele>
        <time>2025-10-13T23:15:52.666Z</time>
      </trkpt>
      <trkpt lat="50.678014" lon="18.037278">
        <ele>159.644193</ele>
        <time>2025-10-13T23:15:58.458Z</time>
      </trkpt>
      <trkpt lat="50.677988" lon="18.037222">
        <ele>159.643096</ele>
        <time>2025-10-13T23:16:00.101Z</time>
      </trkpt>
      <trkpt lat="50.678874" lon="18.036154">
        <ele>159.641411</ele>
        <time>2025-10-13T23:16:41.787Z</time>
      </trkpt>
      <trkpt lat="50.679089" lon="18.035559">
        <ele>159.644366</ele>
        <time>2025-10-13T23:16:58.066Z</time>
      </trkpt>
      <trkpt lat="50.679492" lon="18.034761">
        <ele>159.632133</ele>
        <time>2025-10-13T23:17:21.724Z</time>
      </trkpt>
      <trkpt lat="50.679607" lon="18.034421">
        <ele>159.594976</ele>
        <time>2025-10-13T23:17:30.553Z</time>
      </trkpt>
      <trkpt lat="50.679714" lon="18.033763">
        <ele>159.529481</ele>
        <time>2025-10-13T23:17:46.199Z</time>
      </trkpt>
      <trkpt lat="50.679909" lon="18.033050">
        <ele>159.454610</ele>
        <time>2025-10-13T23:18:04.159Z</time>
      </trkpt>
      <trkpt lat="50.680439" lon="18.032220">
        <ele>159.359222</ele>
        <time>2025-10-13T23:18:31.717Z</time>
      </trkpt>
      <trkpt lat="50.680781" lon="18.031744">
        <ele>159.327703</ele>
        <time>2025-10-13T23:18:48.855Z</time>
      </trkpt>
      <trkpt lat="50.681178" lon="18.031095">
        <ele>159.288194</ele>
        <time>2025-10-13T23:19:10.179Z</time>
      </trkpt>
      <trkpt lat="50.682102" lon="18.029893">
        <ele>159.032843</ele>
        <time>2025-10-13T23:19:53.843Z</time>
      </trkpt>
      <trkpt lat="50.682668" lon="18.029275">
        <ele>158.801341</ele>
        <time>2025-10-13T23:20:18.485Z</time>
      </trkpt>
      <trkpt lat="50.682850" lon="18.028997">
        <ele>158.716147</ele>
        <time>2025-10-13T23:20:27.567Z</time>
      </trkpt>
      <trkpt lat="50.683055" lon="18.028257">
        <ele>158.649763</ele>
        <time>2025-10-13T23:20:45.958Z</time>
      </trkpt>
      <trkpt lat="50.683104" lon="18.027939">
        <ele>158.653005</ele>
        <time>2025-10-13T23:20:53.479Z</time>
      </trkpt>
      <trkpt lat="50.683197" lon="18.027576">
        <ele>158.656883</ele>
        <time>2025-10-13T23:21:02.561Z</time>
      </trkpt>
      <trkpt lat="50.683560" lon="18.026720">
        <ele>158.667085</ele>
        <time>2025-10-13T23:21:27.041Z</time>
      </trkpt>
      <trkpt lat="50.684503" lon="18.024868">
        <ele>158.906793</ele>
        <time>2025-10-13T23:22:25.853Z</time>
      </trkpt>
      <trkpt lat="50.685715" lon="18.023341">
        <ele>158.948332</ele>
        <time>2025-10-13T23:23:23.213Z</time>
      </trkpt>
      <trkpt lat="50.685630" lon="18.023252">
        <ele>158.936382</ele>
        <time>2025-10-13T23:23:26.915Z</time>
      </trkpt>
      <trkpt lat="50.685364" lon="18.022835">
        <ele>158.892460</ele>
        <time>2025-10-13T23:23:40.547Z</time>
      </trkpt>
      <trkpt lat="50.683959" lon="18.020511">
        <ele>158.737894</ele>
        <time>2025-10-13T23:24:55.156Z</time>
      </trkpt>
      <trkpt lat="50.682720" lon="18.018783">
        <ele>158.998119</ele>
        <time>2025-10-13T23:25:58.982Z</time>
      </trkpt>
      <trkpt lat="50.681953" lon="18.017630">
        <ele>158.936299</ele>
        <time>2025-10-13T23:26:37.991Z</time>
      </trkpt>
      <trkpt lat="50.682020" lon="18.017468">
        <ele>158.913212</ele>
        <time>2025-10-13T23:26:42.413Z</time>
      </trkpt>
      <trkpt lat="50.683409" lon="18.015646">
        <ele>158.460460</ele>
        <time>2025-10-13T23:27:47.803Z</time>
      </trkpt>
      <trkpt lat="50.683651" lon="18.015364">
        <ele>158.362819</ele>
        <time>2025-10-13T23:27:58.673Z</time>
      </trkpt>
      <trkpt lat="50.683855" lon="18.015190">
        <ele>158.287552</ele>
        <time>2025-10-13T23:28:07.009Z</time>
      </trkpt>
      <trkpt lat="50.686392" lon="18.013383">
        <ele>157.552811</ele>
        <time>2025-10-13T23:29:47.354Z</time>
      </trkpt>
      <trkpt lat="50.687997" lon="18.012214">
        <ele>157.586269</ele>
        <time>2025-10-13T23:30:55.317Z</time>
      </trkpt>
      <trkpt lat="50.689403" lon="18.011163">
        <ele>157.404511</ele>
        <time>2025-10-13T23:31:32.701Z</time>
      </trkpt>
      <trkpt lat="50.691979" lon="18.009135">
        <ele>156.687167</ele>
        <time>2025-10-13T23:32:41.830Z</time>
      </trkpt>
      <trkpt lat="50.694575" lon="18.007139">
        <ele>156.000391</ele>
        <time>2025-10-13T23:33:50.831Z</time>
      </trkpt>
      <trkpt lat="50.695028" lon="18.006640">
        <ele>155.932284</ele>
        <time>2025-10-13T23:34:04.244Z</time>
      </trkpt>
      <trkpt lat="50.695993" lon="18.005492">
        <ele>155.953178</ele>
        <time>2025-10-13T23:34:34.430Z</time>
      </trkpt>
      <trkpt lat="50.695580" lon="18.004528">
        <ele>156.069812</ele>
        <time>2025-10-13T23:34:51.537Z</time>
      </trkpt>
      <trkpt lat="50.694582" lon="18.002333">
        <ele>156.566630</ele>
        <time>2025-10-13T23:35:31.927Z</time>
      </trkpt>
      <trkpt lat="50.693669" lon="18.000349">
        <ele>156.958421</ele>
        <time>2025-10-13T23:36:10.162Z</time>
      </trkpt>
      <trkpt lat="50.693463" lon="17.999896">
        <ele>157.031028</ele>
        <time>2025-10-13T23:36:18.260Z</time>
      </trkpt>
      <trkpt lat="50.693394" lon="17.999782">
        <ele>157.051557</ele>
        <time>2025-10-13T23:36:20.526Z</time>
      </trkpt>
      <trkpt lat="50.693332" lon="17.999659">
        <ele>157.072024</ele>
        <time>2025-10-13T23:36:22.832Z</time>
      </trkpt>
      <trkpt lat="50.693292" lon="17.999581">
        <ele>157.085091</ele>
        <time>2025-10-13T23:36:24.276Z</time>
      </trkpt>
      <trkpt lat="50.692913" lon="17.998857">
        <ele>157.009624</ele>
        <time>2025-10-13T23:36:37.056Z</time>
      </trkpt>
      <trkpt lat="50.692376" lon="17.997673">
        <ele>156.765770</ele>
        <time>2025-10-13T23:36:56.333Z</time>
      </trkpt>
      <trkpt lat="50.690501" lon="17.993484">
        <ele>156.660698</ele>
        <time>2025-10-13T23:38:09.203Z</time>
      </trkpt>
      <trkpt lat="50.689496" lon="17.991235">
        <ele>156.542887</ele>
        <time>2025-10-13T23:38:47.575Z</time>
      </trkpt>
      <trkpt lat="50.688245" lon="17.988436">
        <ele>155.991965</ele>
        <time>2025-10-13T23:39:34.872Z</time>
      </trkpt>
      <trkpt lat="50.687695" lon="17.987205">
        <ele>155.527150</ele>
        <time>2025-10-13T23:39:54.343Z</time>
      </trkpt>
      <trkpt lat="50.687395" lon="17.986534">
        <ele>155.195568</ele>
        <time>2025-10-13T23:40:05.435Z</time>
      </trkpt>
      <trkpt lat="50.687196" lon="17.986100">
        <ele>154.979264</ele>
        <time>2025-10-13T23:40:12.676Z</time>
      </trkpt>
      <trkpt lat="50.687123" lon="17.985936">
        <ele>154.898340</ele>
        <time>2025-10-13T23:40:15.374Z</time>
      </trkpt>
      <trkpt lat="50.686898" lon="17.985429">
        <ele>154.673580</ele>
        <time>2025-10-13T23:40:23.411Z</time>
      </trkpt>
      <trkpt lat="50.686178" lon="17.986773">
        <ele>154.552114</ele>
        <time>2025-10-13T23:40:47.659Z</time>
      </trkpt>
      <trkpt lat="50.685496" lon="17.987942">
        <ele>154.515476</ele>
        <time>2025-10-13T23:41:10.680Z</time>
      </trkpt>
      <trkpt lat="50.684792" lon="17.989019">
        <ele>154.601725</ele>
        <time>2025-10-13T23:41:34.087Z</time>
      </trkpt>
      <trkpt lat="50.684755" lon="17.989077">
        <ele>154.606313</ele>
        <time>2025-10-13T23:41:35.276Z</time>
      </trkpt>
      <trkpt lat="50.684434" lon="17.989517">
        <ele>154.630748</ele>
        <time>2025-10-13T23:41:44.519Z</time>
      </trkpt>
      <trkpt lat="50.684305" lon="17.989710">
        <ele>154.569577</ele>
        <time>2025-10-13T23:41:48.277Z</time>
      </trkpt>
      <trkpt lat="50.684261" lon="17.989884">
        <ele>154.528726</ele>
        <time>2025-10-13T23:41:50.791Z</time>
      </trkpt>
      <trkpt lat="50.684074" lon="17.989764">
        <ele>154.459255</ele>
        <time>2025-10-13T23:41:55.020Z</time>
      </trkpt>
      <trkpt lat="50.683900" lon="17.989847">
        <ele>154.396698</ele>
        <time>2025-10-13T23:41:58.795Z</time>
      </trkpt>
      <trkpt lat="50.683855" lon="17.989828">
        <ele>154.380667</ele>
        <time>2025-10-13T23:41:59.781Z</time>
      </trkpt>
      <trkpt lat="50.683744" lon="17.989730">
        <ele>154.336896</ele>
        <time>2025-10-13T23:42:02.417Z</time>
      </trkpt>
      <trkpt lat="50.683639" lon="17.989511">
        <ele>154.277012</ele>
        <time>2025-10-13T23:42:06.054Z</time>
      </trkpt>
      <trkpt lat="50.683608" lon="17.989490">
        <ele>154.265402</ele>
        <time>2025-10-13T23:42:06.762Z</time>
      </trkpt>
      <trkpt lat="50.683656" lon="17.989447">
        <ele>154.246408</ele>
        <time>2025-10-13T23:42:07.914Z</time>
      </trkpt>
      <trkpt lat="50.683890" lon="17.989361">
        <ele>154.163723</ele>
        <time>2025-10-13T23:42:13.000Z</time>
      </trkpt>
      <trkpt lat="50.684074" lon="17.989163">
        <ele>154.087083</ele>
        <time>2025-10-13T23:42:17.720Z</time>
      </trkpt>
      <trkpt lat="50.684308" lon="17.988830">
        <ele>154.037745</ele>
        <time>2025-10-13T23:42:24.513Z</time>
      </trkpt>
      <trkpt lat="50.684393" lon="17.988573">
        <ele>154.060549</ele>
        <time>2025-10-13T23:42:28.581Z</time>
      </trkpt>
      <trkpt lat="50.684480" lon="17.988436">
        <ele>154.075807</ele>
        <time>2025-10-13T23:42:31.418Z</time>
      </trkpt>
      <trkpt lat="50.685050" lon="17.987658">
        <ele>154.169365</ele>
        <time>2025-10-13T23:42:49.003Z</time>
      </trkpt>
      <trkpt lat="50.685915" lon="17.986275">
        <ele>154.316811</ele>
        <time>2025-10-13T23:43:17.723Z</time>
      </trkpt>
      <trkpt lat="50.686608" lon="17.984961">
        <ele>154.441811</ele>
        <time>2025-10-13T23:43:42.184Z</time>
      </trkpt>
      <trkpt lat="50.686615" lon="17.984828">
        <ele>154.451568</ele>
        <time>2025-10-13T23:43:44.052Z</time>
      </trkpt>
      <trkpt lat="50.686571" lon="17.984690">
        <ele>154.460879</ele>
        <time>2025-10-13T23:43:46.235Z</time>
      </trkpt>
      <trkpt lat="50.686083" lon="17.983655">
        <ele>154.536342</ele>
        <time>2025-10-13T23:44:04.480Z</time>
      </trkpt>
      <trkpt lat="50.685427" lon="17.982227">
        <ele>154.658823</ele>
        <time>2025-10-13T23:44:29.851Z</time>
      </trkpt>
      <trkpt lat="50.685297" lon="17.981809">
        <ele>154.711691</ele>
        <time>2025-10-13T23:44:37.136Z</time>
      </trkpt>
      <trkpt lat="50.685245" lon="17.981496">
        <ele>154.748430</ele>
        <time>2025-10-13T23:44:42.151Z</time>
      </trkpt>
      <trkpt lat="50.685196" lon="17.981501">
        <ele>154.757229</ele>
        <time>2025-10-13T23:44:43.679Z</time>
      </trkpt>
      <trkpt lat="50.685131" lon="17.981507">
        <ele>154.768897</ele>
        <time>2025-10-13T23:44:45.743Z</time>
      </trkpt>
      <trkpt lat="50.685069" lon="17.981362">
        <ele>154.788758</ele>
        <time>2025-10-13T23:44:49.157Z</time>
      </trkpt>
      <trkpt lat="50.684766" lon="17.980656">
        <ele>154.885575</ele>
        <time>2025-10-13T23:45:01.772Z</time>
      </trkpt>
      <trkpt lat="50.684230" lon="17.979426">
        <ele>155.053527</ele>
        <time>2025-10-13T23:45:22.426Z</time>
      </trkpt>
      <trkpt lat="50.684032" lon="17.978930">
        <ele>155.119186</ele>
        <time>2025-10-13T23:45:30.643Z</time>
      </trkpt>
      <trkpt lat="50.684628" lon="17.978186">
        <ele>155.253510</ele>
        <time>2025-10-13T23:45:48.282Z</time>
      </trkpt>
      <trkpt lat="50.684701" lon="17.978044">
        <ele>155.362213</ele>
        <time>2025-10-13T23:45:51.290Z</time>
      </trkpt>
      <trkpt lat="50.684875" lon="17.977853">
        <ele>155.624008</ele>
        <time>2025-10-13T23:45:57.143Z</time>
      </trkpt>
      <trkpt lat="50.684935" lon="17.977735">
        <ele>155.742416</ele>
        <time>2025-10-13T23:46:00.017Z</time>
      </trkpt>
      <trkpt lat="50.684947" lon="17.977684">
        <ele>155.784992</ele>
        <time>2025-10-13T23:46:01.019Z</time>
      </trkpt>
      <trkpt lat="50.684932" lon="17.977290">
        <ele>156.093894</ele>
        <time>2025-10-13T23:46:08.462Z</time>
      </trkpt>
      <trkpt lat="50.684857" lon="17.976394">
        <ele>156.801200</ele>
        <time>2025-10-13T23:46:25.178Z</time>
      </trkpt>
      <trkpt lat="50.684791" lon="17.975787">
        <ele>157.283186</ele>
        <time>2025-10-13T23:46:36.583Z</time>
      </trkpt>
      <trkpt lat="50.684774" lon="17.975652">
        <ele>157.390904</ele>
        <time>2025-10-13T23:46:39.176Z</time>
      </trkpt>
      <trkpt lat="50.684593" lon="17.973750">
        <ele>159.092528</ele>
        <time>2025-10-13T23:47:14.878Z</time>
      </trkpt>
      <trkpt lat="50.684570" lon="17.973511">
        <ele>159.307974</ele>
        <time>2025-10-13T23:47:19.405Z</time>
      </trkpt>
      <trkpt lat="50.684536" lon="17.972863">
        <ele>159.887465</ele>
        <time>2025-10-13T23:47:31.716Z</time>
      </trkpt>
      <trkpt lat="50.683976" lon="17.966148">
        <ele>165.532369</ele>
        <time>2025-10-13T23:49:36.545Z</time>
      </trkpt>
      <trkpt lat="50.683787" lon="17.964089">
        <ele>166.750579</ele>
        <time>2025-10-13T23:50:10.693Z</time>
      </trkpt>
      <trkpt lat="50.683352" lon="17.958383">
        <ele>169.188854</ele>
        <time>2025-10-13T23:51:42.407Z</time>
      </trkpt>
      <trkpt lat="50.683526" lon="17.958202">
        <ele>169.479350</ele>
        <time>2025-10-13T23:51:48.621Z</time>
      </trkpt>
      <trkpt lat="50.683594" lon="17.958073">
        <ele>169.627562</ele>
        <time>2025-10-13T23:51:51.830Z</time>
      </trkpt>
      <trkpt lat="50.683621" lon="17.957915">
        <ele>169.772099</ele>
        <time>2025-10-13T23:51:54.983Z</time>
      </trkpt>
      <trkpt lat="50.683611" lon="17.957782">
        <ele>169.890392</ele>
        <time>2025-10-13T23:51:57.530Z</time>
      </trkpt>
      <trkpt lat="50.683402" lon="17.956597">
        <ele>170.976812</ele>
        <time>2025-10-13T23:52:21.271Z</time>
      </trkpt>
      <trkpt lat="50.683406" lon="17.956485">
        <ele>171.075891</ele>
        <time>2025-10-13T23:52:23.538Z</time>
      </trkpt>
      <trkpt lat="50.682513" lon="17.957139">
        <ele>171.771961</ele>
        <time>2025-10-13T23:52:53.066Z</time>
      </trkpt>
      <trkpt lat="50.682405" lon="17.957178">
        <ele>171.820788</ele>
        <time>2025-10-13T23:52:55.924Z</time>
      </trkpt>
      <trkpt lat="50.682357" lon="17.957151">
        <ele>171.843245</ele>
        <time>2025-10-13T23:52:57.261Z</time>
      </trkpt>
      <trkpt lat="50.682305" lon="17.957252">
        <ele>171.879586</ele>
        <time>2025-10-13T23:52:59.850Z</time>
      </trkpt>
      <trkpt lat="50.682229" lon="17.957266">
        <ele>171.913307</ele>
        <time>2025-10-13T23:53:02.280Z</time>
      </trkpt>
      <trkpt lat="50.682098" lon="17.957119">
        <ele>171.984146</ele>
        <time>2025-10-13T23:53:07.257Z</time>
      </trkpt>
      <trkpt lat="50.682061" lon="17.957074">
        <ele>172.004732</ele>
        <time>2025-10-13T23:53:08.633Z</time>
      </trkpt>
      <trkpt lat="50.681873" lon="17.957252">
        <ele>172.101352</ele>
        <time>2025-10-13T23:53:13.495Z</time>
      </trkpt>
      <trkpt lat="50.681720" lon="17.957398">
        <ele>172.180148</ele>
        <time>2025-10-13T23:53:17.281Z</time>
      </trkpt>
      <trkpt lat="50.681597" lon="17.957518">
        <ele>172.243877</ele>
        <time>2025-10-13T23:53:20.247Z</time>
      </trkpt>
      <trkpt lat="50.681369" lon="17.957737">
        <ele>171.956581</ele>
        <time>2025-10-13T23:53:25.477Z</time>
      </trkpt>
      <trkpt lat="50.681270" lon="17.957832">
        <ele>171.818822</ele>
        <time>2025-10-13T23:53:27.685Z</time>
      </trkpt>
      <trkpt lat="50.681173" lon="17.957924">
        <ele>171.684267</ele>
        <time>2025-10-13T23:53:29.838Z</time>
      </trkpt>
      <trkpt lat="50.680954" lon="17.958132">
        <ele>171.380366</ele>
        <time>2025-10-13T23:53:34.640Z</time>
      </trkpt>
      <trkpt lat="50.680628" lon="17.958443">
        <ele>170.927447</ele>
        <time>2025-10-13T23:53:41.823Z</time>
      </trkpt>
      <trkpt lat="50.680404" lon="17.958628">
        <ele>170.626852</ele>
        <time>2025-10-13T23:53:46.605Z</time>
      </trkpt>
      <trkpt lat="50.680363" lon="17.958654">
        <ele>170.574315</ele>
        <time>2025-10-13T23:53:47.452Z</time>
      </trkpt>
      <trkpt lat="50.680276" lon="17.958707">
        <ele>170.463436</ele>
        <time>2025-10-13T23:53:49.237Z</time>
      </trkpt>
      <trkpt lat="50.680218" lon="17.958740">
        <ele>170.390130</ele>
        <time>2025-10-13T23:53:50.437Z</time>
      </trkpt>
      <trkpt lat="50.679997" lon="17.958832">
        <ele>170.118379</ele>
        <time>2025-10-13T23:53:54.938Z</time>
      </trkpt>
      <trkpt lat="50.679646" lon="17.958980">
        <ele>170.092743</ele>
        <time>2025-10-13T23:54:02.439Z</time>
      </trkpt>
      <trkpt lat="50.679231" lon="17.959073">
        <ele>170.068563</ele>
        <time>2025-10-13T23:54:12.098Z</time>
      </trkpt>
      <trkpt lat="50.679223" lon="17.958978">
        <ele>170.065059</ele>
        <time>2025-10-13T23:54:13.627Z</time>
      </trkpt>
      <trkpt lat="50.679088" lon="17.957421">
        <ele>170.011302</ele>
        <time>2025-10-13T23:54:37.154Z</time>
      </trkpt>
      <trkpt lat="50.678980" lon="17.957501">
        <ele>170.016567</ele>
        <time>2025-10-13T23:54:39.805Z</time>
      </trkpt>
      <trkpt lat="50.678161" lon="17.958108">
        <ele>170.056496</ele>
        <time>2025-10-13T23:54:59.796Z</time>
      </trkpt>
      <trkpt lat="50.677645" lon="17.958487">
        <ele>170.081613</ele>
        <time>2025-10-13T23:55:12.205Z</time>
      </trkpt>
      <trkpt lat="50.677627" lon="17.958306">
        <ele>170.086736</ele>
        <time>2025-10-13T23:55:14.959Z</time>
      </trkpt>
      <trkpt lat="50.677605" lon="17.958078">
        <ele>170.120833</ele>
        <time>2025-10-13T23:55:18.477Z</time>
      </trkpt>
      <trkpt lat="50.677509" lon="17.957068">
        <ele>170.341554</ele>
        <time>2025-10-13T23:55:34.548Z</time>
      </trkpt>
      <trkpt lat="50.677497" lon="17.956850">
        <ele>170.388845</ele>
        <time>2025-10-13T23:55:37.886Z</time>
      </trkpt>
      <trkpt lat="50.677487" lon="17.956670">
        <ele>170.427895</ele>
        <time>2025-10-13T23:55:40.642Z</time>
      </trkpt>
      <trkpt lat="50.677474" lon="17.956444">
        <ele>170.476939</ele>
        <time>2025-10-13T23:55:44.044Z</time>
      </trkpt>
      <trkpt lat="50.677445" lon="17.955838">
        <ele>170.608279</ele>
        <time>2025-10-13T23:55:52.959Z</time>
      </trkpt>
      <trkpt lat="50.677493" lon="17.955622">
        <ele>170.657748</ele>
        <time>2025-10-13T23:55:57.371Z</time>
      </trkpt>
      <trkpt lat="50.677684" lon="17.955678">
        <ele>170.736780</ele>
        <time>2025-10-13T23:56:03.433Z</time>
      </trkpt>
      <trkpt lat="50.677909" lon="17.955562">
        <ele>170.865479</ele>
        <time>2025-10-13T23:56:11.087Z</time>
      </trkpt>
      <trkpt lat="50.678182" lon="17.955440">
        <ele>171.019751</ele>
        <time>2025-10-13T23:56:20.050Z</time>
      </trkpt>
      <trkpt lat="50.678344" lon="17.955322">
        <ele>171.116763</ele>
        <time>2025-10-13T23:56:25.758Z</time>
      </trkpt>
      <trkpt lat="50.678494" lon="17.955163">
        <ele>171.215011</ele>
        <time>2025-10-13T23:56:31.613Z</time>
      </trkpt>
      <trkpt lat="50.678689" lon="17.954868">
        <ele>171.361884</ele>
        <time>2025-10-13T23:56:40.295Z</time>
      </trkpt>
      <trkpt lat="50.678697" lon="17.954856">
        <ele>171.367885</ele>
        <time>2025-10-13T23:56:40.657Z</time>
      </trkpt>
      <trkpt lat="50.678798" lon="17.954659">
        <ele>171.455192</ele>
        <time>2025-10-13T23:56:45.931Z</time>
      </trkpt>
      <trkpt lat="50.678892" lon="17.954420">
        <ele>171.552108</ele>
        <time>2025-10-13T23:56:51.753Z</time>
      </trkpt>
      <trkpt lat="50.678958" lon="17.954170">
        <ele>171.645418</ele>
        <time>2025-10-13T23:56:57.271Z</time>
      </trkpt>
      <trkpt lat="50.678921" lon="17.954084">
        <ele>171.681599</ele>
        <time>2025-10-13T23:56:58.878Z</time>
      </trkpt>
      <trkpt lat="50.678948" lon="17.954025">
        <ele>171.718523</ele>
        <time>2025-10-13T23:57:00.071Z</time>
      </trkpt>
      <trkpt lat="50.678980" lon="17.954020">
        <ele>171.744270</ele>
        <time>2025-10-13T23:57:00.887Z</time>
      </trkpt>
      <trkpt lat="50.679001" lon="17.953312">
        <ele>172.103869</ele>
        <time>2025-10-13T23:57:12.035Z</time>
      </trkpt>
      <trkpt lat="50.678932" lon="17.952710">
        <ele>172.414251</ele>
        <time>2025-10-13T23:57:21.688Z</time>
      </trkpt>
      <trkpt lat="50.678815" lon="17.952134">
        <ele>172.721135</ele>
        <time>2025-10-13T23:57:31.758Z</time>
      </trkpt>
      <trkpt lat="50.678640" lon="17.951615">
        <ele>173.019411</ele>
        <time>2025-10-13T23:57:41.937Z</time>
      </trkpt>
      <trkpt lat="50.678584" lon="17.951448">
        <ele>173.115272</ele>
        <time>2025-10-13T23:57:45.335Z</time>
      </trkpt>
      <trkpt lat="50.678602" lon="17.951415">
        <ele>173.143779</ele>
        <time>2025-10-13T23:57:46.097Z</time>
      </trkpt>
      <trkpt lat="50.678608" lon="17.951397">
        <ele>173.158039</ele>
        <time>2025-10-13T23:57:46.482Z</time>
      </trkpt>
      <trkpt lat="50.678613" lon="17.951352">
        <ele>173.190071</ele>
        <time>2025-10-13T23:57:47.333Z</time>
      </trkpt>
      <trkpt lat="50.678570" lon="17.951269">
        <ele>173.265239</ele>
        <time>2025-10-13T23:57:49.306Z</time>
      </trkpt>
      <trkpt lat="50.678799" lon="17.950370">
        <ele>173.944579</ele>
        <time>2025-10-13T23:58:11.699Z</time>
      </trkpt>
      <trkpt lat="50.678921" lon="17.950036">
        <ele>174.214877</ele>
        <time>2025-10-13T23:58:20.668Z</time>
      </trkpt>
      <trkpt lat="50.679068" lon="17.949767">
        <ele>174.463928</ele>
        <time>2025-10-13T23:58:28.866Z</time>
      </trkpt>
      <trkpt lat="50.679186" lon="17.949635">
        <ele>174.623965</ele>
        <time>2025-10-13T23:58:33.956Z</time>
      </trkpt>
      <trkpt lat="50.679264" lon="17.949564">
        <ele>174.723597</ele>
        <time>2025-10-13T23:58:37.077Z</time>
      </trkpt>
      <trkpt lat="50.679316" lon="17.949517">
        <ele>174.789901</ele>
        <time>2025-10-13T23:58:39.116Z</time>
      </trkpt>
      <trkpt lat="50.679347" lon="17.949512">
        <ele>174.824381</ele>
        <time>2025-10-13T23:58:40.162Z</time>
      </trkpt>
      <trkpt lat="50.679551" lon="17.949475">
        <ele>175.051585</ele>
        <time>2025-10-13T23:58:46.893Z</time>
      </trkpt>
      <trkpt lat="50.679603" lon="17.949466">
        <ele>175.109466</ele>
        <time>2025-10-13T23:58:48.567Z</time>
      </trkpt>
      <trkpt lat="50.680157" lon="17.949373">
        <ele>175.324308</ele>
        <time>2025-10-13T23:59:05.213Z</time>
      </trkpt>
      <trkpt lat="50.680325" lon="17.949158">
        <ele>175.407404</ele>
        <time>2025-10-13T23:59:11.479Z</time>
      </trkpt>
      <trkpt lat="50.680296" lon="17.948635">
        <ele>175.535206</ele>
        <time>2025-10-13T23:59:21.438Z</time>
      </trkpt>
      <trkpt lat="50.680264" lon="17.948528">
        <ele>175.564009</ele>
        <time>2025-10-13T23:59:23.809Z</time>
      </trkpt>
      <trkpt lat="50.680223" lon="17.947966">
        <ele>175.701722</ele>
        <time>2025-10-13T23:59:35.764Z</time>
      </trkpt>
      <trkpt lat="50.680236" lon="17.947955">
        <ele>175.707389</ele>
        <time>2025-10-13T23:59:36.153Z</time>
      </trkpt>
      <trkpt lat="50.680456" lon="17.947753">
        <ele>175.801700</ele>
        <time>2025-10-13T23:59:42.682Z</time>
      </trkpt>
      <trkpt lat="50.680723" lon="17.947700">
        <ele>175.801700</ele>
        <time>2025-10-13T23:59:48.958Z</time>
      </trkpt>
      <trkpt lat="50.680761" lon="17.947693">
        <ele>175.801700</ele>
        <time>2025-10-13T23:59:50.148Z</time>
      </trkpt>
      <trkpt lat="50.681213" lon="17.947616">
        <ele>175.801700</ele>
        <time>2025-10-14T00:00:04.302Z</time>
      </trkpt>
      <trkpt lat="50.681226" lon="17.947613">
        <ele>175.801700</ele>
        <time>2025-10-14T00:00:04.736Z</time>
      </trkpt>
      <trkpt lat="50.681294" lon="17.947604">
        <ele>175.801700</ele>
        <time>2025-10-14T00:00:06.897Z</time>
      </trkpt>
      <trkpt lat="50.681557" lon="17.947569">
        <ele>175.801700</ele>
        <time>2025-10-14T00:00:13.461Z</time>
      </trkpt>
      <trkpt lat="50.681740" lon="17.947537">
        <ele>175.801700</ele>
        <time>2025-10-14T00:00:19.190Z</time>
      </trkpt>
      <trkpt lat="50.682105" lon="17.947478">
        <ele>175.801700</ele>
        <time>2025-10-14T00:00:30.428Z</time>
      </trkpt>
    </trkseg>
  </trk>
</gpx>