<?xml version='1.0' encoding='UTF-8'?>
<gpx version="1.1" creator="https://www.komoot.de" xmlns="http://www.topografix.com/GPX/1/1" xmlns:xsi="http://www.w3.org/2001/XMLSchema-instance" xsi:schemaLocation="http://www.topografix.com/GPX/1/1 http://www.topografix.com/GPX/1/1/gpx.xsd">
  <metadata>
    <name>GraveLova Środa #077- Pędzące Wiewiórki</name>
    <author>
      <link href="https://www.komoot.de">
        <text>komoot</text>
        <type>text/html</type>
      </link>
    </author>
  </metadata>
  <trk>
    <name>GraveLova Środa #077- Pędzące Wiewiórki</name>
    <trkseg>
      <trkpt lat="50.669126" lon="17.974734">
        <ele>170.620630</ele>
        <time>2025-10-20T17:50:27.033Z</time>
      </trkpt>
      <trkpt lat="50.668953" lon="17.973041">
        <ele>170.646044</ele>
        <time>2025-10-20T17:50:49.077Z</time>
      </trkpt>
      <trkpt lat="50.668811" lon="17.971633">
        <ele>170.768486</ele>
        <time>2025-10-20T17:51:06.312Z</time>
      </trkpt>
      <trkpt lat="50.668719" lon="17.971647">
        <ele>170.781010</ele>
        <time>2025-10-20T17:51:07.908Z</time>
      </trkpt>
      <trkpt lat="50.668446" lon="17.971689">
        <ele>170.818178</ele>
        <time>2025-10-20T17:51:12.614Z</time>
      </trkpt>
      <trkpt lat="50.668157" lon="17.971733">
        <ele>170.857519</ele>
        <time>2025-10-20T17:51:17.466Z</time>
      </trkpt>
      <trkpt lat="50.667963" lon="17.971763">
        <ele>170.780623</ele>
        <time>2025-10-20T17:51:20.638Z</time>
      </trkpt>
      <trkpt lat="50.667824" lon="17.971788">
        <ele>170.699577</ele>
        <time>2025-10-20T17:51:22.861Z</time>
      </trkpt>
      <trkpt lat="50.667553" lon="17.971908">
        <ele>170.536518</ele>
        <time>2025-10-20T17:51:27.253Z</time>
      </trkpt>
      <trkpt lat="50.667382" lon="17.971945">
        <ele>170.436528</ele>
        <time>2025-10-20T17:51:29.965Z</time>
      </trkpt>
      <trkpt lat="50.666970" lon="17.972022">
        <ele>170.196182</ele>
        <time>2025-10-20T17:51:36.594Z</time>
      </trkpt>
      <trkpt lat="50.666776" lon="17.971992">
        <ele>170.083257</ele>
        <time>2025-10-20T17:51:39.786Z</time>
      </trkpt>
      <trkpt lat="50.666723" lon="17.971984">
        <ele>170.052413</ele>
        <time>2025-10-20T17:51:40.690Z</time>
      </trkpt>
      <trkpt lat="50.666500" lon="17.971775">
        <ele>169.902152</ele>
        <time>2025-10-20T17:51:45.063Z</time>
      </trkpt>
      <trkpt lat="50.666355" lon="17.971491">
        <ele>169.787313</ele>
        <time>2025-10-20T17:51:48.976Z</time>
      </trkpt>
      <trkpt lat="50.666392" lon="17.972144">
        <ele>169.631383</ele>
        <time>2025-10-20T17:51:55.885Z</time>
      </trkpt>
      <trkpt lat="50.666398" lon="17.972247">
        <ele>169.606783</ele>
        <time>2025-10-20T17:51:56.962Z</time>
      </trkpt>
      <trkpt lat="50.666270" lon="17.972211">
        <ele>169.557995</ele>
        <time>2025-10-20T17:52:00.637Z</time>
      </trkpt>
      <trkpt lat="50.666031" lon="17.972230">
        <ele>169.468198</ele>
        <time>2025-10-20T17:52:07.412Z</time>
      </trkpt>
      <trkpt lat="50.665760" lon="17.972279">
        <ele>169.365842</ele>
        <time>2025-10-20T17:52:15.072Z</time>
      </trkpt>
      <trkpt lat="50.664749" lon="17.972463">
        <ele>169.095065</ele>
        <time>2025-10-20T17:52:44.540Z</time>
      </trkpt>
      <trkpt lat="50.664398" lon="17.972585">
        <ele>169.051853</ele>
        <time>2025-10-20T17:52:55.187Z</time>
      </trkpt>
      <trkpt lat="50.663931" lon="17.972692">
        <ele>168.995117</ele>
        <time>2025-10-20T17:53:08.782Z</time>
      </trkpt>
      <trkpt lat="50.663603" lon="17.972805">
        <ele>168.954753</ele>
        <time>2025-10-20T17:53:18.651Z</time>
      </trkpt>
      <trkpt lat="50.663573" lon="17.972856">
        <ele>168.949451</ele>
        <time>2025-10-20T17:53:19.940Z</time>
      </trkpt>
      <trkpt lat="50.663351" lon="17.972893">
        <ele>168.935277</ele>
        <time>2025-10-20T17:53:26.623Z</time>
      </trkpt>
      <trkpt lat="50.663140" lon="17.972983">
        <ele>168.947752</ele>
        <time>2025-10-20T17:53:33.194Z</time>
      </trkpt>
      <trkpt lat="50.663063" lon="17.972978">
        <ele>168.952150</ele>
        <time>2025-10-20T17:53:35.515Z</time>
      </trkpt>
      <trkpt lat="50.662983" lon="17.972992">
        <ele>168.956744</ele>
        <time>2025-10-20T17:53:37.941Z</time>
      </trkpt>
      <trkpt lat="50.662860" lon="17.973133">
        <ele>168.965422</ele>
        <time>2025-10-20T17:53:42.516Z</time>
      </trkpt>
      <trkpt lat="50.662312" lon="17.974572">
        <ele>169.026153</ele>
        <time>2025-10-20T17:54:14.442Z</time>
      </trkpt>
      <trkpt lat="50.662276" lon="17.974533">
        <ele>169.028646</ele>
        <time>2025-10-20T17:54:15.466Z</time>
      </trkpt>
      <trkpt lat="50.661935" lon="17.975435">
        <ele>168.782657</ele>
        <time>2025-10-20T17:54:26.988Z</time>
      </trkpt>
      <trkpt lat="50.661530" lon="17.976559">
        <ele>168.424302</ele>
        <time>2025-10-20T17:54:40.568Z</time>
      </trkpt>
      <trkpt lat="50.661243" lon="17.977343">
        <ele>168.072976</ele>
        <time>2025-10-20T17:54:49.724Z</time>
      </trkpt>
      <trkpt lat="50.660319" lon="17.979882">
        <ele>166.078603</ele>
        <time>2025-10-20T17:55:18.147Z</time>
      </trkpt>
      <trkpt lat="50.660042" lon="17.980620">
        <ele>165.320594</ele>
        <time>2025-10-20T17:55:26.172Z</time>
      </trkpt>
      <trkpt lat="50.659933" lon="17.980884">
        <ele>165.042142</ele>
        <time>2025-10-20T17:55:29.108Z</time>
      </trkpt>
      <trkpt lat="50.659619" lon="17.981595">
        <ele>164.276290</ele>
        <time>2025-10-20T17:55:37.090Z</time>
      </trkpt>
      <trkpt lat="50.659069" lon="17.982843">
        <ele>163.093407</ele>
        <time>2025-10-20T17:55:51.481Z</time>
      </trkpt>
      <trkpt lat="50.658901" lon="17.983398">
        <ele>162.641285</ele>
        <time>2025-10-20T17:55:57.144Z</time>
      </trkpt>
      <trkpt lat="50.658834" lon="17.983795">
        <ele>162.339274</ele>
        <time>2025-10-20T17:56:01.099Z</time>
      </trkpt>
      <trkpt lat="50.658808" lon="17.984838">
        <ele>161.745425</ele>
        <time>2025-10-20T17:56:11.839Z</time>
      </trkpt>
      <trkpt lat="50.658669" lon="17.984829">
        <ele>161.706276</ele>
        <time>2025-10-20T17:56:14.167Z</time>
      </trkpt>
      <trkpt lat="50.658396" lon="17.984809">
        <ele>161.629369</ele>
        <time>2025-10-20T17:56:18.730Z</time>
      </trkpt>
      <trkpt lat="50.658374" lon="17.984807">
        <ele>161.623168</ele>
        <time>2025-10-20T17:56:19.081Z</time>
      </trkpt>
      <trkpt lat="50.658262" lon="17.984803">
        <ele>161.591642</ele>
        <time>2025-10-20T17:56:20.981Z</time>
      </trkpt>
      <trkpt lat="50.658011" lon="17.984794">
        <ele>161.520990</ele>
        <time>2025-10-20T17:56:25.334Z</time>
      </trkpt>
      <trkpt lat="50.657812" lon="17.984794">
        <ele>161.464989</ele>
        <time>2025-10-20T17:56:28.906Z</time>
      </trkpt>
      <trkpt lat="50.657203" lon="17.984792">
        <ele>161.293590</ele>
        <time>2025-10-20T17:56:39.856Z</time>
      </trkpt>
      <trkpt lat="50.656885" lon="17.984834">
        <ele>161.202301</ele>
        <time>2025-10-20T17:56:45.131Z</time>
      </trkpt>
      <trkpt lat="50.656315" lon="17.984936">
        <ele>161.038195</ele>
        <time>2025-10-20T17:56:54.345Z</time>
      </trkpt>
      <trkpt lat="50.655622" lon="17.985067">
        <ele>160.838530</ele>
        <time>2025-10-20T17:57:06.196Z</time>
      </trkpt>
      <trkpt lat="50.654994" lon="17.985187">
        <ele>160.963299</ele>
        <time>2025-10-20T17:57:17.478Z</time>
      </trkpt>
      <trkpt lat="50.654983" lon="17.985095">
        <ele>160.988608</ele>
        <time>2025-10-20T17:57:18.574Z</time>
      </trkpt>
      <trkpt lat="50.654980" lon="17.985044">
        <ele>161.002455</ele>
        <time>2025-10-20T17:57:19.179Z</time>
      </trkpt>
      <trkpt lat="50.654906" lon="17.983782">
        <ele>161.345073</ele>
        <time>2025-10-20T17:57:34.794Z</time>
      </trkpt>
      <trkpt lat="50.654863" lon="17.983436">
        <ele>161.440389</ele>
        <time>2025-10-20T17:57:39.100Z</time>
      </trkpt>
      <trkpt lat="50.654769" lon="17.983134">
        <ele>161.531339</ele>
        <time>2025-10-20T17:57:43.410Z</time>
      </trkpt>
      <trkpt lat="50.654694" lon="17.982893">
        <ele>161.704622</ele>
        <time>2025-10-20T17:57:47.024Z</time>
      </trkpt>
      <trkpt lat="50.654556" lon="17.982595">
        <ele>161.981740</ele>
        <time>2025-10-20T17:57:52.163Z</time>
      </trkpt>
      <trkpt lat="50.654360" lon="17.982296">
        <ele>162.304710</ele>
        <time>2025-10-20T17:57:58.261Z</time>
      </trkpt>
      <trkpt lat="50.654078" lon="17.982009">
        <ele>162.702223</ele>
        <time>2025-10-20T17:58:05.871Z</time>
      </trkpt>
      <trkpt lat="50.653795" lon="17.981799">
        <ele>163.072668</ele>
        <time>2025-10-20T17:58:13.067Z</time>
      </trkpt>
      <trkpt lat="50.653334" lon="17.981506">
        <ele>163.661367</ele>
        <time>2025-10-20T17:58:24.453Z</time>
      </trkpt>
      <trkpt lat="50.652979" lon="17.981333">
        <ele>163.820398</ele>
        <time>2025-10-20T17:58:33.105Z</time>
      </trkpt>
      <trkpt lat="50.652772" lon="17.981162">
        <ele>163.913606</ele>
        <time>2025-10-20T17:58:38.353Z</time>
      </trkpt>
      <trkpt lat="50.652708" lon="17.981321">
        <ele>163.961237</ele>
        <time>2025-10-20T17:58:40.837Z</time>
      </trkpt>
      <trkpt lat="50.652519" lon="17.981321">
        <ele>164.036626</ele>
        <time>2025-10-20T17:58:44.710Z</time>
      </trkpt>
      <trkpt lat="50.652373" lon="17.981321">
        <ele>164.094863</ele>
        <time>2025-10-20T17:58:47.540Z</time>
      </trkpt>
      <trkpt lat="50.651965" lon="17.981431">
        <ele>164.259968</ele>
        <time>2025-10-20T17:58:55.043Z</time>
      </trkpt>
      <trkpt lat="50.651882" lon="17.981465">
        <ele>164.294173</ele>
        <time>2025-10-20T17:58:56.523Z</time>
      </trkpt>
      <trkpt lat="50.651551" lon="17.981707">
        <ele>164.339965</ele>
        <time>2025-10-20T17:59:02.697Z</time>
      </trkpt>
      <trkpt lat="50.651013" lon="17.982318">
        <ele>164.012606</ele>
        <time>2025-10-20T17:59:13.776Z</time>
      </trkpt>
      <trkpt lat="50.650673" lon="17.982227">
        <ele>163.842320</ele>
        <time>2025-10-20T17:59:19.301Z</time>
      </trkpt>
      <trkpt lat="50.650336" lon="17.982146">
        <ele>163.673995</ele>
        <time>2025-10-20T17:59:24.966Z</time>
      </trkpt>
      <trkpt lat="50.650148" lon="17.982101">
        <ele>163.580101</ele>
        <time>2025-10-20T17:59:28.334Z</time>
      </trkpt>
      <trkpt lat="50.650016" lon="17.982071">
        <ele>163.514248</ele>
        <time>2025-10-20T17:59:30.839Z</time>
      </trkpt>
      <trkpt lat="50.649961" lon="17.982058">
        <ele>163.547823</ele>
        <time>2025-10-20T17:59:31.859Z</time>
      </trkpt>
      <trkpt lat="50.649541" lon="17.981939">
        <ele>163.973462</ele>
        <time>2025-10-20T17:59:40.269Z</time>
      </trkpt>
      <trkpt lat="50.649103" lon="17.981828">
        <ele>164.415954</ele>
        <time>2025-10-20T17:59:49.509Z</time>
      </trkpt>
      <trkpt lat="50.648984" lon="17.981797">
        <ele>164.536260</ele>
        <time>2025-10-20T17:59:52.086Z</time>
      </trkpt>
      <trkpt lat="50.648802" lon="17.981755">
        <ele>164.719730</ele>
        <time>2025-10-20T17:59:56.174Z</time>
      </trkpt>
      <trkpt lat="50.648579" lon="17.981704">
        <ele>164.944490</ele>
        <time>2025-10-20T18:00:01.351Z</time>
      </trkpt>
      <trkpt lat="50.648427" lon="17.981671">
        <ele>165.097534</ele>
        <time>2025-10-20T18:00:04.976Z</time>
      </trkpt>
      <trkpt lat="50.648039" lon="17.981582">
        <ele>165.414236</ele>
        <time>2025-10-20T18:00:14.280Z</time>
      </trkpt>
      <trkpt lat="50.647332" lon="17.981360">
        <ele>165.848102</ele>
        <time>2025-10-20T18:00:29.786Z</time>
      </trkpt>
      <trkpt lat="50.647051" lon="17.981203">
        <ele>166.027525</ele>
        <time>2025-10-20T18:00:35.560Z</time>
      </trkpt>
      <trkpt lat="50.646913" lon="17.981140">
        <ele>166.113991</ele>
        <time>2025-10-20T18:00:38.178Z</time>
      </trkpt>
      <trkpt lat="50.646844" lon="17.981134">
        <ele>166.155583</ele>
        <time>2025-10-20T18:00:39.397Z</time>
      </trkpt>
      <trkpt lat="50.646000" lon="17.981058">
        <ele>165.912303</ele>
        <time>2025-10-20T18:00:52.979Z</time>
      </trkpt>
      <trkpt lat="50.644880" lon="17.981038">
        <ele>164.780768</ele>
        <time>2025-10-20T18:01:09.734Z</time>
      </trkpt>
      <trkpt lat="50.643437" lon="17.981071">
        <ele>163.457996</ele>
        <time>2025-10-20T18:01:32.348Z</time>
      </trkpt>
      <trkpt lat="50.642747" lon="17.981089">
        <ele>162.845144</ele>
        <time>2025-10-20T18:01:43.216Z</time>
      </trkpt>
      <trkpt lat="50.641954" lon="17.980998">
        <ele>162.184643</ele>
        <time>2025-10-20T18:01:55.511Z</time>
      </trkpt>
      <trkpt lat="50.641940" lon="17.981405">
        <ele>161.969916</ele>
        <time>2025-10-20T18:01:59.724Z</time>
      </trkpt>
      <trkpt lat="50.641943" lon="17.981482">
        <ele>161.929275</ele>
        <time>2025-10-20T18:02:00.535Z</time>
      </trkpt>
      <trkpt lat="50.641957" lon="17.981888">
        <ele>161.715074</ele>
        <time>2025-10-20T18:02:04.761Z</time>
      </trkpt>
      <trkpt lat="50.642209" lon="17.984661">
        <ele>160.789989</ele>
        <time>2025-10-20T18:02:35.060Z</time>
      </trkpt>
      <trkpt lat="50.642282" lon="17.985046">
        <ele>160.674364</ele>
        <time>2025-10-20T18:02:39.445Z</time>
      </trkpt>
      <trkpt lat="50.642135" lon="17.986755">
        <ele>160.743440</ele>
        <time>2025-10-20T18:02:59.687Z</time>
      </trkpt>
      <trkpt lat="50.642068" lon="17.987504">
        <ele>160.794111</ele>
        <time>2025-10-20T18:03:08.548Z</time>
      </trkpt>
      <trkpt lat="50.642013" lon="17.987575">
        <ele>160.801619</ele>
        <time>2025-10-20T18:03:09.867Z</time>
      </trkpt>
      <trkpt lat="50.641620" lon="17.987667">
        <ele>160.741820</ele>
        <time>2025-10-20T18:03:17.090Z</time>
      </trkpt>
      <trkpt lat="50.641128" lon="17.987688">
        <ele>160.480934</ele>
        <time>2025-10-20T18:03:25.679Z</time>
      </trkpt>
      <trkpt lat="50.640851" lon="17.987658">
        <ele>160.333761</ele>
        <time>2025-10-20T18:03:30.021Z</time>
      </trkpt>
      <trkpt lat="50.640183" lon="17.987583">
        <ele>159.978783</ele>
        <time>2025-10-20T18:03:40.358Z</time>
      </trkpt>
      <trkpt lat="50.640074" lon="17.987526">
        <ele>159.917912</ele>
        <time>2025-10-20T18:03:42.162Z</time>
      </trkpt>
      <trkpt lat="50.639622" lon="17.987012">
        <ele>159.826864</ele>
        <time>2025-10-20T18:03:51.240Z</time>
      </trkpt>
      <trkpt lat="50.638976" lon="17.986236">
        <ele>159.747179</ele>
        <time>2025-10-20T18:04:05.820Z</time>
      </trkpt>
      <trkpt lat="50.638749" lon="17.986067">
        <ele>159.722548</ele>
        <time>2025-10-20T18:04:10.568Z</time>
      </trkpt>
      <trkpt lat="50.638271" lon="17.986005">
        <ele>159.645092</ele>
        <time>2025-10-20T18:04:19.718Z</time>
      </trkpt>
      <trkpt lat="50.637053" lon="17.985673">
        <ele>159.350830</ele>
        <time>2025-10-20T18:04:40.909Z</time>
      </trkpt>
      <trkpt lat="50.637010" lon="17.985569">
        <ele>159.332085</ele>
        <time>2025-10-20T18:04:43.062Z</time>
      </trkpt>
      <trkpt lat="50.636949" lon="17.985421">
        <ele>159.305435</ele>
        <time>2025-10-20T18:04:46.126Z</time>
      </trkpt>
      <trkpt lat="50.636822" lon="17.985406">
        <ele>159.275116</ele>
        <time>2025-10-20T18:04:48.115Z</time>
      </trkpt>
      <trkpt lat="50.636646" lon="17.985386">
        <ele>159.224125</ele>
        <time>2025-10-20T18:04:50.900Z</time>
      </trkpt>
      <trkpt lat="50.636553" lon="17.985413">
        <ele>159.195916</ele>
        <time>2025-10-20T18:04:52.385Z</time>
      </trkpt>
      <trkpt lat="50.636516" lon="17.985303">
        <ele>159.172359</ele>
        <time>2025-10-20T18:04:53.654Z</time>
      </trkpt>
      <trkpt lat="50.636412" lon="17.984981">
        <ele>159.103994</ele>
        <time>2025-10-20T18:04:57.331Z</time>
      </trkpt>
      <trkpt lat="50.636261" lon="17.984753">
        <ele>159.041626</ele>
        <time>2025-10-20T18:05:00.770Z</time>
      </trkpt>
      <trkpt lat="50.636035" lon="17.984647">
        <ele>158.971290</ele>
        <time>2025-10-20T18:05:04.693Z</time>
      </trkpt>
      <trkpt lat="50.635722" lon="17.984637">
        <ele>158.877902</ele>
        <time>2025-10-20T18:05:10.120Z</time>
      </trkpt>
      <trkpt lat="50.634882" lon="17.984673">
        <ele>158.705614</ele>
        <time>2025-10-20T18:05:25.630Z</time>
      </trkpt>
      <trkpt lat="50.633974" lon="17.984658">
        <ele>158.637264</ele>
        <time>2025-10-20T18:05:42.024Z</time>
      </trkpt>
      <trkpt lat="50.633776" lon="17.984491">
        <ele>158.620362</ele>
        <time>2025-10-20T18:05:45.777Z</time>
      </trkpt>
      <trkpt lat="50.633622" lon="17.984427">
        <ele>158.608374</ele>
        <time>2025-10-20T18:05:48.390Z</time>
      </trkpt>
      <trkpt lat="50.632291" lon="17.984490">
        <ele>158.072120</ele>
        <time>2025-10-20T18:06:10.144Z</time>
      </trkpt>
      <trkpt lat="50.632080" lon="17.984499">
        <ele>157.977988</ele>
        <time>2025-10-20T18:06:13.643Z</time>
      </trkpt>
      <trkpt lat="50.631208" lon="17.984606">
        <ele>157.835023</ele>
        <time>2025-10-20T18:06:28.526Z</time>
      </trkpt>
      <trkpt lat="50.631103" lon="17.984648">
        <ele>157.844484</ele>
        <time>2025-10-20T18:06:30.415Z</time>
      </trkpt>
      <trkpt lat="50.630742" lon="17.984860">
        <ele>157.878132</ele>
        <time>2025-10-20T18:06:37.334Z</time>
      </trkpt>
      <trkpt lat="50.630165" lon="17.985405">
        <ele>157.936882</ele>
        <time>2025-10-20T18:06:49.767Z</time>
      </trkpt>
      <trkpt lat="50.628364" lon="17.986807">
        <ele>158.815604</ele>
        <time>2025-10-20T18:07:29.093Z</time>
      </trkpt>
      <trkpt lat="50.627681" lon="17.987388">
        <ele>158.810680</ele>
        <time>2025-10-20T18:07:43.390Z</time>
      </trkpt>
      <trkpt lat="50.627625" lon="17.987519">
        <ele>158.810044</ele>
        <time>2025-10-20T18:07:45.088Z</time>
      </trkpt>
      <trkpt lat="50.627601" lon="17.987656">
        <ele>158.809472</ele>
        <time>2025-10-20T18:07:46.600Z</time>
      </trkpt>
      <trkpt lat="50.627601" lon="17.987694">
        <ele>158.809319</ele>
        <time>2025-10-20T18:07:47.010Z</time>
      </trkpt>
      <trkpt lat="50.627601" lon="17.987710">
        <ele>158.809254</ele>
        <time>2025-10-20T18:07:47.177Z</time>
      </trkpt>
      <trkpt lat="50.627604" lon="17.987815">
        <ele>158.808831</ele>
        <time>2025-10-20T18:07:48.296Z</time>
      </trkpt>
      <trkpt lat="50.627628" lon="17.987943">
        <ele>158.808294</ele>
        <time>2025-10-20T18:07:49.727Z</time>
      </trkpt>
      <trkpt lat="50.627656" lon="17.988007">
        <ele>158.807981</ele>
        <time>2025-10-20T18:07:50.552Z</time>
      </trkpt>
      <trkpt lat="50.627686" lon="17.988060">
        <ele>158.807695</ele>
        <time>2025-10-20T18:07:51.321Z</time>
      </trkpt>
      <trkpt lat="50.628199" lon="17.988899">
        <ele>158.863602</ele>
        <time>2025-10-20T18:08:03.910Z</time>
      </trkpt>
      <trkpt lat="50.628294" lon="17.989017">
        <ele>158.895000</ele>
        <time>2025-10-20T18:08:05.978Z</time>
      </trkpt>
      <trkpt lat="50.628260" lon="17.989079">
        <ele>158.908497</ele>
        <time>2025-10-20T18:08:07.517Z</time>
      </trkpt>
      <trkpt lat="50.628273" lon="17.989097">
        <ele>158.912988</ele>
        <time>2025-10-20T18:08:07.854Z</time>
      </trkpt>
      <trkpt lat="50.628047" lon="17.989285">
        <ele>158.979327</ele>
        <time>2025-10-20T18:08:12.794Z</time>
      </trkpt>
      <trkpt lat="50.627532" lon="17.989714">
        <ele>159.130543</ele>
        <time>2025-10-20T18:08:24.878Z</time>
      </trkpt>
      <trkpt lat="50.625998" lon="17.991245">
        <ele>160.158414</ele>
        <time>2025-10-20T18:09:01.737Z</time>
      </trkpt>
      <trkpt lat="50.624889" lon="17.992338">
        <ele>160.632466</ele>
        <time>2025-10-20T18:09:27.059Z</time>
      </trkpt>
      <trkpt lat="50.624192" lon="17.992951">
        <ele>160.742495</ele>
        <time>2025-10-20T18:09:41.043Z</time>
      </trkpt>
      <trkpt lat="50.624112" lon="17.993187">
        <ele>160.765896</ele>
        <time>2025-10-20T18:09:43.969Z</time>
      </trkpt>
      <trkpt lat="50.624015" lon="17.993472">
        <ele>160.751752</ele>
        <time>2025-10-20T18:09:47.480Z</time>
      </trkpt>
      <trkpt lat="50.624017" lon="17.993658">
        <ele>160.736084</ele>
        <time>2025-10-20T18:09:49.488Z</time>
      </trkpt>
      <trkpt lat="50.623785" lon="17.993714">
        <ele>160.704925</ele>
        <time>2025-10-20T18:09:53.467Z</time>
      </trkpt>
      <trkpt lat="50.622291" lon="17.994072">
        <ele>160.469644</ele>
        <time>2025-10-20T18:10:19.962Z</time>
      </trkpt>
      <trkpt lat="50.622265" lon="17.993900">
        <ele>160.437242</ele>
        <time>2025-10-20T18:10:21.973Z</time>
      </trkpt>
      <trkpt lat="50.622102" lon="17.992809">
        <ele>160.231840</ele>
        <time>2025-10-20T18:10:34.354Z</time>
      </trkpt>
      <trkpt lat="50.621904" lon="17.992833">
        <ele>160.174479</ele>
        <time>2025-10-20T18:10:37.834Z</time>
      </trkpt>
      <trkpt lat="50.620388" lon="17.993014">
        <ele>159.605799</ele>
        <time>2025-10-20T18:11:03.556Z</time>
      </trkpt>
      <trkpt lat="50.620148" lon="17.993068">
        <ele>159.503252</ele>
        <time>2025-10-20T18:11:07.739Z</time>
      </trkpt>
      <trkpt lat="50.618069" lon="17.993835">
        <ele>159.058947</ele>
        <time>2025-10-20T18:11:45.101Z</time>
      </trkpt>
      <trkpt lat="50.618025" lon="17.993806">
        <ele>159.052942</ele>
        <time>2025-10-20T18:11:45.922Z</time>
      </trkpt>
      <trkpt lat="50.618004" lon="17.993792">
        <ele>159.050071</ele>
        <time>2025-10-20T18:11:46.306Z</time>
      </trkpt>
      <trkpt lat="50.617000" lon="17.992858">
        <ele>158.858598</ele>
        <time>2025-10-20T18:12:06.090Z</time>
      </trkpt>
      <trkpt lat="50.616836" lon="17.992704">
        <ele>158.825878</ele>
        <time>2025-10-20T18:12:09.257Z</time>
      </trkpt>
      <trkpt lat="50.615720" lon="17.992028">
        <ele>158.784085</ele>
        <time>2025-10-20T18:12:30.592Z</time>
      </trkpt>
      <trkpt lat="50.615640" lon="17.992237">
        <ele>158.801854</ele>
        <time>2025-10-20T18:12:33.402Z</time>
      </trkpt>
      <trkpt lat="50.615607" lon="17.992299">
        <ele>158.807745</ele>
        <time>2025-10-20T18:12:34.359Z</time>
      </trkpt>
      <trkpt lat="50.615424" lon="17.992644">
        <ele>158.840480</ele>
        <time>2025-10-20T18:12:39.555Z</time>
      </trkpt>
      <trkpt lat="50.615184" lon="17.993033">
        <ele>158.879978</ele>
        <time>2025-10-20T18:12:45.854Z</time>
      </trkpt>
      <trkpt lat="50.614955" lon="17.993258">
        <ele>158.910938</ele>
        <time>2025-10-20T18:12:50.895Z</time>
      </trkpt>
      <trkpt lat="50.614612" lon="17.993476">
        <ele>158.923963</ele>
        <time>2025-10-20T18:12:57.678Z</time>
      </trkpt>
      <trkpt lat="50.614366" lon="17.993516">
        <ele>158.922895</ele>
        <time>2025-10-20T18:13:02.049Z</time>
      </trkpt>
      <trkpt lat="50.612806" lon="17.993423">
        <ele>158.928440</ele>
        <time>2025-10-20T18:13:29.637Z</time>
      </trkpt>
      <trkpt lat="50.612674" lon="17.993454">
        <ele>158.934250</ele>
        <time>2025-10-20T18:13:31.987Z</time>
      </trkpt>
      <trkpt lat="50.611595" lon="17.993803">
        <ele>158.982206</ele>
        <time>2025-10-20T18:13:51.261Z</time>
      </trkpt>
      <trkpt lat="50.610951" lon="17.993905">
        <ele>159.253206</ele>
        <time>2025-10-20T18:14:03.369Z</time>
      </trkpt>
      <trkpt lat="50.610810" lon="17.993959">
        <ele>159.363050</ele>
        <time>2025-10-20T18:14:06.425Z</time>
      </trkpt>
      <trkpt lat="50.610727" lon="17.994012">
        <ele>159.430843</ele>
        <time>2025-10-20T18:14:08.390Z</time>
      </trkpt>
      <trkpt lat="50.610528" lon="17.994339">
        <ele>159.648487</ele>
        <time>2025-10-20T18:14:14.444Z</time>
      </trkpt>
      <trkpt lat="50.610160" lon="17.994785">
        <ele>159.999924</ele>
        <time>2025-10-20T18:14:24.128Z</time>
      </trkpt>
      <trkpt lat="50.609922" lon="17.994927">
        <ele>160.192571</ele>
        <time>2025-10-20T18:14:29.477Z</time>
      </trkpt>
      <trkpt lat="50.609872" lon="17.994951">
        <ele>160.232138</ele>
        <time>2025-10-20T18:14:31.194Z</time>
      </trkpt>
      <trkpt lat="50.609835" lon="17.995010">
        <ele>160.271986</ele>
        <time>2025-10-20T18:14:32.924Z</time>
      </trkpt>
      <trkpt lat="50.609750" lon="17.995210">
        <ele>160.368895</ele>
        <time>2025-10-20T18:14:37.930Z</time>
      </trkpt>
      <trkpt lat="50.609516" lon="17.995318">
        <ele>160.440088</ele>
        <time>2025-10-20T18:14:45.883Z</time>
      </trkpt>
      <trkpt lat="50.605362" lon="17.995321">
        <ele>160.698055</ele>
        <time>2025-10-20T18:16:50.595Z</time>
      </trkpt>
      <trkpt lat="50.605365" lon="17.996002">
        <ele>160.492569</ele>
        <time>2025-10-20T18:17:02.257Z</time>
      </trkpt>
      <trkpt lat="50.605374" lon="17.997412">
        <ele>160.097292</ele>
        <time>2025-10-20T18:17:26.193Z</time>
      </trkpt>
      <trkpt lat="50.605376" lon="17.997718">
        <ele>160.020833</ele>
        <time>2025-10-20T18:17:31.499Z</time>
      </trkpt>
      <trkpt lat="50.605393" lon="18.000697">
        <ele>159.497742</ele>
        <time>2025-10-20T18:18:27.305Z</time>
      </trkpt>
      <trkpt lat="50.605455" lon="18.006113">
        <ele>159.066918</ele>
        <time>2025-10-20T18:20:08.509Z</time>
      </trkpt>
      <trkpt lat="50.605458" lon="18.006232">
        <ele>159.031723</ele>
        <time>2025-10-20T18:20:10.641Z</time>
      </trkpt>
      <trkpt lat="50.604964" lon="18.006960">
        <ele>158.716770</ele>
        <time>2025-10-20T18:20:29.593Z</time>
      </trkpt>
      <trkpt lat="50.601865" lon="18.011524">
        <ele>155.802291</ele>
        <time>2025-10-20T18:22:26.555Z</time>
      </trkpt>
      <trkpt lat="50.598688" lon="18.016237">
        <ele>155.873671</ele>
        <time>2025-10-20T18:24:35.709Z</time>
      </trkpt>
      <trkpt lat="50.598173" lon="18.016935">
        <ele>156.089445</ele>
        <time>2025-10-20T18:24:57.612Z</time>
      </trkpt>
      <trkpt lat="50.594499" lon="18.022350">
        <ele>157.748050</ele>
        <time>2025-10-20T18:27:33.451Z</time>
      </trkpt>
      <trkpt lat="50.591838" lon="18.026308">
        <ele>156.069498</ele>
        <time>2025-10-20T18:29:15.258Z</time>
      </trkpt>
      <trkpt lat="50.590850" lon="18.027716">
        <ele>156.213471</ele>
        <time>2025-10-20T18:29:54.747Z</time>
      </trkpt>
      <trkpt lat="50.587173" lon="18.033207">
        <ele>159.099221</ele>
        <time>2025-10-20T18:32:35.672Z</time>
      </trkpt>
      <trkpt lat="50.586213" lon="18.034642">
        <ele>160.019432</ele>
        <time>2025-10-20T18:33:15.999Z</time>
      </trkpt>
      <trkpt lat="50.584259" lon="18.037421">
        <ele>165.822915</ele>
        <time>2025-10-20T18:34:55.435Z</time>
      </trkpt>
      <trkpt lat="50.584185" lon="18.037526">
        <ele>166.038008</ele>
        <time>2025-10-20T18:34:59.177Z</time>
      </trkpt>
      <trkpt lat="50.583750" lon="18.037911">
        <ele>167.115561</ele>
        <time>2025-10-20T18:35:17.470Z</time>
      </trkpt>
      <trkpt lat="50.583647" lon="18.038057">
        <ele>167.414812</ele>
        <time>2025-10-20T18:35:22.375Z</time>
      </trkpt>
      <trkpt lat="50.582814" lon="18.038861">
        <ele>168.821307</ele>
        <time>2025-10-20T18:35:55.501Z</time>
      </trkpt>
      <trkpt lat="50.582422" lon="18.039168">
        <ele>169.337315</ele>
        <time>2025-10-20T18:36:09.724Z</time>
      </trkpt>
      <trkpt lat="50.581973" lon="18.039281">
        <ele>169.873246</ele>
        <time>2025-10-20T18:36:24.664Z</time>
      </trkpt>
      <trkpt lat="50.581452" lon="18.039683">
        <ele>170.446162</ele>
        <time>2025-10-20T18:36:43.872Z</time>
      </trkpt>
      <trkpt lat="50.580536" lon="18.040798">
        <ele>171.482391</ele>
        <time>2025-10-20T18:37:22.257Z</time>
      </trkpt>
      <trkpt lat="50.580348" lon="18.041018">
        <ele>171.692032</ele>
        <time>2025-10-20T18:37:29.627Z</time>
      </trkpt>
      <trkpt lat="50.580096" lon="18.041402">
        <ele>171.502979</ele>
        <time>2025-10-20T18:37:40.197Z</time>
      </trkpt>
      <trkpt lat="50.579963" lon="18.041537">
        <ele>171.407083</ele>
        <time>2025-10-20T18:37:44.827Z</time>
      </trkpt>
      <trkpt lat="50.579721" lon="18.041702">
        <ele>171.247265</ele>
        <time>2025-10-20T18:37:52.394Z</time>
      </trkpt>
      <trkpt lat="50.579226" lon="18.041874">
        <ele>170.940057</ele>
        <time>2025-10-20T18:38:06.341Z</time>
      </trkpt>
      <trkpt lat="50.578935" lon="18.042068">
        <ele>170.748546</ele>
        <time>2025-10-20T18:38:14.631Z</time>
      </trkpt>
      <trkpt lat="50.578695" lon="18.042338">
        <ele>170.551633</ele>
        <time>2025-10-20T18:38:22.252Z</time>
      </trkpt>
      <trkpt lat="50.578554" lon="18.042650">
        <ele>170.346297</ele>
        <time>2025-10-20T18:38:28.518Z</time>
      </trkpt>
      <trkpt lat="50.578354" lon="18.042850">
        <ele>170.146245</ele>
        <time>2025-10-20T18:38:34.732Z</time>
      </trkpt>
      <trkpt lat="50.577507" lon="18.043095">
        <ele>169.419078</ele>
        <time>2025-10-20T18:38:58.306Z</time>
      </trkpt>
      <trkpt lat="50.577244" lon="18.043238">
        <ele>169.184137</ele>
        <time>2025-10-20T18:39:06.283Z</time>
      </trkpt>
      <trkpt lat="50.577095" lon="18.043229">
        <ele>169.094709</ele>
        <time>2025-10-20T18:39:10.612Z</time>
      </trkpt>
      <trkpt lat="50.573918" lon="18.043443">
        <ele>168.524664</ele>
        <time>2025-10-20T18:40:44.904Z</time>
      </trkpt>
      <trkpt lat="50.572830" lon="18.043782">
        <ele>168.031545</ele>
        <time>2025-10-20T18:41:01.539Z</time>
      </trkpt>
      <trkpt lat="50.572765" lon="18.043803">
        <ele>167.998317</ele>
        <time>2025-10-20T18:41:02.538Z</time>
      </trkpt>
      <trkpt lat="50.572230" lon="18.043978">
        <ele>167.724688</ele>
        <time>2025-10-20T18:41:11.279Z</time>
      </trkpt>
      <trkpt lat="50.570562" lon="18.044378">
        <ele>168.426892</ele>
        <time>2025-10-20T18:41:45.081Z</time>
      </trkpt>
      <trkpt lat="50.570561" lon="18.044583">
        <ele>168.524243</ele>
        <time>2025-10-20T18:41:47.846Z</time>
      </trkpt>
      <trkpt lat="50.570465" lon="18.044635">
        <ele>168.600148</ele>
        <time>2025-10-20T18:41:50.028Z</time>
      </trkpt>
      <trkpt lat="50.570296" lon="18.044690">
        <ele>168.729175</ele>
        <time>2025-10-20T18:41:53.708Z</time>
      </trkpt>
      <trkpt lat="50.568804" lon="18.045529">
        <ele>169.912846</ele>
        <time>2025-10-20T18:42:26.483Z</time>
      </trkpt>
      <trkpt lat="50.568556" lon="18.045740">
        <ele>170.123438</ele>
        <time>2025-10-20T18:42:31.821Z</time>
      </trkpt>
      <trkpt lat="50.567731" lon="18.046441">
        <ele>170.248257</ele>
        <time>2025-10-20T18:42:48.734Z</time>
      </trkpt>
      <trkpt lat="50.564270" lon="18.049325">
        <ele>170.548283</ele>
        <time>2025-10-20T18:43:58.902Z</time>
      </trkpt>
      <trkpt lat="50.562133" lon="18.051109">
        <ele>171.167854</ele>
        <time>2025-10-20T18:44:43.428Z</time>
      </trkpt>
      <trkpt lat="50.561077" lon="18.051994">
        <ele>172.498876</ele>
        <time>2025-10-20T18:45:09.649Z</time>
      </trkpt>
      <trkpt lat="50.555423" lon="18.056708">
        <ele>179.575031</ele>
        <time>2025-10-20T18:47:26.472Z</time>
      </trkpt>
      <trkpt lat="50.555225" lon="18.056844">
        <ele>179.759889</ele>
        <time>2025-10-20T18:47:30.908Z</time>
      </trkpt>
      <trkpt lat="50.555199" lon="18.056857">
        <ele>179.783233</ele>
        <time>2025-10-20T18:47:31.470Z</time>
      </trkpt>
      <trkpt lat="50.554850" lon="18.056939">
        <ele>180.085181</ele>
        <time>2025-10-20T18:47:38.646Z</time>
      </trkpt>
      <trkpt lat="50.552053" lon="18.057074">
        <ele>182.124369</ele>
        <time>2025-10-20T18:48:35.062Z</time>
      </trkpt>
      <trkpt lat="50.546784" lon="18.057986">
        <ele>184.211417</ele>
        <time>2025-10-20T18:50:17.434Z</time>
      </trkpt>
      <trkpt lat="50.545027" lon="18.058148">
        <ele>182.538474</ele>
        <time>2025-10-20T18:50:43.228Z</time>
      </trkpt>
      <trkpt lat="50.544874" lon="18.058727">
        <ele>182.791148</ele>
        <time>2025-10-20T18:50:50.015Z</time>
      </trkpt>
      <trkpt lat="50.544117" lon="18.061593">
        <ele>184.529346</ele>
        <time>2025-10-20T18:51:32.759Z</time>
      </trkpt>
      <trkpt lat="50.543221" lon="18.064809">
        <ele>187.932387</ele>
        <time>2025-10-20T18:52:23.448Z</time>
      </trkpt>
      <trkpt lat="50.542131" lon="18.068765">
        <ele>192.627702</ele>
        <time>2025-10-20T18:53:28.103Z</time>
      </trkpt>
      <trkpt lat="50.541992" lon="18.069269">
        <ele>193.024761</ele>
        <time>2025-10-20T18:53:36.287Z</time>
      </trkpt>
      <trkpt lat="50.541554" lon="18.070769">
        <ele>194.217763</ele>
        <time>2025-10-20T18:53:58.897Z</time>
      </trkpt>
      <trkpt lat="50.540530" lon="18.073849">
        <ele>194.695465</ele>
        <time>2025-10-20T18:54:38.110Z</time>
      </trkpt>
      <trkpt lat="50.540499" lon="18.073936">
        <ele>194.715066</ele>
        <time>2025-10-20T18:54:39.266Z</time>
      </trkpt>
      <trkpt lat="50.540285" lon="18.074503">
        <ele>194.844660</ele>
        <time>2025-10-20T18:54:47.161Z</time>
      </trkpt>
      <trkpt lat="50.540208" lon="18.074738">
        <ele>194.896618</ele>
        <time>2025-10-20T18:54:50.354Z</time>
      </trkpt>
      <trkpt lat="50.540119" lon="18.074925">
        <ele>194.942530</ele>
        <time>2025-10-20T18:54:53.201Z</time>
      </trkpt>
      <trkpt lat="50.540082" lon="18.075117">
        <ele>194.981958</ele>
        <time>2025-10-20T18:54:55.628Z</time>
      </trkpt>
      <trkpt lat="50.540051" lon="18.075305">
        <ele>195.020127</ele>
        <time>2025-10-20T18:54:57.970Z</time>
      </trkpt>
      <trkpt lat="50.539967" lon="18.075830">
        <ele>195.126520</ele>
        <time>2025-10-20T18:55:04.481Z</time>
      </trkpt>
      <trkpt lat="50.539945" lon="18.075983">
        <ele>195.157347</ele>
        <time>2025-10-20T18:55:06.381Z</time>
      </trkpt>
      <trkpt lat="50.539865" lon="18.076209">
        <ele>195.254102</ele>
        <time>2025-10-20T18:55:09.478Z</time>
      </trkpt>
      <trkpt lat="50.539921" lon="18.076428">
        <ele>195.397598</ele>
        <time>2025-10-20T18:55:12.335Z</time>
      </trkpt>
      <trkpt lat="50.539965" lon="18.076959">
        <ele>195.723113</ele>
        <time>2025-10-20T18:55:18.995Z</time>
      </trkpt>
      <trkpt lat="50.540014" lon="18.078034">
        <ele>196.378257</ele>
        <time>2025-10-20T18:55:33.078Z</time>
      </trkpt>
      <trkpt lat="50.540017" lon="18.078536">
        <ele>196.683424</ele>
        <time>2025-10-20T18:55:40.088Z</time>
      </trkpt>
      <trkpt lat="50.540028" lon="18.078892">
        <ele>196.900083</ele>
        <time>2025-10-20T18:55:45.199Z</time>
      </trkpt>
      <trkpt lat="50.540069" lon="18.079045">
        <ele>197.064850</ele>
        <time>2025-10-20T18:55:47.633Z</time>
      </trkpt>
      <trkpt lat="50.540110" lon="18.079099">
        <ele>197.150565</ele>
        <time>2025-10-20T18:55:48.882Z</time>
      </trkpt>
      <trkpt lat="50.540141" lon="18.079128">
        <ele>197.208381</ele>
        <time>2025-10-20T18:55:49.742Z</time>
      </trkpt>
      <trkpt lat="50.540396" lon="18.079367">
        <ele>197.684202</ele>
        <time>2025-10-20T18:55:56.915Z</time>
      </trkpt>
      <trkpt lat="50.540688" lon="18.079635">
        <ele>198.226124</ele>
        <time>2025-10-20T18:56:05.285Z</time>
      </trkpt>
      <trkpt lat="50.540895" lon="18.079847">
        <ele>198.622069</ele>
        <time>2025-10-20T18:56:11.296Z</time>
      </trkpt>
      <trkpt lat="50.540942" lon="18.079907">
        <ele>198.719094</ele>
        <time>2025-10-20T18:56:12.729Z</time>
      </trkpt>
      <trkpt lat="50.541173" lon="18.080266">
        <ele>199.239587</ele>
        <time>2025-10-20T18:56:20.103Z</time>
      </trkpt>
      <trkpt lat="50.541351" lon="18.080692">
        <ele>199.759006</ele>
        <time>2025-10-20T18:56:26.942Z</time>
      </trkpt>
      <trkpt lat="50.541479" lon="18.081042">
        <ele>199.852385</ele>
        <time>2025-10-20T18:56:32.175Z</time>
      </trkpt>
      <trkpt lat="50.541552" lon="18.081405">
        <ele>199.915974</ele>
        <time>2025-10-20T18:56:37.053Z</time>
      </trkpt>
      <trkpt lat="50.541617" lon="18.081505">
        <ele>199.939864</ele>
        <time>2025-10-20T18:56:38.915Z</time>
      </trkpt>
      <trkpt lat="50.541757" lon="18.081923">
        <ele>200.018777</ele>
        <time>2025-10-20T18:56:44.821Z</time>
      </trkpt>
      <trkpt lat="50.542702" lon="18.084747">
        <ele>199.889931</ele>
        <time>2025-10-20T18:57:21.523Z</time>
      </trkpt>
      <trkpt lat="50.542935" lon="18.085455">
        <ele>199.718230</ele>
        <time>2025-10-20T18:57:35.747Z</time>
      </trkpt>
      <trkpt lat="50.544910" lon="18.091498">
        <ele>196.227502</ele>
        <time>2025-10-20T18:59:33.349Z</time>
      </trkpt>
      <trkpt lat="50.546639" lon="18.096437">
        <ele>194.720284</ele>
        <time>2025-10-20T19:01:16.173Z</time>
      </trkpt>
      <trkpt lat="50.548504" lon="18.098880">
        <ele>193.168715</ele>
        <time>2025-10-20T19:02:24.225Z</time>
      </trkpt>
      <trkpt lat="50.548741" lon="18.099190">
        <ele>192.914298</ele>
        <time>2025-10-20T19:02:32.519Z</time>
      </trkpt>
      <trkpt lat="50.550050" lon="18.100617">
        <ele>191.444046</ele>
        <time>2025-10-20T19:03:14.486Z</time>
      </trkpt>
      <trkpt lat="50.551025" lon="18.102098">
        <ele>191.353970</ele>
        <time>2025-10-20T19:03:53.721Z</time>
      </trkpt>
      <trkpt lat="50.551332" lon="18.103696">
        <ele>191.929416</ele>
        <time>2025-10-20T19:04:29.231Z</time>
      </trkpt>
      <trkpt lat="50.551652" lon="18.104887">
        <ele>192.350675</ele>
        <time>2025-10-20T19:04:56.634Z</time>
      </trkpt>
      <trkpt lat="50.552563" lon="18.106842">
        <ele>192.357993</ele>
        <time>2025-10-20T19:05:42.023Z</time>
      </trkpt>
      <trkpt lat="50.554105" lon="18.109605">
        <ele>190.236479</ele>
        <time>2025-10-20T19:06:44.452Z</time>
      </trkpt>
      <trkpt lat="50.554163" lon="18.109740">
        <ele>190.124507</ele>
        <time>2025-10-20T19:06:47.176Z</time>
      </trkpt>
      <trkpt lat="50.554579" lon="18.110405">
        <ele>189.515756</ele>
        <time>2025-10-20T19:07:03.090Z</time>
      </trkpt>
      <trkpt lat="50.554596" lon="18.110492">
        <ele>189.483199</ele>
        <time>2025-10-20T19:07:04.671Z</time>
      </trkpt>
      <trkpt lat="50.554871" lon="18.110966">
        <ele>189.253601</ele>
        <time>2025-10-20T19:07:16.024Z</time>
      </trkpt>
      <trkpt lat="50.554991" lon="18.111228">
        <ele>189.138074</ele>
        <time>2025-10-20T19:07:21.827Z</time>
      </trkpt>
      <trkpt lat="50.555129" lon="18.111406">
        <ele>189.037626</ele>
        <time>2025-10-20T19:07:26.882Z</time>
      </trkpt>
      <trkpt lat="50.555511" lon="18.111876">
        <ele>188.764655</ele>
        <time>2025-10-20T19:07:40.560Z</time>
      </trkpt>
      <trkpt lat="50.556065" lon="18.111995">
        <ele>188.466294</ele>
        <time>2025-10-20T19:07:56.674Z</time>
      </trkpt>
      <trkpt lat="50.556146" lon="18.111676">
        <ele>188.366218</ele>
        <time>2025-10-20T19:08:02.963Z</time>
      </trkpt>
      <trkpt lat="50.556242" lon="18.111301">
        <ele>188.248441</ele>
        <time>2025-10-20T19:08:10.352Z</time>
      </trkpt>
      <trkpt lat="50.556421" lon="18.110873">
        <ele>188.099170</ele>
        <time>2025-10-20T19:08:19.668Z</time>
      </trkpt>
      <trkpt lat="50.556553" lon="18.110370">
        <ele>187.940633</ele>
        <time>2025-10-20T19:08:29.427Z</time>
      </trkpt>
      <trkpt lat="50.556693" lon="18.109625">
        <ele>187.714313</ele>
        <time>2025-10-20T19:08:43.154Z</time>
      </trkpt>
      <trkpt lat="50.556829" lon="18.109211">
        <ele>187.539395</ele>
        <time>2025-10-20T19:08:51.390Z</time>
      </trkpt>
      <trkpt lat="50.557539" lon="18.108521">
        <ele>187.045940</ele>
        <time>2025-10-20T19:09:14.554Z</time>
      </trkpt>
      <trkpt lat="50.558709" lon="18.106983">
        <ele>186.517294</ele>
        <time>2025-10-20T19:09:57.489Z</time>
      </trkpt>
      <trkpt lat="50.559191" lon="18.106182">
        <ele>186.408482</ele>
        <time>2025-10-20T19:10:18.285Z</time>
      </trkpt>
      <trkpt lat="50.559993" lon="18.104623">
        <ele>186.703772</ele>
        <time>2025-10-20T19:10:58.012Z</time>
      </trkpt>
      <trkpt lat="50.560537" lon="18.103444">
        <ele>186.743969</ele>
        <time>2025-10-20T19:11:26.735Z</time>
      </trkpt>
      <trkpt lat="50.560826" lon="18.102264">
        <ele>185.692302</ele>
        <time>2025-10-20T19:11:48.823Z</time>
      </trkpt>
      <trkpt lat="50.561049" lon="18.101215">
        <ele>184.772429</ele>
        <time>2025-10-20T19:12:06.296Z</time>
      </trkpt>
      <trkpt lat="50.561435" lon="18.099698">
        <ele>182.908721</ele>
        <time>2025-10-20T19:12:31.576Z</time>
      </trkpt>
      <trkpt lat="50.561593" lon="18.099215">
        <ele>182.264255</ele>
        <time>2025-10-20T19:12:40.294Z</time>
      </trkpt>
      <trkpt lat="50.563092" lon="18.095917">
        <ele>179.606011</ele>
        <time>2025-10-20T19:13:50.699Z</time>
      </trkpt>
      <trkpt lat="50.563158" lon="18.095401">
        <ele>179.490675</ele>
        <time>2025-10-20T19:14:00.215Z</time>
      </trkpt>
      <trkpt lat="50.563182" lon="18.095213">
        <ele>179.448657</ele>
        <time>2025-10-20T19:14:03.688Z</time>
      </trkpt>
      <trkpt lat="50.564961" lon="18.091736">
        <ele>178.706297</ele>
        <time>2025-10-20T19:15:26.006Z</time>
      </trkpt>
      <trkpt lat="50.565452" lon="18.091281">
        <ele>178.586339</ele>
        <time>2025-10-20T19:15:42.497Z</time>
      </trkpt>
      <trkpt lat="50.566503" lon="18.090219">
        <ele>178.322878</ele>
        <time>2025-10-20T19:16:18.876Z</time>
      </trkpt>
      <trkpt lat="50.566793" lon="18.089736">
        <ele>178.174676</ele>
        <time>2025-10-20T19:16:31.177Z</time>
      </trkpt>
      <trkpt lat="50.569045" lon="18.088480">
        <ele>177.005007</ele>
        <time>2025-10-20T19:17:38.950Z</time>
      </trkpt>
      <trkpt lat="50.569267" lon="18.088232">
        <ele>176.824127</ele>
        <time>2025-10-20T19:17:46.329Z</time>
      </trkpt>
      <trkpt lat="50.569649" lon="18.087797">
        <ele>176.510852</ele>
        <time>2025-10-20T19:17:53.962Z</time>
      </trkpt>
      <trkpt lat="50.570070" lon="18.087225">
        <ele>176.267183</ele>
        <time>2025-10-20T19:18:03.009Z</time>
      </trkpt>
      <trkpt lat="50.570948" lon="18.085769">
        <ele>175.771342</ele>
        <time>2025-10-20T19:18:25.700Z</time>
      </trkpt>
      <trkpt lat="50.570773" lon="18.087401">
        <ele>175.648095</ele>
        <time>2025-10-20T19:18:44.540Z</time>
      </trkpt>
      <trkpt lat="50.572080" lon="18.088122">
        <ele>175.438724</ele>
        <time>2025-10-20T19:19:08.450Z</time>
      </trkpt>
      <trkpt lat="50.572382" lon="18.088288">
        <ele>175.366436</ele>
        <time>2025-10-20T19:19:13.823Z</time>
      </trkpt>
      <trkpt lat="50.572910" lon="18.088518">
        <ele>175.242630</ele>
        <time>2025-10-20T19:19:22.994Z</time>
      </trkpt>
      <trkpt lat="50.573238" lon="18.088581">
        <ele>175.167955</ele>
        <time>2025-10-20T19:19:28.735Z</time>
      </trkpt>
      <trkpt lat="50.573445" lon="18.088577">
        <ele>175.255515</ele>
        <time>2025-10-20T19:19:32.401Z</time>
      </trkpt>
      <trkpt lat="50.573621" lon="18.088551">
        <ele>175.349725</ele>
        <time>2025-10-20T19:19:35.610Z</time>
      </trkpt>
      <trkpt lat="50.573819" lon="18.088495">
        <ele>175.456936</ele>
        <time>2025-10-20T19:19:39.347Z</time>
      </trkpt>
      <trkpt lat="50.573972" lon="18.088447">
        <ele>175.540079</ele>
        <time>2025-10-20T19:19:42.331Z</time>
      </trkpt>
      <trkpt lat="50.574098" lon="18.088456">
        <ele>175.607298</ele>
        <time>2025-10-20T19:19:44.779Z</time>
      </trkpt>
      <trkpt lat="50.574134" lon="18.088286">
        <ele>175.667951</ele>
        <time>2025-10-20T19:19:47.093Z</time>
      </trkpt>
      <trkpt lat="50.574271" lon="18.088337">
        <ele>175.742977</ele>
        <time>2025-10-20T19:19:49.856Z</time>
      </trkpt>
      <trkpt lat="50.575033" lon="18.088052">
        <ele>176.170472</ele>
        <time>2025-10-20T19:20:06.370Z</time>
      </trkpt>
      <trkpt lat="50.575296" lon="18.087959">
        <ele>176.349820</ele>
        <time>2025-10-20T19:20:12.060Z</time>
      </trkpt>
      <trkpt lat="50.575344" lon="18.087943">
        <ele>176.382465</ele>
        <time>2025-10-20T19:20:13.095Z</time>
      </trkpt>
      <trkpt lat="50.575552" lon="18.087867">
        <ele>176.524537</ele>
        <time>2025-10-20T19:20:17.450Z</time>
      </trkpt>
      <trkpt lat="50.575783" lon="18.087810">
        <ele>176.680111</ele>
        <time>2025-10-20T19:20:22.190Z</time>
      </trkpt>
      <trkpt lat="50.575939" lon="18.087800">
        <ele>176.783994</ele>
        <time>2025-10-20T19:20:25.290Z</time>
      </trkpt>
      <trkpt lat="50.576266" lon="18.087777">
        <ele>177.001784</ele>
        <time>2025-10-20T19:20:31.670Z</time>
      </trkpt>
      <trkpt lat="50.576493" lon="18.087772">
        <ele>177.152836</ele>
        <time>2025-10-20T19:20:36.033Z</time>
      </trkpt>
      <trkpt lat="50.576633" lon="18.087771">
        <ele>177.245987</ele>
        <time>2025-10-20T19:20:38.717Z</time>
      </trkpt>
      <trkpt lat="50.576956" lon="18.087767">
        <ele>177.394769</ele>
        <time>2025-10-20T19:20:44.700Z</time>
      </trkpt>
      <trkpt lat="50.577688" lon="18.087754">
        <ele>177.658779</ele>
        <time>2025-10-20T19:20:58.000Z</time>
      </trkpt>
      <trkpt lat="50.577882" lon="18.087750">
        <ele>177.728750</ele>
        <time>2025-10-20T19:21:01.690Z</time>
      </trkpt>
      <trkpt lat="50.578439" lon="18.087740">
        <ele>177.929642</ele>
        <time>2025-10-20T19:21:12.488Z</time>
      </trkpt>
      <trkpt lat="50.579473" lon="18.087692">
        <ele>178.124071</ele>
        <time>2025-10-20T19:21:32.836Z</time>
      </trkpt>
      <trkpt lat="50.580365" lon="18.087697">
        <ele>178.253455</ele>
        <time>2025-10-20T19:21:48.492Z</time>
      </trkpt>
      <trkpt lat="50.580915" lon="18.087695">
        <ele>177.932880</ele>
        <time>2025-10-20T19:21:57.209Z</time>
      </trkpt>
      <trkpt lat="50.581157" lon="18.087691">
        <ele>177.791820</ele>
        <time>2025-10-20T19:22:01.004Z</time>
      </trkpt>
      <trkpt lat="50.581573" lon="18.087671">
        <ele>177.549236</ele>
        <time>2025-10-20T19:22:07.495Z</time>
      </trkpt>
      <trkpt lat="50.581544" lon="18.087289">
        <ele>177.406849</ele>
        <time>2025-10-20T19:22:11.383Z</time>
      </trkpt>
      <trkpt lat="50.581215" lon="18.082972">
        <ele>176.841991</ele>
        <time>2025-10-20T19:22:59.348Z</time>
      </trkpt>
      <trkpt lat="50.581320" lon="18.082973">
        <ele>176.833187</ele>
        <time>2025-10-20T19:23:01.826Z</time>
      </trkpt>
      <trkpt lat="50.581370" lon="18.082976">
        <ele>176.828992</ele>
        <time>2025-10-20T19:23:02.993Z</time>
      </trkpt>
      <trkpt lat="50.581643" lon="18.082991">
        <ele>176.806089</ele>
        <time>2025-10-20T19:23:09.320Z</time>
      </trkpt>
      <trkpt lat="50.582110" lon="18.083048">
        <ele>176.766817</ele>
        <time>2025-10-20T19:23:20.144Z</time>
      </trkpt>
      <trkpt lat="50.582728" lon="18.083251">
        <ele>176.681275</ele>
        <time>2025-10-20T19:23:34.743Z</time>
      </trkpt>
      <trkpt lat="50.582956" lon="18.083333">
        <ele>176.641310</ele>
        <time>2025-10-20T19:23:40.089Z</time>
      </trkpt>
      <trkpt lat="50.583530" lon="18.083541">
        <ele>176.540659</ele>
        <time>2025-10-20T19:23:53.314Z</time>
      </trkpt>
      <trkpt lat="50.583523" lon="18.083473">
        <ele>176.533184</ele>
        <time>2025-10-20T19:23:54.094Z</time>
      </trkpt>
      <trkpt lat="50.583888" lon="18.083633">
        <ele>176.468440</ele>
        <time>2025-10-20T19:24:00.684Z</time>
      </trkpt>
      <trkpt lat="50.583925" lon="18.083538">
        <ele>176.456348</ele>
        <time>2025-10-20T19:24:01.947Z</time>
      </trkpt>
      <trkpt lat="50.584295" lon="18.083103">
        <ele>176.538088</ele>
        <time>2025-10-20T19:24:10.199Z</time>
      </trkpt>
      <trkpt lat="50.584575" lon="18.082687">
        <ele>176.646988</ele>
        <time>2025-10-20T19:24:16.999Z</time>
      </trkpt>
      <trkpt lat="50.584788" lon="18.082316">
        <ele>176.736836</ele>
        <time>2025-10-20T19:24:22.715Z</time>
      </trkpt>
      <trkpt lat="50.584941" lon="18.082138">
        <ele>176.790651</ele>
        <time>2025-10-20T19:24:26.503Z</time>
      </trkpt>
      <trkpt lat="50.585062" lon="18.082055">
        <ele>176.827989</ele>
        <time>2025-10-20T19:24:29.163Z</time>
      </trkpt>
      <trkpt lat="50.585703" lon="18.082075">
        <ele>177.032427</ele>
        <time>2025-10-20T19:24:42.072Z</time>
      </trkpt>
      <trkpt lat="50.585771" lon="18.082030">
        <ele>177.060983</ele>
        <time>2025-10-20T19:24:43.541Z</time>
      </trkpt>
      <trkpt lat="50.585742" lon="18.081779">
        <ele>177.123695</ele>
        <time>2025-10-20T19:24:46.763Z</time>
      </trkpt>
      <trkpt lat="50.585732" lon="18.081689">
        <ele>177.146155</ele>
        <time>2025-10-20T19:24:47.941Z</time>
      </trkpt>
      <trkpt lat="50.588724" lon="18.081581">
        <ele>178.065997</ele>
        <time>2025-10-20T19:26:19.067Z</time>
      </trkpt>
      <trkpt lat="50.590198" lon="18.081613">
        <ele>178.377239</ele>
        <time>2025-10-20T19:27:03.606Z</time>
      </trkpt>
      <trkpt lat="50.592142" lon="18.081510">
        <ele>178.817246</ele>
        <time>2025-10-20T19:28:03.432Z</time>
      </trkpt>
      <trkpt lat="50.594477" lon="18.081415">
        <ele>178.745018</ele>
        <time>2025-10-20T19:29:11.015Z</time>
      </trkpt>
      <trkpt lat="50.598148" lon="18.081385">
        <ele>180.082753</ele>
        <time>2025-10-20T19:31:06.258Z</time>
      </trkpt>
      <trkpt lat="50.598979" lon="18.081334">
        <ele>179.738598</ele>
        <time>2025-10-20T19:31:29.990Z</time>
      </trkpt>
      <trkpt lat="50.599027" lon="18.081331">
        <ele>179.718718</ele>
        <time>2025-10-20T19:31:31.311Z</time>
      </trkpt>
      <trkpt lat="50.598994" lon="18.076035">
        <ele>176.023282</ele>
        <time>2025-10-20T19:33:01.939Z</time>
      </trkpt>
      <trkpt lat="50.598984" lon="18.070632">
        <ele>169.812047</ele>
        <time>2025-10-20T19:34:26.610Z</time>
      </trkpt>
      <trkpt lat="50.598945" lon="18.065218">
        <ele>169.325175</ele>
        <time>2025-10-20T19:36:12.574Z</time>
      </trkpt>
      <trkpt lat="50.598913" lon="18.059834">
        <ele>167.573317</ele>
        <time>2025-10-20T19:37:45.069Z</time>
      </trkpt>
      <trkpt lat="50.598879" lon="18.054432">
        <ele>171.700399</ele>
        <time>2025-10-20T19:39:43.892Z</time>
      </trkpt>
      <trkpt lat="50.598867" lon="18.052274">
        <ele>173.098890</ele>
        <time>2025-10-20T19:40:29.568Z</time>
      </trkpt>
      <trkpt lat="50.598860" lon="18.051130">
        <ele>172.486813</ele>
        <time>2025-10-20T19:40:50.860Z</time>
      </trkpt>
      <trkpt lat="50.601211" lon="18.052136">
        <ele>168.813147</ele>
        <time>2025-10-20T19:41:52.365Z</time>
      </trkpt>
      <trkpt lat="50.601436" lon="18.052200">
        <ele>168.401769</ele>
        <time>2025-10-20T19:41:58.092Z</time>
      </trkpt>
      <trkpt lat="50.602356" lon="18.052224">
        <ele>167.548313</ele>
        <time>2025-10-20T19:42:22.175Z</time>
      </trkpt>
      <trkpt lat="50.604704" lon="18.052324">
        <ele>167.513991</ele>
        <time>2025-10-20T19:43:32.708Z</time>
      </trkpt>
      <trkpt lat="50.605721" lon="18.052456">
        <ele>168.108129</ele>
        <time>2025-10-20T19:44:06.520Z</time>
      </trkpt>
      <trkpt lat="50.607177" lon="18.052684">
        <ele>169.277930</ele>
        <time>2025-10-20T19:44:53.819Z</time>
      </trkpt>
      <trkpt lat="50.608739" lon="18.052999">
        <ele>168.918890</ele>
        <time>2025-10-20T19:45:40.516Z</time>
      </trkpt>
      <trkpt lat="50.609518" lon="18.053393">
        <ele>167.719278</ele>
        <time>2025-10-20T19:46:01.400Z</time>
      </trkpt>
      <trkpt lat="50.610017" lon="18.053567">
        <ele>166.777039</ele>
        <time>2025-10-20T19:46:13.758Z</time>
      </trkpt>
      <trkpt lat="50.610946" lon="18.053759">
        <ele>165.728004</ele>
        <time>2025-10-20T19:46:37.498Z</time>
      </trkpt>
      <trkpt lat="50.611190" lon="18.053836">
        <ele>165.879932</ele>
        <time>2025-10-20T19:46:44.540Z</time>
      </trkpt>
      <trkpt lat="50.611904" lon="18.054255">
        <ele>166.345099</ele>
        <time>2025-10-20T19:47:09.312Z</time>
      </trkpt>
      <trkpt lat="50.613270" lon="18.054249">
        <ele>168.142961</ele>
        <time>2025-10-20T19:48:00.067Z</time>
      </trkpt>
      <trkpt lat="50.613678" lon="18.054217">
        <ele>168.853142</ele>
        <time>2025-10-20T19:48:14.571Z</time>
      </trkpt>
      <trkpt lat="50.615142" lon="18.054249">
        <ele>170.546586</ele>
        <time>2025-10-20T19:49:02.314Z</time>
      </trkpt>
      <trkpt lat="50.617623" lon="18.054160">
        <ele>172.266973</ele>
        <time>2025-10-20T19:50:21.028Z</time>
      </trkpt>
      <trkpt lat="50.617620" lon="18.053362">
        <ele>172.522400</ele>
        <time>2025-10-20T19:50:37.013Z</time>
      </trkpt>
      <trkpt lat="50.617604" lon="18.048821">
        <ele>173.279268</ele>
        <time>2025-10-20T19:52:06.090Z</time>
      </trkpt>
      <trkpt lat="50.617585" lon="18.043528">
        <ele>171.714419</ele>
        <time>2025-10-20T19:53:38.524Z</time>
      </trkpt>
      <trkpt lat="50.617585" lon="18.043469">
        <ele>171.705216</ele>
        <time>2025-10-20T19:53:39.639Z</time>
      </trkpt>
      <trkpt lat="50.617418" lon="18.043472">
        <ele>171.664154</ele>
        <time>2025-10-20T19:53:44.627Z</time>
      </trkpt>
      <trkpt lat="50.617585" lon="18.043469">
        <ele>171.623092</ele>
        <time>2025-10-20T19:53:49.724Z</time>
      </trkpt>
      <trkpt lat="50.617585" lon="18.043528">
        <ele>171.613888</ele>
        <time>2025-10-20T19:53:50.836Z</time>
      </trkpt>
      <trkpt lat="50.622205" lon="18.043446">
        <ele>174.611970</ele>
        <time>2025-10-20T19:56:23.688Z</time>
      </trkpt>
      <trkpt lat="50.625187" lon="18.043437">
        <ele>169.429604</ele>
        <time>2025-10-20T19:57:37.437Z</time>
      </trkpt>
      <trkpt lat="50.625245" lon="18.043468">
        <ele>169.343198</ele>
        <time>2025-10-20T19:57:38.888Z</time>
      </trkpt>
      <trkpt lat="50.625280" lon="18.043358">
        <ele>169.233055</ele>
        <time>2025-10-20T19:57:39.933Z</time>
      </trkpt>
      <trkpt lat="50.625435" lon="18.043441">
        <ele>169.002098</ele>
        <time>2025-10-20T19:57:42.106Z</time>
      </trkpt>
      <trkpt lat="50.626576" lon="18.043448">
        <ele>167.392298</ele>
        <time>2025-10-20T19:57:58.938Z</time>
      </trkpt>
      <trkpt lat="50.626866" lon="18.043446">
        <ele>167.233255</ele>
        <time>2025-10-20T19:58:04.222Z</time>
      </trkpt>
      <trkpt lat="50.629073" lon="18.043434">
        <ele>168.095634</ele>
        <time>2025-10-20T19:58:50.768Z</time>
      </trkpt>
      <trkpt lat="50.635944" lon="18.043376">
        <ele>163.034845</ele>
        <time>2025-10-20T20:00:37.794Z</time>
      </trkpt>
      <trkpt lat="50.642837" lon="18.043313">
        <ele>163.247585</ele>
        <time>2025-10-20T20:02:42.608Z</time>
      </trkpt>
      <trkpt lat="50.642836" lon="18.043197">
        <ele>163.248454</ele>
        <time>2025-10-20T20:02:43.897Z</time>
      </trkpt>
      <trkpt lat="50.642811" lon="18.037836">
        <ele>161.908648</ele>
        <time>2025-10-20T20:03:41.804Z</time>
      </trkpt>
      <trkpt lat="50.642765" lon="18.032523">
        <ele>163.621582</ele>
        <time>2025-10-20T20:04:52.474Z</time>
      </trkpt>
      <trkpt lat="50.642750" lon="18.030258">
        <ele>162.658357</ele>
        <time>2025-10-20T20:05:17.374Z</time>
      </trkpt>
      <trkpt lat="50.642741" lon="18.026461">
        <ele>159.163830</ele>
        <time>2025-10-20T20:05:52.658Z</time>
      </trkpt>
      <trkpt lat="50.642718" lon="18.021746">
        <ele>159.933613</ele>
        <time>2025-10-20T20:06:52.687Z</time>
      </trkpt>
      <trkpt lat="50.642690" lon="18.018253">
        <ele>161.053153</ele>
        <time>2025-10-20T20:07:39.162Z</time>
      </trkpt>
      <trkpt lat="50.642693" lon="18.014841">
        <ele>160.617351</ele>
        <time>2025-10-20T20:08:16.466Z</time>
      </trkpt>
      <trkpt lat="50.642675" lon="18.010987">
        <ele>160.825404</ele>
        <time>2025-10-20T20:09:02.067Z</time>
      </trkpt>
      <trkpt lat="50.642616" lon="18.005533">
        <ele>162.073094</ele>
        <time>2025-10-20T20:10:12.630Z</time>
      </trkpt>
      <trkpt lat="50.642963" lon="18.005528">
        <ele>161.912036</ele>
        <time>2025-10-20T20:10:22.883Z</time>
      </trkpt>
      <trkpt lat="50.649471" lon="18.005442">
        <ele>158.457869</ele>
        <time>2025-10-20T20:13:24.575Z</time>
      </trkpt>
      <trkpt lat="50.653455" lon="18.005351">
        <ele>154.597350</ele>
        <time>2025-10-20T20:15:11.190Z</time>
      </trkpt>
      <trkpt lat="50.654813" lon="18.005328">
        <ele>154.283575</ele>
        <time>2025-10-20T20:15:51.491Z</time>
      </trkpt>
      <trkpt lat="50.656358" lon="18.005302">
        <ele>154.863951</ele>
        <time>2025-10-20T20:16:39.230Z</time>
      </trkpt>
      <trkpt lat="50.656355" lon="18.004814">
        <ele>155.030975</ele>
        <time>2025-10-20T20:16:48.860Z</time>
      </trkpt>
      <trkpt lat="50.656344" lon="18.003120">
        <ele>155.823672</ele>
        <time>2025-10-20T20:17:23.518Z</time>
      </trkpt>
      <trkpt lat="50.656346" lon="18.002340">
        <ele>156.188652</ele>
        <time>2025-10-20T20:17:39.626Z</time>
      </trkpt>
      <trkpt lat="50.656794" lon="18.002055">
        <ele>156.389013</ele>
        <time>2025-10-20T20:17:55.051Z</time>
      </trkpt>
      <trkpt lat="50.657138" lon="18.001941">
        <ele>156.508802</ele>
        <time>2025-10-20T20:18:06.115Z</time>
      </trkpt>
      <trkpt lat="50.657258" lon="18.001901">
        <ele>156.550599</ele>
        <time>2025-10-20T20:18:09.905Z</time>
      </trkpt>
      <trkpt lat="50.657510" lon="18.001914">
        <ele>156.636523</ele>
        <time>2025-10-20T20:18:17.546Z</time>
      </trkpt>
      <trkpt lat="50.657510" lon="18.001914">
        <ele>156.636523</ele>
        <time>2025-10-20T20:18:17.548Z</time>
      </trkpt>
      <trkpt lat="50.657816" lon="18.001912">
        <ele>156.740804</ele>
        <time>2025-10-20T20:18:25.461Z</time>
      </trkpt>
      <trkpt lat="50.657816" lon="18.001912">
        <ele>156.740804</ele>
        <time>2025-10-20T20:18:25.466Z</time>
      </trkpt>
      <trkpt lat="50.657968" lon="18.001907">
        <ele>156.792615</ele>
        <time>2025-10-20T20:18:29.969Z</time>
      </trkpt>
      <trkpt lat="50.658208" lon="18.001689">
        <ele>156.871929</ele>
        <time>2025-10-20T20:18:38.107Z</time>
      </trkpt>
      <trkpt lat="50.658881" lon="18.001528">
        <ele>156.919912</ele>
        <time>2025-10-20T20:18:58.189Z</time>
      </trkpt>
      <trkpt lat="50.660555" lon="18.001335">
        <ele>157.011884</ele>
        <time>2025-10-20T20:19:48.795Z</time>
      </trkpt>
      <trkpt lat="50.660795" lon="18.001254">
        <ele>157.018693</ele>
        <time>2025-10-20T20:19:56.368Z</time>
      </trkpt>
      <trkpt lat="50.661380" lon="18.000893">
        <ele>157.036119</ele>
        <time>2025-10-20T20:20:15.131Z</time>
      </trkpt>
      <trkpt lat="50.661494" lon="18.000733">
        <ele>157.040352</ele>
        <time>2025-10-20T20:20:19.581Z</time>
      </trkpt>
      <trkpt lat="50.661443" lon="18.000628">
        <ele>157.042678</ele>
        <time>2025-10-20T20:20:22.026Z</time>
      </trkpt>
      <trkpt lat="50.661414" lon="18.000555">
        <ele>157.044193</ele>
        <time>2025-10-20T20:20:23.584Z</time>
      </trkpt>
      <trkpt lat="50.661387" lon="18.000398">
        <ele>157.000388</ele>
        <time>2025-10-20T20:20:26.531Z</time>
      </trkpt>
      <trkpt lat="50.661426" lon="18.000072">
        <ele>156.891275</ele>
        <time>2025-10-20T20:20:32.486Z</time>
      </trkpt>
      <trkpt lat="50.661760" lon="17.999290">
        <ele>156.581147</ele>
        <time>2025-10-20T20:20:48.934Z</time>
      </trkpt>
      <trkpt lat="50.662132" lon="17.998577">
        <ele>156.277434</ele>
        <time>2025-10-20T20:21:04.941Z</time>
      </trkpt>
      <trkpt lat="50.662447" lon="17.998175">
        <ele>156.134771</ele>
        <time>2025-10-20T20:21:16.490Z</time>
      </trkpt>
      <trkpt lat="50.663018" lon="17.997241">
        <ele>156.359391</ele>
        <time>2025-10-20T20:21:41.410Z</time>
      </trkpt>
      <trkpt lat="50.663064" lon="17.997108">
        <ele>156.385618</ele>
        <time>2025-10-20T20:21:44.456Z</time>
      </trkpt>
      <trkpt lat="50.662969" lon="17.996925">
        <ele>156.426563</ele>
        <time>2025-10-20T20:21:49.201Z</time>
      </trkpt>
      <trkpt lat="50.662105" lon="17.996324">
        <ele>156.733429</ele>
        <time>2025-10-20T20:22:19.039Z</time>
      </trkpt>
      <trkpt lat="50.661398" lon="17.996056">
        <ele>157.050989</ele>
        <time>2025-10-20T20:22:41.729Z</time>
      </trkpt>
      <trkpt lat="50.660990" lon="17.996046">
        <ele>157.229198</ele>
        <time>2025-10-20T20:22:54.303Z</time>
      </trkpt>
      <trkpt lat="50.660182" lon="17.996126">
        <ele>157.526528</ele>
        <time>2025-10-20T20:23:13.992Z</time>
      </trkpt>
      <trkpt lat="50.658922" lon="17.996228">
        <ele>157.918268</ele>
        <time>2025-10-20T20:23:37.273Z</time>
      </trkpt>
      <trkpt lat="50.657916" lon="17.996271">
        <ele>158.419783</ele>
        <time>2025-10-20T20:23:57.381Z</time>
      </trkpt>
      <trkpt lat="50.657766" lon="17.996239">
        <ele>158.498056</ele>
        <time>2025-10-20T20:24:00.404Z</time>
      </trkpt>
      <trkpt lat="50.657684" lon="17.996056">
        <ele>158.571521</ele>
        <time>2025-10-20T20:24:03.221Z</time>
      </trkpt>
      <trkpt lat="50.657657" lon="17.995584">
        <ele>158.726883</ele>
        <time>2025-10-20T20:24:09.086Z</time>
      </trkpt>
      <trkpt lat="50.657664" lon="17.994222">
        <ele>158.856732</ele>
        <time>2025-10-20T20:24:25.160Z</time>
      </trkpt>
      <trkpt lat="50.657705" lon="17.993406">
        <ele>158.838615</ele>
        <time>2025-10-20T20:24:34.109Z</time>
      </trkpt>
      <trkpt lat="50.657646" lon="17.990997">
        <ele>158.538509</ele>
        <time>2025-10-20T20:25:00.068Z</time>
      </trkpt>
      <trkpt lat="50.657712" lon="17.990745">
        <ele>158.480604</ele>
        <time>2025-10-20T20:25:02.933Z</time>
      </trkpt>
      <trkpt lat="50.657834" lon="17.990692">
        <ele>158.438212</ele>
        <time>2025-10-20T20:25:05.037Z</time>
      </trkpt>
      <trkpt lat="50.657999" lon="17.990750">
        <ele>158.381581</ele>
        <time>2025-10-20T20:25:07.830Z</time>
      </trkpt>
      <trkpt lat="50.659346" lon="17.991480">
        <ele>158.133137</ele>
        <time>2025-10-20T20:25:32.032Z</time>
      </trkpt>
      <trkpt lat="50.659580" lon="17.991714">
        <ele>158.109468</ele>
        <time>2025-10-20T20:25:37.002Z</time>
      </trkpt>
      <trkpt lat="50.659767" lon="17.991814">
        <ele>158.092600</ele>
        <time>2025-10-20T20:25:40.576Z</time>
      </trkpt>
      <trkpt lat="50.660541" lon="17.992044">
        <ele>158.099067</ele>
        <time>2025-10-20T20:25:55.108Z</time>
      </trkpt>
      <trkpt lat="50.661584" lon="17.992468">
        <ele>158.216203</ele>
        <time>2025-10-20T20:26:14.536Z</time>
      </trkpt>
      <trkpt lat="50.661927" lon="17.992858">
        <ele>158.281188</ele>
        <time>2025-10-20T20:26:22.201Z</time>
      </trkpt>
      <trkpt lat="50.662060" lon="17.992875">
        <ele>158.326985</ele>
        <time>2025-10-20T20:26:24.616Z</time>
      </trkpt>
      <trkpt lat="50.662481" lon="17.992821">
        <ele>158.471955</ele>
        <time>2025-10-20T20:26:32.281Z</time>
      </trkpt>
      <trkpt lat="50.662923" lon="17.993032">
        <ele>158.630449</ele>
        <time>2025-10-20T20:26:40.727Z</time>
      </trkpt>
      <trkpt lat="50.662912" lon="17.992772">
        <ele>158.687140</ele>
        <time>2025-10-20T20:26:43.862Z</time>
      </trkpt>
      <trkpt lat="50.662867" lon="17.991716">
        <ele>158.971653</ele>
        <time>2025-10-20T20:26:57.258Z</time>
      </trkpt>
      <trkpt lat="50.662799" lon="17.990305">
        <ele>159.637099</ele>
        <time>2025-10-20T20:27:15.789Z</time>
      </trkpt>
      <trkpt lat="50.662766" lon="17.990043">
        <ele>159.762715</ele>
        <time>2025-10-20T20:27:19.280Z</time>
      </trkpt>
      <trkpt lat="50.662591" lon="17.989336">
        <ele>160.119637</ele>
        <time>2025-10-20T20:27:28.878Z</time>
      </trkpt>
      <trkpt lat="50.662580" lon="17.989200">
        <ele>160.184110</ele>
        <time>2025-10-20T20:27:30.672Z</time>
      </trkpt>
      <trkpt lat="50.662729" lon="17.988303">
        <ele>160.326475</ele>
        <time>2025-10-20T20:27:42.247Z</time>
      </trkpt>
      <trkpt lat="50.662785" lon="17.987977">
        <ele>160.372935</ele>
        <time>2025-10-20T20:27:46.113Z</time>
      </trkpt>
      <trkpt lat="50.662834" lon="17.987882">
        <ele>160.389782</ele>
        <time>2025-10-20T20:27:47.530Z</time>
      </trkpt>
      <trkpt lat="50.663032" lon="17.987667">
        <ele>160.441943</ele>
        <time>2025-10-20T20:27:51.801Z</time>
      </trkpt>
      <trkpt lat="50.663662" lon="17.986311">
        <ele>160.724518</ele>
        <time>2025-10-20T20:28:11.107Z</time>
      </trkpt>
      <trkpt lat="50.663738" lon="17.986338">
        <ele>160.752567</ele>
        <time>2025-10-20T20:28:12.551Z</time>
      </trkpt>
      <trkpt lat="50.663789" lon="17.986356">
        <ele>160.771384</ele>
        <time>2025-10-20T20:28:13.520Z</time>
      </trkpt>
      <trkpt lat="50.663799" lon="17.986283">
        <ele>160.788429</ele>
        <time>2025-10-20T20:28:14.685Z</time>
      </trkpt>
      <trkpt lat="50.664010" lon="17.986358">
        <ele>160.866304</ele>
        <time>2025-10-20T20:28:18.826Z</time>
      </trkpt>
      <trkpt lat="50.664162" lon="17.986335">
        <ele>160.921283</ele>
        <time>2025-10-20T20:28:21.809Z</time>
      </trkpt>
      <trkpt lat="50.664211" lon="17.986348">
        <ele>160.939173</ele>
        <time>2025-10-20T20:28:22.776Z</time>
      </trkpt>
      <trkpt lat="50.664185" lon="17.986224">
        <ele>160.968981</ele>
        <time>2025-10-20T20:28:24.445Z</time>
      </trkpt>
      <trkpt lat="50.664114" lon="17.985891">
        <ele>161.049163</ele>
        <time>2025-10-20T20:28:28.873Z</time>
      </trkpt>
      <trkpt lat="50.663960" lon="17.985203">
        <ele>161.215684</ele>
        <time>2025-10-20T20:28:37.939Z</time>
      </trkpt>
      <trkpt lat="50.663900" lon="17.984948">
        <ele>161.307632</ele>
        <time>2025-10-20T20:28:41.345Z</time>
      </trkpt>
      <trkpt lat="50.663597" lon="17.983672">
        <ele>161.885526</ele>
        <time>2025-10-20T20:28:59.089Z</time>
      </trkpt>
      <trkpt lat="50.663567" lon="17.983321">
        <ele>162.035738</ele>
        <time>2025-10-20T20:29:03.728Z</time>
      </trkpt>
      <trkpt lat="50.663675" lon="17.982227">
        <ele>162.515031</ele>
        <time>2025-10-20T20:29:18.495Z</time>
      </trkpt>
      <trkpt lat="50.663899" lon="17.980209">
        <ele>163.527277</ele>
        <time>2025-10-20T20:29:46.496Z</time>
      </trkpt>
      <trkpt lat="50.663973" lon="17.980120">
        <ele>163.599808</ele>
        <time>2025-10-20T20:29:49.446Z</time>
      </trkpt>
      <trkpt lat="50.664184" lon="17.979504">
        <ele>163.892291</ele>
        <time>2025-10-20T20:30:03.285Z</time>
      </trkpt>
      <trkpt lat="50.664184" lon="17.979504">
        <ele>163.892291</ele>
        <time>2025-10-20T20:30:03.297Z</time>
      </trkpt>
      <trkpt lat="50.664216" lon="17.979367">
        <ele>163.924807</ele>
        <time>2025-10-20T20:30:05.690Z</time>
      </trkpt>
      <trkpt lat="50.664216" lon="17.979367">
        <ele>163.924807</ele>
        <time>2025-10-20T20:30:05.698Z</time>
      </trkpt>
      <trkpt lat="50.664231" lon="17.979287">
        <ele>163.943387</ele>
        <time>2025-10-20T20:30:07.311Z</time>
      </trkpt>
      <trkpt lat="50.664311" lon="17.978855">
        <ele>164.043616</ele>
        <time>2025-10-20T20:30:15.986Z</time>
      </trkpt>
      <trkpt lat="50.664265" lon="17.978601">
        <ele>164.102447</ele>
        <time>2025-10-20T20:30:21.008Z</time>
      </trkpt>
      <trkpt lat="50.664432" lon="17.977562">
        <ele>164.341159</ele>
        <time>2025-10-20T20:30:41.510Z</time>
      </trkpt>
      <trkpt lat="50.664428" lon="17.977415">
        <ele>164.373926</ele>
        <time>2025-10-20T20:30:44.392Z</time>
      </trkpt>
      <trkpt lat="50.664465" lon="17.977267">
        <ele>164.409357</ele>
        <time>2025-10-20T20:30:47.471Z</time>
      </trkpt>
      <trkpt lat="50.664486" lon="17.977215">
        <ele>164.423089</ele>
        <time>2025-10-20T20:30:48.689Z</time>
      </trkpt>
      <trkpt lat="50.664639" lon="17.977046">
        <ele>164.507053</ele>
        <time>2025-10-20T20:30:52.283Z</time>
      </trkpt>
      <trkpt lat="50.664859" lon="17.976905">
        <ele>164.773590</ele>
        <time>2025-10-20T20:30:56.988Z</time>
      </trkpt>
      <trkpt lat="50.665525" lon="17.976605">
        <ele>165.551015</ele>
        <time>2025-10-20T20:31:11.640Z</time>
      </trkpt>
      <trkpt lat="50.666156" lon="17.976357">
        <ele>166.280928</ele>
        <time>2025-10-20T20:31:26.322Z</time>
      </trkpt>
      <trkpt lat="50.666380" lon="17.976279">
        <ele>166.537436</ele>
        <time>2025-10-20T20:31:31.539Z</time>
      </trkpt>
      <trkpt lat="50.666752" lon="17.976219">
        <ele>166.946759</ele>
        <time>2025-10-20T20:31:39.998Z</time>
      </trkpt>
      <trkpt lat="50.667229" lon="17.976219">
        <ele>167.468894</ele>
        <time>2025-10-20T20:31:50.411Z</time>
      </trkpt>
      <trkpt lat="50.667641" lon="17.976283">
        <ele>167.922060</ele>
        <time>2025-10-20T20:31:58.984Z</time>
      </trkpt>
      <trkpt lat="50.667834" lon="17.976282">
        <ele>168.133323</ele>
        <time>2025-10-20T20:32:02.928Z</time>
      </trkpt>
      <trkpt lat="50.668094" lon="17.976253">
        <ele>168.418636</ele>
        <time>2025-10-20T20:32:08.179Z</time>
      </trkpt>
      <trkpt lat="50.668599" lon="17.976156">
        <ele>168.468076</ele>
        <time>2025-10-20T20:32:18.290Z</time>
      </trkpt>
      <trkpt lat="50.669247" lon="17.975928">
        <ele>168.468076</ele>
        <time>2025-10-20T20:32:31.271Z</time>
      </trkpt>
      <trkpt lat="50.669219" lon="17.975651">
        <ele>168.468076</ele>
        <time>2025-10-20T20:32:34.675Z</time>
      </trkpt>
      <trkpt lat="50.669142" lon="17.974898">
        <ele>168.468076</ele>
        <time>2025-10-20T20:32:43.865Z</time>
      </trkpt>
    </trkseg>
  </trk>
</gpx>