<?xml version='1.0' encoding='UTF-8'?>
<gpx version="1.1" creator="https://www.komoot.de" xmlns="http://www.topografix.com/GPX/1/1" xmlns:xsi="http://www.w3.org/2001/XMLSchema-instance" xsi:schemaLocation="http://www.topografix.com/GPX/1/1 http://www.topografix.com/GPX/1/1/gpx.xsd">
  <metadata>
    <name>2025/10/08 - GraveLova Środa #075 - Żabie Udka w Paryżu</name>
    <author>
      <link href="https://www.komoot.de">
        <text>komoot</text>
        <type>text/html</type>
      </link>
    </author>
  </metadata>
  <trk>
    <name>2025/10/08 - GraveLova Środa #075 - Żabie Udka w Paryżu</name>
    <trkseg>
      <trkpt lat="50.806217" lon="17.935747">
        <ele>160.130690</ele>
        <time>2025-10-05T18:14:24.346Z</time>
      </trkpt>
      <trkpt lat="50.806233" lon="17.935820">
        <ele>160.130690</ele>
        <time>2025-10-05T18:14:25.416Z</time>
      </trkpt>
      <trkpt lat="50.806295" lon="17.935860">
        <ele>160.130690</ele>
        <time>2025-10-05T18:14:27.807Z</time>
      </trkpt>
      <trkpt lat="50.806306" lon="17.935740">
        <ele>160.130690</ele>
        <time>2025-10-05T18:14:29.425Z</time>
      </trkpt>
      <trkpt lat="50.806596" lon="17.935796">
        <ele>160.130690</ele>
        <time>2025-10-05T18:14:35.649Z</time>
      </trkpt>
      <trkpt lat="50.807228" lon="17.935997">
        <ele>160.113385</ele>
        <time>2025-10-05T18:14:49.338Z</time>
      </trkpt>
      <trkpt lat="50.807664" lon="17.936206">
        <ele>160.079090</ele>
        <time>2025-10-05T18:14:59.098Z</time>
      </trkpt>
      <trkpt lat="50.807760" lon="17.936249">
        <ele>160.071580</ele>
        <time>2025-10-05T18:15:01.271Z</time>
      </trkpt>
      <trkpt lat="50.808477" lon="17.936557">
        <ele>160.015652</ele>
        <time>2025-10-05T18:15:18.227Z</time>
      </trkpt>
      <trkpt lat="50.808864" lon="17.936774">
        <ele>160.000591</ele>
        <time>2025-10-05T18:15:27.583Z</time>
      </trkpt>
      <trkpt lat="50.808966" lon="17.936864">
        <ele>160.005009</ele>
        <time>2025-10-05T18:15:30.267Z</time>
      </trkpt>
      <trkpt lat="50.809867" lon="17.937963">
        <ele>160.048052</ele>
        <time>2025-10-05T18:15:55.733Z</time>
      </trkpt>
      <trkpt lat="50.809924" lon="17.938057">
        <ele>160.051167</ele>
        <time>2025-10-05T18:15:57.562Z</time>
      </trkpt>
      <trkpt lat="50.810066" lon="17.938313">
        <ele>160.059311</ele>
        <time>2025-10-05T18:16:02.343Z</time>
      </trkpt>
      <trkpt lat="50.810203" lon="17.938648">
        <ele>160.064787</ele>
        <time>2025-10-05T18:16:07.902Z</time>
      </trkpt>
      <trkpt lat="50.810428" lon="17.939180">
        <ele>160.068796</ele>
        <time>2025-10-05T18:16:16.845Z</time>
      </trkpt>
      <trkpt lat="50.810582" lon="17.939475">
        <ele>160.071192</ele>
        <time>2025-10-05T18:16:22.179Z</time>
      </trkpt>
      <trkpt lat="50.810881" lon="17.939821">
        <ele>160.074863</ele>
        <time>2025-10-05T18:16:30.516Z</time>
      </trkpt>
      <trkpt lat="50.811093" lon="17.939976">
        <ele>160.077177</ele>
        <time>2025-10-05T18:16:35.748Z</time>
      </trkpt>
      <trkpt lat="50.812755" lon="17.940803">
        <ele>160.406393</ele>
        <time>2025-10-05T18:17:15.999Z</time>
      </trkpt>
      <trkpt lat="50.813366" lon="17.941036">
        <ele>160.578982</ele>
        <time>2025-10-05T18:17:31.226Z</time>
      </trkpt>
      <trkpt lat="50.814712" lon="17.941635">
        <ele>161.083608</ele>
        <time>2025-10-05T18:18:05.003Z</time>
      </trkpt>
      <trkpt lat="50.814936" lon="17.941783">
        <ele>161.168515</ele>
        <time>2025-10-05T18:18:10.711Z</time>
      </trkpt>
      <trkpt lat="50.815628" lon="17.942370">
        <ele>161.267227</ele>
        <time>2025-10-05T18:18:29.167Z</time>
      </trkpt>
      <trkpt lat="50.816637" lon="17.943221">
        <ele>161.305625</ele>
        <time>2025-10-05T18:18:55.233Z</time>
      </trkpt>
      <trkpt lat="50.817498" lon="17.944003">
        <ele>160.690168</ele>
        <time>2025-10-05T18:19:15.928Z</time>
      </trkpt>
      <trkpt lat="50.819006" lon="17.945472">
        <ele>159.907562</ele>
        <time>2025-10-05T18:19:50.920Z</time>
      </trkpt>
      <trkpt lat="50.825868" lon="17.952017">
        <ele>165.043863</ele>
        <time>2025-10-05T18:23:20.886Z</time>
      </trkpt>
      <trkpt lat="50.826265" lon="17.952331">
        <ele>164.622788</ele>
        <time>2025-10-05T18:23:30.187Z</time>
      </trkpt>
      <trkpt lat="50.827468" lon="17.953166">
        <ele>163.403215</ele>
        <time>2025-10-05T18:23:55.310Z</time>
      </trkpt>
      <trkpt lat="50.827653" lon="17.953181">
        <ele>163.287213</ele>
        <time>2025-10-05T18:23:58.749Z</time>
      </trkpt>
      <trkpt lat="50.827818" lon="17.953117">
        <ele>163.180832</ele>
        <time>2025-10-05T18:24:01.933Z</time>
      </trkpt>
      <trkpt lat="50.828218" lon="17.952830">
        <ele>162.905821</ele>
        <time>2025-10-05T18:24:10.385Z</time>
      </trkpt>
      <trkpt lat="50.828794" lon="17.952259">
        <ele>162.480244</ele>
        <time>2025-10-05T18:24:24.462Z</time>
      </trkpt>
      <trkpt lat="50.828794" lon="17.952259">
        <ele>162.480244</ele>
        <time>2025-10-05T18:24:24.470Z</time>
      </trkpt>
      <trkpt lat="50.829546" lon="17.951511">
        <ele>163.770905</ele>
        <time>2025-10-05T18:24:47.430Z</time>
      </trkpt>
      <trkpt lat="50.830297" lon="17.950763">
        <ele>165.750889</ele>
        <time>2025-10-05T18:25:10.397Z</time>
      </trkpt>
      <trkpt lat="50.831049" lon="17.950015">
        <ele>167.208248</ele>
        <time>2025-10-05T18:25:33.362Z</time>
      </trkpt>
      <trkpt lat="50.831801" lon="17.949267">
        <ele>168.442338</ele>
        <time>2025-10-05T18:25:56.321Z</time>
      </trkpt>
      <trkpt lat="50.832552" lon="17.948519">
        <ele>168.698336</ele>
        <time>2025-10-05T18:26:19.279Z</time>
      </trkpt>
      <trkpt lat="50.833304" lon="17.947771">
        <ele>168.485536</ele>
        <time>2025-10-05T18:26:42.237Z</time>
      </trkpt>
      <trkpt lat="50.833304" lon="17.947771">
        <ele>168.485536</ele>
        <time>2025-10-05T18:26:42.248Z</time>
      </trkpt>
      <trkpt lat="50.834899" lon="17.946200">
        <ele>168.166449</ele>
        <time>2025-10-05T18:27:23.032Z</time>
      </trkpt>
      <trkpt lat="50.835231" lon="17.945872">
        <ele>168.093024</ele>
        <time>2025-10-05T18:27:32.429Z</time>
      </trkpt>
      <trkpt lat="50.837090" lon="17.944008">
        <ele>167.064410</ele>
        <time>2025-10-05T18:28:19.679Z</time>
      </trkpt>
      <trkpt lat="50.837355" lon="17.943752">
        <ele>166.707266</ele>
        <time>2025-10-05T18:28:25.483Z</time>
      </trkpt>
      <trkpt lat="50.838749" lon="17.942380">
        <ele>165.050627</ele>
        <time>2025-10-05T18:28:56.462Z</time>
      </trkpt>
      <trkpt lat="50.839244" lon="17.941780">
        <ele>164.535457</ele>
        <time>2025-10-05T18:29:09.416Z</time>
      </trkpt>
      <trkpt lat="50.840559" lon="17.938444">
        <ele>164.511271</ele>
        <time>2025-10-05T18:30:05.274Z</time>
      </trkpt>
      <trkpt lat="50.841501" lon="17.939120">
        <ele>165.390132</ele>
        <time>2025-10-05T18:30:33.461Z</time>
      </trkpt>
      <trkpt lat="50.841657" lon="17.939287">
        <ele>165.550147</ele>
        <time>2025-10-05T18:30:38.822Z</time>
      </trkpt>
      <trkpt lat="50.841856" lon="17.939570">
        <ele>165.777435</ele>
        <time>2025-10-05T18:30:46.221Z</time>
      </trkpt>
      <trkpt lat="50.842118" lon="17.939934">
        <ele>166.116135</ele>
        <time>2025-10-05T18:30:55.622Z</time>
      </trkpt>
      <trkpt lat="50.842400" lon="17.939996">
        <ele>166.403872</ele>
        <time>2025-10-05T18:31:03.264Z</time>
      </trkpt>
      <trkpt lat="50.843000" lon="17.939978">
        <ele>167.010370</ele>
        <time>2025-10-05T18:31:19.597Z</time>
      </trkpt>
      <trkpt lat="50.846704" lon="17.939974">
        <ele>169.246702</ele>
        <time>2025-10-05T18:33:00.990Z</time>
      </trkpt>
      <trkpt lat="50.850212" lon="17.939980">
        <ele>162.492023</ele>
        <time>2025-10-05T18:34:02.126Z</time>
      </trkpt>
      <trkpt lat="50.853711" lon="17.939911">
        <ele>163.961722</ele>
        <time>2025-10-05T18:35:36.863Z</time>
      </trkpt>
      <trkpt lat="50.858966" lon="17.939912">
        <ele>165.409941</ele>
        <time>2025-10-05T18:37:43.821Z</time>
      </trkpt>
      <trkpt lat="50.859677" lon="17.941873">
        <ele>164.534174</ele>
        <time>2025-10-05T18:38:10.887Z</time>
      </trkpt>
      <trkpt lat="50.859792" lon="17.942197">
        <ele>164.370539</ele>
        <time>2025-10-05T18:38:15.543Z</time>
      </trkpt>
      <trkpt lat="50.860012" lon="17.942813">
        <ele>164.058965</ele>
        <time>2025-10-05T18:38:24.837Z</time>
      </trkpt>
      <trkpt lat="50.860051" lon="17.942922">
        <ele>164.003809</ele>
        <time>2025-10-05T18:38:26.556Z</time>
      </trkpt>
      <trkpt lat="50.860328" lon="17.943649">
        <ele>163.669155</ele>
        <time>2025-10-05T18:38:38.833Z</time>
      </trkpt>
      <trkpt lat="50.860513" lon="17.944038">
        <ele>163.676405</ele>
        <time>2025-10-05T18:38:46.274Z</time>
      </trkpt>
      <trkpt lat="50.861027" lon="17.944896">
        <ele>163.694013</ele>
        <time>2025-10-05T18:39:04.206Z</time>
      </trkpt>
      <trkpt lat="50.861720" lon="17.945910">
        <ele>163.592902</ele>
        <time>2025-10-05T18:39:24.262Z</time>
      </trkpt>
      <trkpt lat="50.861894" lon="17.946053">
        <ele>163.501997</ele>
        <time>2025-10-05T18:39:28.261Z</time>
      </trkpt>
      <trkpt lat="50.862584" lon="17.946530">
        <ele>163.152866</ele>
        <time>2025-10-05T18:39:43.794Z</time>
      </trkpt>
      <trkpt lat="50.862966" lon="17.946882">
        <ele>162.947925</ele>
        <time>2025-10-05T18:39:53.003Z</time>
      </trkpt>
      <trkpt lat="50.863187" lon="17.947233">
        <ele>162.895585</ele>
        <time>2025-10-05T18:39:59.700Z</time>
      </trkpt>
      <trkpt lat="50.863351" lon="17.947593">
        <ele>162.930019</ele>
        <time>2025-10-05T18:40:06.142Z</time>
      </trkpt>
      <trkpt lat="50.864012" lon="17.949457">
        <ele>163.095842</ele>
        <time>2025-10-05T18:40:38.214Z</time>
      </trkpt>
      <trkpt lat="50.864238" lon="17.950094">
        <ele>163.073353</ele>
        <time>2025-10-05T18:40:48.347Z</time>
      </trkpt>
      <trkpt lat="50.864333" lon="17.950364">
        <ele>163.063037</ele>
        <time>2025-10-05T18:40:52.647Z</time>
      </trkpt>
      <trkpt lat="50.864511" lon="17.950869">
        <ele>163.043735</ele>
        <time>2025-10-05T18:41:00.688Z</time>
      </trkpt>
      <trkpt lat="50.865299" lon="17.953096">
        <ele>163.083679</ele>
        <time>2025-10-05T18:41:36.015Z</time>
      </trkpt>
      <trkpt lat="50.865313" lon="17.953135">
        <ele>163.086486</ele>
        <time>2025-10-05T18:41:36.634Z</time>
      </trkpt>
      <trkpt lat="50.867964" lon="17.960567">
        <ele>164.049058</ele>
        <time>2025-10-05T18:43:40.722Z</time>
      </trkpt>
      <trkpt lat="50.868571" lon="17.962268">
        <ele>164.657827</ele>
        <time>2025-10-05T18:44:12.890Z</time>
      </trkpt>
      <trkpt lat="50.869464" lon="17.964754">
        <ele>165.497166</ele>
        <time>2025-10-05T18:44:58.850Z</time>
      </trkpt>
      <trkpt lat="50.870088" lon="17.966517">
        <ele>165.148199</ele>
        <time>2025-10-05T18:45:25.284Z</time>
      </trkpt>
      <trkpt lat="50.870659" lon="17.968114">
        <ele>165.186755</ele>
        <time>2025-10-05T18:45:50.219Z</time>
      </trkpt>
      <trkpt lat="50.870729" lon="17.968307">
        <ele>165.202591</ele>
        <time>2025-10-05T18:45:53.649Z</time>
      </trkpt>
      <trkpt lat="50.871093" lon="17.969366">
        <ele>165.285996</ele>
        <time>2025-10-05T18:46:12.848Z</time>
      </trkpt>
      <trkpt lat="50.871186" lon="17.969696">
        <ele>165.288057</ele>
        <time>2025-10-05T18:46:18.556Z</time>
      </trkpt>
      <trkpt lat="50.871329" lon="17.970436">
        <ele>165.292469</ele>
        <time>2025-10-05T18:46:30.281Z</time>
      </trkpt>
      <trkpt lat="50.871352" lon="17.970710">
        <ele>165.294045</ele>
        <time>2025-10-05T18:46:34.231Z</time>
      </trkpt>
      <trkpt lat="50.871409" lon="17.971582">
        <ele>165.299044</ele>
        <time>2025-10-05T18:46:46.220Z</time>
      </trkpt>
      <trkpt lat="50.871519" lon="17.973603">
        <ele>165.040813</ele>
        <time>2025-10-05T18:47:12.858Z</time>
      </trkpt>
      <trkpt lat="50.871709" lon="17.974157">
        <ele>164.931235</ele>
        <time>2025-10-05T18:47:21.318Z</time>
      </trkpt>
      <trkpt lat="50.871786" lon="17.974336">
        <ele>164.893587</ele>
        <time>2025-10-05T18:47:24.272Z</time>
      </trkpt>
      <trkpt lat="50.872152" lon="17.975160">
        <ele>165.155089</ele>
        <time>2025-10-05T18:47:38.754Z</time>
      </trkpt>
      <trkpt lat="50.872566" lon="17.975857">
        <ele>165.811848</ele>
        <time>2025-10-05T18:47:54.828Z</time>
      </trkpt>
      <trkpt lat="50.872887" lon="17.976315">
        <ele>166.281492</ele>
        <time>2025-10-05T18:48:07.534Z</time>
      </trkpt>
      <trkpt lat="50.873039" lon="17.976471">
        <ele>166.478393</ele>
        <time>2025-10-05T18:48:13.300Z</time>
      </trkpt>
      <trkpt lat="50.873226" lon="17.976540">
        <ele>166.687155</ele>
        <time>2025-10-05T18:48:19.484Z</time>
      </trkpt>
      <trkpt lat="50.873376" lon="17.976500">
        <ele>166.831338</ele>
        <time>2025-10-05T18:48:24.398Z</time>
      </trkpt>
      <trkpt lat="50.873533" lon="17.976419">
        <ele>166.968656</ele>
        <time>2025-10-05T18:48:29.682Z</time>
      </trkpt>
      <trkpt lat="50.873718" lon="17.976269">
        <ele>167.141484</ele>
        <time>2025-10-05T18:48:36.190Z</time>
      </trkpt>
      <trkpt lat="50.873801" lon="17.976173">
        <ele>167.226942</ele>
        <time>2025-10-05T18:48:39.356Z</time>
      </trkpt>
      <trkpt lat="50.873995" lon="17.975934">
        <ele>167.431305</ele>
        <time>2025-10-05T18:48:46.719Z</time>
      </trkpt>
      <trkpt lat="50.874177" lon="17.975711">
        <ele>167.622635</ele>
        <time>2025-10-05T18:48:53.029Z</time>
      </trkpt>
      <trkpt lat="50.874315" lon="17.975540">
        <ele>167.768325</ele>
        <time>2025-10-05T18:48:57.442Z</time>
      </trkpt>
      <trkpt lat="50.874389" lon="17.975513">
        <ele>167.831479</ele>
        <time>2025-10-05T18:48:59.261Z</time>
      </trkpt>
      <trkpt lat="50.874467" lon="17.975553">
        <ele>167.899661</ele>
        <time>2025-10-05T18:49:01.190Z</time>
      </trkpt>
      <trkpt lat="50.874873" lon="17.976011">
        <ele>168.177894</ele>
        <time>2025-10-05T18:49:11.973Z</time>
      </trkpt>
      <trkpt lat="50.875037" lon="17.976246">
        <ele>167.913658</ele>
        <time>2025-10-05T18:49:16.382Z</time>
      </trkpt>
      <trkpt lat="50.875093" lon="17.976386">
        <ele>167.788657</ele>
        <time>2025-10-05T18:49:18.411Z</time>
      </trkpt>
      <trkpt lat="50.875173" lon="17.977253">
        <ele>167.127883</ele>
        <time>2025-10-05T18:49:28.993Z</time>
      </trkpt>
      <trkpt lat="50.875242" lon="17.977540">
        <ele>166.896274</ele>
        <time>2025-10-05T18:49:32.641Z</time>
      </trkpt>
      <trkpt lat="50.875843" lon="17.978912">
        <ele>165.800255</ele>
        <time>2025-10-05T18:49:52.842Z</time>
      </trkpt>
      <trkpt lat="50.876014" lon="17.979193">
        <ele>165.607852</ele>
        <time>2025-10-05T18:49:57.758Z</time>
      </trkpt>
      <trkpt lat="50.876757" lon="17.980145">
        <ele>164.861579</ele>
        <time>2025-10-05T18:50:17.384Z</time>
      </trkpt>
      <trkpt lat="50.877670" lon="17.980651">
        <ele>165.110963</ele>
        <time>2025-10-05T18:50:38.747Z</time>
      </trkpt>
      <trkpt lat="50.878923" lon="17.981479">
        <ele>166.019407</ele>
        <time>2025-10-05T18:51:15.553Z</time>
      </trkpt>
      <trkpt lat="50.879247" lon="17.981683">
        <ele>166.405125</ele>
        <time>2025-10-05T18:51:26.112Z</time>
      </trkpt>
      <trkpt lat="50.879410" lon="17.981741">
        <ele>166.589954</ele>
        <time>2025-10-05T18:51:31.219Z</time>
      </trkpt>
      <trkpt lat="50.879586" lon="17.981732">
        <ele>166.784778</ele>
        <time>2025-10-05T18:51:36.621Z</time>
      </trkpt>
      <trkpt lat="50.880883" lon="17.981363">
        <ele>167.342036</ele>
        <time>2025-10-05T18:52:11.364Z</time>
      </trkpt>
      <trkpt lat="50.881201" lon="17.981279">
        <ele>167.156016</ele>
        <time>2025-10-05T18:52:18.267Z</time>
      </trkpt>
      <trkpt lat="50.887798" lon="17.979571">
        <ele>163.368721</ele>
        <time>2025-10-05T18:54:34.240Z</time>
      </trkpt>
      <trkpt lat="50.887798" lon="17.979571">
        <ele>163.368721</ele>
        <time>2025-10-05T18:54:34.249Z</time>
      </trkpt>
      <trkpt lat="50.887978" lon="17.979561">
        <ele>163.431726</ele>
        <time>2025-10-05T18:54:38.146Z</time>
      </trkpt>
      <trkpt lat="50.894827" lon="17.981621">
        <ele>165.969419</ele>
        <time>2025-10-05T18:57:29.233Z</time>
      </trkpt>
      <trkpt lat="50.901644" lon="17.983698">
        <ele>167.113779</ele>
        <time>2025-10-05T19:00:07.519Z</time>
      </trkpt>
      <trkpt lat="50.902256" lon="17.983890">
        <ele>167.452530</ele>
        <time>2025-10-05T19:00:24.857Z</time>
      </trkpt>
      <trkpt lat="50.903796" lon="17.984339">
        <ele>168.083914</ele>
        <time>2025-10-05T19:01:03.101Z</time>
      </trkpt>
      <trkpt lat="50.903940" lon="17.984361">
        <ele>168.090867</ele>
        <time>2025-10-05T19:01:06.274Z</time>
      </trkpt>
      <trkpt lat="50.904084" lon="17.984327">
        <ele>168.097865</ele>
        <time>2025-10-05T19:01:09.461Z</time>
      </trkpt>
      <trkpt lat="50.906075" lon="17.983292">
        <ele>167.861726</ele>
        <time>2025-10-05T19:01:55.713Z</time>
      </trkpt>
      <trkpt lat="50.907370" lon="17.982619">
        <ele>167.315959</ele>
        <time>2025-10-05T19:02:23.988Z</time>
      </trkpt>
      <trkpt lat="50.909813" lon="17.981348">
        <ele>165.934648</ele>
        <time>2025-10-05T19:03:17.371Z</time>
      </trkpt>
      <trkpt lat="50.912964" lon="17.979698">
        <ele>164.423568</ele>
        <time>2025-10-05T19:04:27.226Z</time>
      </trkpt>
      <trkpt lat="50.913145" lon="17.979616">
        <ele>164.342560</ele>
        <time>2025-10-05T19:04:31.116Z</time>
      </trkpt>
      <trkpt lat="50.913300" lon="17.979608">
        <ele>164.275820</ele>
        <time>2025-10-05T19:04:34.317Z</time>
      </trkpt>
      <trkpt lat="50.913487" lon="17.979699">
        <ele>164.191643</ele>
        <time>2025-10-05T19:04:38.357Z</time>
      </trkpt>
      <trkpt lat="50.914319" lon="17.980447">
        <ele>164.409780</ele>
        <time>2025-10-05T19:04:59.147Z</time>
      </trkpt>
      <trkpt lat="50.914887" lon="17.980822">
        <ele>164.639636</ele>
        <time>2025-10-05T19:05:15.001Z</time>
      </trkpt>
      <trkpt lat="50.915660" lon="17.981271">
        <ele>165.008099</ele>
        <time>2025-10-05T19:05:37.606Z</time>
      </trkpt>
      <trkpt lat="50.915828" lon="17.981300">
        <ele>165.095566</ele>
        <time>2025-10-05T19:05:42.194Z</time>
      </trkpt>
      <trkpt lat="50.918348" lon="17.982542">
        <ele>166.084579</ele>
        <time>2025-10-05T19:06:44.549Z</time>
      </trkpt>
      <trkpt lat="50.919273" lon="17.982845">
        <ele>166.363985</ele>
        <time>2025-10-05T19:07:06.495Z</time>
      </trkpt>
      <trkpt lat="50.919535" lon="17.982961">
        <ele>166.451574</ele>
        <time>2025-10-05T19:07:12.873Z</time>
      </trkpt>
      <trkpt lat="50.921118" lon="17.983665">
        <ele>166.945222</ele>
        <time>2025-10-05T19:07:52.746Z</time>
      </trkpt>
      <trkpt lat="50.921255" lon="17.983725">
        <ele>166.983684</ele>
        <time>2025-10-05T19:07:56.502Z</time>
      </trkpt>
      <trkpt lat="50.922311" lon="17.984195">
        <ele>167.110614</ele>
        <time>2025-10-05T19:08:22.416Z</time>
      </trkpt>
      <trkpt lat="50.923381" lon="17.984679">
        <ele>166.019807</ele>
        <time>2025-10-05T19:08:44.528Z</time>
      </trkpt>
      <trkpt lat="50.923516" lon="17.984739">
        <ele>165.882361</ele>
        <time>2025-10-05T19:08:47.136Z</time>
      </trkpt>
      <trkpt lat="50.925342" lon="17.985565">
        <ele>163.555607</ele>
        <time>2025-10-05T19:09:23.349Z</time>
      </trkpt>
      <trkpt lat="50.928849" lon="17.986271">
        <ele>161.403107</ele>
        <time>2025-10-05T19:10:35.632Z</time>
      </trkpt>
      <trkpt lat="50.928956" lon="17.986294">
        <ele>161.372394</ele>
        <time>2025-10-05T19:10:38.288Z</time>
      </trkpt>
      <trkpt lat="50.929824" lon="17.986494">
        <ele>162.201319</ele>
        <time>2025-10-05T19:11:02.586Z</time>
      </trkpt>
      <trkpt lat="50.930086" lon="17.986681">
        <ele>162.624965</ele>
        <time>2025-10-05T19:11:11.622Z</time>
      </trkpt>
      <trkpt lat="50.931020" lon="17.987742">
        <ele>164.218806</ele>
        <time>2025-10-05T19:11:48.017Z</time>
      </trkpt>
      <trkpt lat="50.931154" lon="17.987852">
        <ele>164.380989</ele>
        <time>2025-10-05T19:11:52.608Z</time>
      </trkpt>
      <trkpt lat="50.931324" lon="17.987911">
        <ele>164.568055</ele>
        <time>2025-10-05T19:11:57.834Z</time>
      </trkpt>
      <trkpt lat="50.934232" lon="17.987787">
        <ele>166.807613</ele>
        <time>2025-10-05T19:13:13.266Z</time>
      </trkpt>
      <trkpt lat="50.934103" lon="17.975889">
        <ele>164.304396</ele>
        <time>2025-10-05T19:15:52.204Z</time>
      </trkpt>
      <trkpt lat="50.934006" lon="17.966617">
        <ele>161.836332</ele>
        <time>2025-10-05T19:17:56.605Z</time>
      </trkpt>
      <trkpt lat="50.933975" lon="17.963492">
        <ele>160.319773</ele>
        <time>2025-10-05T19:18:34.990Z</time>
      </trkpt>
      <trkpt lat="50.933910" lon="17.957663">
        <ele>159.681838</ele>
        <time>2025-10-05T19:19:56.132Z</time>
      </trkpt>
      <trkpt lat="50.933910" lon="17.957122">
        <ele>159.694702</ele>
        <time>2025-10-05T19:20:03.728Z</time>
      </trkpt>
      <trkpt lat="50.933899" lon="17.955800">
        <ele>159.822603</ele>
        <time>2025-10-05T19:20:22.728Z</time>
      </trkpt>
      <trkpt lat="50.933894" lon="17.954873">
        <ele>160.058559</ele>
        <time>2025-10-05T19:20:36.871Z</time>
      </trkpt>
      <trkpt lat="50.933882" lon="17.952854">
        <ele>160.546986</ele>
        <time>2025-10-05T19:21:08.426Z</time>
      </trkpt>
      <trkpt lat="50.933902" lon="17.952653">
        <ele>160.588613</ele>
        <time>2025-10-05T19:21:11.597Z</time>
      </trkpt>
      <trkpt lat="50.933925" lon="17.952434">
        <ele>160.634030</ele>
        <time>2025-10-05T19:21:15.047Z</time>
      </trkpt>
      <trkpt lat="50.934283" lon="17.950732">
        <ele>161.001080</ele>
        <time>2025-10-05T19:21:41.777Z</time>
      </trkpt>
      <trkpt lat="50.934343" lon="17.950257">
        <ele>161.030395</ele>
        <time>2025-10-05T19:21:48.640Z</time>
      </trkpt>
      <trkpt lat="50.934517" lon="17.947518">
        <ele>161.072307</ele>
        <time>2025-10-05T19:22:27.109Z</time>
      </trkpt>
      <trkpt lat="50.934607" lon="17.947054">
        <ele>161.099746</ele>
        <time>2025-10-05T19:22:34.205Z</time>
      </trkpt>
      <trkpt lat="50.934679" lon="17.946894">
        <ele>161.110858</ele>
        <time>2025-10-05T19:22:37.141Z</time>
      </trkpt>
      <trkpt lat="50.934948" lon="17.946504">
        <ele>161.143537</ele>
        <time>2025-10-05T19:22:45.837Z</time>
      </trkpt>
      <trkpt lat="50.935832" lon="17.945957">
        <ele>161.152410</ele>
        <time>2025-10-05T19:23:07.628Z</time>
      </trkpt>
      <trkpt lat="50.937045" lon="17.945262">
        <ele>160.356145</ele>
        <time>2025-10-05T19:23:34.187Z</time>
      </trkpt>
      <trkpt lat="50.937760" lon="17.944804">
        <ele>160.147077</ele>
        <time>2025-10-05T19:23:49.459Z</time>
      </trkpt>
      <trkpt lat="50.938115" lon="17.944349">
        <ele>160.194759</ele>
        <time>2025-10-05T19:23:59.060Z</time>
      </trkpt>
      <trkpt lat="50.938522" lon="17.943697">
        <ele>160.255188</ele>
        <time>2025-10-05T19:24:13.247Z</time>
      </trkpt>
      <trkpt lat="50.939297" lon="17.942839">
        <ele>160.699464</ele>
        <time>2025-10-05T19:24:39.642Z</time>
      </trkpt>
      <trkpt lat="50.939794" lon="17.942170">
        <ele>161.176388</ele>
        <time>2025-10-05T19:24:57.360Z</time>
      </trkpt>
      <trkpt lat="50.940762" lon="17.940658">
        <ele>161.639788</ele>
        <time>2025-10-05T19:25:28.835Z</time>
      </trkpt>
      <trkpt lat="50.940892" lon="17.940263">
        <ele>161.649795</ele>
        <time>2025-10-05T19:25:35.049Z</time>
      </trkpt>
      <trkpt lat="50.942070" lon="17.935732">
        <ele>161.314713</ele>
        <time>2025-10-05T19:26:42.292Z</time>
      </trkpt>
      <trkpt lat="50.942318" lon="17.934862">
        <ele>161.234061</ele>
        <time>2025-10-05T19:26:55.380Z</time>
      </trkpt>
      <trkpt lat="50.942429" lon="17.934626">
        <ele>161.209187</ele>
        <time>2025-10-05T19:26:59.402Z</time>
      </trkpt>
      <trkpt lat="50.942713" lon="17.934232">
        <ele>161.158624</ele>
        <time>2025-10-05T19:27:07.664Z</time>
      </trkpt>
      <trkpt lat="50.943106" lon="17.933816">
        <ele>161.262687</ele>
        <time>2025-10-05T19:27:18.207Z</time>
      </trkpt>
      <trkpt lat="50.943346" lon="17.933429">
        <ele>161.370629</ele>
        <time>2025-10-05T19:27:26.073Z</time>
      </trkpt>
      <trkpt lat="50.944393" lon="17.931353">
        <ele>161.871323</ele>
        <time>2025-10-05T19:28:07.480Z</time>
      </trkpt>
      <trkpt lat="50.944975" lon="17.929984">
        <ele>162.150506</ele>
        <time>2025-10-05T19:28:32.063Z</time>
      </trkpt>
      <trkpt lat="50.945042" lon="17.929697">
        <ele>162.188509</ele>
        <time>2025-10-05T19:28:36.334Z</time>
      </trkpt>
      <trkpt lat="50.945112" lon="17.929116">
        <ele>162.092084</ele>
        <time>2025-10-05T19:28:44.467Z</time>
      </trkpt>
      <trkpt lat="50.945348" lon="17.927276">
        <ele>161.785995</ele>
        <time>2025-10-05T19:29:09.685Z</time>
      </trkpt>
      <trkpt lat="50.945691" lon="17.924925">
        <ele>161.193219</ele>
        <time>2025-10-05T19:29:42.080Z</time>
      </trkpt>
      <trkpt lat="50.945868" lon="17.924239">
        <ele>161.000945</ele>
        <time>2025-10-05T19:29:51.827Z</time>
      </trkpt>
      <trkpt lat="50.946055" lon="17.923649">
        <ele>160.741657</ele>
        <time>2025-10-05T19:30:00.453Z</time>
      </trkpt>
      <trkpt lat="50.946680" lon="17.922760">
        <ele>160.205951</ele>
        <time>2025-10-05T19:30:17.662Z</time>
      </trkpt>
      <trkpt lat="50.947133" lon="17.922124">
        <ele>159.826720</ele>
        <time>2025-10-05T19:30:30.030Z</time>
      </trkpt>
      <trkpt lat="50.947943" lon="17.921637">
        <ele>159.449449</ele>
        <time>2025-10-05T19:30:47.992Z</time>
      </trkpt>
      <trkpt lat="50.949050" lon="17.918568">
        <ele>158.755768</ele>
        <time>2025-10-05T19:31:35.900Z</time>
      </trkpt>
      <trkpt lat="50.949282" lon="17.918038">
        <ele>158.663333</ele>
        <time>2025-10-05T19:31:44.753Z</time>
      </trkpt>
      <trkpt lat="50.949549" lon="17.917545">
        <ele>158.660797</ele>
        <time>2025-10-05T19:31:53.705Z</time>
      </trkpt>
      <trkpt lat="50.950499" lon="17.916473">
        <ele>158.700364</ele>
        <time>2025-10-05T19:32:19.872Z</time>
      </trkpt>
      <trkpt lat="50.950565" lon="17.916206">
        <ele>158.706498</ele>
        <time>2025-10-05T19:32:24.072Z</time>
      </trkpt>
      <trkpt lat="50.949929" lon="17.914701">
        <ele>158.860115</ele>
        <time>2025-10-05T19:32:50.507Z</time>
      </trkpt>
      <trkpt lat="50.949704" lon="17.914043">
        <ele>158.928419</ele>
        <time>2025-10-05T19:33:01.382Z</time>
      </trkpt>
      <trkpt lat="50.949511" lon="17.913304">
        <ele>158.945562</ele>
        <time>2025-10-05T19:33:12.781Z</time>
      </trkpt>
      <trkpt lat="50.949483" lon="17.913115">
        <ele>158.931210</ele>
        <time>2025-10-05T19:33:15.501Z</time>
      </trkpt>
      <trkpt lat="50.949441" lon="17.912844">
        <ele>158.910581</ele>
        <time>2025-10-05T19:33:19.405Z</time>
      </trkpt>
      <trkpt lat="50.948812" lon="17.908714">
        <ele>158.402711</ele>
        <time>2025-10-05T19:34:17.594Z</time>
      </trkpt>
      <trkpt lat="50.948680" lon="17.908202">
        <ele>158.313207</ele>
        <time>2025-10-05T19:34:24.952Z</time>
      </trkpt>
      <trkpt lat="50.947800" lon="17.905607">
        <ele>157.298666</ele>
        <time>2025-10-05T19:35:03.471Z</time>
      </trkpt>
      <trkpt lat="50.947672" lon="17.905228">
        <ele>157.152793</ele>
        <time>2025-10-05T19:35:09.052Z</time>
      </trkpt>
      <trkpt lat="50.947541" lon="17.904850">
        <ele>157.006495</ele>
        <time>2025-10-05T19:35:14.623Z</time>
      </trkpt>
      <trkpt lat="50.946998" lon="17.903299">
        <ele>156.404777</ele>
        <time>2025-10-05T19:35:37.861Z</time>
      </trkpt>
      <trkpt lat="50.946784" lon="17.902730">
        <ele>156.328288</ele>
        <time>2025-10-05T19:35:46.745Z</time>
      </trkpt>
      <trkpt lat="50.946775" lon="17.902428">
        <ele>156.327749</ele>
        <time>2025-10-05T19:35:50.844Z</time>
      </trkpt>
      <trkpt lat="50.946425" lon="17.900645">
        <ele>156.324415</ele>
        <time>2025-10-05T19:36:17.193Z</time>
      </trkpt>
      <trkpt lat="50.946331" lon="17.899198">
        <ele>156.713061</ele>
        <time>2025-10-05T19:36:39.910Z</time>
      </trkpt>
      <trkpt lat="50.946262" lon="17.898480">
        <ele>156.946767</ele>
        <time>2025-10-05T19:36:51.833Z</time>
      </trkpt>
      <trkpt lat="50.945832" lon="17.896464">
        <ele>157.243167</ele>
        <time>2025-10-05T19:37:24.687Z</time>
      </trkpt>
      <trkpt lat="50.945802" lon="17.896064">
        <ele>157.243367</ele>
        <time>2025-10-05T19:37:30.134Z</time>
      </trkpt>
      <trkpt lat="50.945329" lon="17.897226">
        <ele>157.260131</ele>
        <time>2025-10-05T19:38:01.374Z</time>
      </trkpt>
      <trkpt lat="50.945004" lon="17.898227">
        <ele>157.389458</ele>
        <time>2025-10-05T19:38:27.270Z</time>
      </trkpt>
      <trkpt lat="50.944820" lon="17.898981">
        <ele>157.482321</ele>
        <time>2025-10-05T19:38:47.289Z</time>
      </trkpt>
      <trkpt lat="50.944713" lon="17.899297">
        <ele>157.523522</ele>
        <time>2025-10-05T19:38:56.478Z</time>
      </trkpt>
      <trkpt lat="50.944544" lon="17.899677">
        <ele>157.577107</ele>
        <time>2025-10-05T19:39:08.463Z</time>
      </trkpt>
      <trkpt lat="50.944388" lon="17.899915">
        <ele>157.617837</ele>
        <time>2025-10-05T19:39:17.231Z</time>
      </trkpt>
      <trkpt lat="50.944165" lon="17.900174">
        <ele>157.669849</ele>
        <time>2025-10-05T19:39:28.276Z</time>
      </trkpt>
      <trkpt lat="50.943828" lon="17.900437">
        <ele>157.740535</ele>
        <time>2025-10-05T19:39:42.991Z</time>
      </trkpt>
      <trkpt lat="50.943706" lon="17.900345">
        <ele>157.765959</ele>
        <time>2025-10-05T19:39:46.132Z</time>
      </trkpt>
      <trkpt lat="50.943188" lon="17.900090">
        <ele>157.868041</ele>
        <time>2025-10-05T19:39:58.013Z</time>
      </trkpt>
      <trkpt lat="50.942750" lon="17.899810">
        <ele>157.835824</ele>
        <time>2025-10-05T19:40:07.950Z</time>
      </trkpt>
      <trkpt lat="50.942431" lon="17.899512">
        <ele>157.724196</ele>
        <time>2025-10-05T19:40:15.672Z</time>
      </trkpt>
      <trkpt lat="50.942223" lon="17.899203">
        <ele>157.638276</ele>
        <time>2025-10-05T19:40:21.670Z</time>
      </trkpt>
      <trkpt lat="50.942045" lon="17.898940">
        <ele>157.564935</ele>
        <time>2025-10-05T19:40:26.783Z</time>
      </trkpt>
      <trkpt lat="50.941495" lon="17.897939">
        <ele>157.418327</ele>
        <time>2025-10-05T19:40:45.119Z</time>
      </trkpt>
      <trkpt lat="50.941373" lon="17.897673">
        <ele>157.475151</ele>
        <time>2025-10-05T19:40:49.805Z</time>
      </trkpt>
      <trkpt lat="50.941262" lon="17.897432">
        <ele>157.526709</ele>
        <time>2025-10-05T19:40:54.034Z</time>
      </trkpt>
      <trkpt lat="50.941183" lon="17.897109">
        <ele>157.586550</ele>
        <time>2025-10-05T19:40:58.990Z</time>
      </trkpt>
      <trkpt lat="50.941066" lon="17.895826">
        <ele>157.810451</ele>
        <time>2025-10-05T19:41:18.856Z</time>
      </trkpt>
      <trkpt lat="50.940969" lon="17.895564">
        <ele>157.865726</ele>
        <time>2025-10-05T19:41:23.756Z</time>
      </trkpt>
      <trkpt lat="50.940154" lon="17.894348">
        <ele>158.608629</ele>
        <time>2025-10-05T19:41:52.465Z</time>
      </trkpt>
      <trkpt lat="50.939827" lon="17.893918">
        <ele>158.890661</ele>
        <time>2025-10-05T19:42:03.500Z</time>
      </trkpt>
      <trkpt lat="50.939541" lon="17.893477">
        <ele>159.140000</ele>
        <time>2025-10-05T19:42:13.591Z</time>
      </trkpt>
      <trkpt lat="50.938394" lon="17.891013">
        <ele>160.245226</ele>
        <time>2025-10-05T19:43:01.810Z</time>
      </trkpt>
      <trkpt lat="50.937515" lon="17.888299">
        <ele>161.749839</ele>
        <time>2025-10-05T19:43:50.214Z</time>
      </trkpt>
      <trkpt lat="50.936895" lon="17.886490">
        <ele>163.461992</ele>
        <time>2025-10-05T19:44:29.582Z</time>
      </trkpt>
      <trkpt lat="50.936352" lon="17.884860">
        <ele>164.529722</ele>
        <time>2025-10-05T19:45:03.889Z</time>
      </trkpt>
      <trkpt lat="50.934755" lon="17.880069">
        <ele>165.179630</ele>
        <time>2025-10-05T19:46:21.635Z</time>
      </trkpt>
      <trkpt lat="50.933946" lon="17.878331">
        <ele>164.374087</ele>
        <time>2025-10-05T19:46:49.938Z</time>
      </trkpt>
      <trkpt lat="50.933894" lon="17.878287">
        <ele>164.297632</ele>
        <time>2025-10-05T19:46:51.970Z</time>
      </trkpt>
      <trkpt lat="50.933904" lon="17.878228">
        <ele>164.247680</ele>
        <time>2025-10-05T19:46:53.294Z</time>
      </trkpt>
      <trkpt lat="50.933816" lon="17.877702">
        <ele>163.802723</ele>
        <time>2025-10-05T19:47:00.007Z</time>
      </trkpt>
      <trkpt lat="50.933791" lon="17.876745">
        <ele>163.019601</ele>
        <time>2025-10-05T19:47:11.363Z</time>
      </trkpt>
      <trkpt lat="50.933762" lon="17.875891">
        <ele>162.343344</ele>
        <time>2025-10-05T19:47:21.231Z</time>
      </trkpt>
      <trkpt lat="50.933626" lon="17.875143">
        <ele>161.755187</ele>
        <time>2025-10-05T19:47:30.181Z</time>
      </trkpt>
      <trkpt lat="50.933193" lon="17.874108">
        <ele>160.816642</ele>
        <time>2025-10-05T19:47:45.379Z</time>
      </trkpt>
      <trkpt lat="50.932168" lon="17.871656">
        <ele>160.790735</ele>
        <time>2025-10-05T19:48:30.296Z</time>
      </trkpt>
      <trkpt lat="50.929369" lon="17.864968">
        <ele>160.780284</ele>
        <time>2025-10-05T19:50:22.155Z</time>
      </trkpt>
      <trkpt lat="50.928870" lon="17.863789">
        <ele>160.738731</ele>
        <time>2025-10-05T19:50:43.158Z</time>
      </trkpt>
      <trkpt lat="50.928821" lon="17.863670">
        <ele>160.723086</ele>
        <time>2025-10-05T19:50:45.209Z</time>
      </trkpt>
      <trkpt lat="50.926875" lon="17.859425">
        <ele>159.922604</ele>
        <time>2025-10-05T19:51:56.069Z</time>
      </trkpt>
      <trkpt lat="50.926080" lon="17.857750">
        <ele>159.630167</ele>
        <time>2025-10-05T19:52:24.573Z</time>
      </trkpt>
      <trkpt lat="50.925914" lon="17.857343">
        <ele>159.562555</ele>
        <time>2025-10-05T19:52:31.228Z</time>
      </trkpt>
      <trkpt lat="50.925812" lon="17.856807">
        <ele>159.497339</ele>
        <time>2025-10-05T19:52:38.922Z</time>
      </trkpt>
      <trkpt lat="50.925528" lon="17.854912">
        <ele>159.277467</ele>
        <time>2025-10-05T19:53:05.434Z</time>
      </trkpt>
      <trkpt lat="50.925281" lon="17.853277">
        <ele>159.678157</ele>
        <time>2025-10-05T19:53:28.884Z</time>
      </trkpt>
      <trkpt lat="50.925199" lon="17.852731">
        <ele>159.877890</ele>
        <time>2025-10-05T19:53:38.162Z</time>
      </trkpt>
      <trkpt lat="50.925084" lon="17.851978">
        <ele>160.153599</ele>
        <time>2025-10-05T19:53:51.885Z</time>
      </trkpt>
      <trkpt lat="50.925064" lon="17.851848">
        <ele>160.201217</ele>
        <time>2025-10-05T19:53:54.181Z</time>
      </trkpt>
      <trkpt lat="50.924981" lon="17.851298">
        <ele>160.483618</ele>
        <time>2025-10-05T19:54:04.380Z</time>
      </trkpt>
      <trkpt lat="50.924841" lon="17.850818">
        <ele>160.769001</ele>
        <time>2025-10-05T19:54:13.823Z</time>
      </trkpt>
      <trkpt lat="50.923868" lon="17.849323">
        <ele>161.751350</ele>
        <time>2025-10-05T19:54:49.011Z</time>
      </trkpt>
      <trkpt lat="50.923308" lon="17.848419">
        <ele>161.591174</ele>
        <time>2025-10-05T19:55:07.515Z</time>
      </trkpt>
      <trkpt lat="50.921733" lon="17.845936">
        <ele>160.413654</ele>
        <time>2025-10-05T19:55:52.397Z</time>
      </trkpt>
      <trkpt lat="50.921606" lon="17.845741">
        <ele>160.284994</ele>
        <time>2025-10-05T19:55:55.993Z</time>
      </trkpt>
      <trkpt lat="50.921462" lon="17.845637">
        <ele>160.169819</ele>
        <time>2025-10-05T19:55:59.229Z</time>
      </trkpt>
      <trkpt lat="50.920535" lon="17.845411">
        <ele>159.994944</ele>
        <time>2025-10-05T19:56:19.165Z</time>
      </trkpt>
      <trkpt lat="50.917724" lon="17.844736">
        <ele>160.276558</ele>
        <time>2025-10-05T19:57:24.870Z</time>
      </trkpt>
      <trkpt lat="50.917558" lon="17.844655">
        <ele>160.338499</ele>
        <time>2025-10-05T19:57:29.141Z</time>
      </trkpt>
      <trkpt lat="50.917377" lon="17.844496">
        <ele>160.412290</ele>
        <time>2025-10-05T19:57:34.209Z</time>
      </trkpt>
      <trkpt lat="50.917300" lon="17.844424">
        <ele>160.444169</ele>
        <time>2025-10-05T19:57:36.400Z</time>
      </trkpt>
      <trkpt lat="50.917085" lon="17.844122">
        <ele>160.546592</ele>
        <time>2025-10-05T19:57:43.428Z</time>
      </trkpt>
      <trkpt lat="50.916914" lon="17.843761">
        <ele>160.648119</ele>
        <time>2025-10-05T19:57:50.375Z</time>
      </trkpt>
      <trkpt lat="50.916804" lon="17.843425">
        <ele>160.733246</ele>
        <time>2025-10-05T19:57:56.172Z</time>
      </trkpt>
      <trkpt lat="50.915653" lon="17.839562">
        <ele>161.502453</ele>
        <time>2025-10-05T19:58:59.254Z</time>
      </trkpt>
      <trkpt lat="50.915284" lon="17.838372">
        <ele>161.834368</ele>
        <time>2025-10-05T19:59:20.226Z</time>
      </trkpt>
      <trkpt lat="50.915177" lon="17.837966">
        <ele>161.944506</ele>
        <time>2025-10-05T19:59:27.058Z</time>
      </trkpt>
      <trkpt lat="50.915129" lon="17.837568">
        <ele>162.016573</ele>
        <time>2025-10-05T19:59:33.357Z</time>
      </trkpt>
      <trkpt lat="50.915049" lon="17.836233">
        <ele>161.906974</ele>
        <time>2025-10-05T19:59:52.074Z</time>
      </trkpt>
      <trkpt lat="50.915030" lon="17.836042">
        <ele>161.891170</ele>
        <time>2025-10-05T19:59:54.672Z</time>
      </trkpt>
      <trkpt lat="50.914952" lon="17.835673">
        <ele>161.859363</ele>
        <time>2025-10-05T19:59:59.930Z</time>
      </trkpt>
      <trkpt lat="50.914818" lon="17.835125">
        <ele>161.811325</ele>
        <time>2025-10-05T20:00:07.919Z</time>
      </trkpt>
      <trkpt lat="50.914718" lon="17.834741">
        <ele>161.677675</ele>
        <time>2025-10-05T20:00:13.566Z</time>
      </trkpt>
      <trkpt lat="50.914551" lon="17.834179">
        <ele>161.245425</ele>
        <time>2025-10-05T20:00:21.616Z</time>
      </trkpt>
      <trkpt lat="50.914419" lon="17.833680">
        <ele>160.868938</ele>
        <time>2025-10-05T20:00:28.278Z</time>
      </trkpt>
      <trkpt lat="50.914192" lon="17.833783">
        <ele>160.608397</ele>
        <time>2025-10-05T20:00:32.814Z</time>
      </trkpt>
      <trkpt lat="50.912876" lon="17.834198">
        <ele>159.663935</ele>
        <time>2025-10-05T20:00:58.268Z</time>
      </trkpt>
      <trkpt lat="50.910509" lon="17.834888">
        <ele>160.145224</ele>
        <time>2025-10-05T20:01:57.598Z</time>
      </trkpt>
      <trkpt lat="50.909834" lon="17.835106">
        <ele>160.487060</ele>
        <time>2025-10-05T20:02:16.775Z</time>
      </trkpt>
      <trkpt lat="50.909284" lon="17.835266">
        <ele>160.418154</ele>
        <time>2025-10-05T20:02:30.531Z</time>
      </trkpt>
      <trkpt lat="50.908071" lon="17.835618">
        <ele>160.230356</ele>
        <time>2025-10-05T20:02:55.981Z</time>
      </trkpt>
      <trkpt lat="50.908032" lon="17.835629">
        <ele>160.212129</ele>
        <time>2025-10-05T20:02:57.043Z</time>
      </trkpt>
      <trkpt lat="50.907990" lon="17.835641">
        <ele>160.192491</ele>
        <time>2025-10-05T20:02:58.191Z</time>
      </trkpt>
      <trkpt lat="50.906440" lon="17.836083">
        <ele>159.467815</ele>
        <time>2025-10-05T20:03:31.352Z</time>
      </trkpt>
      <trkpt lat="50.906099" lon="17.836180">
        <ele>159.388249</ele>
        <time>2025-10-05T20:03:38.808Z</time>
      </trkpt>
      <trkpt lat="50.905996" lon="17.836208">
        <ele>159.366965</ele>
        <time>2025-10-05T20:03:41.036Z</time>
      </trkpt>
      <trkpt lat="50.905828" lon="17.836257">
        <ele>159.332176</ele>
        <time>2025-10-05T20:03:44.653Z</time>
      </trkpt>
      <trkpt lat="50.905335" lon="17.836402">
        <ele>159.230058</ele>
        <time>2025-10-05T20:03:55.282Z</time>
      </trkpt>
      <trkpt lat="50.905156" lon="17.836454">
        <ele>159.192995</ele>
        <time>2025-10-05T20:03:59.212Z</time>
      </trkpt>
      <trkpt lat="50.904956" lon="17.836512">
        <ele>159.151587</ele>
        <time>2025-10-05T20:04:03.700Z</time>
      </trkpt>
      <trkpt lat="50.904665" lon="17.836597">
        <ele>159.091324</ele>
        <time>2025-10-05T20:04:10.460Z</time>
      </trkpt>
      <trkpt lat="50.904348" lon="17.836687">
        <ele>159.123281</ele>
        <time>2025-10-05T20:04:17.854Z</time>
      </trkpt>
      <trkpt lat="50.903479" lon="17.836943">
        <ele>159.237890</ele>
        <time>2025-10-05T20:04:38.286Z</time>
      </trkpt>
      <trkpt lat="50.903336" lon="17.836982">
        <ele>159.256704</ele>
        <time>2025-10-05T20:04:41.643Z</time>
      </trkpt>
      <trkpt lat="50.903264" lon="17.837010">
        <ele>159.266317</ele>
        <time>2025-10-05T20:04:43.355Z</time>
      </trkpt>
      <trkpt lat="50.903180" lon="17.837043">
        <ele>159.277538</ele>
        <time>2025-10-05T20:04:45.322Z</time>
      </trkpt>
      <trkpt lat="50.903014" lon="17.837036">
        <ele>159.299071</ele>
        <time>2025-10-05T20:04:49.075Z</time>
      </trkpt>
      <trkpt lat="50.902921" lon="17.836974">
        <ele>159.312152</ele>
        <time>2025-10-05T20:04:51.313Z</time>
      </trkpt>
      <trkpt lat="50.902836" lon="17.836865">
        <ele>159.332523</ele>
        <time>2025-10-05T20:04:53.742Z</time>
      </trkpt>
      <trkpt lat="50.902713" lon="17.836697">
        <ele>159.370366</ele>
        <time>2025-10-05T20:04:57.350Z</time>
      </trkpt>
      <trkpt lat="50.902565" lon="17.836611">
        <ele>159.407111</ele>
        <time>2025-10-05T20:05:00.861Z</time>
      </trkpt>
      <trkpt lat="50.902440" lon="17.836609">
        <ele>159.436251</ele>
        <time>2025-10-05T20:05:03.696Z</time>
      </trkpt>
      <trkpt lat="50.902257" lon="17.836720">
        <ele>159.481925</ele>
        <time>2025-10-05T20:05:08.347Z</time>
      </trkpt>
      <trkpt lat="50.902162" lon="17.836901">
        <ele>159.516545</ele>
        <time>2025-10-05T20:05:12.061Z</time>
      </trkpt>
      <trkpt lat="50.902097" lon="17.837160">
        <ele>159.557525</ele>
        <time>2025-10-05T20:05:16.388Z</time>
      </trkpt>
      <trkpt lat="50.902027" lon="17.837290">
        <ele>159.582655</ele>
        <time>2025-10-05T20:05:19.028Z</time>
      </trkpt>
      <trkpt lat="50.901978" lon="17.837328">
        <ele>159.595371</ele>
        <time>2025-10-05T20:05:20.316Z</time>
      </trkpt>
      <trkpt lat="50.901693" lon="17.837477">
        <ele>159.665326</ele>
        <time>2025-10-05T20:05:27.486Z</time>
      </trkpt>
      <trkpt lat="50.901283" lon="17.837607">
        <ele>159.718732</ele>
        <time>2025-10-05T20:05:37.337Z</time>
      </trkpt>
      <trkpt lat="50.900881" lon="17.837718">
        <ele>159.645840</ele>
        <time>2025-10-05T20:05:46.609Z</time>
      </trkpt>
      <trkpt lat="50.899136" lon="17.838239">
        <ele>159.387654</ele>
        <time>2025-10-05T20:06:24.239Z</time>
      </trkpt>
      <trkpt lat="50.898102" lon="17.838546">
        <ele>159.325889</ele>
        <time>2025-10-05T20:06:48.344Z</time>
      </trkpt>
      <trkpt lat="50.897574" lon="17.838700">
        <ele>159.271068</ele>
        <time>2025-10-05T20:07:00.585Z</time>
      </trkpt>
      <trkpt lat="50.897525" lon="17.838717">
        <ele>159.263983</ele>
        <time>2025-10-05T20:07:01.654Z</time>
      </trkpt>
      <trkpt lat="50.896237" lon="17.839085">
        <ele>159.079113</ele>
        <time>2025-10-05T20:07:29.725Z</time>
      </trkpt>
      <trkpt lat="50.895681" lon="17.839249">
        <ele>159.063894</ele>
        <time>2025-10-05T20:07:42.292Z</time>
      </trkpt>
      <trkpt lat="50.894379" lon="17.839656">
        <ele>159.086736</ele>
        <time>2025-10-05T20:08:12.901Z</time>
      </trkpt>
      <trkpt lat="50.893157" lon="17.840020">
        <ele>158.105963</ele>
        <time>2025-10-05T20:08:39.373Z</time>
      </trkpt>
      <trkpt lat="50.892131" lon="17.840271">
        <ele>156.779559</ele>
        <time>2025-10-05T20:08:58.686Z</time>
      </trkpt>
      <trkpt lat="50.891741" lon="17.840370">
        <ele>156.015313</ele>
        <time>2025-10-05T20:09:05.703Z</time>
      </trkpt>
      <trkpt lat="50.889856" lon="17.840992">
        <ele>153.053173</ele>
        <time>2025-10-05T20:09:41.438Z</time>
      </trkpt>
      <trkpt lat="50.889856" lon="17.840992">
        <ele>153.053173</ele>
        <time>2025-10-05T20:09:41.438Z</time>
      </trkpt>
      <trkpt lat="50.888244" lon="17.841462">
        <ele>152.262971</ele>
        <time>2025-10-05T20:10:16.333Z</time>
      </trkpt>
      <trkpt lat="50.888244" lon="17.841462">
        <ele>152.262971</ele>
        <time>2025-10-05T20:10:16.337Z</time>
      </trkpt>
      <trkpt lat="50.887376" lon="17.841717">
        <ele>152.458907</ele>
        <time>2025-10-05T20:10:39.174Z</time>
      </trkpt>
      <trkpt lat="50.886507" lon="17.841972">
        <ele>154.057211</ele>
        <time>2025-10-05T20:11:02.012Z</time>
      </trkpt>
      <trkpt lat="50.885639" lon="17.842227">
        <ele>155.904843</ele>
        <time>2025-10-05T20:11:24.855Z</time>
      </trkpt>
      <trkpt lat="50.885053" lon="17.842519">
        <ele>156.924237</ele>
        <time>2025-10-05T20:11:40.746Z</time>
      </trkpt>
      <trkpt lat="50.884891" lon="17.842643">
        <ele>157.193798</ele>
        <time>2025-10-05T20:11:45.400Z</time>
      </trkpt>
      <trkpt lat="50.884891" lon="17.842643">
        <ele>157.193798</ele>
        <time>2025-10-05T20:11:45.403Z</time>
      </trkpt>
      <trkpt lat="50.884414" lon="17.843106">
        <ele>158.031897</ele>
        <time>2025-10-05T20:12:02.884Z</time>
      </trkpt>
      <trkpt lat="50.884110" lon="17.843492">
        <ele>158.615540</ele>
        <time>2025-10-05T20:12:12.568Z</time>
      </trkpt>
      <trkpt lat="50.883911" lon="17.843821">
        <ele>158.879580</ele>
        <time>2025-10-05T20:12:18.659Z</time>
      </trkpt>
      <trkpt lat="50.883539" lon="17.844642">
        <ele>158.210054</ele>
        <time>2025-10-05T20:12:31.068Z</time>
      </trkpt>
      <trkpt lat="50.882969" lon="17.846075">
        <ele>157.087963</ele>
        <time>2025-10-05T20:12:51.449Z</time>
      </trkpt>
      <trkpt lat="50.882969" lon="17.846075">
        <ele>157.087963</ele>
        <time>2025-10-05T20:12:51.457Z</time>
      </trkpt>
      <trkpt lat="50.882505" lon="17.847237">
        <ele>156.597102</ele>
        <time>2025-10-05T20:13:13.900Z</time>
      </trkpt>
      <trkpt lat="50.882041" lon="17.848400">
        <ele>156.119281</ele>
        <time>2025-10-05T20:13:36.343Z</time>
      </trkpt>
      <trkpt lat="50.881577" lon="17.849563">
        <ele>155.869229</ele>
        <time>2025-10-05T20:13:58.786Z</time>
      </trkpt>
      <trkpt lat="50.881113" lon="17.850725">
        <ele>155.645517</ele>
        <time>2025-10-05T20:14:21.230Z</time>
      </trkpt>
      <trkpt lat="50.880649" lon="17.851888">
        <ele>155.167052</ele>
        <time>2025-10-05T20:14:43.673Z</time>
      </trkpt>
      <trkpt lat="50.880185" lon="17.853050">
        <ele>154.634689</ele>
        <time>2025-10-05T20:15:06.118Z</time>
      </trkpt>
      <trkpt lat="50.879721" lon="17.854212">
        <ele>154.631367</ele>
        <time>2025-10-05T20:15:28.562Z</time>
      </trkpt>
      <trkpt lat="50.879257" lon="17.855375">
        <ele>154.802699</ele>
        <time>2025-10-05T20:15:51.006Z</time>
      </trkpt>
      <trkpt lat="50.878793" lon="17.856538">
        <ele>155.028471</ele>
        <time>2025-10-05T20:16:13.451Z</time>
      </trkpt>
      <trkpt lat="50.878329" lon="17.857700">
        <ele>155.279739</ele>
        <time>2025-10-05T20:16:35.896Z</time>
      </trkpt>
      <trkpt lat="50.878329" lon="17.857700">
        <ele>155.279739</ele>
        <time>2025-10-05T20:16:35.905Z</time>
      </trkpt>
      <trkpt lat="50.878121" lon="17.858127">
        <ele>155.378307</ele>
        <time>2025-10-05T20:16:42.986Z</time>
      </trkpt>
      <trkpt lat="50.877856" lon="17.858553">
        <ele>155.199770</ele>
        <time>2025-10-05T20:16:50.621Z</time>
      </trkpt>
      <trkpt lat="50.877497" lon="17.859041">
        <ele>154.975632</ele>
        <time>2025-10-05T20:17:00.125Z</time>
      </trkpt>
      <trkpt lat="50.877022" lon="17.859655">
        <ele>154.685149</ele>
        <time>2025-10-05T20:17:12.805Z</time>
      </trkpt>
      <trkpt lat="50.876817" lon="17.859868">
        <ele>154.568982</ele>
        <time>2025-10-05T20:17:18.171Z</time>
      </trkpt>
      <trkpt lat="50.876389" lon="17.860200">
        <ele>154.605742</ele>
        <time>2025-10-05T20:17:28.964Z</time>
      </trkpt>
      <trkpt lat="50.875861" lon="17.860444">
        <ele>154.719297</ele>
        <time>2025-10-05T20:17:42.214Z</time>
      </trkpt>
      <trkpt lat="50.875620" lon="17.860506">
        <ele>154.769707</ele>
        <time>2025-10-05T20:17:48.196Z</time>
      </trkpt>
      <trkpt lat="50.873818" lon="17.860702">
        <ele>154.862819</ele>
        <time>2025-10-05T20:18:30.048Z</time>
      </trkpt>
      <trkpt lat="50.873565" lon="17.860760">
        <ele>154.855372</ele>
        <time>2025-10-05T20:18:35.559Z</time>
      </trkpt>
      <trkpt lat="50.873083" lon="17.860981">
        <ele>154.738679</ele>
        <time>2025-10-05T20:18:46.249Z</time>
      </trkpt>
      <trkpt lat="50.872689" lon="17.861251">
        <ele>154.426963</ele>
        <time>2025-10-05T20:18:55.041Z</time>
      </trkpt>
      <trkpt lat="50.872073" lon="17.861811">
        <ele>153.911262</ele>
        <time>2025-10-05T20:19:09.242Z</time>
      </trkpt>
      <trkpt lat="50.871812" lon="17.862122">
        <ele>153.674128</ele>
        <time>2025-10-05T20:19:15.811Z</time>
      </trkpt>
      <trkpt lat="50.871247" lon="17.862909">
        <ele>153.452030</ele>
        <time>2025-10-05T20:19:31.215Z</time>
      </trkpt>
      <trkpt lat="50.869935" lon="17.864824">
        <ele>153.596673</ele>
        <time>2025-10-05T20:20:12.057Z</time>
      </trkpt>
      <trkpt lat="50.868336" lon="17.867063">
        <ele>154.468886</ele>
        <time>2025-10-05T20:21:08.189Z</time>
      </trkpt>
      <trkpt lat="50.867883" lon="17.867697">
        <ele>154.548423</ele>
        <time>2025-10-05T20:21:21.037Z</time>
      </trkpt>
      <trkpt lat="50.867478" lon="17.868203">
        <ele>154.486340</ele>
        <time>2025-10-05T20:21:31.512Z</time>
      </trkpt>
      <trkpt lat="50.866900" lon="17.868739">
        <ele>154.155874</ele>
        <time>2025-10-05T20:21:45.196Z</time>
      </trkpt>
      <trkpt lat="50.866540" lon="17.869028">
        <ele>153.956736</ele>
        <time>2025-10-05T20:21:53.724Z</time>
      </trkpt>
      <trkpt lat="50.866435" lon="17.869108">
        <ele>153.899245</ele>
        <time>2025-10-05T20:21:56.221Z</time>
      </trkpt>
      <trkpt lat="50.865985" lon="17.869450">
        <ele>153.690984</ele>
        <time>2025-10-05T20:22:06.987Z</time>
      </trkpt>
      <trkpt lat="50.865746" lon="17.869670">
        <ele>153.661636</ele>
        <time>2025-10-05T20:22:13.032Z</time>
      </trkpt>
      <trkpt lat="50.865445" lon="17.870013">
        <ele>153.622268</ele>
        <time>2025-10-05T20:22:21.131Z</time>
      </trkpt>
      <trkpt lat="50.865178" lon="17.870387">
        <ele>153.584428</ele>
        <time>2025-10-05T20:22:28.943Z</time>
      </trkpt>
      <trkpt lat="50.865178" lon="17.870387">
        <ele>153.584428</ele>
        <time>2025-10-05T20:22:28.954Z</time>
      </trkpt>
      <trkpt lat="50.864918" lon="17.870844">
        <ele>153.543196</ele>
        <time>2025-10-05T20:22:37.506Z</time>
      </trkpt>
      <trkpt lat="50.864680" lon="17.871413">
        <ele>153.514807</ele>
        <time>2025-10-05T20:22:47.066Z</time>
      </trkpt>
      <trkpt lat="50.863721" lon="17.874762">
        <ele>153.772863</ele>
        <time>2025-10-05T20:23:39.271Z</time>
      </trkpt>
      <trkpt lat="50.863508" lon="17.875520">
        <ele>153.933680</ele>
        <time>2025-10-05T20:23:51.577Z</time>
      </trkpt>
      <trkpt lat="50.863317" lon="17.876177">
        <ele>154.073877</ele>
        <time>2025-10-05T20:24:02.799Z</time>
      </trkpt>
      <trkpt lat="50.863061" lon="17.876884">
        <ele>154.339127</ele>
        <time>2025-10-05T20:24:16.079Z</time>
      </trkpt>
      <trkpt lat="50.862701" lon="17.877556">
        <ele>154.685095</ele>
        <time>2025-10-05T20:24:30.758Z</time>
      </trkpt>
      <trkpt lat="50.862701" lon="17.877556">
        <ele>154.685095</ele>
        <time>2025-10-05T20:24:30.758Z</time>
      </trkpt>
      <trkpt lat="50.862273" lon="17.878114">
        <ele>155.029788</ele>
        <time>2025-10-05T20:24:44.990Z</time>
      </trkpt>
      <trkpt lat="50.861824" lon="17.878512">
        <ele>155.243580</ele>
        <time>2025-10-05T20:24:57.568Z</time>
      </trkpt>
      <trkpt lat="50.861587" lon="17.878671">
        <ele>155.240255</ele>
        <time>2025-10-05T20:25:03.512Z</time>
      </trkpt>
      <trkpt lat="50.861379" lon="17.878776">
        <ele>155.237436</ele>
        <time>2025-10-05T20:25:08.394Z</time>
      </trkpt>
      <trkpt lat="50.860806" lon="17.878956">
        <ele>155.229890</ele>
        <time>2025-10-05T20:25:21.079Z</time>
      </trkpt>
      <trkpt lat="50.860589" lon="17.878994">
        <ele>155.227070</ele>
        <time>2025-10-05T20:25:25.800Z</time>
      </trkpt>
      <trkpt lat="50.860546" lon="17.878999">
        <ele>155.226513</ele>
        <time>2025-10-05T20:25:26.721Z</time>
      </trkpt>
      <trkpt lat="50.859736" lon="17.879093">
        <ele>155.280912</ele>
        <time>2025-10-05T20:25:44.316Z</time>
      </trkpt>
      <trkpt lat="50.853228" lon="17.879794">
        <ele>156.296383</ele>
        <time>2025-10-05T20:28:14.332Z</time>
      </trkpt>
      <trkpt lat="50.851676" lon="17.879946">
        <ele>157.443940</ele>
        <time>2025-10-05T20:28:55.309Z</time>
      </trkpt>
      <trkpt lat="50.850588" lon="17.880078">
        <ele>158.056478</ele>
        <time>2025-10-05T20:29:24.504Z</time>
      </trkpt>
      <trkpt lat="50.850586" lon="17.879985">
        <ele>158.081099</ele>
        <time>2025-10-05T20:29:26.049Z</time>
      </trkpt>
      <trkpt lat="50.847226" lon="17.880345">
        <ele>158.985208</ele>
        <time>2025-10-05T20:30:43.140Z</time>
      </trkpt>
      <trkpt lat="50.846241" lon="17.880457">
        <ele>159.405596</ele>
        <time>2025-10-05T20:31:08.911Z</time>
      </trkpt>
      <trkpt lat="50.845542" lon="17.880488">
        <ele>159.371054</ele>
        <time>2025-10-05T20:31:24.891Z</time>
      </trkpt>
      <trkpt lat="50.845548" lon="17.880607">
        <ele>159.339793</ele>
        <time>2025-10-05T20:31:30.166Z</time>
      </trkpt>
      <trkpt lat="50.845365" lon="17.880626">
        <ele>159.263737</ele>
        <time>2025-10-05T20:31:33.987Z</time>
      </trkpt>
      <trkpt lat="50.844646" lon="17.880711">
        <ele>158.964723</ele>
        <time>2025-10-05T20:31:48.642Z</time>
      </trkpt>
      <trkpt lat="50.843617" lon="17.880833">
        <ele>158.758148</ele>
        <time>2025-10-05T20:32:09.993Z</time>
      </trkpt>
      <trkpt lat="50.840824" lon="17.881130">
        <ele>159.305915</ele>
        <time>2025-10-05T20:33:15.776Z</time>
      </trkpt>
      <trkpt lat="50.838404" lon="17.881386">
        <ele>160.928835</ele>
        <time>2025-10-05T20:34:21.110Z</time>
      </trkpt>
      <trkpt lat="50.838385" lon="17.881594">
        <ele>160.922464</ele>
        <time>2025-10-05T20:34:24.503Z</time>
      </trkpt>
      <trkpt lat="50.838197" lon="17.881624">
        <ele>160.913395</ele>
        <time>2025-10-05T20:34:29.179Z</time>
      </trkpt>
      <trkpt lat="50.832713" lon="17.882236">
        <ele>160.292849</ele>
        <time>2025-10-05T20:36:27.319Z</time>
      </trkpt>
      <trkpt lat="50.827699" lon="17.882768">
        <ele>160.104415</ele>
        <time>2025-10-05T20:38:20.057Z</time>
      </trkpt>
      <trkpt lat="50.827164" lon="17.883006">
        <ele>159.925744</ele>
        <time>2025-10-05T20:38:31.980Z</time>
      </trkpt>
      <trkpt lat="50.826964" lon="17.883360">
        <ele>159.829290</ele>
        <time>2025-10-05T20:38:38.270Z</time>
      </trkpt>
      <trkpt lat="50.826595" lon="17.883564">
        <ele>159.703626</ele>
        <time>2025-10-05T20:38:46.376Z</time>
      </trkpt>
      <trkpt lat="50.826371" lon="17.883306">
        <ele>159.610574</ele>
        <time>2025-10-05T20:38:52.063Z</time>
      </trkpt>
      <trkpt lat="50.826124" lon="17.882904">
        <ele>159.490096</ele>
        <time>2025-10-05T20:38:59.354Z</time>
      </trkpt>
      <trkpt lat="50.825602" lon="17.882856">
        <ele>159.312268</ele>
        <time>2025-10-05T20:39:10.249Z</time>
      </trkpt>
      <trkpt lat="50.823369" lon="17.883054">
        <ele>159.203803</ele>
        <time>2025-10-05T20:39:59.871Z</time>
      </trkpt>
      <trkpt lat="50.820812" lon="17.883332">
        <ele>160.263532</ele>
        <time>2025-10-05T20:41:04.506Z</time>
      </trkpt>
      <trkpt lat="50.819442" lon="17.883497">
        <ele>160.430173</ele>
        <time>2025-10-05T20:41:35.107Z</time>
      </trkpt>
      <trkpt lat="50.818950" lon="17.883534">
        <ele>160.185368</ele>
        <time>2025-10-05T20:41:45.483Z</time>
      </trkpt>
      <trkpt lat="50.816751" lon="17.883772">
        <ele>158.899957</ele>
        <time>2025-10-05T20:42:31.018Z</time>
      </trkpt>
      <trkpt lat="50.816748" lon="17.883699">
        <ele>158.867924</ele>
        <time>2025-10-05T20:42:31.987Z</time>
      </trkpt>
      <trkpt lat="50.816130" lon="17.883764">
        <ele>158.438662</ele>
        <time>2025-10-05T20:42:44.363Z</time>
      </trkpt>
      <trkpt lat="50.815894" lon="17.883781">
        <ele>158.293173</ele>
        <time>2025-10-05T20:42:49.245Z</time>
      </trkpt>
      <trkpt lat="50.815842" lon="17.883782">
        <ele>158.270320</ele>
        <time>2025-10-05T20:42:50.351Z</time>
      </trkpt>
      <trkpt lat="50.815420" lon="17.883744">
        <ele>158.084567</ele>
        <time>2025-10-05T20:42:59.281Z</time>
      </trkpt>
      <trkpt lat="50.814984" lon="17.883593">
        <ele>157.888429</ele>
        <time>2025-10-05T20:43:08.826Z</time>
      </trkpt>
      <trkpt lat="50.814830" lon="17.883513">
        <ele>157.817200</ele>
        <time>2025-10-05T20:43:12.378Z</time>
      </trkpt>
      <trkpt lat="50.814722" lon="17.883444">
        <ele>157.766017</ele>
        <time>2025-10-05T20:43:15.028Z</time>
      </trkpt>
      <trkpt lat="50.813702" lon="17.882679">
        <ele>157.018622</ele>
        <time>2025-10-05T20:43:38.465Z</time>
      </trkpt>
      <trkpt lat="50.813268" lon="17.882347">
        <ele>156.605372</ele>
        <time>2025-10-05T20:43:47.769Z</time>
      </trkpt>
      <trkpt lat="50.812027" lon="17.881390">
        <ele>155.720379</ele>
        <time>2025-10-05T20:44:15.585Z</time>
      </trkpt>
      <trkpt lat="50.811962" lon="17.881340">
        <ele>155.690838</ele>
        <time>2025-10-05T20:44:17.117Z</time>
      </trkpt>
      <trkpt lat="50.811497" lon="17.881000">
        <ele>155.481464</ele>
        <time>2025-10-05T20:44:28.080Z</time>
      </trkpt>
      <trkpt lat="50.811282" lon="17.880908">
        <ele>155.390428</ele>
        <time>2025-10-05T20:44:32.956Z</time>
      </trkpt>
      <trkpt lat="50.811117" lon="17.880874">
        <ele>155.322415</ele>
        <time>2025-10-05T20:44:36.627Z</time>
      </trkpt>
      <trkpt lat="50.810885" lon="17.880883">
        <ele>155.278687</ele>
        <time>2025-10-05T20:44:41.923Z</time>
      </trkpt>
      <trkpt lat="50.810544" lon="17.880987">
        <ele>155.381659</ele>
        <time>2025-10-05T20:44:49.879Z</time>
      </trkpt>
      <trkpt lat="50.810365" lon="17.881063">
        <ele>155.436612</ele>
        <time>2025-10-05T20:44:54.173Z</time>
      </trkpt>
      <trkpt lat="50.810056" lon="17.881192">
        <ele>155.531369</ele>
        <time>2025-10-05T20:45:01.789Z</time>
      </trkpt>
      <trkpt lat="50.809411" lon="17.881465">
        <ele>155.729343</ele>
        <time>2025-10-05T20:45:18.358Z</time>
      </trkpt>
      <trkpt lat="50.809119" lon="17.881565">
        <ele>155.827933</ele>
        <time>2025-10-05T20:45:25.609Z</time>
      </trkpt>
      <trkpt lat="50.808643" lon="17.881659">
        <ele>156.022067</ele>
        <time>2025-10-05T20:45:37.169Z</time>
      </trkpt>
      <trkpt lat="50.808408" lon="17.881702">
        <ele>156.117806</ele>
        <time>2025-10-05T20:45:42.821Z</time>
      </trkpt>
      <trkpt lat="50.807960" lon="17.881785">
        <ele>156.300353</ele>
        <time>2025-10-05T20:45:53.612Z</time>
      </trkpt>
      <trkpt lat="50.807960" lon="17.881785">
        <ele>156.300353</ele>
        <time>2025-10-05T20:45:53.624Z</time>
      </trkpt>
      <trkpt lat="50.807739" lon="17.881892">
        <ele>156.393885</ele>
        <time>2025-10-05T20:45:59.147Z</time>
      </trkpt>
      <trkpt lat="50.807527" lon="17.882069">
        <ele>156.490892</ele>
        <time>2025-10-05T20:46:04.956Z</time>
      </trkpt>
      <trkpt lat="50.807043" lon="17.882578">
        <ele>156.675136</ele>
        <time>2025-10-05T20:46:19.599Z</time>
      </trkpt>
      <trkpt lat="50.806718" lon="17.882793">
        <ele>156.782721</ele>
        <time>2025-10-05T20:46:28.497Z</time>
      </trkpt>
      <trkpt lat="50.806459" lon="17.882852">
        <ele>156.862639</ele>
        <time>2025-10-05T20:46:34.805Z</time>
      </trkpt>
      <trkpt lat="50.806093" lon="17.882811">
        <ele>156.974700</ele>
        <time>2025-10-05T20:46:43.166Z</time>
      </trkpt>
      <trkpt lat="50.805868" lon="17.882699">
        <ele>157.046739</ele>
        <time>2025-10-05T20:46:48.369Z</time>
      </trkpt>
      <trkpt lat="50.805826" lon="17.882860">
        <ele>157.065886</ele>
        <time>2025-10-05T20:46:50.794Z</time>
      </trkpt>
      <trkpt lat="50.805810" lon="17.883176">
        <ele>157.056738</ele>
        <time>2025-10-05T20:46:55.149Z</time>
      </trkpt>
      <trkpt lat="50.805887" lon="17.883723">
        <ele>157.040568</ele>
        <time>2025-10-05T20:47:02.820Z</time>
      </trkpt>
      <trkpt lat="50.805885" lon="17.883851">
        <ele>157.036874</ele>
        <time>2025-10-05T20:47:04.581Z</time>
      </trkpt>
      <trkpt lat="50.805819" lon="17.884015">
        <ele>157.031264</ele>
        <time>2025-10-05T20:47:07.259Z</time>
      </trkpt>
      <trkpt lat="50.805085" lon="17.884904">
        <ele>156.989060</ele>
        <time>2025-10-05T20:47:27.796Z</time>
      </trkpt>
      <trkpt lat="50.805041" lon="17.885007">
        <ele>156.985228</ele>
        <time>2025-10-05T20:47:29.636Z</time>
      </trkpt>
      <trkpt lat="50.805028" lon="17.885132">
        <ele>156.976336</ele>
        <time>2025-10-05T20:47:31.519Z</time>
      </trkpt>
      <trkpt lat="50.805035" lon="17.885245">
        <ele>156.968366</ele>
        <time>2025-10-05T20:47:33.171Z</time>
      </trkpt>
      <trkpt lat="50.805106" lon="17.885431">
        <ele>156.953113</ele>
        <time>2025-10-05T20:47:36.286Z</time>
      </trkpt>
      <trkpt lat="50.805526" lon="17.886341">
        <ele>156.874017</ele>
        <time>2025-10-05T20:47:51.803Z</time>
      </trkpt>
      <trkpt lat="50.805633" lon="17.886563">
        <ele>156.854420</ele>
        <time>2025-10-05T20:47:55.608Z</time>
      </trkpt>
      <trkpt lat="50.805684" lon="17.886667">
        <ele>156.845180</ele>
        <time>2025-10-05T20:47:57.384Z</time>
      </trkpt>
      <trkpt lat="50.805781" lon="17.886862">
        <ele>156.827761</ele>
        <time>2025-10-05T20:48:00.773Z</time>
      </trkpt>
      <trkpt lat="50.805838" lon="17.887063">
        <ele>156.812297</ele>
        <time>2025-10-05T20:48:03.775Z</time>
      </trkpt>
      <trkpt lat="50.805862" lon="17.887226">
        <ele>156.800550</ele>
        <time>2025-10-05T20:48:06.062Z</time>
      </trkpt>
      <trkpt lat="50.805856" lon="17.887554">
        <ele>156.791525</ele>
        <time>2025-10-05T20:48:10.530Z</time>
      </trkpt>
      <trkpt lat="50.805624" lon="17.889946">
        <ele>156.906638</ele>
        <time>2025-10-05T20:48:45.138Z</time>
      </trkpt>
      <trkpt lat="50.805557" lon="17.890303">
        <ele>156.936686</ele>
        <time>2025-10-05T20:48:50.793Z</time>
      </trkpt>
      <trkpt lat="50.805479" lon="17.890667">
        <ele>157.027673</ele>
        <time>2025-10-05T20:48:56.672Z</time>
      </trkpt>
      <trkpt lat="50.805279" lon="17.891562">
        <ele>157.252397</ele>
        <time>2025-10-05T20:49:11.064Z</time>
      </trkpt>
      <trkpt lat="50.805137" lon="17.892299">
        <ele>157.434793</ele>
        <time>2025-10-05T20:49:22.847Z</time>
      </trkpt>
      <trkpt lat="50.805043" lon="17.892836">
        <ele>157.566701</ele>
        <time>2025-10-05T20:49:31.435Z</time>
      </trkpt>
      <trkpt lat="50.804970" lon="17.893250">
        <ele>157.696157</ele>
        <time>2025-10-05T20:49:38.030Z</time>
      </trkpt>
      <trkpt lat="50.804802" lon="17.894175">
        <ele>158.009947</ele>
        <time>2025-10-05T20:49:52.786Z</time>
      </trkpt>
      <trkpt lat="50.804596" lon="17.895271">
        <ele>158.382752</ele>
        <time>2025-10-05T20:50:10.689Z</time>
      </trkpt>
      <trkpt lat="50.803940" lon="17.897128">
        <ele>159.387491</ele>
        <time>2025-10-05T20:50:45.870Z</time>
      </trkpt>
      <trkpt lat="50.803518" lon="17.898489">
        <ele>160.113815</ele>
        <time>2025-10-05T20:51:11.597Z</time>
      </trkpt>
      <trkpt lat="50.803487" lon="17.898877">
        <ele>160.264239</ele>
        <time>2025-10-05T20:51:18.159Z</time>
      </trkpt>
      <trkpt lat="50.803543" lon="17.899177">
        <ele>160.384557</ele>
        <time>2025-10-05T20:51:23.331Z</time>
      </trkpt>
      <trkpt lat="50.803616" lon="17.899371">
        <ele>160.471400</ele>
        <time>2025-10-05T20:51:26.993Z</time>
      </trkpt>
      <trkpt lat="50.804816" lon="17.902161">
        <ele>161.340515</ele>
        <time>2025-10-05T20:52:18.409Z</time>
      </trkpt>
      <trkpt lat="50.806480" lon="17.906258">
        <ele>161.538458</ele>
        <time>2025-10-05T20:53:26.909Z</time>
      </trkpt>
      <trkpt lat="50.806507" lon="17.906327">
        <ele>161.541492</ele>
        <time>2025-10-05T20:53:28.095Z</time>
      </trkpt>
      <trkpt lat="50.808693" lon="17.911791">
        <ele>161.369959</ele>
        <time>2025-10-05T20:55:00.587Z</time>
      </trkpt>
      <trkpt lat="50.808843" lon="17.912336">
        <ele>161.260050</ele>
        <time>2025-10-05T20:55:08.056Z</time>
      </trkpt>
      <trkpt lat="50.808872" lon="17.912592">
        <ele>161.211963</ele>
        <time>2025-10-05T20:55:11.313Z</time>
      </trkpt>
      <trkpt lat="50.808895" lon="17.913266">
        <ele>160.933640</ele>
        <time>2025-10-05T20:55:19.665Z</time>
      </trkpt>
      <trkpt lat="50.808935" lon="17.916924">
        <ele>159.653011</ele>
        <time>2025-10-05T20:56:07.351Z</time>
      </trkpt>
      <trkpt lat="50.808913" lon="17.917804">
        <ele>159.521197</ele>
        <time>2025-10-05T20:56:19.758Z</time>
      </trkpt>
      <trkpt lat="50.808757" lon="17.918858">
        <ele>159.488587</ele>
        <time>2025-10-05T20:56:35.632Z</time>
      </trkpt>
      <trkpt lat="50.808628" lon="17.919433">
        <ele>159.564707</ele>
        <time>2025-10-05T20:56:44.770Z</time>
      </trkpt>
      <trkpt lat="50.807044" lon="17.924583">
        <ele>160.189147</ele>
        <time>2025-10-05T20:58:08.277Z</time>
      </trkpt>
      <trkpt lat="50.806692" lon="17.925563">
        <ele>160.298022</ele>
        <time>2025-10-05T20:58:24.329Z</time>
      </trkpt>
      <trkpt lat="50.806632" lon="17.925504">
        <ele>160.308819</ele>
        <time>2025-10-05T20:58:26.496Z</time>
      </trkpt>
      <trkpt lat="50.806566" lon="17.925595">
        <ele>160.322199</ele>
        <time>2025-10-05T20:58:28.519Z</time>
      </trkpt>
      <trkpt lat="50.806190" lon="17.926801">
        <ele>160.479873</ele>
        <time>2025-10-05T20:58:49.176Z</time>
      </trkpt>
      <trkpt lat="50.806156" lon="17.927116">
        <ele>160.519683</ele>
        <time>2025-10-05T20:58:54.389Z</time>
      </trkpt>
      <trkpt lat="50.806203" lon="17.927158">
        <ele>160.530323</ele>
        <time>2025-10-05T20:58:56.513Z</time>
      </trkpt>
      <trkpt lat="50.805607" lon="17.929367">
        <ele>160.617564</ele>
        <time>2025-10-05T20:59:31.277Z</time>
      </trkpt>
      <trkpt lat="50.805498" lon="17.929926">
        <ele>160.560387</ele>
        <time>2025-10-05T20:59:39.259Z</time>
      </trkpt>
      <trkpt lat="50.805471" lon="17.930324">
        <ele>160.521264</ele>
        <time>2025-10-05T20:59:44.660Z</time>
      </trkpt>
      <trkpt lat="50.805477" lon="17.931092">
        <ele>160.446195</ele>
        <time>2025-10-05T20:59:54.965Z</time>
      </trkpt>
      <trkpt lat="50.805537" lon="17.931696">
        <ele>160.446249</ele>
        <time>2025-10-05T21:00:03.228Z</time>
      </trkpt>
      <trkpt lat="50.805674" lon="17.932256">
        <ele>160.463635</ele>
        <time>2025-10-05T21:00:11.543Z</time>
      </trkpt>
      <trkpt lat="50.805980" lon="17.933208">
        <ele>160.494560</ele>
        <time>2025-10-05T21:00:27.087Z</time>
      </trkpt>
      <trkpt lat="50.805980" lon="17.933208">
        <ele>160.494560</ele>
        <time>2025-10-05T21:00:27.090Z</time>
      </trkpt>
      <trkpt lat="50.806155" lon="17.934357">
        <ele>160.514986</ele>
        <time>2025-10-05T21:00:44.763Z</time>
      </trkpt>
      <trkpt lat="50.806110" lon="17.934320">
        <ele>160.514986</ele>
        <time>2025-10-05T21:00:45.998Z</time>
      </trkpt>
      <trkpt lat="50.806226" lon="17.935156">
        <ele>160.514986</ele>
        <time>2025-10-05T21:00:59.085Z</time>
      </trkpt>
      <trkpt lat="50.806163" lon="17.935501">
        <ele>160.514986</ele>
        <time>2025-10-05T21:01:04.429Z</time>
      </trkpt>
      <trkpt lat="50.806217" lon="17.935747">
        <ele>160.514986</ele>
        <time>2025-10-05T21:01:08.245Z</time>
      </trkpt>
    </trkseg>
  </trk>
</gpx>