<?xml version='1.0' encoding='UTF-8'?>
<gpx version="1.1" creator="https://www.komoot.de" xmlns="http://www.topografix.com/GPX/1/1" xmlns:xsi="http://www.w3.org/2001/XMLSchema-instance" xsi:schemaLocation="http://www.topografix.com/GPX/1/1 http://www.topografix.com/GPX/1/1/gpx.xsd">
  <metadata>
    <name>2025/06/18 - GraveLova Środa #059 - Ścieżka Rysia</name>
    <author>
      <link href="https://www.komoot.de">
        <text>komoot</text>
        <type>text/html</type>
      </link>
    </author>
  </metadata>
  <trk>
    <name>2025/06/18 - GraveLova Środa #059 - Ścieżka Rysia</name>
    <trkseg>
      <trkpt lat="50.656555" lon="17.914435">
        <ele>150.813931</ele>
        <time>2025-06-14T18:32:26.141Z</time>
      </trkpt>
      <trkpt lat="50.656562" lon="17.914205">
        <ele>150.813931</ele>
        <time>2025-06-14T18:32:29.555Z</time>
      </trkpt>
      <trkpt lat="50.656527" lon="17.913921">
        <ele>150.813931</ele>
        <time>2025-06-14T18:32:33.814Z</time>
      </trkpt>
      <trkpt lat="50.656430" lon="17.913905">
        <ele>150.813931</ele>
        <time>2025-06-14T18:32:36.108Z</time>
      </trkpt>
      <trkpt lat="50.656334" lon="17.913924">
        <ele>150.813931</ele>
        <time>2025-06-14T18:32:38.355Z</time>
      </trkpt>
      <trkpt lat="50.656168" lon="17.913998">
        <ele>150.813931</ele>
        <time>2025-06-14T18:32:42.372Z</time>
      </trkpt>
      <trkpt lat="50.656278" lon="17.914000">
        <ele>150.813931</ele>
        <time>2025-06-14T18:32:44.804Z</time>
      </trkpt>
      <trkpt lat="50.656320" lon="17.914130">
        <ele>150.813931</ele>
        <time>2025-06-14T18:32:46.913Z</time>
      </trkpt>
      <trkpt lat="50.656253" lon="17.914156">
        <ele>150.818639</ele>
        <time>2025-06-14T18:32:48.439Z</time>
      </trkpt>
      <trkpt lat="50.656140" lon="17.914262">
        <ele>150.827691</ele>
        <time>2025-06-14T18:32:51.379Z</time>
      </trkpt>
      <trkpt lat="50.656120" lon="17.914415">
        <ele>150.834511</ele>
        <time>2025-06-14T18:32:53.621Z</time>
      </trkpt>
      <trkpt lat="50.656155" lon="17.914529">
        <ele>150.840040</ele>
        <time>2025-06-14T18:32:55.406Z</time>
      </trkpt>
      <trkpt lat="50.656293" lon="17.914644">
        <ele>150.850787</ele>
        <time>2025-06-14T18:32:58.971Z</time>
      </trkpt>
      <trkpt lat="50.656373" lon="17.914625">
        <ele>150.856358</ele>
        <time>2025-06-14T18:33:00.876Z</time>
      </trkpt>
      <trkpt lat="50.656451" lon="17.914492">
        <ele>150.864267</ele>
        <time>2025-06-14T18:33:03.566Z</time>
      </trkpt>
      <trkpt lat="50.656463" lon="17.914411">
        <ele>150.867898</ele>
        <time>2025-06-14T18:33:04.811Z</time>
      </trkpt>
      <trkpt lat="50.656423" lon="17.914153">
        <ele>150.879493</ele>
        <time>2025-06-14T18:33:08.721Z</time>
      </trkpt>
      <trkpt lat="50.656445" lon="17.910616">
        <ele>150.966022</ele>
        <time>2025-06-14T18:33:58.640Z</time>
      </trkpt>
      <trkpt lat="50.656439" lon="17.910189">
        <ele>150.971500</ele>
        <time>2025-06-14T18:34:04.720Z</time>
      </trkpt>
      <trkpt lat="50.656364" lon="17.909295">
        <ele>150.913116</ele>
        <time>2025-06-14T18:34:17.469Z</time>
      </trkpt>
      <trkpt lat="50.656368" lon="17.909216">
        <ele>150.906141</ele>
        <time>2025-06-14T18:34:18.590Z</time>
      </trkpt>
      <trkpt lat="50.656470" lon="17.909222">
        <ele>150.891971</ele>
        <time>2025-06-14T18:34:20.772Z</time>
      </trkpt>
      <trkpt lat="50.656506" lon="17.910672">
        <ele>150.764259</ele>
        <time>2025-06-14T18:34:40.734Z</time>
      </trkpt>
      <trkpt lat="50.656565" lon="17.911147">
        <ele>150.724063</ele>
        <time>2025-06-14T18:34:51.832Z</time>
      </trkpt>
      <trkpt lat="50.656006" lon="17.911580">
        <ele>150.711411</ele>
        <time>2025-06-14T18:35:14.479Z</time>
      </trkpt>
      <trkpt lat="50.655223" lon="17.912182">
        <ele>150.693715</ele>
        <time>2025-06-14T18:35:46.917Z</time>
      </trkpt>
      <trkpt lat="50.652683" lon="17.914136">
        <ele>150.766537</ele>
        <time>2025-06-14T18:37:31.601Z</time>
      </trkpt>
      <trkpt lat="50.649763" lon="17.916583">
        <ele>151.097689</ele>
        <time>2025-06-14T18:39:36.391Z</time>
      </trkpt>
      <trkpt lat="50.648087" lon="17.917423">
        <ele>150.977012</ele>
        <time>2025-06-14T18:40:40.668Z</time>
      </trkpt>
      <trkpt lat="50.646777" lon="17.918308">
        <ele>150.770475</ele>
        <time>2025-06-14T18:41:32.560Z</time>
      </trkpt>
      <trkpt lat="50.646361" lon="17.918410">
        <ele>150.846859</ele>
        <time>2025-06-14T18:41:48.069Z</time>
      </trkpt>
      <trkpt lat="50.645542" lon="17.918982">
        <ele>151.009375</ele>
        <time>2025-06-14T18:42:22.123Z</time>
      </trkpt>
      <trkpt lat="50.645148" lon="17.919302">
        <ele>151.089785</ele>
        <time>2025-06-14T18:42:39.386Z</time>
      </trkpt>
      <trkpt lat="50.644449" lon="17.920103">
        <ele>151.358397</ele>
        <time>2025-06-14T18:43:12.600Z</time>
      </trkpt>
      <trkpt lat="50.643889" lon="17.920823">
        <ele>151.583032</ele>
        <time>2025-06-14T18:43:39.907Z</time>
      </trkpt>
      <trkpt lat="50.643503" lon="17.921399">
        <ele>151.751616</ele>
        <time>2025-06-14T18:44:00.050Z</time>
      </trkpt>
      <trkpt lat="50.643019" lon="17.922266">
        <ele>151.987067</ele>
        <time>2025-06-14T18:44:28.524Z</time>
      </trkpt>
      <trkpt lat="50.642603" lon="17.923191">
        <ele>152.218222</ele>
        <time>2025-06-14T18:44:56.454Z</time>
      </trkpt>
      <trkpt lat="50.642358" lon="17.923895">
        <ele>152.115558</ele>
        <time>2025-06-14T18:45:15.449Z</time>
      </trkpt>
      <trkpt lat="50.642198" lon="17.924537">
        <ele>152.014158</ele>
        <time>2025-06-14T18:45:31.231Z</time>
      </trkpt>
      <trkpt lat="50.642137" lon="17.924888">
        <ele>151.960659</ele>
        <time>2025-06-14T18:45:39.391Z</time>
      </trkpt>
      <trkpt lat="50.642039" lon="17.925333">
        <ele>151.891411</ele>
        <time>2025-06-14T18:45:49.895Z</time>
      </trkpt>
      <trkpt lat="50.641750" lon="17.926327">
        <ele>151.777160</ele>
        <time>2025-06-14T18:46:04.151Z</time>
      </trkpt>
      <trkpt lat="50.641543" lon="17.926934">
        <ele>151.735049</ele>
        <time>2025-06-14T18:46:13.557Z</time>
      </trkpt>
      <trkpt lat="50.641323" lon="17.927461">
        <ele>151.696498</ele>
        <time>2025-06-14T18:46:22.418Z</time>
      </trkpt>
      <trkpt lat="50.640435" lon="17.929172">
        <ele>151.776672</ele>
        <time>2025-06-14T18:46:54.781Z</time>
      </trkpt>
      <trkpt lat="50.639644" lon="17.930097">
        <ele>151.952224</ele>
        <time>2025-06-14T18:47:31.847Z</time>
      </trkpt>
      <trkpt lat="50.638908" lon="17.930628">
        <ele>152.002079</ele>
        <time>2025-06-14T18:48:02.086Z</time>
      </trkpt>
      <trkpt lat="50.635833" lon="17.932844">
        <ele>152.076597</ele>
        <time>2025-06-14T18:50:07.898Z</time>
      </trkpt>
      <trkpt lat="50.634246" lon="17.933778">
        <ele>151.820402</ele>
        <time>2025-06-14T18:51:09.168Z</time>
      </trkpt>
      <trkpt lat="50.633779" lon="17.934049">
        <ele>151.734771</ele>
        <time>2025-06-14T18:51:27.111Z</time>
      </trkpt>
      <trkpt lat="50.633122" lon="17.934507">
        <ele>151.611156</ele>
        <time>2025-06-14T18:51:53.429Z</time>
      </trkpt>
      <trkpt lat="50.631087" lon="17.935810">
        <ele>151.971140</ele>
        <time>2025-06-14T18:53:16.687Z</time>
      </trkpt>
      <trkpt lat="50.630284" lon="17.936277">
        <ele>152.113427</ele>
        <time>2025-06-14T18:53:48.795Z</time>
      </trkpt>
      <trkpt lat="50.629227" lon="17.936566">
        <ele>152.259656</ele>
        <time>2025-06-14T18:54:29.217Z</time>
      </trkpt>
      <trkpt lat="50.628640" lon="17.936594">
        <ele>152.310554</ele>
        <time>2025-06-14T18:54:51.600Z</time>
      </trkpt>
      <trkpt lat="50.627779" lon="17.936471">
        <ele>152.359972</ele>
        <time>2025-06-14T18:55:23.872Z</time>
      </trkpt>
      <trkpt lat="50.627702" lon="17.936085">
        <ele>152.266814</ele>
        <time>2025-06-14T18:55:29.581Z</time>
      </trkpt>
      <trkpt lat="50.627071" lon="17.933904">
        <ele>151.728478</ele>
        <time>2025-06-14T18:56:02.160Z</time>
      </trkpt>
      <trkpt lat="50.626927" lon="17.933604">
        <ele>151.733186</ele>
        <time>2025-06-14T18:56:07.459Z</time>
      </trkpt>
      <trkpt lat="50.626237" lon="17.932969">
        <ele>151.748946</ele>
        <time>2025-06-14T18:56:25.923Z</time>
      </trkpt>
      <trkpt lat="50.623708" lon="17.931490">
        <ele>152.124862</ele>
        <time>2025-06-14T18:57:30.947Z</time>
      </trkpt>
      <trkpt lat="50.623382" lon="17.931120">
        <ele>152.115570</ele>
        <time>2025-06-14T18:57:40.420Z</time>
      </trkpt>
      <trkpt lat="50.623042" lon="17.930626">
        <ele>152.104873</ele>
        <time>2025-06-14T18:57:51.174Z</time>
      </trkpt>
      <trkpt lat="50.622667" lon="17.930152">
        <ele>152.093754</ele>
        <time>2025-06-14T18:58:02.033Z</time>
      </trkpt>
      <trkpt lat="50.622401" lon="17.929976">
        <ele>152.087389</ele>
        <time>2025-06-14T18:58:08.401Z</time>
      </trkpt>
      <trkpt lat="50.622265" lon="17.929939">
        <ele>152.089606</ele>
        <time>2025-06-14T18:58:11.468Z</time>
      </trkpt>
      <trkpt lat="50.622173" lon="17.929907">
        <ele>152.091119</ele>
        <time>2025-06-14T18:58:13.576Z</time>
      </trkpt>
      <trkpt lat="50.621444" lon="17.929564">
        <ele>152.103341</ele>
        <time>2025-06-14T18:58:30.624Z</time>
      </trkpt>
      <trkpt lat="50.621098" lon="17.928483">
        <ele>152.115682</ele>
        <time>2025-06-14T18:58:48.655Z</time>
      </trkpt>
      <trkpt lat="50.620997" lon="17.928123">
        <ele>152.512213</ele>
        <time>2025-06-14T18:58:54.779Z</time>
      </trkpt>
      <trkpt lat="50.620991" lon="17.927962">
        <ele>152.696314</ele>
        <time>2025-06-14T18:58:57.439Z</time>
      </trkpt>
      <trkpt lat="50.621247" lon="17.927205">
        <ele>153.675533</ele>
        <time>2025-06-14T18:59:13.271Z</time>
      </trkpt>
      <trkpt lat="50.621325" lon="17.927116">
        <ele>153.848786</ele>
        <time>2025-06-14T18:59:16.360Z</time>
      </trkpt>
      <trkpt lat="50.621589" lon="17.926965">
        <ele>154.354091</ele>
        <time>2025-06-14T18:59:25.782Z</time>
      </trkpt>
      <trkpt lat="50.621399" lon="17.925342">
        <ele>156.198008</ele>
        <time>2025-06-14T19:00:01.910Z</time>
      </trkpt>
      <trkpt lat="50.620444" lon="17.925285">
        <ele>157.839807</ele>
        <time>2025-06-14T19:00:30.668Z</time>
      </trkpt>
      <trkpt lat="50.619829" lon="17.925254">
        <ele>158.614270</ele>
        <time>2025-06-14T19:00:45.528Z</time>
      </trkpt>
      <trkpt lat="50.619805" lon="17.924905">
        <ele>158.759034</ele>
        <time>2025-06-14T19:00:50.923Z</time>
      </trkpt>
      <trkpt lat="50.619789" lon="17.924681">
        <ele>158.851990</ele>
        <time>2025-06-14T19:00:54.406Z</time>
      </trkpt>
      <trkpt lat="50.619376" lon="17.924780">
        <ele>159.123514</ele>
        <time>2025-06-14T19:01:04.275Z</time>
      </trkpt>
      <trkpt lat="50.619237" lon="17.924813">
        <ele>159.214878</ele>
        <time>2025-06-14T19:01:07.714Z</time>
      </trkpt>
      <trkpt lat="50.619165" lon="17.924831">
        <ele>159.262261</ele>
        <time>2025-06-14T19:01:09.524Z</time>
      </trkpt>
      <trkpt lat="50.619142" lon="17.924641">
        <ele>159.342028</ele>
        <time>2025-06-14T19:01:13.439Z</time>
      </trkpt>
      <trkpt lat="50.619057" lon="17.924117">
        <ele>159.565069</ele>
        <time>2025-06-14T19:01:27.609Z</time>
      </trkpt>
      <trkpt lat="50.618889" lon="17.923641">
        <ele>159.876654</ele>
        <time>2025-06-14T19:01:42.384Z</time>
      </trkpt>
      <trkpt lat="50.618877" lon="17.922944">
        <ele>160.304389</ele>
        <time>2025-06-14T19:02:00.987Z</time>
      </trkpt>
      <trkpt lat="50.618924" lon="17.922465">
        <ele>160.601727</ele>
        <time>2025-06-14T19:02:13.715Z</time>
      </trkpt>
      <trkpt lat="50.618963" lon="17.921298">
        <ele>161.318620</ele>
        <time>2025-06-14T19:02:43.717Z</time>
      </trkpt>
      <trkpt lat="50.618992" lon="17.920455">
        <ele>161.525821</ele>
        <time>2025-06-14T19:03:04.793Z</time>
      </trkpt>
      <trkpt lat="50.618831" lon="17.917467">
        <ele>162.205407</ele>
        <time>2025-06-14T19:04:16.871Z</time>
      </trkpt>
      <trkpt lat="50.619033" lon="17.917404">
        <ele>162.282590</ele>
        <time>2025-06-14T19:04:24.713Z</time>
      </trkpt>
      <trkpt lat="50.619110" lon="17.917312">
        <ele>162.318807</ele>
        <time>2025-06-14T19:04:28.385Z</time>
      </trkpt>
      <trkpt lat="50.619127" lon="17.917127">
        <ele>162.363262</ele>
        <time>2025-06-14T19:04:32.895Z</time>
      </trkpt>
      <trkpt lat="50.619025" lon="17.915629">
        <ele>162.836311</ele>
        <time>2025-06-14T19:05:10.053Z</time>
      </trkpt>
      <trkpt lat="50.619059" lon="17.915171">
        <ele>163.127274</ele>
        <time>2025-06-14T19:05:21.725Z</time>
      </trkpt>
      <trkpt lat="50.619619" lon="17.911910">
        <ele>165.509555</ele>
        <time>2025-06-14T19:06:51.327Z</time>
      </trkpt>
      <trkpt lat="50.619690" lon="17.911216">
        <ele>166.088997</ele>
        <time>2025-06-14T19:07:10.418Z</time>
      </trkpt>
      <trkpt lat="50.619812" lon="17.910672">
        <ele>166.564594</ele>
        <time>2025-06-14T19:07:26.083Z</time>
      </trkpt>
      <trkpt lat="50.620168" lon="17.909472">
        <ele>167.806540</ele>
        <time>2025-06-14T19:08:01.835Z</time>
      </trkpt>
      <trkpt lat="50.620605" lon="17.908203">
        <ele>169.199842</ele>
        <time>2025-06-14T19:08:40.918Z</time>
      </trkpt>
      <trkpt lat="50.621306" lon="17.906652">
        <ele>172.063648</ele>
        <time>2025-06-14T19:09:35.577Z</time>
      </trkpt>
      <trkpt lat="50.621454" lon="17.906218">
        <ele>172.859229</ele>
        <time>2025-06-14T19:09:50.722Z</time>
      </trkpt>
      <trkpt lat="50.621791" lon="17.904271">
        <ele>176.219969</ele>
        <time>2025-06-14T19:10:55.830Z</time>
      </trkpt>
      <trkpt lat="50.621973" lon="17.903770">
        <ele>177.199088</ele>
        <time>2025-06-14T19:11:13.995Z</time>
      </trkpt>
      <trkpt lat="50.622113" lon="17.902765">
        <ele>178.904408</ele>
        <time>2025-06-14T19:11:44.174Z</time>
      </trkpt>
      <trkpt lat="50.614236" lon="17.900768">
        <ele>181.719026</ele>
        <time>2025-06-14T19:16:47.020Z</time>
      </trkpt>
      <trkpt lat="50.613749" lon="17.897922">
        <ele>183.022445</ele>
        <time>2025-06-14T19:18:06.978Z</time>
      </trkpt>
      <trkpt lat="50.613757" lon="17.897793">
        <ele>183.063466</ele>
        <time>2025-06-14T19:18:10.347Z</time>
      </trkpt>
      <trkpt lat="50.613900" lon="17.896925">
        <ele>183.347280</ele>
        <time>2025-06-14T19:18:23.980Z</time>
      </trkpt>
      <trkpt lat="50.613556" lon="17.896856">
        <ele>183.307629</ele>
        <time>2025-06-14T19:18:31.025Z</time>
      </trkpt>
      <trkpt lat="50.613267" lon="17.896841">
        <ele>182.595086</ele>
        <time>2025-06-14T19:18:36.599Z</time>
      </trkpt>
      <trkpt lat="50.612807" lon="17.896830">
        <ele>181.461418</ele>
        <time>2025-06-14T19:18:44.980Z</time>
      </trkpt>
      <trkpt lat="50.612295" lon="17.896808">
        <ele>180.199273</ele>
        <time>2025-06-14T19:18:53.776Z</time>
      </trkpt>
      <trkpt lat="50.612105" lon="17.896768">
        <ele>179.726914</ele>
        <time>2025-06-14T19:18:56.995Z</time>
      </trkpt>
      <trkpt lat="50.610760" lon="17.896402">
        <ele>175.768149</ele>
        <time>2025-06-14T19:19:20.024Z</time>
      </trkpt>
      <trkpt lat="50.608142" lon="17.895615">
        <ele>169.595258</ele>
        <time>2025-06-14T19:20:07.903Z</time>
      </trkpt>
      <trkpt lat="50.608453" lon="17.893602">
        <ele>168.718847</ele>
        <time>2025-06-14T19:20:36.217Z</time>
      </trkpt>
      <trkpt lat="50.608461" lon="17.893523">
        <ele>168.685006</ele>
        <time>2025-06-14T19:20:37.307Z</time>
      </trkpt>
      <trkpt lat="50.607854" lon="17.893427">
        <ele>168.323281</ele>
        <time>2025-06-14T19:20:49.899Z</time>
      </trkpt>
      <trkpt lat="50.607523" lon="17.893407">
        <ele>168.146765</ele>
        <time>2025-06-14T19:20:56.382Z</time>
      </trkpt>
      <trkpt lat="50.606516" lon="17.893379">
        <ele>167.610062</ele>
        <time>2025-06-14T19:21:16.976Z</time>
      </trkpt>
      <trkpt lat="50.606184" lon="17.893372">
        <ele>167.445852</ele>
        <time>2025-06-14T19:21:23.775Z</time>
      </trkpt>
      <trkpt lat="50.606305" lon="17.892425">
        <ele>167.156697</ele>
        <time>2025-06-14T19:21:45.737Z</time>
      </trkpt>
      <trkpt lat="50.606389" lon="17.889683">
        <ele>166.392880</ele>
        <time>2025-06-14T19:22:46.903Z</time>
      </trkpt>
      <trkpt lat="50.606478" lon="17.888483">
        <ele>166.089316</ele>
        <time>2025-06-14T19:23:14.313Z</time>
      </trkpt>
      <trkpt lat="50.607294" lon="17.879630">
        <ele>165.083230</ele>
        <time>2025-06-14T19:26:41.220Z</time>
      </trkpt>
      <trkpt lat="50.607294" lon="17.879630">
        <ele>165.083230</ele>
        <time>2025-06-14T19:26:41.230Z</time>
      </trkpt>
      <trkpt lat="50.607365" lon="17.879144">
        <ele>165.169084</ele>
        <time>2025-06-14T19:26:52.565Z</time>
      </trkpt>
      <trkpt lat="50.607408" lon="17.878329">
        <ele>165.309871</ele>
        <time>2025-06-14T19:27:11.385Z</time>
      </trkpt>
      <trkpt lat="50.607948" lon="17.872393">
        <ele>166.956763</ele>
        <time>2025-06-14T19:29:39.056Z</time>
      </trkpt>
      <trkpt lat="50.608602" lon="17.871777">
        <ele>167.627873</ele>
        <time>2025-06-14T19:30:10.878Z</time>
      </trkpt>
      <trkpt lat="50.608224" lon="17.871294">
        <ele>168.543460</ele>
        <time>2025-06-14T19:30:32.867Z</time>
      </trkpt>
      <trkpt lat="50.608182" lon="17.871133">
        <ele>168.751293</ele>
        <time>2025-06-14T19:30:38.002Z</time>
      </trkpt>
      <trkpt lat="50.608047" lon="17.869481">
        <ele>170.739992</ele>
        <time>2025-06-14T19:31:27.389Z</time>
      </trkpt>
      <trkpt lat="50.607978" lon="17.868581">
        <ele>170.890326</ele>
        <time>2025-06-14T19:31:42.709Z</time>
      </trkpt>
      <trkpt lat="50.607831" lon="17.866670">
        <ele>170.669751</ele>
        <time>2025-06-14T19:32:07.236Z</time>
      </trkpt>
      <trkpt lat="50.607435" lon="17.866499">
        <ele>170.325122</ele>
        <time>2025-06-14T19:32:14.961Z</time>
      </trkpt>
      <trkpt lat="50.606194" lon="17.865766">
        <ele>168.830718</ele>
        <time>2025-06-14T19:32:39.849Z</time>
      </trkpt>
      <trkpt lat="50.605437" lon="17.865333">
        <ele>168.759639</ele>
        <time>2025-06-14T19:32:55.669Z</time>
      </trkpt>
      <trkpt lat="50.604998" lon="17.865142">
        <ele>168.863284</ele>
        <time>2025-06-14T19:33:06.110Z</time>
      </trkpt>
      <trkpt lat="50.603051" lon="17.864644">
        <ele>169.569597</ele>
        <time>2025-06-14T19:33:59.891Z</time>
      </trkpt>
      <trkpt lat="50.602683" lon="17.864489">
        <ele>169.734927</ele>
        <time>2025-06-14T19:34:07.752Z</time>
      </trkpt>
      <trkpt lat="50.602967" lon="17.862561">
        <ele>167.772014</ele>
        <time>2025-06-14T19:34:31.063Z</time>
      </trkpt>
      <trkpt lat="50.602866" lon="17.862596">
        <ele>167.577930</ele>
        <time>2025-06-14T19:34:38.207Z</time>
      </trkpt>
      <trkpt lat="50.602653" lon="17.862379">
        <ele>167.101891</ele>
        <time>2025-06-14T19:34:45.954Z</time>
      </trkpt>
      <trkpt lat="50.602066" lon="17.861997">
        <ele>166.243029</ele>
        <time>2025-06-14T19:35:05.672Z</time>
      </trkpt>
      <trkpt lat="50.601661" lon="17.861500">
        <ele>165.892590</ele>
        <time>2025-06-14T19:35:22.609Z</time>
      </trkpt>
      <trkpt lat="50.601353" lon="17.861226">
        <ele>165.651133</ele>
        <time>2025-06-14T19:35:35.005Z</time>
      </trkpt>
      <trkpt lat="50.601201" lon="17.861192">
        <ele>165.546330</ele>
        <time>2025-06-14T19:35:40.629Z</time>
      </trkpt>
      <trkpt lat="50.600691" lon="17.861399">
        <ele>165.225636</ele>
        <time>2025-06-14T19:36:01.326Z</time>
      </trkpt>
      <trkpt lat="50.600541" lon="17.861528">
        <ele>165.350034</ele>
        <time>2025-06-14T19:36:08.245Z</time>
      </trkpt>
      <trkpt lat="50.600239" lon="17.861874">
        <ele>165.621852</ele>
        <time>2025-06-14T19:36:23.634Z</time>
      </trkpt>
      <trkpt lat="50.600009" lon="17.862078">
        <ele>165.813986</ele>
        <time>2025-06-14T19:36:34.555Z</time>
      </trkpt>
      <trkpt lat="50.599889" lon="17.862136">
        <ele>165.905357</ele>
        <time>2025-06-14T19:36:39.718Z</time>
      </trkpt>
      <trkpt lat="50.599637" lon="17.862176">
        <ele>166.089725</ele>
        <time>2025-06-14T19:36:49.969Z</time>
      </trkpt>
      <trkpt lat="50.599430" lon="17.862312">
        <ele>166.252985</ele>
        <time>2025-06-14T19:36:58.934Z</time>
      </trkpt>
      <trkpt lat="50.599176" lon="17.862482">
        <ele>166.453874</ele>
        <time>2025-06-14T19:37:09.544Z</time>
      </trkpt>
      <trkpt lat="50.599072" lon="17.862482">
        <ele>166.540921</ele>
        <time>2025-06-14T19:37:13.477Z</time>
      </trkpt>
      <trkpt lat="50.598819" lon="17.862381">
        <ele>166.877672</ele>
        <time>2025-06-14T19:37:23.323Z</time>
      </trkpt>
      <trkpt lat="50.598483" lon="17.862064">
        <ele>167.382990</ele>
        <time>2025-06-14T19:37:38.748Z</time>
      </trkpt>
      <trkpt lat="50.598246" lon="17.861816">
        <ele>167.750088</ele>
        <time>2025-06-14T19:37:50.899Z</time>
      </trkpt>
      <trkpt lat="50.598483" lon="17.862064">
        <ele>168.117186</ele>
        <time>2025-06-14T19:38:03.187Z</time>
      </trkpt>
      <trkpt lat="50.598385" lon="17.862369">
        <ele>168.397159</ele>
        <time>2025-06-14T19:38:12.630Z</time>
      </trkpt>
      <trkpt lat="50.598185" lon="17.862906">
        <ele>168.951131</ele>
        <time>2025-06-14T19:38:30.435Z</time>
      </trkpt>
      <trkpt lat="50.598112" lon="17.863157">
        <ele>169.316638</ele>
        <time>2025-06-14T19:38:37.203Z</time>
      </trkpt>
      <trkpt lat="50.598095" lon="17.863772">
        <ele>170.131581</ele>
        <time>2025-06-14T19:38:53.023Z</time>
      </trkpt>
      <trkpt lat="50.596871" lon="17.864042">
        <ele>172.634464</ele>
        <time>2025-06-14T19:39:31.262Z</time>
      </trkpt>
      <trkpt lat="50.595801" lon="17.864366">
        <ele>173.517935</ele>
        <time>2025-06-14T19:39:58.936Z</time>
      </trkpt>
      <trkpt lat="50.594280" lon="17.864860">
        <ele>174.538784</ele>
        <time>2025-06-14T19:40:35.721Z</time>
      </trkpt>
      <trkpt lat="50.593022" lon="17.865345">
        <ele>174.623364</ele>
        <time>2025-06-14T19:41:08.695Z</time>
      </trkpt>
      <trkpt lat="50.592703" lon="17.865484">
        <ele>174.287232</ele>
        <time>2025-06-14T19:41:16.040Z</time>
      </trkpt>
      <trkpt lat="50.592053" lon="17.865766">
        <ele>173.602532</ele>
        <time>2025-06-14T19:41:28.699Z</time>
      </trkpt>
      <trkpt lat="50.592037" lon="17.865698">
        <ele>173.555777</ele>
        <time>2025-06-14T19:41:29.481Z</time>
      </trkpt>
      <trkpt lat="50.591833" lon="17.864611">
        <ele>172.291396</ele>
        <time>2025-06-14T19:41:41.256Z</time>
      </trkpt>
      <trkpt lat="50.591724" lon="17.864197">
        <ele>171.593520</ele>
        <time>2025-06-14T19:41:45.777Z</time>
      </trkpt>
      <trkpt lat="50.591505" lon="17.863955">
        <ele>170.937379</ele>
        <time>2025-06-14T19:41:50.022Z</time>
      </trkpt>
      <trkpt lat="50.591251" lon="17.863605">
        <ele>170.109651</ele>
        <time>2025-06-14T19:41:55.610Z</time>
      </trkpt>
      <trkpt lat="50.590978" lon="17.863219">
        <ele>169.209865</ele>
        <time>2025-06-14T19:42:02.174Z</time>
      </trkpt>
      <trkpt lat="50.590784" lon="17.863049">
        <ele>168.813992</ele>
        <time>2025-06-14T19:42:06.471Z</time>
      </trkpt>
      <trkpt lat="50.590552" lon="17.862903">
        <ele>168.929321</ele>
        <time>2025-06-14T19:42:11.797Z</time>
      </trkpt>
      <trkpt lat="50.589992" lon="17.862402">
        <ele>169.226620</ele>
        <time>2025-06-14T19:42:28.271Z</time>
      </trkpt>
      <trkpt lat="50.589860" lon="17.862237">
        <ele>169.304411</ele>
        <time>2025-06-14T19:42:32.861Z</time>
      </trkpt>
      <trkpt lat="50.589836" lon="17.862098">
        <ele>169.346627</ele>
        <time>2025-06-14T19:42:35.431Z</time>
      </trkpt>
      <trkpt lat="50.590009" lon="17.861786">
        <ele>169.468031</ele>
        <time>2025-06-14T19:42:42.752Z</time>
      </trkpt>
      <trkpt lat="50.590318" lon="17.861118">
        <ele>169.582306</ele>
        <time>2025-06-14T19:42:56.352Z</time>
      </trkpt>
      <trkpt lat="50.590340" lon="17.860973">
        <ele>169.563539</ele>
        <time>2025-06-14T19:42:58.539Z</time>
      </trkpt>
      <trkpt lat="50.590352" lon="17.860854">
        <ele>169.548370</ele>
        <time>2025-06-14T19:43:00.261Z</time>
      </trkpt>
      <trkpt lat="50.590373" lon="17.860689">
        <ele>169.527186</ele>
        <time>2025-06-14T19:43:02.588Z</time>
      </trkpt>
      <trkpt lat="50.590460" lon="17.859967">
        <ele>169.434673</ele>
        <time>2025-06-14T19:43:12.317Z</time>
      </trkpt>
      <trkpt lat="50.590464" lon="17.859667">
        <ele>169.396899</ele>
        <time>2025-06-14T19:43:16.149Z</time>
      </trkpt>
      <trkpt lat="50.590427" lon="17.858850">
        <ele>169.293788</ele>
        <time>2025-06-14T19:43:26.507Z</time>
      </trkpt>
      <trkpt lat="50.590382" lon="17.858624">
        <ele>169.264119</ele>
        <time>2025-06-14T19:43:29.523Z</time>
      </trkpt>
      <trkpt lat="50.590283" lon="17.858517">
        <ele>169.267895</ele>
        <time>2025-06-14T19:43:31.957Z</time>
      </trkpt>
      <trkpt lat="50.590024" lon="17.858476">
        <ele>169.276080</ele>
        <time>2025-06-14T19:43:37.241Z</time>
      </trkpt>
      <trkpt lat="50.589889" lon="17.858038">
        <ele>169.285799</ele>
        <time>2025-06-14T19:43:48.320Z</time>
      </trkpt>
      <trkpt lat="50.589093" lon="17.854519">
        <ele>169.754646</ele>
        <time>2025-06-14T19:45:19.931Z</time>
      </trkpt>
      <trkpt lat="50.589672" lon="17.853617">
        <ele>169.962515</ele>
        <time>2025-06-14T19:45:50.974Z</time>
      </trkpt>
      <trkpt lat="50.589835" lon="17.853368">
        <ele>169.981970</ele>
        <time>2025-06-14T19:45:59.659Z</time>
      </trkpt>
      <trkpt lat="50.590139" lon="17.852902">
        <ele>170.018313</ele>
        <time>2025-06-14T19:46:15.747Z</time>
      </trkpt>
      <trkpt lat="50.590752" lon="17.852121">
        <ele>170.085861</ele>
        <time>2025-06-14T19:46:44.718Z</time>
      </trkpt>
      <trkpt lat="50.591202" lon="17.851691">
        <ele>170.284271</ele>
        <time>2025-06-14T19:47:03.893Z</time>
      </trkpt>
      <trkpt lat="50.591742" lon="17.851163">
        <ele>170.557087</ele>
        <time>2025-06-14T19:47:27.548Z</time>
      </trkpt>
      <trkpt lat="50.593251" lon="17.844404">
        <ele>174.815678</ele>
        <time>2025-06-14T19:50:35.649Z</time>
      </trkpt>
      <trkpt lat="50.593314" lon="17.844266">
        <ele>174.904477</ele>
        <time>2025-06-14T19:50:40.052Z</time>
      </trkpt>
      <trkpt lat="50.594015" lon="17.842774">
        <ele>175.874159</ele>
        <time>2025-06-14T19:51:27.187Z</time>
      </trkpt>
      <trkpt lat="50.596162" lon="17.838121">
        <ele>178.115933</ele>
        <time>2025-06-14T19:53:53.172Z</time>
      </trkpt>
      <trkpt lat="50.595104" lon="17.836894">
        <ele>176.872273</ele>
        <time>2025-06-14T19:54:22.363Z</time>
      </trkpt>
      <trkpt lat="50.594042" lon="17.835693">
        <ele>174.701625</ele>
        <time>2025-06-14T19:54:48.095Z</time>
      </trkpt>
      <trkpt lat="50.593428" lon="17.834961">
        <ele>173.030542</ele>
        <time>2025-06-14T19:55:02.469Z</time>
      </trkpt>
      <trkpt lat="50.592766" lon="17.834167">
        <ele>172.517632</ele>
        <time>2025-06-14T19:55:19.510Z</time>
      </trkpt>
      <trkpt lat="50.592736" lon="17.834138">
        <ele>172.554408</ele>
        <time>2025-06-14T19:55:20.342Z</time>
      </trkpt>
      <trkpt lat="50.590740" lon="17.831871">
        <ele>175.951258</ele>
        <time>2025-06-14T19:56:41.650Z</time>
      </trkpt>
      <trkpt lat="50.590657" lon="17.831792">
        <ele>176.125424</ele>
        <time>2025-06-14T19:56:44.720Z</time>
      </trkpt>
      <trkpt lat="50.589859" lon="17.830862">
        <ele>177.944305</ele>
        <time>2025-06-14T19:57:14.407Z</time>
      </trkpt>
      <trkpt lat="50.589687" lon="17.830649">
        <ele>178.357461</ele>
        <time>2025-06-14T19:57:20.843Z</time>
      </trkpt>
      <trkpt lat="50.587367" lon="17.827966">
        <ele>183.835910</ele>
        <time>2025-06-14T19:58:57.357Z</time>
      </trkpt>
      <trkpt lat="50.585194" lon="17.825420">
        <ele>185.749248</ele>
        <time>2025-06-14T20:00:08.882Z</time>
      </trkpt>
      <trkpt lat="50.584368" lon="17.824466">
        <ele>186.520715</ele>
        <time>2025-06-14T20:00:35.986Z</time>
      </trkpt>
      <trkpt lat="50.583877" lon="17.823900">
        <ele>186.985680</ele>
        <time>2025-06-14T20:00:52.035Z</time>
      </trkpt>
      <trkpt lat="50.582794" lon="17.822652">
        <ele>187.974636</ele>
        <time>2025-06-14T20:01:25.222Z</time>
      </trkpt>
      <trkpt lat="50.582437" lon="17.822240">
        <ele>188.221682</ele>
        <time>2025-06-14T20:01:35.672Z</time>
      </trkpt>
      <trkpt lat="50.580988" lon="17.820569">
        <ele>189.628962</ele>
        <time>2025-06-14T20:02:19.731Z</time>
      </trkpt>
      <trkpt lat="50.579735" lon="17.819123">
        <ele>191.434386</ele>
        <time>2025-06-14T20:03:04.304Z</time>
      </trkpt>
      <trkpt lat="50.579679" lon="17.819059">
        <ele>191.503386</ele>
        <time>2025-06-14T20:03:06.258Z</time>
      </trkpt>
      <trkpt lat="50.579705" lon="17.819004">
        <ele>191.546805</ele>
        <time>2025-06-14T20:03:07.498Z</time>
      </trkpt>
      <trkpt lat="50.581814" lon="17.814740">
        <ele>193.796442</ele>
        <time>2025-06-14T20:04:37.354Z</time>
      </trkpt>
      <trkpt lat="50.581917" lon="17.814525">
        <ele>193.678902</ele>
        <time>2025-06-14T20:04:41.000Z</time>
      </trkpt>
      <trkpt lat="50.582826" lon="17.812647">
        <ele>192.650879</ele>
        <time>2025-06-14T20:05:10.567Z</time>
      </trkpt>
      <trkpt lat="50.583836" lon="17.810559">
        <ele>191.625702</ele>
        <time>2025-06-14T20:05:44.837Z</time>
      </trkpt>
      <trkpt lat="50.585859" lon="17.806378">
        <ele>195.015102</ele>
        <time>2025-06-14T20:08:05.542Z</time>
      </trkpt>
      <trkpt lat="50.587895" lon="17.802170">
        <ele>195.760918</ele>
        <time>2025-06-14T20:10:10.194Z</time>
      </trkpt>
      <trkpt lat="50.589714" lon="17.798366">
        <ele>198.053673</ele>
        <time>2025-06-14T20:12:13.806Z</time>
      </trkpt>
      <trkpt lat="50.591506" lon="17.794650">
        <ele>198.821408</ele>
        <time>2025-06-14T20:14:08.329Z</time>
      </trkpt>
      <trkpt lat="50.591287" lon="17.794487">
        <ele>198.397516</ele>
        <time>2025-06-14T20:14:16.150Z</time>
      </trkpt>
      <trkpt lat="50.590883" lon="17.794095">
        <ele>197.567122</ele>
        <time>2025-06-14T20:14:31.039Z</time>
      </trkpt>
      <trkpt lat="50.589669" lon="17.792748">
        <ele>195.191027</ele>
        <time>2025-06-14T20:15:16.837Z</time>
      </trkpt>
      <trkpt lat="50.589123" lon="17.792204">
        <ele>194.319823</ele>
        <time>2025-06-14T20:15:38.050Z</time>
      </trkpt>
      <trkpt lat="50.588635" lon="17.791623">
        <ele>193.517959</ele>
        <time>2025-06-14T20:15:59.425Z</time>
      </trkpt>
      <trkpt lat="50.588395" lon="17.791390">
        <ele>193.615408</ele>
        <time>2025-06-14T20:16:09.695Z</time>
      </trkpt>
      <trkpt lat="50.588123" lon="17.791215">
        <ele>193.716968</ele>
        <time>2025-06-14T20:16:20.613Z</time>
      </trkpt>
      <trkpt lat="50.586450" lon="17.790391">
        <ele>194.538776</ele>
        <time>2025-06-14T20:17:30.165Z</time>
      </trkpt>
      <trkpt lat="50.585593" lon="17.789946">
        <ele>195.209107</ele>
        <time>2025-06-14T20:18:06.917Z</time>
      </trkpt>
      <trkpt lat="50.585273" lon="17.789743">
        <ele>195.465378</ele>
        <time>2025-06-14T20:18:20.745Z</time>
      </trkpt>
      <trkpt lat="50.584968" lon="17.789512">
        <ele>195.296254</ele>
        <time>2025-06-14T20:18:34.122Z</time>
      </trkpt>
      <trkpt lat="50.584761" lon="17.789403">
        <ele>195.180868</ele>
        <time>2025-06-14T20:18:42.453Z</time>
      </trkpt>
      <trkpt lat="50.584000" lon="17.789090">
        <ele>194.765067</ele>
        <time>2025-06-14T20:19:10.163Z</time>
      </trkpt>
      <trkpt lat="50.583480" lon="17.788975">
        <ele>194.494144</ele>
        <time>2025-06-14T20:19:26.985Z</time>
      </trkpt>
      <trkpt lat="50.582906" lon="17.788845">
        <ele>194.250043</ele>
        <time>2025-06-14T20:19:45.393Z</time>
      </trkpt>
      <trkpt lat="50.582748" lon="17.788782">
        <ele>194.181437</ele>
        <time>2025-06-14T20:19:50.785Z</time>
      </trkpt>
      <trkpt lat="50.582524" lon="17.788599">
        <ele>194.075216</ele>
        <time>2025-06-14T20:19:59.415Z</time>
      </trkpt>
      <trkpt lat="50.582377" lon="17.788478">
        <ele>194.005397</ele>
        <time>2025-06-14T20:20:05.337Z</time>
      </trkpt>
      <trkpt lat="50.582324" lon="17.788260">
        <ele>193.943005</ele>
        <time>2025-06-14T20:20:10.845Z</time>
      </trkpt>
      <trkpt lat="50.582273" lon="17.787875">
        <ele>193.837887</ele>
        <time>2025-06-14T20:20:20.778Z</time>
      </trkpt>
      <trkpt lat="50.582303" lon="17.787605">
        <ele>193.764625</ele>
        <time>2025-06-14T20:20:28.107Z</time>
      </trkpt>
      <trkpt lat="50.582405" lon="17.787112">
        <ele>194.605891</ele>
        <time>2025-06-14T20:20:43.065Z</time>
      </trkpt>
      <trkpt lat="50.582694" lon="17.786274">
        <ele>196.172855</ele>
        <time>2025-06-14T20:21:13.536Z</time>
      </trkpt>
      <trkpt lat="50.583050" lon="17.785494">
        <ele>197.751264</ele>
        <time>2025-06-14T20:21:44.031Z</time>
      </trkpt>
      <trkpt lat="50.583352" lon="17.784485">
        <ele>198.786773</ele>
        <time>2025-06-14T20:22:17.072Z</time>
      </trkpt>
      <trkpt lat="50.583960" lon="17.782974">
        <ele>199.716856</ele>
        <time>2025-06-14T20:23:01.868Z</time>
      </trkpt>
      <trkpt lat="50.584040" lon="17.782621">
        <ele>199.850853</ele>
        <time>2025-06-14T20:23:10.099Z</time>
      </trkpt>
      <trkpt lat="50.584372" lon="17.780697">
        <ele>197.917714</ele>
        <time>2025-06-14T20:23:51.177Z</time>
      </trkpt>
      <trkpt lat="50.584471" lon="17.780285">
        <ele>197.490598</ele>
        <time>2025-06-14T20:23:59.779Z</time>
      </trkpt>
      <trkpt lat="50.584714" lon="17.779712">
        <ele>196.968691</ele>
        <time>2025-06-14T20:24:13.297Z</time>
      </trkpt>
      <trkpt lat="50.585271" lon="17.779019">
        <ele>196.377800</ele>
        <time>2025-06-14T20:24:36.158Z</time>
      </trkpt>
      <trkpt lat="50.585630" lon="17.778585">
        <ele>196.001068</ele>
        <time>2025-06-14T20:24:52.188Z</time>
      </trkpt>
      <trkpt lat="50.585770" lon="17.778390">
        <ele>195.845491</ele>
        <time>2025-06-14T20:24:59.332Z</time>
      </trkpt>
      <trkpt lat="50.585895" lon="17.778160">
        <ele>195.685475</ele>
        <time>2025-06-14T20:25:07.017Z</time>
      </trkpt>
      <trkpt lat="50.586027" lon="17.777752">
        <ele>195.819423</ele>
        <time>2025-06-14T20:25:19.186Z</time>
      </trkpt>
      <trkpt lat="50.586147" lon="17.777127">
        <ele>196.112949</ele>
        <time>2025-06-14T20:25:36.836Z</time>
      </trkpt>
      <trkpt lat="50.586316" lon="17.776554">
        <ele>196.396967</ele>
        <time>2025-06-14T20:25:53.688Z</time>
      </trkpt>
      <trkpt lat="50.586379" lon="17.776405">
        <ele>196.477441</ele>
        <time>2025-06-14T20:25:58.356Z</time>
      </trkpt>
      <trkpt lat="50.587260" lon="17.775038">
        <ele>196.677920</ele>
        <time>2025-06-14T20:26:44.680Z</time>
      </trkpt>
      <trkpt lat="50.587424" lon="17.774737">
        <ele>196.578187</ele>
        <time>2025-06-14T20:26:53.508Z</time>
      </trkpt>
      <trkpt lat="50.587618" lon="17.774203">
        <ele>196.423489</ele>
        <time>2025-06-14T20:27:07.074Z</time>
      </trkpt>
      <trkpt lat="50.587840" lon="17.773300">
        <ele>196.179040</ele>
        <time>2025-06-14T20:27:28.199Z</time>
      </trkpt>
      <trkpt lat="50.588269" lon="17.771371">
        <ele>195.647175</ele>
        <time>2025-06-14T20:28:13.788Z</time>
      </trkpt>
      <trkpt lat="50.588648" lon="17.771954">
        <ele>195.486460</ele>
        <time>2025-06-14T20:28:33.212Z</time>
      </trkpt>
      <trkpt lat="50.591004" lon="17.775615">
        <ele>196.180783</ele>
        <time>2025-06-14T20:30:38.892Z</time>
      </trkpt>
      <trkpt lat="50.593377" lon="17.779214">
        <ele>197.750241</ele>
        <time>2025-06-14T20:32:47.260Z</time>
      </trkpt>
      <trkpt lat="50.593495" lon="17.779391">
        <ele>197.835649</ele>
        <time>2025-06-14T20:32:53.736Z</time>
      </trkpt>
      <trkpt lat="50.595381" lon="17.782220">
        <ele>199.429981</ele>
        <time>2025-06-14T20:34:36.418Z</time>
      </trkpt>
      <trkpt lat="50.595935" lon="17.783076">
        <ele>199.942717</ele>
        <time>2025-06-14T20:35:07.892Z</time>
      </trkpt>
      <trkpt lat="50.597074" lon="17.784806">
        <ele>199.684229</ele>
        <time>2025-06-14T20:36:09.955Z</time>
      </trkpt>
      <trkpt lat="50.598332" lon="17.786719">
        <ele>197.382545</ele>
        <time>2025-06-14T20:37:04.489Z</time>
      </trkpt>
      <trkpt lat="50.600469" lon="17.783371">
        <ele>192.866298</ele>
        <time>2025-06-14T20:38:02.159Z</time>
      </trkpt>
      <trkpt lat="50.602902" lon="17.779558">
        <ele>191.362945</ele>
        <time>2025-06-14T20:39:15.663Z</time>
      </trkpt>
      <trkpt lat="50.603945" lon="17.777920">
        <ele>192.975803</ele>
        <time>2025-06-14T20:40:00.356Z</time>
      </trkpt>
      <trkpt lat="50.606359" lon="17.774127">
        <ele>194.075181</ele>
        <time>2025-06-14T20:41:24.002Z</time>
      </trkpt>
      <trkpt lat="50.607697" lon="17.772026">
        <ele>192.999845</ele>
        <time>2025-06-14T20:42:02.251Z</time>
      </trkpt>
      <trkpt lat="50.609516" lon="17.769164">
        <ele>193.054981</ele>
        <time>2025-06-14T20:43:03.255Z</time>
      </trkpt>
      <trkpt lat="50.611222" lon="17.766499">
        <ele>193.170810</ele>
        <time>2025-06-14T20:44:01.198Z</time>
      </trkpt>
      <trkpt lat="50.612683" lon="17.764204">
        <ele>192.202764</ele>
        <time>2025-06-14T20:44:43.998Z</time>
      </trkpt>
      <trkpt lat="50.613344" lon="17.763167">
        <ele>192.298604</ele>
        <time>2025-06-14T20:45:04.844Z</time>
      </trkpt>
      <trkpt lat="50.613563" lon="17.762834">
        <ele>192.459564</ele>
        <time>2025-06-14T20:45:12.353Z</time>
      </trkpt>
      <trkpt lat="50.613605" lon="17.762774">
        <ele>192.489547</ele>
        <time>2025-06-14T20:45:13.799Z</time>
      </trkpt>
      <trkpt lat="50.614215" lon="17.768977">
        <ele>195.991015</ele>
        <time>2025-06-14T20:46:59.905Z</time>
      </trkpt>
      <trkpt lat="50.614370" lon="17.770526">
        <ele>196.126305</ele>
        <time>2025-06-14T20:47:22.629Z</time>
      </trkpt>
      <trkpt lat="50.614893" lon="17.775787">
        <ele>194.010173</ele>
        <time>2025-06-14T20:48:29.816Z</time>
      </trkpt>
      <trkpt lat="50.614906" lon="17.775875">
        <ele>193.969608</ele>
        <time>2025-06-14T20:48:30.993Z</time>
      </trkpt>
      <trkpt lat="50.614983" lon="17.776142">
        <ele>193.837939</ele>
        <time>2025-06-14T20:48:34.784Z</time>
      </trkpt>
      <trkpt lat="50.616519" lon="17.780389">
        <ele>192.004187</ele>
        <time>2025-06-14T20:49:36.967Z</time>
      </trkpt>
      <trkpt lat="50.618562" lon="17.786085">
        <ele>193.894741</ele>
        <time>2025-06-14T20:51:18.270Z</time>
      </trkpt>
      <trkpt lat="50.618970" lon="17.787246">
        <ele>194.226689</ele>
        <time>2025-06-14T20:51:38.082Z</time>
      </trkpt>
      <trkpt lat="50.620557" lon="17.786551">
        <ele>194.724255</ele>
        <time>2025-06-14T20:52:41.824Z</time>
      </trkpt>
      <trkpt lat="50.621442" lon="17.786172">
        <ele>194.743893</ele>
        <time>2025-06-14T20:53:15.689Z</time>
      </trkpt>
      <trkpt lat="50.622722" lon="17.785608">
        <ele>194.373764</ele>
        <time>2025-06-14T20:54:03.329Z</time>
      </trkpt>
      <trkpt lat="50.622870" lon="17.785543">
        <ele>194.246161</ele>
        <time>2025-06-14T20:54:08.742Z</time>
      </trkpt>
      <trkpt lat="50.623053" lon="17.785542">
        <ele>194.049867</ele>
        <time>2025-06-14T20:54:15.069Z</time>
      </trkpt>
      <trkpt lat="50.623068" lon="17.785440">
        <ele>193.978616</ele>
        <time>2025-06-14T20:54:17.358Z</time>
      </trkpt>
      <trkpt lat="50.623106" lon="17.785425">
        <ele>193.936597</ele>
        <time>2025-06-14T20:54:18.708Z</time>
      </trkpt>
      <trkpt lat="50.623277" lon="17.785360">
        <ele>193.747919</ele>
        <time>2025-06-14T20:54:24.687Z</time>
      </trkpt>
      <trkpt lat="50.623400" lon="17.785360">
        <ele>193.615984</ele>
        <time>2025-06-14T20:54:28.858Z</time>
      </trkpt>
      <trkpt lat="50.623651" lon="17.785539">
        <ele>193.320480</ele>
        <time>2025-06-14T20:54:38.084Z</time>
      </trkpt>
      <trkpt lat="50.624413" lon="17.786270">
        <ele>192.394421</ele>
        <time>2025-06-14T20:55:07.010Z</time>
      </trkpt>
      <trkpt lat="50.624662" lon="17.786464">
        <ele>192.231713</ele>
        <time>2025-06-14T20:55:16.204Z</time>
      </trkpt>
      <trkpt lat="50.625396" lon="17.786865">
        <ele>191.776644</ele>
        <time>2025-06-14T20:55:43.278Z</time>
      </trkpt>
      <trkpt lat="50.625456" lon="17.786851">
        <ele>191.741113</ele>
        <time>2025-06-14T20:55:45.526Z</time>
      </trkpt>
      <trkpt lat="50.625531" lon="17.786959">
        <ele>191.681606</ele>
        <time>2025-06-14T20:55:47.704Z</time>
      </trkpt>
      <trkpt lat="50.625701" lon="17.787072">
        <ele>191.573528</ele>
        <time>2025-06-14T20:55:51.868Z</time>
      </trkpt>
      <trkpt lat="50.626175" lon="17.787428">
        <ele>191.174219</ele>
        <time>2025-06-14T20:56:04.168Z</time>
      </trkpt>
      <trkpt lat="50.626978" lon="17.788098">
        <ele>190.205431</ele>
        <time>2025-06-14T20:56:22.777Z</time>
      </trkpt>
      <trkpt lat="50.627932" lon="17.788893">
        <ele>188.642551</ele>
        <time>2025-06-14T20:56:41.540Z</time>
      </trkpt>
      <trkpt lat="50.628878" lon="17.789473">
        <ele>186.458844</ele>
        <time>2025-06-14T20:56:58.688Z</time>
      </trkpt>
      <trkpt lat="50.632258" lon="17.791001">
        <ele>181.226077</ele>
        <time>2025-06-14T20:58:03.463Z</time>
      </trkpt>
      <trkpt lat="50.632503" lon="17.791132">
        <ele>180.895359</ele>
        <time>2025-06-14T20:58:08.493Z</time>
      </trkpt>
      <trkpt lat="50.633804" lon="17.791895">
        <ele>179.699026</ele>
        <time>2025-06-14T20:58:36.049Z</time>
      </trkpt>
      <trkpt lat="50.636435" lon="17.793489">
        <ele>177.780889</ele>
        <time>2025-06-14T20:59:31.848Z</time>
      </trkpt>
      <trkpt lat="50.638897" lon="17.795003">
        <ele>177.364716</ele>
        <time>2025-06-14T21:00:30.498Z</time>
      </trkpt>
      <trkpt lat="50.639721" lon="17.795569">
        <ele>177.145170</ele>
        <time>2025-06-14T21:00:49.644Z</time>
      </trkpt>
      <trkpt lat="50.640077" lon="17.795814">
        <ele>176.959440</ele>
        <time>2025-06-14T21:00:57.775Z</time>
      </trkpt>
      <trkpt lat="50.640186" lon="17.795885">
        <ele>176.903050</ele>
        <time>2025-06-14T21:01:00.224Z</time>
      </trkpt>
      <trkpt lat="50.640302" lon="17.795962">
        <ele>176.842869</ele>
        <time>2025-06-14T21:01:02.829Z</time>
      </trkpt>
      <trkpt lat="50.640273" lon="17.796080">
        <ele>176.804494</ele>
        <time>2025-06-14T21:01:04.471Z</time>
      </trkpt>
      <trkpt lat="50.640306" lon="17.796105">
        <ele>176.786989</ele>
        <time>2025-06-14T21:01:05.221Z</time>
      </trkpt>
      <trkpt lat="50.640899" lon="17.796491">
        <ele>176.480234</ele>
        <time>2025-06-14T21:01:18.195Z</time>
      </trkpt>
      <trkpt lat="50.641779" lon="17.796899">
        <ele>175.901071</ele>
        <time>2025-06-14T21:01:36.687Z</time>
      </trkpt>
      <trkpt lat="50.642620" lon="17.797366">
        <ele>175.324934</ele>
        <time>2025-06-14T21:01:54.511Z</time>
      </trkpt>
      <trkpt lat="50.642897" lon="17.797520">
        <ele>175.130553</ele>
        <time>2025-06-14T21:02:00.526Z</time>
      </trkpt>
      <trkpt lat="50.643725" lon="17.798001">
        <ele>174.542232</ele>
        <time>2025-06-14T21:02:18.668Z</time>
      </trkpt>
      <trkpt lat="50.644420" lon="17.798413">
        <ele>174.021367</ele>
        <time>2025-06-14T21:02:33.479Z</time>
      </trkpt>
      <trkpt lat="50.646005" lon="17.799320">
        <ele>172.019332</ele>
        <time>2025-06-14T21:03:04.710Z</time>
      </trkpt>
      <trkpt lat="50.646197" lon="17.799431">
        <ele>171.889506</ele>
        <time>2025-06-14T21:03:08.691Z</time>
      </trkpt>
      <trkpt lat="50.647425" lon="17.800151">
        <ele>171.379371</ele>
        <time>2025-06-14T21:03:36.587Z</time>
      </trkpt>
      <trkpt lat="50.649039" lon="17.801106">
        <ele>170.711238</ele>
        <time>2025-06-14T21:04:13.775Z</time>
      </trkpt>
      <trkpt lat="50.649940" lon="17.801583">
        <ele>170.027089</ele>
        <time>2025-06-14T21:04:32.300Z</time>
      </trkpt>
      <trkpt lat="50.652014" lon="17.802768">
        <ele>167.864802</ele>
        <time>2025-06-14T21:05:14.559Z</time>
      </trkpt>
      <trkpt lat="50.654743" lon="17.804288">
        <ele>165.033154</ele>
        <time>2025-06-14T21:06:11.212Z</time>
      </trkpt>
      <trkpt lat="50.654815" lon="17.804346">
        <ele>164.924543</ele>
        <time>2025-06-14T21:06:12.747Z</time>
      </trkpt>
      <trkpt lat="50.657388" lon="17.805817">
        <ele>161.542965</ele>
        <time>2025-06-14T21:07:03.119Z</time>
      </trkpt>
      <trkpt lat="50.657509" lon="17.805874">
        <ele>161.403083</ele>
        <time>2025-06-14T21:07:05.608Z</time>
      </trkpt>
      <trkpt lat="50.657770" lon="17.805915">
        <ele>161.112542</ele>
        <time>2025-06-14T21:07:10.896Z</time>
      </trkpt>
      <trkpt lat="50.658221" lon="17.805852">
        <ele>160.927159</ele>
        <time>2025-06-14T21:07:20.546Z</time>
      </trkpt>
      <trkpt lat="50.659596" lon="17.805755">
        <ele>160.880067</ele>
        <time>2025-06-14T21:07:52.156Z</time>
      </trkpt>
      <trkpt lat="50.660592" lon="17.805670">
        <ele>160.611106</ele>
        <time>2025-06-14T21:08:13.303Z</time>
      </trkpt>
      <trkpt lat="50.661285" lon="17.805600">
        <ele>160.399840</ele>
        <time>2025-06-14T21:08:27.584Z</time>
      </trkpt>
      <trkpt lat="50.661590" lon="17.805585">
        <ele>160.304414</ele>
        <time>2025-06-14T21:08:34.003Z</time>
      </trkpt>
      <trkpt lat="50.661657" lon="17.807302">
        <ele>159.932669</ele>
        <time>2025-06-14T21:08:58.097Z</time>
      </trkpt>
      <trkpt lat="50.661884" lon="17.807702">
        <ele>159.816650</ele>
        <time>2025-06-14T21:09:05.598Z</time>
      </trkpt>
      <trkpt lat="50.661946" lon="17.807933">
        <ele>159.762441</ele>
        <time>2025-06-14T21:09:09.048Z</time>
      </trkpt>
      <trkpt lat="50.662129" lon="17.809083">
        <ele>159.666957</ele>
        <time>2025-06-14T21:09:25.368Z</time>
      </trkpt>
      <trkpt lat="50.662181" lon="17.809100">
        <ele>159.662770</ele>
        <time>2025-06-14T21:09:26.875Z</time>
      </trkpt>
      <trkpt lat="50.662457" lon="17.808993">
        <ele>159.640360</ele>
        <time>2025-06-14T21:09:35.081Z</time>
      </trkpt>
      <trkpt lat="50.662502" lon="17.809067">
        <ele>159.635235</ele>
        <time>2025-06-14T21:09:39.606Z</time>
      </trkpt>
      <trkpt lat="50.662629" lon="17.809079">
        <ele>159.625203</ele>
        <time>2025-06-14T21:09:48.454Z</time>
      </trkpt>
      <trkpt lat="50.662639" lon="17.809131">
        <ele>159.622487</ele>
        <time>2025-06-14T21:09:50.871Z</time>
      </trkpt>
      <trkpt lat="50.662645" lon="17.809164">
        <ele>159.620771</ele>
        <time>2025-06-14T21:09:52.375Z</time>
      </trkpt>
      <trkpt lat="50.662678" lon="17.809271">
        <ele>159.614824</ele>
        <time>2025-06-14T21:09:57.585Z</time>
      </trkpt>
      <trkpt lat="50.662425" lon="17.809369">
        <ele>159.594283</ele>
        <time>2025-06-14T21:10:15.677Z</time>
      </trkpt>
      <trkpt lat="50.662225" lon="17.809516">
        <ele>159.576886</ele>
        <time>2025-06-14T21:10:31.001Z</time>
      </trkpt>
      <trkpt lat="50.662121" lon="17.809740">
        <ele>159.581449</ele>
        <time>2025-06-14T21:10:43.248Z</time>
      </trkpt>
      <trkpt lat="50.662100" lon="17.809914">
        <ele>159.588156</ele>
        <time>2025-06-14T21:10:51.038Z</time>
      </trkpt>
      <trkpt lat="50.662057" lon="17.810062">
        <ele>159.594320</ele>
        <time>2025-06-14T21:10:58.228Z</time>
      </trkpt>
      <trkpt lat="50.662094" lon="17.810106">
        <ele>159.597088</ele>
        <time>2025-06-14T21:11:01.427Z</time>
      </trkpt>
      <trkpt lat="50.662081" lon="17.810500">
        <ele>159.612027</ele>
        <time>2025-06-14T21:11:18.817Z</time>
      </trkpt>
      <trkpt lat="50.662096" lon="17.810645">
        <ele>159.617590</ele>
        <time>2025-06-14T21:11:25.300Z</time>
      </trkpt>
      <trkpt lat="50.662131" lon="17.810794">
        <ele>159.623606</ele>
        <time>2025-06-14T21:11:32.294Z</time>
      </trkpt>
      <trkpt lat="50.662233" lon="17.811018">
        <ele>159.634049</ele>
        <time>2025-06-14T21:11:44.435Z</time>
      </trkpt>
      <trkpt lat="50.662500" lon="17.811444">
        <ele>159.656733</ele>
        <time>2025-06-14T21:12:10.827Z</time>
      </trkpt>
      <trkpt lat="50.662769" lon="17.811672">
        <ele>159.674973</ele>
        <time>2025-06-14T21:12:32.079Z</time>
      </trkpt>
      <trkpt lat="50.662928" lon="17.811770">
        <ele>159.744899</ele>
        <time>2025-06-14T21:12:43.951Z</time>
      </trkpt>
      <trkpt lat="50.663003" lon="17.811754">
        <ele>159.813231</ele>
        <time>2025-06-14T21:12:49.199Z</time>
      </trkpt>
      <trkpt lat="50.663121" lon="17.811612">
        <ele>159.947227</ele>
        <time>2025-06-14T21:12:59.516Z</time>
      </trkpt>
      <trkpt lat="50.663220" lon="17.810785">
        <ele>160.428894</ele>
        <time>2025-06-14T21:13:36.567Z</time>
      </trkpt>
      <trkpt lat="50.663194" lon="17.810560">
        <ele>160.559785</ele>
        <time>2025-06-14T21:13:46.666Z</time>
      </trkpt>
      <trkpt lat="50.663054" lon="17.810264">
        <ele>160.771150</ele>
        <time>2025-06-14T21:14:02.924Z</time>
      </trkpt>
      <trkpt lat="50.663239" lon="17.810281">
        <ele>160.938464</ele>
        <time>2025-06-14T21:14:15.817Z</time>
      </trkpt>
      <trkpt lat="50.663604" lon="17.810371">
        <ele>161.272013</ele>
        <time>2025-06-14T21:14:41.526Z</time>
      </trkpt>
      <trkpt lat="50.663764" lon="17.810483">
        <ele>161.316167</ele>
        <time>2025-06-14T21:14:53.668Z</time>
      </trkpt>
      <trkpt lat="50.664118" lon="17.810770">
        <ele>161.348573</ele>
        <time>2025-06-14T21:15:21.280Z</time>
      </trkpt>
      <trkpt lat="50.664128" lon="17.810951">
        <ele>161.357950</ele>
        <time>2025-06-14T21:15:29.282Z</time>
      </trkpt>
      <trkpt lat="50.664189" lon="17.810944">
        <ele>161.362929</ele>
        <time>2025-06-14T21:15:31.271Z</time>
      </trkpt>
      <trkpt lat="50.664471" lon="17.810913">
        <ele>161.385945</ele>
        <time>2025-06-14T21:15:39.492Z</time>
      </trkpt>
      <trkpt lat="50.664608" lon="17.810897">
        <ele>161.397130</ele>
        <time>2025-06-14T21:15:42.183Z</time>
      </trkpt>
      <trkpt lat="50.664674" lon="17.810888">
        <ele>161.402524</ele>
        <time>2025-06-14T21:15:43.939Z</time>
      </trkpt>
      <trkpt lat="50.664679" lon="17.810957">
        <ele>161.406108</ele>
        <time>2025-06-14T21:15:44.782Z</time>
      </trkpt>
      <trkpt lat="50.664690" lon="17.811206">
        <ele>161.418990</ele>
        <time>2025-06-14T21:15:47.873Z</time>
      </trkpt>
      <trkpt lat="50.664695" lon="17.811313">
        <ele>161.424527</ele>
        <time>2025-06-14T21:15:49.232Z</time>
      </trkpt>
      <trkpt lat="50.664737" lon="17.811835">
        <ele>161.449291</ele>
        <time>2025-06-14T21:15:55.846Z</time>
      </trkpt>
      <trkpt lat="50.664780" lon="17.812178">
        <ele>161.347068</ele>
        <time>2025-06-14T21:16:00.186Z</time>
      </trkpt>
      <trkpt lat="50.664815" lon="17.812302">
        <ele>161.307384</ele>
        <time>2025-06-14T21:16:01.807Z</time>
      </trkpt>
      <trkpt lat="50.665064" lon="17.812906">
        <ele>161.096735</ele>
        <time>2025-06-14T21:16:10.324Z</time>
      </trkpt>
      <trkpt lat="50.665094" lon="17.812979">
        <ele>161.071299</ele>
        <time>2025-06-14T21:16:11.402Z</time>
      </trkpt>
      <trkpt lat="50.665340" lon="17.813583">
        <ele>160.861402</ele>
        <time>2025-06-14T21:16:20.914Z</time>
      </trkpt>
      <trkpt lat="50.665380" lon="17.813753">
        <ele>160.808387</ele>
        <time>2025-06-14T21:16:23.475Z</time>
      </trkpt>
      <trkpt lat="50.665376" lon="17.814054">
        <ele>160.720368</ele>
        <time>2025-06-14T21:16:27.848Z</time>
      </trkpt>
      <trkpt lat="50.665420" lon="17.814074">
        <ele>160.699248</ele>
        <time>2025-06-14T21:16:28.902Z</time>
      </trkpt>
      <trkpt lat="50.665506" lon="17.814101">
        <ele>160.658803</ele>
        <time>2025-06-14T21:16:31.067Z</time>
      </trkpt>
      <trkpt lat="50.665560" lon="17.814184">
        <ele>160.624030</ele>
        <time>2025-06-14T21:16:32.863Z</time>
      </trkpt>
      <trkpt lat="50.665608" lon="17.814291">
        <ele>160.702771</ele>
        <time>2025-06-14T21:16:34.957Z</time>
      </trkpt>
      <trkpt lat="50.665686" lon="17.814507">
        <ele>160.866389</ele>
        <time>2025-06-14T21:16:38.895Z</time>
      </trkpt>
      <trkpt lat="50.665783" lon="17.814691">
        <ele>161.023903</ele>
        <time>2025-06-14T21:16:42.854Z</time>
      </trkpt>
      <trkpt lat="50.665982" lon="17.814915">
        <ele>161.277742</ele>
        <time>2025-06-14T21:16:49.480Z</time>
      </trkpt>
      <trkpt lat="50.666404" lon="17.815538">
        <ele>161.877860</ele>
        <time>2025-06-14T21:17:06.639Z</time>
      </trkpt>
      <trkpt lat="50.667195" lon="17.816195">
        <ele>162.307719</ele>
        <time>2025-06-14T21:17:31.854Z</time>
      </trkpt>
      <trkpt lat="50.667643" lon="17.816638">
        <ele>161.992814</ele>
        <time>2025-06-14T21:17:43.979Z</time>
      </trkpt>
      <trkpt lat="50.667828" lon="17.816823">
        <ele>161.862359</ele>
        <time>2025-06-14T21:17:48.453Z</time>
      </trkpt>
      <trkpt lat="50.667854" lon="17.816918">
        <ele>161.823296</ele>
        <time>2025-06-14T21:17:49.757Z</time>
      </trkpt>
      <trkpt lat="50.668019" lon="17.817016">
        <ele>161.718289</ele>
        <time>2025-06-14T21:17:52.996Z</time>
      </trkpt>
      <trkpt lat="50.668236" lon="17.817209">
        <ele>161.569923</ele>
        <time>2025-06-14T21:17:57.467Z</time>
      </trkpt>
      <trkpt lat="50.668946" lon="17.817837">
        <ele>160.512026</ele>
        <time>2025-06-14T21:18:11.678Z</time>
      </trkpt>
      <trkpt lat="50.669533" lon="17.818048">
        <ele>159.536285</ele>
        <time>2025-06-14T21:18:22.405Z</time>
      </trkpt>
      <trkpt lat="50.669773" lon="17.818120">
        <ele>159.140342</ele>
        <time>2025-06-14T21:18:26.858Z</time>
      </trkpt>
      <trkpt lat="50.669955" lon="17.818183">
        <ele>158.838355</ele>
        <time>2025-06-14T21:18:30.366Z</time>
      </trkpt>
      <trkpt lat="50.669881" lon="17.818434">
        <ele>158.554000</ele>
        <time>2025-06-14T21:18:33.752Z</time>
      </trkpt>
      <trkpt lat="50.669799" lon="17.818926">
        <ele>158.456477</ele>
        <time>2025-06-14T21:18:40.121Z</time>
      </trkpt>
      <trkpt lat="50.669745" lon="17.819542">
        <ele>158.393458</ele>
        <time>2025-06-14T21:18:48.151Z</time>
      </trkpt>
      <trkpt lat="50.669374" lon="17.822332">
        <ele>158.650335</ele>
        <time>2025-06-14T21:19:30.089Z</time>
      </trkpt>
      <trkpt lat="50.669117" lon="17.824238">
        <ele>159.385672</ele>
        <time>2025-06-14T21:20:02.205Z</time>
      </trkpt>
      <trkpt lat="50.668986" lon="17.824838">
        <ele>159.515358</ele>
        <time>2025-06-14T21:20:12.117Z</time>
      </trkpt>
      <trkpt lat="50.668808" lon="17.825860">
        <ele>159.731956</ele>
        <time>2025-06-14T21:20:27.811Z</time>
      </trkpt>
      <trkpt lat="50.668567" lon="17.827649">
        <ele>159.620722</ele>
        <time>2025-06-14T21:20:53.285Z</time>
      </trkpt>
      <trkpt lat="50.668530" lon="17.828204">
        <ele>159.430695</ele>
        <time>2025-06-14T21:21:00.598Z</time>
      </trkpt>
      <trkpt lat="50.668529" lon="17.828699">
        <ele>159.262140</ele>
        <time>2025-06-14T21:21:06.873Z</time>
      </trkpt>
      <trkpt lat="50.668600" lon="17.828847">
        <ele>159.198936</ele>
        <time>2025-06-14T21:21:09.310Z</time>
      </trkpt>
      <trkpt lat="50.668544" lon="17.829010">
        <ele>159.135802</ele>
        <time>2025-06-14T21:21:11.635Z</time>
      </trkpt>
      <trkpt lat="50.668320" lon="17.829433">
        <ele>158.938898</ele>
        <time>2025-06-14T21:21:18.453Z</time>
      </trkpt>
      <trkpt lat="50.668297" lon="17.829550">
        <ele>158.856264</ele>
        <time>2025-06-14T21:21:19.948Z</time>
      </trkpt>
      <trkpt lat="50.668261" lon="17.829728">
        <ele>158.730225</ele>
        <time>2025-06-14T21:21:22.213Z</time>
      </trkpt>
      <trkpt lat="50.667997" lon="17.831640">
        <ele>157.410188</ele>
        <time>2025-06-14T21:21:45.792Z</time>
      </trkpt>
      <trkpt lat="50.667851" lon="17.832634">
        <ele>156.801924</ele>
        <time>2025-06-14T21:21:58.186Z</time>
      </trkpt>
      <trkpt lat="50.667676" lon="17.833924">
        <ele>156.133696</ele>
        <time>2025-06-14T21:22:14.377Z</time>
      </trkpt>
      <trkpt lat="50.667593" lon="17.834983">
        <ele>155.602174</ele>
        <time>2025-06-14T21:22:28.017Z</time>
      </trkpt>
      <trkpt lat="50.667219" lon="17.837643">
        <ele>155.210781</ele>
        <time>2025-06-14T21:23:05.636Z</time>
      </trkpt>
      <trkpt lat="50.666465" lon="17.843034">
        <ele>154.701988</ele>
        <time>2025-06-14T21:24:21.365Z</time>
      </trkpt>
      <trkpt lat="50.666427" lon="17.843539">
        <ele>154.644018</ele>
        <time>2025-06-14T21:24:28.580Z</time>
      </trkpt>
      <trkpt lat="50.666416" lon="17.844098">
        <ele>154.567871</ele>
        <time>2025-06-14T21:24:36.219Z</time>
      </trkpt>
      <trkpt lat="50.666396" lon="17.844655">
        <ele>154.491912</ele>
        <time>2025-06-14T21:24:43.741Z</time>
      </trkpt>
      <trkpt lat="50.666352" lon="17.844882">
        <ele>154.459591</ele>
        <time>2025-06-14T21:24:46.943Z</time>
      </trkpt>
      <trkpt lat="50.666289" lon="17.845068">
        <ele>154.430878</ele>
        <time>2025-06-14T21:24:49.787Z</time>
      </trkpt>
      <trkpt lat="50.666113" lon="17.845562">
        <ele>154.353720</ele>
        <time>2025-06-14T21:24:57.320Z</time>
      </trkpt>
      <trkpt lat="50.666067" lon="17.845799">
        <ele>154.319972</ele>
        <time>2025-06-14T21:25:00.555Z</time>
      </trkpt>
      <trkpt lat="50.665046" lon="17.853078">
        <ele>153.465930</ele>
        <time>2025-06-14T21:26:42.272Z</time>
      </trkpt>
      <trkpt lat="50.664540" lon="17.856719">
        <ele>153.270587</ele>
        <time>2025-06-14T21:27:34.387Z</time>
      </trkpt>
      <trkpt lat="50.664545" lon="17.856919">
        <ele>153.262803</ele>
        <time>2025-06-14T21:27:37.193Z</time>
      </trkpt>
      <trkpt lat="50.664645" lon="17.857279">
        <ele>153.278604</ele>
        <time>2025-06-14T21:27:42.715Z</time>
      </trkpt>
      <trkpt lat="50.664658" lon="17.857440">
        <ele>153.293958</ele>
        <time>2025-06-14T21:27:44.987Z</time>
      </trkpt>
      <trkpt lat="50.664621" lon="17.857588">
        <ele>153.309008</ele>
        <time>2025-06-14T21:27:47.214Z</time>
      </trkpt>
      <trkpt lat="50.664423" lon="17.857945">
        <ele>153.353885</ele>
        <time>2025-06-14T21:27:53.881Z</time>
      </trkpt>
      <trkpt lat="50.664115" lon="17.857833">
        <ele>153.401058</ele>
        <time>2025-06-14T21:28:01.182Z</time>
      </trkpt>
      <trkpt lat="50.664061" lon="17.857842">
        <ele>153.409163</ele>
        <time>2025-06-14T21:28:02.440Z</time>
      </trkpt>
      <trkpt lat="50.663124" lon="17.858608">
        <ele>153.665197</ele>
        <time>2025-06-14T21:28:29.925Z</time>
      </trkpt>
      <trkpt lat="50.662977" lon="17.858652">
        <ele>153.740353</ele>
        <time>2025-06-14T21:28:34.036Z</time>
      </trkpt>
      <trkpt lat="50.662850" lon="17.858599">
        <ele>153.806340</ele>
        <time>2025-06-14T21:28:37.669Z</time>
      </trkpt>
      <trkpt lat="50.662247" lon="17.857876">
        <ele>154.186783</ele>
        <time>2025-06-14T21:28:58.131Z</time>
      </trkpt>
      <trkpt lat="50.662053" lon="17.857740">
        <ele>154.293419</ele>
        <time>2025-06-14T21:29:03.716Z</time>
      </trkpt>
      <trkpt lat="50.661899" lon="17.857719">
        <ele>154.371062</ele>
        <time>2025-06-14T21:29:07.751Z</time>
      </trkpt>
      <trkpt lat="50.660978" lon="17.857841">
        <ele>154.735439</ele>
        <time>2025-06-14T21:29:32.179Z</time>
      </trkpt>
      <trkpt lat="50.660978" lon="17.857841">
        <ele>154.735439</ele>
        <time>2025-06-14T21:29:32.182Z</time>
      </trkpt>
      <trkpt lat="50.660638" lon="17.857925">
        <ele>154.865867</ele>
        <time>2025-06-14T21:29:40.864Z</time>
      </trkpt>
      <trkpt lat="50.660307" lon="17.857921">
        <ele>154.991317</ele>
        <time>2025-06-14T21:29:49.298Z</time>
      </trkpt>
      <trkpt lat="50.659897" lon="17.857735">
        <ele>155.151555</ele>
        <time>2025-06-14T21:30:00.746Z</time>
      </trkpt>
      <trkpt lat="50.659807" lon="17.857607">
        <ele>155.195930</ele>
        <time>2025-06-14T21:30:03.775Z</time>
      </trkpt>
      <trkpt lat="50.659737" lon="17.857443">
        <ele>155.241827</ele>
        <time>2025-06-14T21:30:06.896Z</time>
      </trkpt>
      <trkpt lat="50.659692" lon="17.857210">
        <ele>155.298371</ele>
        <time>2025-06-14T21:30:10.748Z</time>
      </trkpt>
      <trkpt lat="50.659655" lon="17.856644">
        <ele>155.430460</ele>
        <time>2025-06-14T21:30:19.559Z</time>
      </trkpt>
      <trkpt lat="50.658969" lon="17.856613">
        <ele>155.681775</ele>
        <time>2025-06-14T21:30:35.536Z</time>
      </trkpt>
      <trkpt lat="50.658327" lon="17.856642">
        <ele>155.803218</ele>
        <time>2025-06-14T21:30:50.475Z</time>
      </trkpt>
      <trkpt lat="50.658291" lon="17.856642">
        <ele>155.806279</ele>
        <time>2025-06-14T21:30:51.283Z</time>
      </trkpt>
      <trkpt lat="50.658278" lon="17.857108">
        <ele>155.831424</ele>
        <time>2025-06-14T21:30:57.759Z</time>
      </trkpt>
      <trkpt lat="50.658102" lon="17.857140">
        <ele>155.846489</ele>
        <time>2025-06-14T21:31:01.705Z</time>
      </trkpt>
      <trkpt lat="50.657078" lon="17.857346">
        <ele>155.932917</ele>
        <time>2025-06-14T21:31:25.944Z</time>
      </trkpt>
      <trkpt lat="50.656474" lon="17.857504">
        <ele>155.979352</ele>
        <time>2025-06-14T21:31:40.876Z</time>
      </trkpt>
      <trkpt lat="50.655798" lon="17.857553">
        <ele>156.030676</ele>
        <time>2025-06-14T21:31:57.525Z</time>
      </trkpt>
      <trkpt lat="50.655300" lon="17.857529">
        <ele>156.008784</ele>
        <time>2025-06-14T21:32:08.319Z</time>
      </trkpt>
      <trkpt lat="50.655144" lon="17.857453">
        <ele>155.949334</ele>
        <time>2025-06-14T21:32:11.678Z</time>
      </trkpt>
      <trkpt lat="50.654959" lon="17.857213">
        <ele>155.862116</ele>
        <time>2025-06-14T21:32:16.658Z</time>
      </trkpt>
      <trkpt lat="50.654203" lon="17.857015">
        <ele>155.583074</ele>
        <time>2025-06-14T21:32:33.215Z</time>
      </trkpt>
      <trkpt lat="50.653601" lon="17.856807">
        <ele>155.429396</ele>
        <time>2025-06-14T21:32:55.285Z</time>
      </trkpt>
      <trkpt lat="50.653078" lon="17.856493">
        <ele>155.548854</ele>
        <time>2025-06-14T21:33:16.173Z</time>
      </trkpt>
      <trkpt lat="50.652482" lon="17.856068">
        <ele>155.688480</ele>
        <time>2025-06-14T21:33:41.642Z</time>
      </trkpt>
      <trkpt lat="50.652227" lon="17.855942">
        <ele>155.745523</ele>
        <time>2025-06-14T21:33:51.890Z</time>
      </trkpt>
      <trkpt lat="50.651891" lon="17.855814">
        <ele>155.855386</ele>
        <time>2025-06-14T21:34:05.215Z</time>
      </trkpt>
      <trkpt lat="50.651526" lon="17.855678">
        <ele>156.025427</ele>
        <time>2025-06-14T21:34:14.769Z</time>
      </trkpt>
      <trkpt lat="50.651278" lon="17.855588">
        <ele>156.140804</ele>
        <time>2025-06-14T21:34:21.350Z</time>
      </trkpt>
      <trkpt lat="50.650560" lon="17.855323">
        <ele>156.475128</ele>
        <time>2025-06-14T21:34:40.032Z</time>
      </trkpt>
      <trkpt lat="50.650361" lon="17.855245">
        <ele>156.568096</ele>
        <time>2025-06-14T21:34:45.017Z</time>
      </trkpt>
      <trkpt lat="50.649969" lon="17.855140">
        <ele>156.653272</ele>
        <time>2025-06-14T21:34:54.389Z</time>
      </trkpt>
      <trkpt lat="50.649698" lon="17.855771">
        <ele>156.729347</ele>
        <time>2025-06-14T21:35:05.090Z</time>
      </trkpt>
      <trkpt lat="50.649275" lon="17.856737">
        <ele>156.846531</ele>
        <time>2025-06-14T21:35:22.132Z</time>
      </trkpt>
      <trkpt lat="50.649250" lon="17.856794">
        <ele>156.853450</ele>
        <time>2025-06-14T21:35:23.155Z</time>
      </trkpt>
      <trkpt lat="50.648691" lon="17.858092">
        <ele>157.152452</ele>
        <time>2025-06-14T21:35:46.297Z</time>
      </trkpt>
      <trkpt lat="50.648653" lon="17.858181">
        <ele>157.175438</ele>
        <time>2025-06-14T21:35:47.938Z</time>
      </trkpt>
      <trkpt lat="50.648327" lon="17.858934">
        <ele>157.370761</ele>
        <time>2025-06-14T21:36:02.087Z</time>
      </trkpt>
      <trkpt lat="50.648202" lon="17.859219">
        <ele>157.444997</ele>
        <time>2025-06-14T21:36:07.384Z</time>
      </trkpt>
      <trkpt lat="50.647980" lon="17.859716">
        <ele>157.589693</ele>
        <time>2025-06-14T21:36:16.326Z</time>
      </trkpt>
      <trkpt lat="50.647660" lon="17.860432">
        <ele>157.810559</ele>
        <time>2025-06-14T21:36:29.013Z</time>
      </trkpt>
      <trkpt lat="50.647592" lon="17.860581">
        <ele>157.856846</ele>
        <time>2025-06-14T21:36:31.762Z</time>
      </trkpt>
      <trkpt lat="50.647801" lon="17.861018">
        <ele>157.994858</ele>
        <time>2025-06-14T21:36:40.131Z</time>
      </trkpt>
      <trkpt lat="50.647861" lon="17.861213">
        <ele>158.049507</ele>
        <time>2025-06-14T21:36:43.458Z</time>
      </trkpt>
      <trkpt lat="50.647885" lon="17.861312">
        <ele>158.076231</ele>
        <time>2025-06-14T21:36:45.085Z</time>
      </trkpt>
      <trkpt lat="50.647914" lon="17.861433">
        <ele>158.108846</ele>
        <time>2025-06-14T21:36:47.093Z</time>
      </trkpt>
      <trkpt lat="50.647929" lon="17.861495">
        <ele>158.125578</ele>
        <time>2025-06-14T21:36:48.108Z</time>
      </trkpt>
      <trkpt lat="50.648083" lon="17.862325">
        <ele>158.357259</ele>
        <time>2025-06-14T21:37:01.387Z</time>
      </trkpt>
      <trkpt lat="50.648095" lon="17.862390">
        <ele>158.376053</ele>
        <time>2025-06-14T21:37:02.410Z</time>
      </trkpt>
      <trkpt lat="50.648286" lon="17.863429">
        <ele>158.676374</ele>
        <time>2025-06-14T21:37:19.665Z</time>
      </trkpt>
      <trkpt lat="50.648360" lon="17.864016">
        <ele>158.842524</ele>
        <time>2025-06-14T21:37:28.927Z</time>
      </trkpt>
      <trkpt lat="50.648422" lon="17.864692">
        <ele>158.972935</ele>
        <time>2025-06-14T21:37:38.676Z</time>
      </trkpt>
      <trkpt lat="50.648512" lon="17.865230">
        <ele>158.872867</ele>
        <time>2025-06-14T21:37:46.198Z</time>
      </trkpt>
      <trkpt lat="50.648544" lon="17.865358">
        <ele>158.848122</ele>
        <time>2025-06-14T21:37:48.031Z</time>
      </trkpt>
      <trkpt lat="50.648418" lon="17.865458">
        <ele>158.808114</ele>
        <time>2025-06-14T21:37:50.991Z</time>
      </trkpt>
      <trkpt lat="50.648166" lon="17.865664">
        <ele>158.727607</ele>
        <time>2025-06-14T21:37:56.964Z</time>
      </trkpt>
      <trkpt lat="50.647505" lon="17.866027">
        <ele>158.529083</ele>
        <time>2025-06-14T21:38:11.386Z</time>
      </trkpt>
      <trkpt lat="50.646887" lon="17.866366">
        <ele>158.454120</ele>
        <time>2025-06-14T21:38:25.350Z</time>
      </trkpt>
      <trkpt lat="50.646464" lon="17.866597">
        <ele>158.425678</ele>
        <time>2025-06-14T21:38:35.056Z</time>
      </trkpt>
      <trkpt lat="50.645689" lon="17.867030">
        <ele>158.373436</ele>
        <time>2025-06-14T21:38:53.511Z</time>
      </trkpt>
      <trkpt lat="50.645430" lon="17.867176">
        <ele>158.423271</ele>
        <time>2025-06-14T21:38:59.838Z</time>
      </trkpt>
      <trkpt lat="50.645073" lon="17.867368">
        <ele>158.501325</ele>
        <time>2025-06-14T21:39:08.570Z</time>
      </trkpt>
      <trkpt lat="50.644993" lon="17.867411">
        <ele>158.518815</ele>
        <time>2025-06-14T21:39:10.531Z</time>
      </trkpt>
      <trkpt lat="50.644174" lon="17.867854">
        <ele>158.697986</ele>
        <time>2025-06-14T21:39:30.837Z</time>
      </trkpt>
      <trkpt lat="50.644121" lon="17.867884">
        <ele>158.709639</ele>
        <time>2025-06-14T21:39:32.152Z</time>
      </trkpt>
      <trkpt lat="50.644125" lon="17.868030">
        <ele>158.728816</ele>
        <time>2025-06-14T21:39:34.330Z</time>
      </trkpt>
      <trkpt lat="50.644237" lon="17.868471">
        <ele>158.686339</ele>
        <time>2025-06-14T21:39:41.274Z</time>
      </trkpt>
      <trkpt lat="50.644400" lon="17.869108">
        <ele>158.576228</ele>
        <time>2025-06-14T21:39:50.817Z</time>
      </trkpt>
      <trkpt lat="50.644694" lon="17.870258">
        <ele>158.377468</ele>
        <time>2025-06-14T21:40:07.045Z</time>
      </trkpt>
      <trkpt lat="50.644770" lon="17.870558">
        <ele>158.325684</ele>
        <time>2025-06-14T21:40:11.315Z</time>
      </trkpt>
      <trkpt lat="50.644788" lon="17.870628">
        <ele>158.313575</ele>
        <time>2025-06-14T21:40:12.335Z</time>
      </trkpt>
      <trkpt lat="50.644917" lon="17.871096">
        <ele>158.182411</ele>
        <time>2025-06-14T21:40:19.112Z</time>
      </trkpt>
      <trkpt lat="50.644924" lon="17.871119">
        <ele>158.174812</ele>
        <time>2025-06-14T21:40:19.442Z</time>
      </trkpt>
      <trkpt lat="50.645278" lon="17.872224">
        <ele>157.806076</ele>
        <time>2025-06-14T21:40:35.598Z</time>
      </trkpt>
      <trkpt lat="50.645741" lon="17.873720">
        <ele>157.385115</ele>
        <time>2025-06-14T21:40:57.328Z</time>
      </trkpt>
      <trkpt lat="50.645916" lon="17.874497">
        <ele>157.276482</ele>
        <time>2025-06-14T21:41:08.113Z</time>
      </trkpt>
      <trkpt lat="50.645961" lon="17.874736">
        <ele>157.243636</ele>
        <time>2025-06-14T21:41:13.837Z</time>
      </trkpt>
      <trkpt lat="50.646058" lon="17.875771">
        <ele>157.105797</ele>
        <time>2025-06-14T21:41:38.292Z</time>
      </trkpt>
      <trkpt lat="50.646100" lon="17.876510">
        <ele>157.109847</ele>
        <time>2025-06-14T21:41:56.138Z</time>
      </trkpt>
      <trkpt lat="50.645758" lon="17.876234">
        <ele>157.159536</ele>
        <time>2025-06-14T21:42:10.597Z</time>
      </trkpt>
      <trkpt lat="50.642776" lon="17.874289">
        <ele>157.548441</ele>
        <time>2025-06-14T21:44:11.514Z</time>
      </trkpt>
      <trkpt lat="50.642613" lon="17.874224">
        <ele>157.570592</ele>
        <time>2025-06-14T21:44:18.012Z</time>
      </trkpt>
      <trkpt lat="50.642060" lon="17.874124">
        <ele>157.643924</ele>
        <time>2025-06-14T21:44:39.533Z</time>
      </trkpt>
      <trkpt lat="50.641953" lon="17.874076">
        <ele>157.658581</ele>
        <time>2025-06-14T21:44:43.759Z</time>
      </trkpt>
      <trkpt lat="50.641875" lon="17.873993">
        <ele>157.670978</ele>
        <time>2025-06-14T21:44:47.303Z</time>
      </trkpt>
      <trkpt lat="50.641808" lon="17.874036">
        <ele>157.680508</ele>
        <time>2025-06-14T21:44:49.053Z</time>
      </trkpt>
      <trkpt lat="50.641751" lon="17.874099">
        <ele>157.689678</ele>
        <time>2025-06-14T21:44:51.615Z</time>
      </trkpt>
      <trkpt lat="50.641654" lon="17.874221">
        <ele>157.706025</ele>
        <time>2025-06-14T21:44:56.245Z</time>
      </trkpt>
      <trkpt lat="50.641461" lon="17.874703">
        <ele>157.727392</ele>
        <time>2025-06-14T21:45:09.417Z</time>
      </trkpt>
      <trkpt lat="50.641446" lon="17.874863">
        <ele>157.704929</ele>
        <time>2025-06-14T21:45:13.087Z</time>
      </trkpt>
      <trkpt lat="50.641464" lon="17.875081">
        <ele>157.674397</ele>
        <time>2025-06-14T21:45:18.113Z</time>
      </trkpt>
      <trkpt lat="50.641201" lon="17.875788">
        <ele>157.560560</ele>
        <time>2025-06-14T21:45:36.809Z</time>
      </trkpt>
      <trkpt lat="50.641174" lon="17.875854">
        <ele>157.549652</ele>
        <time>2025-06-14T21:45:37.910Z</time>
      </trkpt>
      <trkpt lat="50.640961" lon="17.876439">
        <ele>157.455967</ele>
        <time>2025-06-14T21:45:53.329Z</time>
      </trkpt>
      <trkpt lat="50.640969" lon="17.876546">
        <ele>157.441003</ele>
        <time>2025-06-14T21:45:55.812Z</time>
      </trkpt>
      <trkpt lat="50.641092" lon="17.876766">
        <ele>157.400270</ele>
        <time>2025-06-14T21:46:02.521Z</time>
      </trkpt>
      <trkpt lat="50.641518" lon="17.877224">
        <ele>157.267180</ele>
        <time>2025-06-14T21:46:21.286Z</time>
      </trkpt>
      <trkpt lat="50.642329" lon="17.877728">
        <ele>157.014680</ele>
        <time>2025-06-14T21:46:52.882Z</time>
      </trkpt>
      <trkpt lat="50.642432" lon="17.877836">
        <ele>156.978851</ele>
        <time>2025-06-14T21:46:57.271Z</time>
      </trkpt>
      <trkpt lat="50.643139" lon="17.878123">
        <ele>156.777125</ele>
        <time>2025-06-14T21:47:23.241Z</time>
      </trkpt>
      <trkpt lat="50.643228" lon="17.878159">
        <ele>156.754726</ele>
        <time>2025-06-14T21:47:26.524Z</time>
      </trkpt>
      <trkpt lat="50.643758" lon="17.878432">
        <ele>156.618800</ele>
        <time>2025-06-14T21:47:46.694Z</time>
      </trkpt>
      <trkpt lat="50.644219" lon="17.878858">
        <ele>156.488539</ele>
        <time>2025-06-14T21:48:06.078Z</time>
      </trkpt>
      <trkpt lat="50.644575" lon="17.879130">
        <ele>156.392101</ele>
        <time>2025-06-14T21:48:20.498Z</time>
      </trkpt>
      <trkpt lat="50.644763" lon="17.879325">
        <ele>156.321557</ele>
        <time>2025-06-14T21:48:28.618Z</time>
      </trkpt>
      <trkpt lat="50.645179" lon="17.880077">
        <ele>156.121764</ele>
        <time>2025-06-14T21:48:51.231Z</time>
      </trkpt>
      <trkpt lat="50.645486" lon="17.880295">
        <ele>156.015464</ele>
        <time>2025-06-14T21:49:03.227Z</time>
      </trkpt>
      <trkpt lat="50.646118" lon="17.880885">
        <ele>155.778112</ele>
        <time>2025-06-14T21:49:29.599Z</time>
      </trkpt>
      <trkpt lat="50.646936" lon="17.882205">
        <ele>155.356661</ele>
        <time>2025-06-14T21:50:11.631Z</time>
      </trkpt>
      <trkpt lat="50.647135" lon="17.882647">
        <ele>155.232880</ele>
        <time>2025-06-14T21:50:23.853Z</time>
      </trkpt>
      <trkpt lat="50.647350" lon="17.882989">
        <ele>155.120303</ele>
        <time>2025-06-14T21:50:34.625Z</time>
      </trkpt>
      <trkpt lat="50.648289" lon="17.883965">
        <ele>154.694972</ele>
        <time>2025-06-14T21:51:14.419Z</time>
      </trkpt>
      <trkpt lat="50.648605" lon="17.884375">
        <ele>154.540211</ele>
        <time>2025-06-14T21:51:29.178Z</time>
      </trkpt>
      <trkpt lat="50.648472" lon="17.884781">
        <ele>154.479933</ele>
        <time>2025-06-14T21:51:39.753Z</time>
      </trkpt>
      <trkpt lat="50.647528" lon="17.888714">
        <ele>154.316579</ele>
        <time>2025-06-14T21:53:18.003Z</time>
      </trkpt>
      <trkpt lat="50.646902" lon="17.891331">
        <ele>154.263090</ele>
        <time>2025-06-14T21:54:23.701Z</time>
      </trkpt>
      <trkpt lat="50.646443" lon="17.893253">
        <ele>154.158174</ele>
        <time>2025-06-14T21:55:11.659Z</time>
      </trkpt>
      <trkpt lat="50.647832" lon="17.894124">
        <ele>153.968176</ele>
        <time>2025-06-14T21:55:45.223Z</time>
      </trkpt>
      <trkpt lat="50.647736" lon="17.894427">
        <ele>153.967477</ele>
        <time>2025-06-14T21:55:50.095Z</time>
      </trkpt>
      <trkpt lat="50.647708" lon="17.894641">
        <ele>153.967026</ele>
        <time>2025-06-14T21:55:53.254Z</time>
      </trkpt>
      <trkpt lat="50.647734" lon="17.894876">
        <ele>153.966534</ele>
        <time>2025-06-14T21:55:56.714Z</time>
      </trkpt>
      <trkpt lat="50.647965" lon="17.895848">
        <ele>153.964393</ele>
        <time>2025-06-14T21:56:12.007Z</time>
      </trkpt>
      <trkpt lat="50.647954" lon="17.896383">
        <ele>153.963288</ele>
        <time>2025-06-14T21:56:20.060Z</time>
      </trkpt>
      <trkpt lat="50.647926" lon="17.896581">
        <ele>153.973626</ele>
        <time>2025-06-14T21:56:23.141Z</time>
      </trkpt>
      <trkpt lat="50.647856" lon="17.896846">
        <ele>154.017642</ele>
        <time>2025-06-14T21:56:27.510Z</time>
      </trkpt>
      <trkpt lat="50.647735" lon="17.897162">
        <ele>154.074241</ele>
        <time>2025-06-14T21:56:33.032Z</time>
      </trkpt>
      <trkpt lat="50.647445" lon="17.897708">
        <ele>154.183446</ele>
        <time>2025-06-14T21:56:43.623Z</time>
      </trkpt>
      <trkpt lat="50.647159" lon="17.898364">
        <ele>154.305508</ele>
        <time>2025-06-14T21:56:56.027Z</time>
      </trkpt>
      <trkpt lat="50.647120" lon="17.898450">
        <ele>154.321720</ele>
        <time>2025-06-14T21:56:57.640Z</time>
      </trkpt>
      <trkpt lat="50.647022" lon="17.898646">
        <ele>154.359991</ele>
        <time>2025-06-14T21:57:01.598Z</time>
      </trkpt>
      <trkpt lat="50.646807" lon="17.899176">
        <ele>154.465962</ele>
        <time>2025-06-14T21:57:11.660Z</time>
      </trkpt>
      <trkpt lat="50.646369" lon="17.900389">
        <ele>154.714736</ele>
        <time>2025-06-14T21:57:33.753Z</time>
      </trkpt>
      <trkpt lat="50.646099" lon="17.901226">
        <ele>154.882099</ele>
        <time>2025-06-14T21:57:47.850Z</time>
      </trkpt>
      <trkpt lat="50.645898" lon="17.901931">
        <ele>154.859480</ele>
        <time>2025-06-14T21:57:58.803Z</time>
      </trkpt>
      <trkpt lat="50.645611" lon="17.902847">
        <ele>154.790688</ele>
        <time>2025-06-14T21:58:13.158Z</time>
      </trkpt>
      <trkpt lat="50.645308" lon="17.904284">
        <ele>154.711130</ele>
        <time>2025-06-14T21:58:35.192Z</time>
      </trkpt>
      <trkpt lat="50.644813" lon="17.906082">
        <ele>154.703639</ele>
        <time>2025-06-14T21:59:04.680Z</time>
      </trkpt>
      <trkpt lat="50.644759" lon="17.906425">
        <ele>154.702288</ele>
        <time>2025-06-14T21:59:09.683Z</time>
      </trkpt>
      <trkpt lat="50.644694" lon="17.907348">
        <ele>154.542076</ele>
        <time>2025-06-14T21:59:22.691Z</time>
      </trkpt>
      <trkpt lat="50.644690" lon="17.907407">
        <ele>154.529595</ele>
        <time>2025-06-14T21:59:23.539Z</time>
      </trkpt>
      <trkpt lat="50.645007" lon="17.907568">
        <ele>154.419123</ele>
        <time>2025-06-14T21:59:30.728Z</time>
      </trkpt>
      <trkpt lat="50.645194" lon="17.907823">
        <ele>154.337118</ele>
        <time>2025-06-14T21:59:36.045Z</time>
      </trkpt>
      <trkpt lat="50.645268" lon="17.907888">
        <ele>154.309021</ele>
        <time>2025-06-14T21:59:37.923Z</time>
      </trkpt>
      <trkpt lat="50.645990" lon="17.908478">
        <ele>153.912134</ele>
        <time>2025-06-14T21:59:54.883Z</time>
      </trkpt>
      <trkpt lat="50.645301" lon="17.910528">
        <ele>152.480020</ele>
        <time>2025-06-14T22:00:24.255Z</time>
      </trkpt>
      <trkpt lat="50.645236" lon="17.910742">
        <ele>152.342451</ele>
        <time>2025-06-14T22:00:27.190Z</time>
      </trkpt>
      <trkpt lat="50.645193" lon="17.910920">
        <ele>152.275548</ele>
        <time>2025-06-14T22:00:29.551Z</time>
      </trkpt>
      <trkpt lat="50.645197" lon="17.911168">
        <ele>152.188413</ele>
        <time>2025-06-14T22:00:32.537Z</time>
      </trkpt>
      <trkpt lat="50.645245" lon="17.911502">
        <ele>152.068124</ele>
        <time>2025-06-14T22:00:36.716Z</time>
      </trkpt>
      <trkpt lat="50.645347" lon="17.911867">
        <ele>151.928026</ele>
        <time>2025-06-14T22:00:41.685Z</time>
      </trkpt>
      <trkpt lat="50.646110" lon="17.913505">
        <ele>151.346123</ele>
        <time>2025-06-14T22:01:09.441Z</time>
      </trkpt>
      <trkpt lat="50.646260" lon="17.914127">
        <ele>151.326924</ele>
        <time>2025-06-14T22:01:18.932Z</time>
      </trkpt>
      <trkpt lat="50.646282" lon="17.914441">
        <ele>151.317810</ele>
        <time>2025-06-14T22:01:23.405Z</time>
      </trkpt>
      <trkpt lat="50.646271" lon="17.914763">
        <ele>151.308506</ele>
        <time>2025-06-14T22:01:27.928Z</time>
      </trkpt>
      <trkpt lat="50.646090" lon="17.916429">
        <ele>151.269901</ele>
        <time>2025-06-14T22:01:51.681Z</time>
      </trkpt>
      <trkpt lat="50.646055" lon="17.916812">
        <ele>151.265672</ele>
        <time>2025-06-14T22:01:56.889Z</time>
      </trkpt>
      <trkpt lat="50.646059" lon="17.917140">
        <ele>151.262086</ele>
        <time>2025-06-14T22:02:01.261Z</time>
      </trkpt>
      <trkpt lat="50.646112" lon="17.917594">
        <ele>151.257041</ele>
        <time>2025-06-14T22:02:07.538Z</time>
      </trkpt>
      <trkpt lat="50.646211" lon="17.917969">
        <ele>151.252601</ele>
        <time>2025-06-14T22:02:13.211Z</time>
      </trkpt>
      <trkpt lat="50.646361" lon="17.918410">
        <ele>151.247132</ele>
        <time>2025-06-14T22:02:20.338Z</time>
      </trkpt>
      <trkpt lat="50.646417" lon="17.918559">
        <ele>151.245239</ele>
        <time>2025-06-14T22:02:22.880Z</time>
      </trkpt>
      <trkpt lat="50.647367" lon="17.921241">
        <ele>152.260909</ele>
        <time>2025-06-14T22:03:11.041Z</time>
      </trkpt>
      <trkpt lat="50.647748" lon="17.920740">
        <ele>152.353042</ele>
        <time>2025-06-14T22:03:30.830Z</time>
      </trkpt>
      <trkpt lat="50.648246" lon="17.920277">
        <ele>152.460410</ele>
        <time>2025-06-14T22:03:52.956Z</time>
      </trkpt>
      <trkpt lat="50.651420" lon="17.917564">
        <ele>151.045832</ele>
        <time>2025-06-14T22:06:00.009Z</time>
      </trkpt>
      <trkpt lat="50.654602" lon="17.914846">
        <ele>149.736931</ele>
        <time>2025-06-14T22:08:08.816Z</time>
      </trkpt>
      <trkpt lat="50.656174" lon="17.913591">
        <ele>149.977750</ele>
        <time>2025-06-14T22:09:15.254Z</time>
      </trkpt>
      <trkpt lat="50.656604" lon="17.913248">
        <ele>150.122501</ele>
        <time>2025-06-14T22:09:34.228Z</time>
      </trkpt>
      <trkpt lat="50.656517" lon="17.913417">
        <ele>150.164885</ele>
        <time>2025-06-14T22:09:39.680Z</time>
      </trkpt>
      <trkpt lat="50.656430" lon="17.913905">
        <ele>150.270160</ele>
        <time>2025-06-14T22:09:52.341Z</time>
      </trkpt>
      <trkpt lat="50.656527" lon="17.913921">
        <ele>150.302108</ele>
        <time>2025-06-14T22:09:54.777Z</time>
      </trkpt>
      <trkpt lat="50.656562" lon="17.914205">
        <ele>150.362191</ele>
        <time>2025-06-14T22:09:59.318Z</time>
      </trkpt>
      <trkpt lat="50.656555" lon="17.914435">
        <ele>150.410010</ele>
        <time>2025-06-14T22:10:02.867Z</time>
      </trkpt>
      <trkpt lat="50.656531" lon="17.915143">
        <ele>150.557252</ele>
        <time>2025-06-14T22:10:13.470Z</time>
      </trkpt>
      <trkpt lat="50.656401" lon="17.916828">
        <ele>151.122657</ele>
        <time>2025-06-14T22:10:39.434Z</time>
      </trkpt>
      <trkpt lat="50.656398" lon="17.916860">
        <ele>151.137948</ele>
        <time>2025-06-14T22:10:39.945Z</time>
      </trkpt>
      <trkpt lat="50.656353" lon="17.916849">
        <ele>151.171902</ele>
        <time>2025-06-14T22:10:41.390Z</time>
      </trkpt>
      <trkpt lat="50.656189" lon="17.918686">
        <ele>152.048832</ele>
        <time>2025-06-14T22:11:12.023Z</time>
      </trkpt>
      <trkpt lat="50.656173" lon="17.918982">
        <ele>152.217097</ele>
        <time>2025-06-14T22:11:17.080Z</time>
      </trkpt>
      <trkpt lat="50.656212" lon="17.919025">
        <ele>152.261964</ele>
        <time>2025-06-14T22:11:18.353Z</time>
      </trkpt>
      <trkpt lat="50.656213" lon="17.919151">
        <ele>152.337291</ele>
        <time>2025-06-14T22:11:20.491Z</time>
      </trkpt>
      <trkpt lat="50.656228" lon="17.919873">
        <ele>152.769125</ele>
        <time>2025-06-14T22:11:39.412Z</time>
      </trkpt>
      <trkpt lat="50.656223" lon="17.919964">
        <ele>152.823727</ele>
        <time>2025-06-14T22:11:40.891Z</time>
      </trkpt>
      <trkpt lat="50.656350" lon="17.920065">
        <ele>152.957838</ele>
        <time>2025-06-14T22:11:44.621Z</time>
      </trkpt>
      <trkpt lat="50.656533" lon="17.920127">
        <ele>153.134328</ele>
        <time>2025-06-14T22:11:49.562Z</time>
      </trkpt>
      <trkpt lat="50.656881" lon="17.920183">
        <ele>153.464168</ele>
        <time>2025-06-14T22:11:58.839Z</time>
      </trkpt>
      <trkpt lat="50.657044" lon="17.920288">
        <ele>153.630187</ele>
        <time>2025-06-14T22:12:03.288Z</time>
      </trkpt>
      <trkpt lat="50.657183" lon="17.920456">
        <ele>153.780042</ele>
        <time>2025-06-14T22:12:07.662Z</time>
      </trkpt>
      <trkpt lat="50.657238" lon="17.920550">
        <ele>153.780042</ele>
        <time>2025-06-14T22:12:10.282Z</time>
      </trkpt>
      <trkpt lat="50.657582" lon="17.921092">
        <ele>153.780042</ele>
        <time>2025-06-14T22:12:22.407Z</time>
      </trkpt>
      <trkpt lat="50.657522" lon="17.920530">
        <ele>153.780042</ele>
        <time>2025-06-14T22:12:33.568Z</time>
      </trkpt>
    </trkseg>
  </trk>
</gpx>