<?xml version='1.0' encoding='UTF-8'?>
<gpx version="1.1" creator="https://www.komoot.de" xmlns="http://www.topografix.com/GPX/1/1" xmlns:xsi="http://www.w3.org/2001/XMLSchema-instance" xsi:schemaLocation="http://www.topografix.com/GPX/1/1 http://www.topografix.com/GPX/1/1/gpx.xsd">
  <metadata>
    <name>GraveLova Środa #79 - Mądra Sówka</name>
    <author>
      <link href="https://www.komoot.de">
        <text>komoot</text>
        <type>text/html</type>
      </link>
    </author>
  </metadata>
  <trk>
    <name>GraveLova Środa #79 - Mądra Sówka</name>
    <trkseg>
      <trkpt lat="50.691809" lon="17.915772">
        <ele>159.021749</ele>
        <time>2025-11-03T18:43:35.436Z</time>
      </trkpt>
      <trkpt lat="50.691898" lon="17.916248">
        <ele>159.021749</ele>
        <time>2025-11-03T18:43:46.036Z</time>
      </trkpt>
      <trkpt lat="50.692128" lon="17.916142">
        <ele>159.021749</ele>
        <time>2025-11-03T18:43:54.491Z</time>
      </trkpt>
      <trkpt lat="50.692150" lon="17.916262">
        <ele>159.021749</ele>
        <time>2025-11-03T18:43:56.793Z</time>
      </trkpt>
      <trkpt lat="50.692181" lon="17.916433">
        <ele>159.021749</ele>
        <time>2025-11-03T18:44:00.139Z</time>
      </trkpt>
      <trkpt lat="50.692664" lon="17.919079">
        <ele>161.741811</ele>
        <time>2025-11-03T18:44:55.821Z</time>
      </trkpt>
      <trkpt lat="50.692664" lon="17.919079">
        <ele>161.741811</ele>
        <time>2025-11-03T18:44:55.834Z</time>
      </trkpt>
      <trkpt lat="50.692776" lon="17.919621">
        <ele>162.212620</ele>
        <time>2025-11-03T18:45:05.174Z</time>
      </trkpt>
      <trkpt lat="50.693579" lon="17.919327">
        <ele>162.833820</ele>
        <time>2025-11-03T18:45:26.481Z</time>
      </trkpt>
      <trkpt lat="50.694381" lon="17.919034">
        <ele>163.450427</ele>
        <time>2025-11-03T18:45:47.788Z</time>
      </trkpt>
      <trkpt lat="50.695184" lon="17.918740">
        <ele>162.708871</ele>
        <time>2025-11-03T18:46:09.095Z</time>
      </trkpt>
      <trkpt lat="50.695184" lon="17.918740">
        <ele>162.708871</ele>
        <time>2025-11-03T18:46:09.103Z</time>
      </trkpt>
      <trkpt lat="50.695200" lon="17.919120">
        <ele>162.491849</ele>
        <time>2025-11-03T18:46:13.775Z</time>
      </trkpt>
      <trkpt lat="50.695412" lon="17.918990">
        <ele>162.287251</ele>
        <time>2025-11-03T18:46:21.343Z</time>
      </trkpt>
      <trkpt lat="50.695568" lon="17.918895">
        <ele>162.136833</ele>
        <time>2025-11-03T18:46:26.866Z</time>
      </trkpt>
      <trkpt lat="50.696532" lon="17.918553">
        <ele>161.577001</ele>
        <time>2025-11-03T18:46:59.609Z</time>
      </trkpt>
      <trkpt lat="50.700540" lon="17.917056">
        <ele>160.345670</ele>
        <time>2025-11-03T18:49:30.976Z</time>
      </trkpt>
      <trkpt lat="50.701150" lon="17.916849">
        <ele>160.309360</ele>
        <time>2025-11-03T18:49:54.271Z</time>
      </trkpt>
      <trkpt lat="50.704188" lon="17.915770">
        <ele>160.480010</ele>
        <time>2025-11-03T18:51:50.160Z</time>
      </trkpt>
      <trkpt lat="50.704424" lon="17.915771">
        <ele>160.501961</ele>
        <time>2025-11-03T18:51:59.085Z</time>
      </trkpt>
      <trkpt lat="50.705699" lon="17.915345">
        <ele>160.514609</ele>
        <time>2025-11-03T18:52:48.536Z</time>
      </trkpt>
      <trkpt lat="50.705980" lon="17.915236">
        <ele>160.511727</ele>
        <time>2025-11-03T18:52:59.233Z</time>
      </trkpt>
      <trkpt lat="50.706092" lon="17.915143">
        <ele>160.510466</ele>
        <time>2025-11-03T18:53:03.899Z</time>
      </trkpt>
      <trkpt lat="50.706040" lon="17.915030">
        <ele>160.509585</ele>
        <time>2025-11-03T18:53:05.861Z</time>
      </trkpt>
      <trkpt lat="50.705995" lon="17.914736">
        <ele>160.507677</ele>
        <time>2025-11-03T18:53:10.182Z</time>
      </trkpt>
      <trkpt lat="50.705988" lon="17.914478">
        <ele>160.422849</ele>
        <time>2025-11-03T18:53:13.813Z</time>
      </trkpt>
      <trkpt lat="50.706012" lon="17.914236">
        <ele>160.309225</ele>
        <time>2025-11-03T18:53:17.210Z</time>
      </trkpt>
      <trkpt lat="50.706240" lon="17.913180">
        <ele>159.791702</ele>
        <time>2025-11-03T18:53:32.426Z</time>
      </trkpt>
      <trkpt lat="50.706435" lon="17.912629">
        <ele>159.498914</ele>
        <time>2025-11-03T18:53:40.779Z</time>
      </trkpt>
      <trkpt lat="50.706531" lon="17.912464">
        <ele>159.394980</ele>
        <time>2025-11-03T18:53:43.731Z</time>
      </trkpt>
      <trkpt lat="50.706522" lon="17.912213">
        <ele>159.278365</ele>
        <time>2025-11-03T18:53:46.884Z</time>
      </trkpt>
      <trkpt lat="50.706576" lon="17.912201">
        <ele>159.238423</ele>
        <time>2025-11-03T18:53:48.344Z</time>
      </trkpt>
      <trkpt lat="50.706525" lon="17.910602">
        <ele>158.285725</ele>
        <time>2025-11-03T18:54:23.222Z</time>
      </trkpt>
      <trkpt lat="50.706505" lon="17.909989">
        <ele>157.914828</ele>
        <time>2025-11-03T18:54:36.576Z</time>
      </trkpt>
      <trkpt lat="50.706429" lon="17.909011">
        <ele>157.408403</ele>
        <time>2025-11-03T18:54:58.290Z</time>
      </trkpt>
      <trkpt lat="50.706333" lon="17.908302">
        <ele>157.223116</ele>
        <time>2025-11-03T18:55:14.556Z</time>
      </trkpt>
      <trkpt lat="50.706296" lon="17.908315">
        <ele>157.207820</ele>
        <time>2025-11-03T18:55:15.391Z</time>
      </trkpt>
      <trkpt lat="50.706076" lon="17.906640">
        <ele>156.770646</ele>
        <time>2025-11-03T18:55:38.674Z</time>
      </trkpt>
      <trkpt lat="50.705992" lon="17.905513">
        <ele>156.491781</ele>
        <time>2025-11-03T18:55:54.636Z</time>
      </trkpt>
      <trkpt lat="50.704881" lon="17.905897">
        <ele>156.051415</ele>
        <time>2025-11-03T18:56:26.583Z</time>
      </trkpt>
      <trkpt lat="50.703844" lon="17.906436">
        <ele>154.703262</ele>
        <time>2025-11-03T18:56:55.578Z</time>
      </trkpt>
      <trkpt lat="50.703505" lon="17.906352">
        <ele>154.279519</ele>
        <time>2025-11-03T18:57:04.416Z</time>
      </trkpt>
      <trkpt lat="50.703482" lon="17.906364">
        <ele>154.249607</ele>
        <time>2025-11-03T18:57:05.014Z</time>
      </trkpt>
      <trkpt lat="50.703517" lon="17.906563">
        <ele>154.088083</ele>
        <time>2025-11-03T18:57:08.358Z</time>
      </trkpt>
      <trkpt lat="50.703475" lon="17.906588">
        <ele>154.032656</ele>
        <time>2025-11-03T18:57:09.509Z</time>
      </trkpt>
      <trkpt lat="50.703437" lon="17.906387">
        <ele>153.868603</ele>
        <time>2025-11-03T18:57:12.885Z</time>
      </trkpt>
      <trkpt lat="50.703414" lon="17.906397">
        <ele>153.839144</ele>
        <time>2025-11-03T18:57:13.500Z</time>
      </trkpt>
      <trkpt lat="50.703174" lon="17.906511">
        <ele>153.430211</ele>
        <time>2025-11-03T18:57:19.862Z</time>
      </trkpt>
      <trkpt lat="50.703156" lon="17.906519">
        <ele>153.399503</ele>
        <time>2025-11-03T18:57:20.343Z</time>
      </trkpt>
      <trkpt lat="50.703102" lon="17.906242">
        <ele>153.098068</ele>
        <time>2025-11-03T18:57:25.028Z</time>
      </trkpt>
      <trkpt lat="50.703040" lon="17.906180">
        <ele>152.977551</ele>
        <time>2025-11-03T18:57:26.894Z</time>
      </trkpt>
      <trkpt lat="50.702924" lon="17.905651">
        <ele>152.395315</ele>
        <time>2025-11-03T18:57:35.986Z</time>
      </trkpt>
      <trkpt lat="50.702814" lon="17.905431">
        <ele>152.103791</ele>
        <time>2025-11-03T18:57:40.477Z</time>
      </trkpt>
      <trkpt lat="50.702754" lon="17.905368">
        <ele>151.985462</ele>
        <time>2025-11-03T18:57:42.312Z</time>
      </trkpt>
      <trkpt lat="50.702614" lon="17.905292">
        <ele>151.742348</ele>
        <time>2025-11-03T18:57:46.049Z</time>
      </trkpt>
      <trkpt lat="50.702495" lon="17.905281">
        <ele>151.546594</ele>
        <time>2025-11-03T18:57:49.026Z</time>
      </trkpt>
      <trkpt lat="50.701936" lon="17.905531">
        <ele>150.755498</ele>
        <time>2025-11-03T18:58:03.917Z</time>
      </trkpt>
      <trkpt lat="50.701928" lon="17.905406">
        <ele>150.699573</ele>
        <time>2025-11-03T18:58:06.028Z</time>
      </trkpt>
      <trkpt lat="50.701919" lon="17.905186">
        <ele>150.601440</ele>
        <time>2025-11-03T18:58:08.913Z</time>
      </trkpt>
      <trkpt lat="50.701908" lon="17.905036">
        <ele>150.534224</ele>
        <time>2025-11-03T18:58:11.486Z</time>
      </trkpt>
      <trkpt lat="50.702295" lon="17.904876">
        <ele>150.253066</ele>
        <time>2025-11-03T18:58:22.475Z</time>
      </trkpt>
      <trkpt lat="50.702417" lon="17.904773">
        <ele>150.155834</ele>
        <time>2025-11-03T18:58:26.326Z</time>
      </trkpt>
      <trkpt lat="50.702497" lon="17.904655">
        <ele>150.078892</ele>
        <time>2025-11-03T18:58:29.397Z</time>
      </trkpt>
      <trkpt lat="50.702591" lon="17.904432">
        <ele>149.959654</ele>
        <time>2025-11-03T18:58:34.170Z</time>
      </trkpt>
      <trkpt lat="50.702633" lon="17.903804">
        <ele>149.678562</ele>
        <time>2025-11-03T18:58:45.560Z</time>
      </trkpt>
      <trkpt lat="50.701950" lon="17.900876">
        <ele>149.274452</ele>
        <time>2025-11-03T18:59:42.513Z</time>
      </trkpt>
      <trkpt lat="50.700616" lon="17.895631">
        <ele>148.389258</ele>
        <time>2025-11-03T19:01:24.724Z</time>
      </trkpt>
      <trkpt lat="50.700110" lon="17.893641">
        <ele>147.998334</ele>
        <time>2025-11-03T19:02:03.474Z</time>
      </trkpt>
      <trkpt lat="50.699962" lon="17.893058">
        <ele>147.884240</ele>
        <time>2025-11-03T19:02:12.376Z</time>
      </trkpt>
      <trkpt lat="50.699888" lon="17.892770">
        <ele>147.830838</ele>
        <time>2025-11-03T19:02:16.746Z</time>
      </trkpt>
      <trkpt lat="50.699874" lon="17.892742">
        <ele>147.824708</ele>
        <time>2025-11-03T19:02:17.260Z</time>
      </trkpt>
      <trkpt lat="50.699864" lon="17.892794">
        <ele>147.815371</ele>
        <time>2025-11-03T19:02:18.023Z</time>
      </trkpt>
      <trkpt lat="50.699935" lon="17.893257">
        <ele>147.733517</ele>
        <time>2025-11-03T19:02:24.708Z</time>
      </trkpt>
      <trkpt lat="50.699958" lon="17.893319">
        <ele>147.721171</ele>
        <time>2025-11-03T19:02:25.714Z</time>
      </trkpt>
      <trkpt lat="50.700015" lon="17.893325">
        <ele>147.705674</ele>
        <time>2025-11-03T19:02:26.984Z</time>
      </trkpt>
      <trkpt lat="50.700103" lon="17.893211">
        <ele>147.674794</ele>
        <time>2025-11-03T19:02:29.486Z</time>
      </trkpt>
      <trkpt lat="50.700229" lon="17.893016">
        <ele>147.626929</ele>
        <time>2025-11-03T19:02:33.421Z</time>
      </trkpt>
      <trkpt lat="50.699826" lon="17.891250">
        <ele>147.351381</ele>
        <time>2025-11-03T19:03:07.421Z</time>
      </trkpt>
      <trkpt lat="50.698762" lon="17.887119">
        <ele>147.349937</ele>
        <time>2025-11-03T19:04:29.116Z</time>
      </trkpt>
      <trkpt lat="50.697638" lon="17.882600">
        <ele>149.355743</ele>
        <time>2025-11-03T19:06:12.363Z</time>
      </trkpt>
      <trkpt lat="50.697879" lon="17.882515">
        <ele>149.494984</ele>
        <time>2025-11-03T19:06:20.188Z</time>
      </trkpt>
      <trkpt lat="50.697881" lon="17.882515">
        <ele>149.496112</ele>
        <time>2025-11-03T19:06:20.248Z</time>
      </trkpt>
      <trkpt lat="50.697909" lon="17.882393">
        <ele>149.542457</ele>
        <time>2025-11-03T19:06:22.815Z</time>
      </trkpt>
      <trkpt lat="50.697788" lon="17.882045">
        <ele>149.684243</ele>
        <time>2025-11-03T19:06:29.088Z</time>
      </trkpt>
      <trkpt lat="50.697659" lon="17.881713">
        <ele>149.823352</ele>
        <time>2025-11-03T19:06:34.852Z</time>
      </trkpt>
      <trkpt lat="50.697573" lon="17.881312">
        <ele>149.860693</ele>
        <time>2025-11-03T19:06:40.938Z</time>
      </trkpt>
      <trkpt lat="50.697285" lon="17.879970">
        <ele>149.751495</ele>
        <time>2025-11-03T19:07:00.475Z</time>
      </trkpt>
      <trkpt lat="50.697268" lon="17.879859">
        <ele>149.742694</ele>
        <time>2025-11-03T19:07:02.027Z</time>
      </trkpt>
      <trkpt lat="50.697281" lon="17.879773">
        <ele>149.735880</ele>
        <time>2025-11-03T19:07:03.232Z</time>
      </trkpt>
      <trkpt lat="50.697319" lon="17.879697">
        <ele>149.728418</ele>
        <time>2025-11-03T19:07:04.556Z</time>
      </trkpt>
      <trkpt lat="50.698297" lon="17.878558">
        <ele>149.529430</ele>
        <time>2025-11-03T19:07:30.867Z</time>
      </trkpt>
      <trkpt lat="50.698400" lon="17.878386">
        <ele>149.499748</ele>
        <time>2025-11-03T19:07:34.128Z</time>
      </trkpt>
      <trkpt lat="50.698473" lon="17.878207">
        <ele>149.473051</ele>
        <time>2025-11-03T19:07:37.064Z</time>
      </trkpt>
      <trkpt lat="50.698596" lon="17.877774">
        <ele>149.413543</ele>
        <time>2025-11-03T19:07:43.627Z</time>
      </trkpt>
      <trkpt lat="50.699182" lon="17.875346">
        <ele>149.009268</ele>
        <time>2025-11-03T19:08:19.306Z</time>
      </trkpt>
      <trkpt lat="50.699242" lon="17.875189">
        <ele>148.978010</ele>
        <time>2025-11-03T19:08:21.801Z</time>
      </trkpt>
      <trkpt lat="50.699348" lon="17.875046">
        <ele>148.940484</ele>
        <time>2025-11-03T19:08:24.744Z</time>
      </trkpt>
      <trkpt lat="50.699422" lon="17.874993">
        <ele>148.918614</ele>
        <time>2025-11-03T19:08:26.442Z</time>
      </trkpt>
      <trkpt lat="50.700194" lon="17.874447">
        <ele>148.727420</ele>
        <time>2025-11-03T19:08:44.203Z</time>
      </trkpt>
      <trkpt lat="50.700378" lon="17.874177">
        <ele>148.678648</ele>
        <time>2025-11-03T19:08:49.710Z</time>
      </trkpt>
      <trkpt lat="50.700489" lon="17.873921">
        <ele>148.640496</ele>
        <time>2025-11-03T19:08:53.927Z</time>
      </trkpt>
      <trkpt lat="50.700850" lon="17.873076">
        <ele>148.515152</ele>
        <time>2025-11-03T19:09:07.956Z</time>
      </trkpt>
      <trkpt lat="50.700895" lon="17.872969">
        <ele>148.499357</ele>
        <time>2025-11-03T19:09:09.759Z</time>
      </trkpt>
      <trkpt lat="50.701035" lon="17.872761">
        <ele>148.476489</ele>
        <time>2025-11-03T19:09:14.025Z</time>
      </trkpt>
      <trkpt lat="50.701268" lon="17.872648">
        <ele>148.493564</ele>
        <time>2025-11-03T19:09:19.885Z</time>
      </trkpt>
      <trkpt lat="50.702055" lon="17.872445">
        <ele>148.549427</ele>
        <time>2025-11-03T19:09:38.138Z</time>
      </trkpt>
      <trkpt lat="50.703825" lon="17.872398">
        <ele>148.634148</ele>
        <time>2025-11-03T19:10:17.762Z</time>
      </trkpt>
      <trkpt lat="50.704983" lon="17.872367">
        <ele>148.668131</ele>
        <time>2025-11-03T19:10:44.044Z</time>
      </trkpt>
      <trkpt lat="50.705573" lon="17.872283">
        <ele>148.681552</ele>
        <time>2025-11-03T19:10:57.359Z</time>
      </trkpt>
      <trkpt lat="50.706276" lon="17.872118">
        <ele>148.697653</ele>
        <time>2025-11-03T19:11:13.172Z</time>
      </trkpt>
      <trkpt lat="50.707001" lon="17.871840">
        <ele>148.673422</ele>
        <time>2025-11-03T19:11:29.579Z</time>
      </trkpt>
      <trkpt lat="50.708625" lon="17.870976">
        <ele>148.554479</ele>
        <time>2025-11-03T19:12:07.392Z</time>
      </trkpt>
      <trkpt lat="50.708639" lon="17.870969">
        <ele>148.552589</ele>
        <time>2025-11-03T19:12:07.709Z</time>
      </trkpt>
      <trkpt lat="50.709055" lon="17.870728">
        <ele>148.495552</ele>
        <time>2025-11-03T19:12:17.411Z</time>
      </trkpt>
      <trkpt lat="50.709416" lon="17.870450">
        <ele>148.443854</ele>
        <time>2025-11-03T19:12:26.162Z</time>
      </trkpt>
      <trkpt lat="50.709449" lon="17.870425">
        <ele>148.439143</ele>
        <time>2025-11-03T19:12:26.954Z</time>
      </trkpt>
      <trkpt lat="50.709523" lon="17.870368">
        <ele>148.428545</ele>
        <time>2025-11-03T19:12:28.739Z</time>
      </trkpt>
      <trkpt lat="50.709706" lon="17.870225">
        <ele>148.402263</ele>
        <time>2025-11-03T19:12:33.150Z</time>
      </trkpt>
      <trkpt lat="50.713108" lon="17.867505">
        <ele>147.822451</ele>
        <time>2025-11-03T19:13:56.129Z</time>
      </trkpt>
      <trkpt lat="50.713871" lon="17.866895">
        <ele>147.762706</ele>
        <time>2025-11-03T19:14:14.858Z</time>
      </trkpt>
      <trkpt lat="50.720985" lon="17.861274">
        <ele>147.797135</ele>
        <time>2025-11-03T19:17:12.402Z</time>
      </trkpt>
      <trkpt lat="50.721233" lon="17.861144">
        <ele>147.797553</ele>
        <time>2025-11-03T19:17:18.269Z</time>
      </trkpt>
      <trkpt lat="50.721463" lon="17.861069">
        <ele>147.797930</ele>
        <time>2025-11-03T19:17:23.537Z</time>
      </trkpt>
      <trkpt lat="50.721834" lon="17.861061">
        <ele>147.798524</ele>
        <time>2025-11-03T19:17:31.811Z</time>
      </trkpt>
      <trkpt lat="50.722290" lon="17.861143">
        <ele>147.799260</ele>
        <time>2025-11-03T19:17:41.985Z</time>
      </trkpt>
      <trkpt lat="50.724749" lon="17.861589">
        <ele>147.988486</ele>
        <time>2025-11-03T19:18:37.172Z</time>
      </trkpt>
      <trkpt lat="50.724927" lon="17.861603">
        <ele>148.077801</ele>
        <time>2025-11-03T19:18:42.008Z</time>
      </trkpt>
      <trkpt lat="50.725026" lon="17.861453">
        <ele>148.146549</ele>
        <time>2025-11-03T19:18:47.485Z</time>
      </trkpt>
      <trkpt lat="50.725114" lon="17.861213">
        <ele>148.234539</ele>
        <time>2025-11-03T19:18:54.502Z</time>
      </trkpt>
      <trkpt lat="50.725116" lon="17.861208">
        <ele>148.236415</ele>
        <time>2025-11-03T19:18:54.653Z</time>
      </trkpt>
      <trkpt lat="50.725268" lon="17.860907">
        <ele>148.358569</ele>
        <time>2025-11-03T19:19:04.473Z</time>
      </trkpt>
      <trkpt lat="50.725597" lon="17.860312">
        <ele>148.609202</ele>
        <time>2025-11-03T19:19:17.925Z</time>
      </trkpt>
      <trkpt lat="50.726424" lon="17.859193">
        <ele>148.949563</ele>
        <time>2025-11-03T19:19:45.869Z</time>
      </trkpt>
      <trkpt lat="50.727131" lon="17.857728">
        <ele>149.180673</ele>
        <time>2025-11-03T19:20:13.082Z</time>
      </trkpt>
      <trkpt lat="50.727346" lon="17.857479">
        <ele>149.166110</ele>
        <time>2025-11-03T19:20:19.112Z</time>
      </trkpt>
      <trkpt lat="50.727838" lon="17.857024">
        <ele>149.134967</ele>
        <time>2025-11-03T19:20:32.056Z</time>
      </trkpt>
      <trkpt lat="50.727942" lon="17.856846">
        <ele>149.126591</ele>
        <time>2025-11-03T19:20:35.555Z</time>
      </trkpt>
      <trkpt lat="50.728182" lon="17.855951">
        <ele>149.092981</ele>
        <time>2025-11-03T19:20:49.797Z</time>
      </trkpt>
      <trkpt lat="50.728215" lon="17.855732">
        <ele>149.094647</ele>
        <time>2025-11-03T19:20:53.147Z</time>
      </trkpt>
      <trkpt lat="50.728336" lon="17.855504">
        <ele>149.114831</ele>
        <time>2025-11-03T19:20:57.408Z</time>
      </trkpt>
      <trkpt lat="50.728384" lon="17.855260">
        <ele>149.132164</ele>
        <time>2025-11-03T19:21:01.101Z</time>
      </trkpt>
      <trkpt lat="50.728680" lon="17.853044">
        <ele>149.284289</ele>
        <time>2025-11-03T19:21:34.137Z</time>
      </trkpt>
      <trkpt lat="50.729175" lon="17.851138">
        <ele>149.378557</ele>
        <time>2025-11-03T19:22:03.741Z</time>
      </trkpt>
      <trkpt lat="50.729331" lon="17.850536">
        <ele>149.408321</ele>
        <time>2025-11-03T19:22:12.898Z</time>
      </trkpt>
      <trkpt lat="50.729445" lon="17.849949">
        <ele>149.406981</ele>
        <time>2025-11-03T19:22:21.569Z</time>
      </trkpt>
      <trkpt lat="50.729543" lon="17.849103">
        <ele>149.400458</ele>
        <time>2025-11-03T19:22:33.809Z</time>
      </trkpt>
      <trkpt lat="50.729782" lon="17.847677">
        <ele>149.382340</ele>
        <time>2025-11-03T19:22:54.319Z</time>
      </trkpt>
      <trkpt lat="50.729989" lon="17.846765">
        <ele>149.227343</ele>
        <time>2025-11-03T19:23:07.811Z</time>
      </trkpt>
      <trkpt lat="50.730254" lon="17.845596">
        <ele>149.028698</ele>
        <time>2025-11-03T19:23:24.679Z</time>
      </trkpt>
      <trkpt lat="50.730324" lon="17.845361">
        <ele>148.987149</ele>
        <time>2025-11-03T19:23:28.144Z</time>
      </trkpt>
      <trkpt lat="50.730421" lon="17.845164">
        <ele>148.947221</ele>
        <time>2025-11-03T19:23:31.476Z</time>
      </trkpt>
      <trkpt lat="50.730561" lon="17.844971">
        <ele>148.868824</ele>
        <time>2025-11-03T19:23:35.376Z</time>
      </trkpt>
      <trkpt lat="50.730769" lon="17.844739">
        <ele>148.746283</ele>
        <time>2025-11-03T19:23:40.708Z</time>
      </trkpt>
      <trkpt lat="50.731189" lon="17.844379">
        <ele>148.516311</ele>
        <time>2025-11-03T19:23:50.674Z</time>
      </trkpt>
      <trkpt lat="50.731302" lon="17.844185">
        <ele>148.435997</ele>
        <time>2025-11-03T19:23:54.134Z</time>
      </trkpt>
      <trkpt lat="50.731397" lon="17.843866">
        <ele>148.328602</ele>
        <time>2025-11-03T19:23:58.778Z</time>
      </trkpt>
      <trkpt lat="50.732306" lon="17.838177">
        <ele>146.886420</ele>
        <time>2025-11-03T19:25:17.165Z</time>
      </trkpt>
      <trkpt lat="50.732341" lon="17.837958">
        <ele>146.844188</ele>
        <time>2025-11-03T19:25:20.283Z</time>
      </trkpt>
      <trkpt lat="50.733437" lon="17.831092">
        <ele>147.152988</ele>
        <time>2025-11-03T19:27:01.739Z</time>
      </trkpt>
      <trkpt lat="50.733630" lon="17.830028">
        <ele>147.271369</ele>
        <time>2025-11-03T19:27:18.307Z</time>
      </trkpt>
      <trkpt lat="50.733860" lon="17.829020">
        <ele>147.368351</ele>
        <time>2025-11-03T19:27:34.196Z</time>
      </trkpt>
      <trkpt lat="50.734480" lon="17.826795">
        <ele>147.482201</ele>
        <time>2025-11-03T19:28:08.598Z</time>
      </trkpt>
      <trkpt lat="50.736693" lon="17.818847">
        <ele>147.600229</ele>
        <time>2025-11-03T19:30:10.953Z</time>
      </trkpt>
      <trkpt lat="50.737622" lon="17.815475">
        <ele>148.128111</ele>
        <time>2025-11-03T19:31:07.541Z</time>
      </trkpt>
      <trkpt lat="50.738671" lon="17.811940">
        <ele>147.362761</ele>
        <time>2025-11-03T19:31:59.436Z</time>
      </trkpt>
      <trkpt lat="50.738864" lon="17.811128">
        <ele>147.124266</ele>
        <time>2025-11-03T19:32:10.964Z</time>
      </trkpt>
      <trkpt lat="50.738950" lon="17.810915">
        <ele>147.048659</ele>
        <time>2025-11-03T19:32:14.379Z</time>
      </trkpt>
      <trkpt lat="50.739018" lon="17.810838">
        <ele>147.008551</ele>
        <time>2025-11-03T19:32:16.176Z</time>
      </trkpt>
      <trkpt lat="50.739127" lon="17.810761">
        <ele>146.951308</ele>
        <time>2025-11-03T19:32:18.748Z</time>
      </trkpt>
      <trkpt lat="50.739566" lon="17.810565">
        <ele>146.732595</ele>
        <time>2025-11-03T19:32:28.617Z</time>
      </trkpt>
      <trkpt lat="50.739701" lon="17.810124">
        <ele>146.583960</ele>
        <time>2025-11-03T19:32:35.063Z</time>
      </trkpt>
      <trkpt lat="50.739795" lon="17.809769">
        <ele>146.467201</ele>
        <time>2025-11-03T19:32:40.045Z</time>
      </trkpt>
      <trkpt lat="50.739825" lon="17.809650">
        <ele>146.428336</ele>
        <time>2025-11-03T19:32:41.710Z</time>
      </trkpt>
      <trkpt lat="50.739913" lon="17.809181">
        <ele>146.279915</ele>
        <time>2025-11-03T19:32:48.074Z</time>
      </trkpt>
      <trkpt lat="50.739993" lon="17.808586">
        <ele>146.176803</ele>
        <time>2025-11-03T19:32:56.070Z</time>
      </trkpt>
      <trkpt lat="50.740084" lon="17.807915">
        <ele>146.077022</ele>
        <time>2025-11-03T19:33:05.064Z</time>
      </trkpt>
      <trkpt lat="50.740228" lon="17.806692">
        <ele>145.896143</ele>
        <time>2025-11-03T19:33:21.966Z</time>
      </trkpt>
      <trkpt lat="50.740265" lon="17.806175">
        <ele>145.873149</ele>
        <time>2025-11-03T19:33:30.022Z</time>
      </trkpt>
      <trkpt lat="50.740279" lon="17.805237">
        <ele>146.135819</ele>
        <time>2025-11-03T19:33:45.447Z</time>
      </trkpt>
      <trkpt lat="50.740250" lon="17.804146">
        <ele>146.441518</ele>
        <time>2025-11-03T19:34:03.263Z</time>
      </trkpt>
      <trkpt lat="50.740118" lon="17.800739">
        <ele>146.915789</ele>
        <time>2025-11-03T19:34:52.628Z</time>
      </trkpt>
      <trkpt lat="50.740084" lon="17.799865">
        <ele>147.062391</ele>
        <time>2025-11-03T19:35:05.294Z</time>
      </trkpt>
      <trkpt lat="50.739986" lon="17.797373">
        <ele>147.508056</ele>
        <time>2025-11-03T19:35:42.889Z</time>
      </trkpt>
      <trkpt lat="50.739948" lon="17.796310">
        <ele>147.704495</ele>
        <time>2025-11-03T19:35:59.724Z</time>
      </trkpt>
      <trkpt lat="50.739932" lon="17.795834">
        <ele>147.792441</ele>
        <time>2025-11-03T19:36:07.288Z</time>
      </trkpt>
      <trkpt lat="50.739877" lon="17.794487">
        <ele>147.899769</ele>
        <time>2025-11-03T19:36:26.329Z</time>
      </trkpt>
      <trkpt lat="50.739848" lon="17.793074">
        <ele>147.727234</ele>
        <time>2025-11-03T19:36:45.498Z</time>
      </trkpt>
      <trkpt lat="50.739861" lon="17.792871">
        <ele>147.702333</ele>
        <time>2025-11-03T19:36:48.227Z</time>
      </trkpt>
      <trkpt lat="50.739900" lon="17.792682">
        <ele>147.678072</ele>
        <time>2025-11-03T19:36:50.875Z</time>
      </trkpt>
      <trkpt lat="50.739143" lon="17.792583">
        <ele>147.640714</ele>
        <time>2025-11-03T19:37:18.467Z</time>
      </trkpt>
      <trkpt lat="50.738891" lon="17.792654">
        <ele>147.660646</ele>
        <time>2025-11-03T19:37:28.249Z</time>
      </trkpt>
      <trkpt lat="50.738428" lon="17.792890">
        <ele>147.698526</ele>
        <time>2025-11-03T19:37:47.133Z</time>
      </trkpt>
      <trkpt lat="50.731712" lon="17.796715">
        <ele>148.239635</ele>
        <time>2025-11-03T19:42:15.000Z</time>
      </trkpt>
      <trkpt lat="50.728261" lon="17.798671">
        <ele>148.314685</ele>
        <time>2025-11-03T19:43:45.008Z</time>
      </trkpt>
      <trkpt lat="50.728110" lon="17.798756">
        <ele>148.335631</ele>
        <time>2025-11-03T19:43:49.101Z</time>
      </trkpt>
      <trkpt lat="50.720973" lon="17.802779">
        <ele>151.375559</ele>
        <time>2025-11-03T19:48:45.903Z</time>
      </trkpt>
      <trkpt lat="50.719895" lon="17.803387">
        <ele>151.937607</ele>
        <time>2025-11-03T19:49:32.028Z</time>
      </trkpt>
      <trkpt lat="50.719193" lon="17.803791">
        <ele>152.307037</ele>
        <time>2025-11-03T19:50:01.240Z</time>
      </trkpt>
      <trkpt lat="50.718535" lon="17.804475">
        <ele>152.358445</ele>
        <time>2025-11-03T19:50:30.530Z</time>
      </trkpt>
      <trkpt lat="50.717757" lon="17.805563">
        <ele>152.422953</ele>
        <time>2025-11-03T19:51:09.017Z</time>
      </trkpt>
      <trkpt lat="50.717471" lon="17.805855">
        <ele>152.422184</ele>
        <time>2025-11-03T19:51:21.813Z</time>
      </trkpt>
      <trkpt lat="50.717270" lon="17.806060">
        <ele>152.421643</ele>
        <time>2025-11-03T19:51:30.802Z</time>
      </trkpt>
      <trkpt lat="50.716681" lon="17.806662">
        <ele>152.420059</ele>
        <time>2025-11-03T19:51:57.042Z</time>
      </trkpt>
      <trkpt lat="50.715552" lon="17.807766">
        <ele>152.194573</ele>
        <time>2025-11-03T19:52:45.639Z</time>
      </trkpt>
      <trkpt lat="50.715004" lon="17.808207">
        <ele>152.029493</ele>
        <time>2025-11-03T19:53:08.096Z</time>
      </trkpt>
      <trkpt lat="50.714512" lon="17.808540">
        <ele>151.819657</ele>
        <time>2025-11-03T19:53:27.188Z</time>
      </trkpt>
      <trkpt lat="50.713264" lon="17.809377">
        <ele>150.977600</ele>
        <time>2025-11-03T19:54:14.458Z</time>
      </trkpt>
      <trkpt lat="50.711925" lon="17.810420">
        <ele>150.737008</ele>
        <time>2025-11-03T19:55:09.118Z</time>
      </trkpt>
      <trkpt lat="50.711128" lon="17.811132">
        <ele>150.831402</ele>
        <time>2025-11-03T19:55:44.181Z</time>
      </trkpt>
      <trkpt lat="50.710865" lon="17.811468">
        <ele>150.956839</ele>
        <time>2025-11-03T19:55:57.249Z</time>
      </trkpt>
      <trkpt lat="50.710574" lon="17.811990">
        <ele>151.120135</ele>
        <time>2025-11-03T19:56:14.501Z</time>
      </trkpt>
      <trkpt lat="50.710140" lon="17.812755">
        <ele>151.361306</ele>
        <time>2025-11-03T19:56:40.366Z</time>
      </trkpt>
      <trkpt lat="50.710072" lon="17.812877">
        <ele>151.359229</ele>
        <time>2025-11-03T19:56:44.448Z</time>
      </trkpt>
      <trkpt lat="50.709462" lon="17.814050">
        <ele>151.277470</ele>
        <time>2025-11-03T19:57:20.884Z</time>
      </trkpt>
      <trkpt lat="50.709435" lon="17.814162">
        <ele>151.271014</ele>
        <time>2025-11-03T19:57:23.638Z</time>
      </trkpt>
      <trkpt lat="50.709451" lon="17.814254">
        <ele>151.265875</ele>
        <time>2025-11-03T19:57:25.858Z</time>
      </trkpt>
      <trkpt lat="50.710026" lon="17.815828">
        <ele>150.902038</ele>
        <time>2025-11-03T19:58:06.598Z</time>
      </trkpt>
      <trkpt lat="50.711403" lon="17.819302">
        <ele>149.585694</ele>
        <time>2025-11-03T19:59:38.785Z</time>
      </trkpt>
      <trkpt lat="50.710697" lon="17.819617">
        <ele>149.391648</ele>
        <time>2025-11-03T20:00:05.446Z</time>
      </trkpt>
      <trkpt lat="50.706109" lon="17.821467">
        <ele>149.631582</ele>
        <time>2025-11-03T20:03:02.481Z</time>
      </trkpt>
      <trkpt lat="50.700952" lon="17.823498">
        <ele>150.298728</ele>
        <time>2025-11-03T20:06:23.756Z</time>
      </trkpt>
      <trkpt lat="50.698385" lon="17.824692">
        <ele>150.141090</ele>
        <time>2025-11-03T20:08:01.972Z</time>
      </trkpt>
      <trkpt lat="50.698074" lon="17.824875">
        <ele>150.131304</ele>
        <time>2025-11-03T20:08:14.242Z</time>
      </trkpt>
      <trkpt lat="50.697831" lon="17.824945">
        <ele>150.124020</ele>
        <time>2025-11-03T20:08:23.428Z</time>
      </trkpt>
      <trkpt lat="50.697465" lon="17.825002">
        <ele>150.113175</ele>
        <time>2025-11-03T20:08:37.187Z</time>
      </trkpt>
      <trkpt lat="50.695237" lon="17.824978">
        <ele>149.956163</ele>
        <time>2025-11-03T20:09:59.915Z</time>
      </trkpt>
      <trkpt lat="50.692997" lon="17.824620">
        <ele>149.040891</ele>
        <time>2025-11-03T20:11:19.409Z</time>
      </trkpt>
      <trkpt lat="50.692749" lon="17.824595">
        <ele>149.057313</ele>
        <time>2025-11-03T20:11:28.552Z</time>
      </trkpt>
      <trkpt lat="50.691819" lon="17.824394">
        <ele>149.119344</ele>
        <time>2025-11-03T20:12:04.765Z</time>
      </trkpt>
      <trkpt lat="50.691289" lon="17.824261">
        <ele>149.290890</ele>
        <time>2025-11-03T20:12:26.412Z</time>
      </trkpt>
      <trkpt lat="50.690552" lon="17.824020">
        <ele>149.624586</ele>
        <time>2025-11-03T20:12:56.084Z</time>
      </trkpt>
      <trkpt lat="50.690206" lon="17.823803">
        <ele>149.789654</ele>
        <time>2025-11-03T20:13:10.641Z</time>
      </trkpt>
      <trkpt lat="50.689990" lon="17.823574">
        <ele>149.905017</ele>
        <time>2025-11-03T20:13:20.754Z</time>
      </trkpt>
      <trkpt lat="50.690402" lon="17.825075">
        <ele>150.258690</ele>
        <time>2025-11-03T20:14:01.039Z</time>
      </trkpt>
      <trkpt lat="50.690505" lon="17.825341">
        <ele>150.325009</ele>
        <time>2025-11-03T20:14:08.773Z</time>
      </trkpt>
      <trkpt lat="50.690645" lon="17.825815">
        <ele>150.436264</ele>
        <time>2025-11-03T20:14:21.752Z</time>
      </trkpt>
      <trkpt lat="50.691374" lon="17.828272">
        <ele>150.687652</ele>
        <time>2025-11-03T20:15:27.047Z</time>
      </trkpt>
      <trkpt lat="50.691506" lon="17.828774">
        <ele>150.724969</ele>
        <time>2025-11-03T20:15:39.644Z</time>
      </trkpt>
      <trkpt lat="50.691868" lon="17.829897">
        <ele>150.768810</ele>
        <time>2025-11-03T20:16:08.624Z</time>
      </trkpt>
      <trkpt lat="50.692054" lon="17.830648">
        <ele>150.796097</ele>
        <time>2025-11-03T20:16:27.446Z</time>
      </trkpt>
      <trkpt lat="50.692168" lon="17.830959">
        <ele>150.808256</ele>
        <time>2025-11-03T20:16:36.009Z</time>
      </trkpt>
      <trkpt lat="50.692698" lon="17.832719">
        <ele>151.331668</ele>
        <time>2025-11-03T20:17:26.757Z</time>
      </trkpt>
      <trkpt lat="50.692880" lon="17.833325">
        <ele>151.558805</ele>
        <time>2025-11-03T20:17:44.136Z</time>
      </trkpt>
      <trkpt lat="50.692901" lon="17.833396">
        <ele>151.585343</ele>
        <time>2025-11-03T20:17:46.141Z</time>
      </trkpt>
      <trkpt lat="50.692981" lon="17.833657">
        <ele>151.683542</ele>
        <time>2025-11-03T20:17:53.380Z</time>
      </trkpt>
      <trkpt lat="50.693014" lon="17.833791">
        <ele>151.732233</ele>
        <time>2025-11-03T20:17:56.895Z</time>
      </trkpt>
      <trkpt lat="50.693423" lon="17.835472">
        <ele>151.477724</ele>
        <time>2025-11-03T20:18:37.721Z</time>
      </trkpt>
      <trkpt lat="50.693907" lon="17.837579">
        <ele>151.504029</ele>
        <time>2025-11-03T20:19:28.951Z</time>
      </trkpt>
      <trkpt lat="50.693928" lon="17.838553">
        <ele>151.736307</ele>
        <time>2025-11-03T20:19:54.915Z</time>
      </trkpt>
      <trkpt lat="50.693926" lon="17.838608">
        <ele>151.749437</ele>
        <time>2025-11-03T20:19:56.442Z</time>
      </trkpt>
      <trkpt lat="50.693930" lon="17.838821">
        <ele>151.800226</ele>
        <time>2025-11-03T20:20:02.241Z</time>
      </trkpt>
      <trkpt lat="50.693938" lon="17.839000">
        <ele>151.842995</ele>
        <time>2025-11-03T20:20:07.140Z</time>
      </trkpt>
      <trkpt lat="50.694004" lon="17.841588">
        <ele>152.000394</ele>
        <time>2025-11-03T20:21:10.099Z</time>
      </trkpt>
      <trkpt lat="50.694094" lon="17.844814">
        <ele>151.041912</ele>
        <time>2025-11-03T20:22:21.603Z</time>
      </trkpt>
      <trkpt lat="50.694192" lon="17.847784">
        <ele>150.942500</ele>
        <time>2025-11-03T20:23:32.569Z</time>
      </trkpt>
      <trkpt lat="50.694270" lon="17.851042">
        <ele>150.635750</ele>
        <time>2025-11-03T20:24:48.127Z</time>
      </trkpt>
      <trkpt lat="50.694294" lon="17.851634">
        <ele>150.555041</ele>
        <time>2025-11-03T20:25:01.601Z</time>
      </trkpt>
      <trkpt lat="50.694343" lon="17.851878">
        <ele>150.520215</ele>
        <time>2025-11-03T20:25:07.416Z</time>
      </trkpt>
      <trkpt lat="50.694363" lon="17.852115">
        <ele>150.487686</ele>
        <time>2025-11-03T20:25:12.872Z</time>
      </trkpt>
      <trkpt lat="50.694542" lon="17.852319">
        <ele>150.440268</ele>
        <time>2025-11-03T20:25:17.774Z</time>
      </trkpt>
      <trkpt lat="50.700019" lon="17.854793">
        <ele>150.233055</ele>
        <time>2025-11-03T20:27:29.403Z</time>
      </trkpt>
      <trkpt lat="50.700240" lon="17.854880">
        <ele>150.234368</ele>
        <time>2025-11-03T20:27:34.835Z</time>
      </trkpt>
      <trkpt lat="50.700428" lon="17.854874">
        <ele>150.237809</ele>
        <time>2025-11-03T20:27:39.321Z</time>
      </trkpt>
      <trkpt lat="50.700494" lon="17.855856">
        <ele>150.284278</ele>
        <time>2025-11-03T20:27:54.242Z</time>
      </trkpt>
      <trkpt lat="50.700575" lon="17.856622">
        <ele>150.320822</ele>
        <time>2025-11-03T20:28:06.024Z</time>
      </trkpt>
      <trkpt lat="50.700619" lon="17.856719">
        <ele>150.326436</ele>
        <time>2025-11-03T20:28:07.815Z</time>
      </trkpt>
      <trkpt lat="50.700684" lon="17.856772">
        <ele>150.331872</ele>
        <time>2025-11-03T20:28:09.529Z</time>
      </trkpt>
      <trkpt lat="50.701257" lon="17.856765">
        <ele>150.363917</ele>
        <time>2025-11-03T20:28:22.717Z</time>
      </trkpt>
      <trkpt lat="50.701416" lon="17.858919">
        <ele>150.272720</ele>
        <time>2025-11-03T20:28:53.974Z</time>
      </trkpt>
      <trkpt lat="50.701575" lon="17.860628">
        <ele>150.069383</ele>
        <time>2025-11-03T20:29:19.706Z</time>
      </trkpt>
      <trkpt lat="50.701683" lon="17.861791">
        <ele>149.889122</ele>
        <time>2025-11-03T20:29:36.358Z</time>
      </trkpt>
      <trkpt lat="50.701731" lon="17.862290">
        <ele>149.812073</ele>
        <time>2025-11-03T20:29:43.139Z</time>
      </trkpt>
      <trkpt lat="50.701030" lon="17.863339">
        <ele>149.615342</ele>
        <time>2025-11-03T20:30:03.020Z</time>
      </trkpt>
      <trkpt lat="50.699803" lon="17.865136">
        <ele>149.633693</ele>
        <time>2025-11-03T20:30:43.077Z</time>
      </trkpt>
      <trkpt lat="50.699413" lon="17.865704">
        <ele>149.749869</ele>
        <time>2025-11-03T20:30:55.666Z</time>
      </trkpt>
      <trkpt lat="50.699036" lon="17.866297">
        <ele>149.857313</ele>
        <time>2025-11-03T20:31:07.466Z</time>
      </trkpt>
      <trkpt lat="50.698981" lon="17.866438">
        <ele>149.871934</ele>
        <time>2025-11-03T20:31:09.741Z</time>
      </trkpt>
      <trkpt lat="50.698602" lon="17.867459">
        <ele>149.976429</ele>
        <time>2025-11-03T20:31:25.948Z</time>
      </trkpt>
      <trkpt lat="50.698153" lon="17.868698">
        <ele>150.126069</ele>
        <time>2025-11-03T20:31:47.865Z</time>
      </trkpt>
      <trkpt lat="50.697987" lon="17.869158">
        <ele>150.279619</ele>
        <time>2025-11-03T20:31:56.508Z</time>
      </trkpt>
      <trkpt lat="50.697224" lon="17.871274">
        <ele>150.942608</ele>
        <time>2025-11-03T20:32:34.520Z</time>
      </trkpt>
      <trkpt lat="50.697126" lon="17.871702">
        <ele>150.993221</ele>
        <time>2025-11-03T20:32:40.927Z</time>
      </trkpt>
      <trkpt lat="50.696973" lon="17.873755">
        <ele>151.223113</ele>
        <time>2025-11-03T20:33:10.632Z</time>
      </trkpt>
      <trkpt lat="50.696954" lon="17.874011">
        <ele>151.228106</ele>
        <time>2025-11-03T20:33:14.547Z</time>
      </trkpt>
      <trkpt lat="50.696996" lon="17.874019">
        <ele>151.226850</ele>
        <time>2025-11-03T20:33:15.862Z</time>
      </trkpt>
      <trkpt lat="50.696913" lon="17.875174">
        <ele>151.204990</ele>
        <time>2025-11-03T20:33:38.791Z</time>
      </trkpt>
      <trkpt lat="50.696891" lon="17.875469">
        <ele>151.199404</ele>
        <time>2025-11-03T20:33:44.435Z</time>
      </trkpt>
      <trkpt lat="50.696838" lon="17.876172">
        <ele>151.186090</ele>
        <time>2025-11-03T20:33:57.409Z</time>
      </trkpt>
      <trkpt lat="50.696824" lon="17.876356">
        <ele>151.182605</ele>
        <time>2025-11-03T20:34:00.669Z</time>
      </trkpt>
      <trkpt lat="50.696747" lon="17.876981">
        <ele>151.020760</ele>
        <time>2025-11-03T20:34:11.593Z</time>
      </trkpt>
      <trkpt lat="50.696763" lon="17.877088">
        <ele>150.977369</ele>
        <time>2025-11-03T20:34:13.454Z</time>
      </trkpt>
      <trkpt lat="50.696807" lon="17.877144">
        <ele>150.942154</ele>
        <time>2025-11-03T20:34:14.972Z</time>
      </trkpt>
      <trkpt lat="50.696796" lon="17.877222">
        <ele>150.910615</ele>
        <time>2025-11-03T20:34:16.327Z</time>
      </trkpt>
      <trkpt lat="50.696900" lon="17.877259">
        <ele>150.844189</ele>
        <time>2025-11-03T20:34:20.022Z</time>
      </trkpt>
      <trkpt lat="50.696694" lon="17.877653">
        <ele>150.642556</ele>
        <time>2025-11-03T20:34:28.732Z</time>
      </trkpt>
      <trkpt lat="50.696582" lon="17.877978">
        <ele>150.496531</ele>
        <time>2025-11-03T20:34:35.046Z</time>
      </trkpt>
      <trkpt lat="50.696570" lon="17.878084">
        <ele>150.454032</ele>
        <time>2025-11-03T20:34:36.916Z</time>
      </trkpt>
      <trkpt lat="50.696601" lon="17.878431">
        <ele>150.315724</ele>
        <time>2025-11-03T20:34:43.044Z</time>
      </trkpt>
      <trkpt lat="50.696980" lon="17.879947">
        <ele>149.963058</ele>
        <time>2025-11-03T20:35:12.787Z</time>
      </trkpt>
      <trkpt lat="50.697201" lon="17.880836">
        <ele>149.870659</ele>
        <time>2025-11-03T20:35:30.792Z</time>
      </trkpt>
      <trkpt lat="50.697638" lon="17.882600">
        <ele>149.374814</ele>
        <time>2025-11-03T20:36:04.828Z</time>
      </trkpt>
      <trkpt lat="50.698762" lon="17.887119">
        <ele>147.250116</ele>
        <time>2025-11-03T20:37:28.069Z</time>
      </trkpt>
      <trkpt lat="50.699826" lon="17.891250">
        <ele>147.361562</ele>
        <time>2025-11-03T20:38:52.352Z</time>
      </trkpt>
      <trkpt lat="50.700229" lon="17.893016">
        <ele>147.618010</ele>
        <time>2025-11-03T20:39:28.525Z</time>
      </trkpt>
      <trkpt lat="50.700103" lon="17.893211">
        <ele>147.668615</ele>
        <time>2025-11-03T20:39:32.884Z</time>
      </trkpt>
      <trkpt lat="50.700015" lon="17.893325">
        <ele>147.701263</ele>
        <time>2025-11-03T20:39:35.754Z</time>
      </trkpt>
      <trkpt lat="50.699958" lon="17.893319">
        <ele>147.717648</ele>
        <time>2025-11-03T20:39:37.173Z</time>
      </trkpt>
      <trkpt lat="50.699935" lon="17.893257">
        <ele>147.730701</ele>
        <time>2025-11-03T20:39:38.316Z</time>
      </trkpt>
      <trkpt lat="50.699864" lon="17.892794">
        <ele>147.817240</ele>
        <time>2025-11-03T20:39:45.863Z</time>
      </trkpt>
      <trkpt lat="50.699874" lon="17.892742">
        <ele>147.827113</ele>
        <time>2025-11-03T20:39:46.742Z</time>
      </trkpt>
      <trkpt lat="50.699888" lon="17.892770">
        <ele>147.833593</ele>
        <time>2025-11-03T20:39:47.313Z</time>
      </trkpt>
      <trkpt lat="50.699962" lon="17.893058">
        <ele>147.890053</ele>
        <time>2025-11-03T20:39:52.192Z</time>
      </trkpt>
      <trkpt lat="50.700110" lon="17.893641">
        <ele>148.003777</ele>
        <time>2025-11-03T20:40:01.995Z</time>
      </trkpt>
      <trkpt lat="50.700616" lon="17.895631">
        <ele>148.385575</ele>
        <time>2025-11-03T20:40:43.445Z</time>
      </trkpt>
      <trkpt lat="50.701950" lon="17.900876">
        <ele>149.263886</ele>
        <time>2025-11-03T20:42:32.701Z</time>
      </trkpt>
      <trkpt lat="50.702633" lon="17.903804">
        <ele>149.657268</ele>
        <time>2025-11-03T20:43:31.996Z</time>
      </trkpt>
      <trkpt lat="50.702591" lon="17.904432">
        <ele>149.870008</ele>
        <time>2025-11-03T20:43:44.251Z</time>
      </trkpt>
      <trkpt lat="50.702497" lon="17.904655">
        <ele>150.026998</ele>
        <time>2025-11-03T20:43:49.560Z</time>
      </trkpt>
      <trkpt lat="50.702417" lon="17.904773">
        <ele>150.128301</ele>
        <time>2025-11-03T20:43:53.063Z</time>
      </trkpt>
      <trkpt lat="50.702295" lon="17.904876">
        <ele>150.256318</ele>
        <time>2025-11-03T20:43:57.477Z</time>
      </trkpt>
      <trkpt lat="50.701908" lon="17.905036">
        <ele>150.626497</ele>
        <time>2025-11-03T20:44:10.506Z</time>
      </trkpt>
      <trkpt lat="50.701919" lon="17.905186">
        <ele>150.714994</ele>
        <time>2025-11-03T20:44:13.808Z</time>
      </trkpt>
      <trkpt lat="50.701928" lon="17.905406">
        <ele>150.844197</ele>
        <time>2025-11-03T20:44:17.778Z</time>
      </trkpt>
      <trkpt lat="50.701936" lon="17.905531">
        <ele>150.917829</ele>
        <time>2025-11-03T20:44:20.520Z</time>
      </trkpt>
      <trkpt lat="50.702495" lon="17.905281">
        <ele>151.501313</ele>
        <time>2025-11-03T20:44:42.214Z</time>
      </trkpt>
      <trkpt lat="50.702614" lon="17.905292">
        <ele>151.666314</ele>
        <time>2025-11-03T20:44:46.935Z</time>
      </trkpt>
      <trkpt lat="50.702754" lon="17.905368">
        <ele>151.871234</ele>
        <time>2025-11-03T20:44:52.860Z</time>
      </trkpt>
      <trkpt lat="50.702814" lon="17.905431">
        <ele>151.970973</ele>
        <time>2025-11-03T20:44:55.693Z</time>
      </trkpt>
      <trkpt lat="50.702924" lon="17.905651">
        <ele>152.216698</ele>
        <time>2025-11-03T20:45:02.750Z</time>
      </trkpt>
      <trkpt lat="50.703040" lon="17.906180">
        <ele>152.707463</ele>
        <time>2025-11-03T20:45:16.437Z</time>
      </trkpt>
      <trkpt lat="50.703102" lon="17.906242">
        <ele>152.809047</ele>
        <time>2025-11-03T20:45:19.151Z</time>
      </trkpt>
      <trkpt lat="50.703156" lon="17.906519">
        <ele>153.063125</ele>
        <time>2025-11-03T20:45:25.928Z</time>
      </trkpt>
      <trkpt lat="50.703285" lon="17.907173">
        <ele>153.663622</ele>
        <time>2025-11-03T20:45:41.058Z</time>
      </trkpt>
      <trkpt lat="50.703241" lon="17.907194">
        <ele>153.727248</ele>
        <time>2025-11-03T20:45:42.615Z</time>
      </trkpt>
      <trkpt lat="50.703188" lon="17.906902">
        <ele>153.814810</ele>
        <time>2025-11-03T20:45:48.800Z</time>
      </trkpt>
      <trkpt lat="50.703119" lon="17.906858">
        <ele>153.787191</ele>
        <time>2025-11-03T20:45:51.101Z</time>
      </trkpt>
      <trkpt lat="50.703063" lon="17.906886">
        <ele>153.765389</ele>
        <time>2025-11-03T20:45:52.905Z</time>
      </trkpt>
      <trkpt lat="50.701916" lon="17.907287">
        <ele>153.329366</ele>
        <time>2025-11-03T20:46:16.939Z</time>
      </trkpt>
      <trkpt lat="50.701778" lon="17.907390">
        <ele>153.272712</ele>
        <time>2025-11-03T20:46:20.007Z</time>
      </trkpt>
      <trkpt lat="50.701718" lon="17.907411">
        <ele>153.249902</ele>
        <time>2025-11-03T20:46:21.306Z</time>
      </trkpt>
      <trkpt lat="50.701653" lon="17.907428">
        <ele>153.225448</ele>
        <time>2025-11-03T20:46:22.631Z</time>
      </trkpt>
      <trkpt lat="50.701588" lon="17.907402">
        <ele>153.200561</ele>
        <time>2025-11-03T20:46:24.022Z</time>
      </trkpt>
      <trkpt lat="50.701354" lon="17.907503">
        <ele>153.166187</ele>
        <time>2025-11-03T20:46:28.988Z</time>
      </trkpt>
      <trkpt lat="50.698715" lon="17.908726">
        <ele>153.069065</ele>
        <time>2025-11-03T20:47:30.859Z</time>
      </trkpt>
      <trkpt lat="50.698358" lon="17.908889">
        <ele>153.086112</ele>
        <time>2025-11-03T20:47:39.097Z</time>
      </trkpt>
      <trkpt lat="50.698033" lon="17.908980">
        <ele>153.102441</ele>
        <time>2025-11-03T20:47:48.817Z</time>
      </trkpt>
      <trkpt lat="50.697899" lon="17.909225">
        <ele>153.116236</ele>
        <time>2025-11-03T20:47:54.913Z</time>
      </trkpt>
      <trkpt lat="50.697873" lon="17.909237">
        <ele>153.118059</ele>
        <time>2025-11-03T20:47:55.534Z</time>
      </trkpt>
      <trkpt lat="50.697858" lon="17.909243">
        <ele>153.119100</ele>
        <time>2025-11-03T20:47:55.879Z</time>
      </trkpt>
      <trkpt lat="50.697833" lon="17.909252">
        <ele>153.120825</ele>
        <time>2025-11-03T20:47:56.640Z</time>
      </trkpt>
      <trkpt lat="50.697816" lon="17.909260">
        <ele>153.122018</ele>
        <time>2025-11-03T20:47:57.049Z</time>
      </trkpt>
      <trkpt lat="50.697780" lon="17.909281">
        <ele>153.124600</ele>
        <time>2025-11-03T20:47:57.921Z</time>
      </trkpt>
      <trkpt lat="50.697691" lon="17.909205">
        <ele>153.131408</ele>
        <time>2025-11-03T20:48:00.944Z</time>
      </trkpt>
      <trkpt lat="50.697617" lon="17.909224">
        <ele>153.136452</ele>
        <time>2025-11-03T20:48:03.186Z</time>
      </trkpt>
      <trkpt lat="50.696591" lon="17.909731">
        <ele>153.208784</ele>
        <time>2025-11-03T20:48:34.457Z</time>
      </trkpt>
      <trkpt lat="50.696501" lon="17.909773">
        <ele>153.215098</ele>
        <time>2025-11-03T20:48:36.763Z</time>
      </trkpt>
      <trkpt lat="50.695038" lon="17.910442">
        <ele>153.600865</ele>
        <time>2025-11-03T20:49:14.197Z</time>
      </trkpt>
      <trkpt lat="50.694535" lon="17.910674">
        <ele>153.635631</ele>
        <time>2025-11-03T20:49:25.686Z</time>
      </trkpt>
      <trkpt lat="50.694501" lon="17.910709">
        <ele>153.623117</ele>
        <time>2025-11-03T20:49:26.551Z</time>
      </trkpt>
      <trkpt lat="50.694484" lon="17.910812">
        <ele>153.602331</ele>
        <time>2025-11-03T20:49:27.990Z</time>
      </trkpt>
      <trkpt lat="50.694446" lon="17.910832">
        <ele>153.589982</ele>
        <time>2025-11-03T20:49:28.826Z</time>
      </trkpt>
      <trkpt lat="50.694401" lon="17.910856">
        <ele>153.575338</ele>
        <time>2025-11-03T20:49:29.817Z</time>
      </trkpt>
      <trkpt lat="50.694389" lon="17.910780">
        <ele>153.560042</ele>
        <time>2025-11-03T20:49:30.860Z</time>
      </trkpt>
      <trkpt lat="50.694353" lon="17.910780">
        <ele>153.548943</ele>
        <time>2025-11-03T20:49:31.594Z</time>
      </trkpt>
      <trkpt lat="50.693132" lon="17.911320">
        <ele>153.158021</ele>
        <time>2025-11-03T20:49:57.854Z</time>
      </trkpt>
      <trkpt lat="50.691404" lon="17.912131">
        <ele>153.703859</ele>
        <time>2025-11-03T20:50:41.830Z</time>
      </trkpt>
      <trkpt lat="50.691295" lon="17.912178">
        <ele>153.725304</ele>
        <time>2025-11-03T20:50:44.628Z</time>
      </trkpt>
      <trkpt lat="50.691057" lon="17.912312">
        <ele>153.725304</ele>
        <time>2025-11-03T20:50:50.848Z</time>
      </trkpt>
      <trkpt lat="50.690719" lon="17.912408">
        <ele>153.725304</ele>
        <time>2025-11-03T20:50:59.179Z</time>
      </trkpt>
      <trkpt lat="50.688879" lon="17.913272">
        <ele>153.725304</ele>
        <time>2025-11-03T20:51:45.370Z</time>
      </trkpt>
    </trkseg>
  </trk>
</gpx>