<?xml version='1.0' encoding='UTF-8'?>
<gpx version="1.1" creator="https://www.komoot.de" xmlns="http://www.topografix.com/GPX/1/1" xmlns:xsi="http://www.w3.org/2001/XMLSchema-instance" xsi:schemaLocation="http://www.topografix.com/GPX/1/1 http://www.topografix.com/GPX/1/1/gpx.xsd">
  <metadata>
    <name>2026/04/01 - GraveLova Środa #098 - Iluzjonista</name>
    <author>
      <link href="https://www.komoot.de">
        <text>komoot</text>
        <type>text/html</type>
      </link>
    </author>
  </metadata>
  <trk>
    <name>2026/04/01 - GraveLova Środa #098 - Iluzjonista</name>
    <trkseg>
      <trkpt lat="50.648490" lon="17.865401">
        <ele>159.022809</ele>
        <time>2026-03-30T18:02:19.443Z</time>
      </trkpt>
      <trkpt lat="50.648544" lon="17.865358">
        <ele>159.022809</ele>
        <time>2026-03-30T18:02:20.476Z</time>
      </trkpt>
      <trkpt lat="50.648512" lon="17.865230">
        <ele>159.022809</ele>
        <time>2026-03-30T18:02:21.949Z</time>
      </trkpt>
      <trkpt lat="50.648422" lon="17.864692">
        <ele>159.022809</ele>
        <time>2026-03-30T18:02:27.904Z</time>
      </trkpt>
      <trkpt lat="50.648360" lon="17.864016">
        <ele>159.004094</ele>
        <time>2026-03-30T18:02:34.971Z</time>
      </trkpt>
      <trkpt lat="50.648286" lon="17.863429">
        <ele>158.797135</ele>
        <time>2026-03-30T18:02:40.896Z</time>
      </trkpt>
      <trkpt lat="50.648095" lon="17.862390">
        <ele>158.423050</ele>
        <time>2026-03-30T18:02:51.440Z</time>
      </trkpt>
      <trkpt lat="50.648083" lon="17.862325">
        <ele>158.399639</ele>
        <time>2026-03-30T18:02:52.126Z</time>
      </trkpt>
      <trkpt lat="50.647929" lon="17.861495">
        <ele>158.100586</ele>
        <time>2026-03-30T18:03:00.833Z</time>
      </trkpt>
      <trkpt lat="50.647914" lon="17.861433">
        <ele>158.077638</ele>
        <time>2026-03-30T18:03:01.493Z</time>
      </trkpt>
      <trkpt lat="50.647885" lon="17.861312">
        <ele>158.035901</ele>
        <time>2026-03-30T18:03:02.786Z</time>
      </trkpt>
      <trkpt lat="50.647861" lon="17.861213">
        <ele>158.011460</ele>
        <time>2026-03-30T18:03:03.848Z</time>
      </trkpt>
      <trkpt lat="50.647801" lon="17.861018">
        <ele>157.961478</ele>
        <time>2026-03-30T18:03:06.020Z</time>
      </trkpt>
      <trkpt lat="50.647592" lon="17.860581">
        <ele>157.835253</ele>
        <time>2026-03-30T18:03:11.544Z</time>
      </trkpt>
      <trkpt lat="50.647660" lon="17.860432">
        <ele>157.792918</ele>
        <time>2026-03-30T18:03:13.421Z</time>
      </trkpt>
      <trkpt lat="50.647778" lon="17.860168">
        <ele>157.718434</ele>
        <time>2026-03-30T18:03:16.804Z</time>
      </trkpt>
      <trkpt lat="50.647980" lon="17.859716">
        <ele>157.590914</ele>
        <time>2026-03-30T18:03:22.715Z</time>
      </trkpt>
      <trkpt lat="50.648202" lon="17.859219">
        <ele>157.450722</ele>
        <time>2026-03-30T18:03:29.046Z</time>
      </trkpt>
      <trkpt lat="50.648327" lon="17.858934">
        <ele>157.372096</ele>
        <time>2026-03-30T18:03:32.519Z</time>
      </trkpt>
      <trkpt lat="50.648653" lon="17.858181">
        <ele>157.177771</ele>
        <time>2026-03-30T18:03:41.611Z</time>
      </trkpt>
      <trkpt lat="50.648691" lon="17.858092">
        <ele>157.154904</ele>
        <time>2026-03-30T18:03:42.694Z</time>
      </trkpt>
      <trkpt lat="50.649250" lon="17.856794">
        <ele>156.820494</ele>
        <time>2026-03-30T18:03:59.019Z</time>
      </trkpt>
      <trkpt lat="50.649275" lon="17.856737">
        <ele>156.805723</ele>
        <time>2026-03-30T18:03:59.735Z</time>
      </trkpt>
      <trkpt lat="50.649698" lon="17.855771">
        <ele>156.545761</ele>
        <time>2026-03-30T18:04:11.950Z</time>
      </trkpt>
      <trkpt lat="50.649969" lon="17.855140">
        <ele>156.376373</ele>
        <time>2026-03-30T18:04:19.991Z</time>
      </trkpt>
      <trkpt lat="50.650385" lon="17.854188">
        <ele>156.124689</ele>
        <time>2026-03-30T18:04:33.505Z</time>
      </trkpt>
      <trkpt lat="50.650708" lon="17.853455">
        <ele>155.957769</ele>
        <time>2026-03-30T18:04:43.842Z</time>
      </trkpt>
      <trkpt lat="50.651397" lon="17.851870">
        <ele>155.646285</ele>
        <time>2026-03-30T18:05:07.279Z</time>
      </trkpt>
      <trkpt lat="50.651463" lon="17.851708">
        <ele>155.682561</ele>
        <time>2026-03-30T18:05:09.506Z</time>
      </trkpt>
      <trkpt lat="50.651730" lon="17.851058">
        <ele>155.828465</ele>
        <time>2026-03-30T18:05:18.602Z</time>
      </trkpt>
      <trkpt lat="50.652143" lon="17.850097">
        <ele>156.047174</ele>
        <time>2026-03-30T18:05:32.779Z</time>
      </trkpt>
      <trkpt lat="50.652492" lon="17.849316">
        <ele>156.214730</ele>
        <time>2026-03-30T18:05:43.960Z</time>
      </trkpt>
      <trkpt lat="50.652953" lon="17.848281">
        <ele>156.410948</ele>
        <time>2026-03-30T18:05:58.673Z</time>
      </trkpt>
      <trkpt lat="50.653587" lon="17.846855">
        <ele>156.676196</ele>
        <time>2026-03-30T18:06:18.436Z</time>
      </trkpt>
      <trkpt lat="50.653610" lon="17.846800">
        <ele>156.685819</ele>
        <time>2026-03-30T18:06:19.160Z</time>
      </trkpt>
      <trkpt lat="50.654234" lon="17.845646">
        <ele>156.907343</ele>
        <time>2026-03-30T18:06:36.332Z</time>
      </trkpt>
      <trkpt lat="50.654407" lon="17.845178">
        <ele>156.986467</ele>
        <time>2026-03-30T18:06:42.781Z</time>
      </trkpt>
      <trkpt lat="50.654732" lon="17.843809">
        <ele>157.414848</ele>
        <time>2026-03-30T18:07:00.682Z</time>
      </trkpt>
      <trkpt lat="50.654840" lon="17.843296">
        <ele>157.583623</ele>
        <time>2026-03-30T18:07:07.094Z</time>
      </trkpt>
      <trkpt lat="50.654900" lon="17.842774">
        <ele>157.749264</ele>
        <time>2026-03-30T18:07:13.452Z</time>
      </trkpt>
      <trkpt lat="50.654945" lon="17.842704">
        <ele>157.780390</ele>
        <time>2026-03-30T18:07:14.639Z</time>
      </trkpt>
      <trkpt lat="50.655093" lon="17.841819">
        <ele>158.157171</ele>
        <time>2026-03-30T18:07:26.445Z</time>
      </trkpt>
      <trkpt lat="50.655129" lon="17.841658">
        <ele>158.239138</ele>
        <time>2026-03-30T18:07:28.720Z</time>
      </trkpt>
      <trkpt lat="50.655233" lon="17.840710">
        <ele>158.701059</ele>
        <time>2026-03-30T18:07:41.651Z</time>
      </trkpt>
      <trkpt lat="50.655300" lon="17.840224">
        <ele>158.939852</ele>
        <time>2026-03-30T18:07:48.675Z</time>
      </trkpt>
      <trkpt lat="50.655827" lon="17.838483">
        <ele>159.170845</ele>
        <time>2026-03-30T18:08:12.220Z</time>
      </trkpt>
      <trkpt lat="50.655855" lon="17.838404">
        <ele>159.164532</ele>
        <time>2026-03-30T18:08:13.138Z</time>
      </trkpt>
      <trkpt lat="50.656388" lon="17.838170">
        <ele>159.103654</ele>
        <time>2026-03-30T18:08:29.790Z</time>
      </trkpt>
      <trkpt lat="50.656777" lon="17.837954">
        <ele>159.062653</ele>
        <time>2026-03-30T18:08:42.133Z</time>
      </trkpt>
      <trkpt lat="50.656977" lon="17.837724">
        <ele>159.077063</ele>
        <time>2026-03-30T18:08:49.507Z</time>
      </trkpt>
      <trkpt lat="50.657122" lon="17.837481">
        <ele>159.089379</ele>
        <time>2026-03-30T18:08:55.918Z</time>
      </trkpt>
      <trkpt lat="50.657024" lon="17.837360">
        <ele>159.096625</ele>
        <time>2026-03-30T18:08:58.342Z</time>
      </trkpt>
      <trkpt lat="50.657118" lon="17.837065">
        <ele>159.108810</ele>
        <time>2026-03-30T18:09:05.119Z</time>
      </trkpt>
      <trkpt lat="50.657279" lon="17.836631">
        <ele>159.127369</ele>
        <time>2026-03-30T18:09:15.666Z</time>
      </trkpt>
      <trkpt lat="50.657416" lon="17.836361">
        <ele>159.140133</ele>
        <time>2026-03-30T18:09:22.891Z</time>
      </trkpt>
      <trkpt lat="50.657307" lon="17.836185">
        <ele>159.149214</ele>
        <time>2026-03-30T18:09:28.088Z</time>
      </trkpt>
      <trkpt lat="50.657029" lon="17.836008">
        <ele>159.184279</ele>
        <time>2026-03-30T18:09:38.109Z</time>
      </trkpt>
      <trkpt lat="50.656901" lon="17.835970">
        <ele>159.355599</ele>
        <time>2026-03-30T18:09:42.572Z</time>
      </trkpt>
      <trkpt lat="50.656842" lon="17.835902">
        <ele>159.451713</ele>
        <time>2026-03-30T18:09:45.118Z</time>
      </trkpt>
      <trkpt lat="50.656807" lon="17.835753">
        <ele>159.584215</ele>
        <time>2026-03-30T18:09:48.745Z</time>
      </trkpt>
      <trkpt lat="50.656806" lon="17.835522">
        <ele>159.776846</ele>
        <time>2026-03-30T18:09:54.074Z</time>
      </trkpt>
      <trkpt lat="50.657009" lon="17.834779">
        <ele>160.451506</ele>
        <time>2026-03-30T18:10:13.463Z</time>
      </trkpt>
      <trkpt lat="50.657052" lon="17.834644">
        <ele>160.577489</ele>
        <time>2026-03-30T18:10:17.140Z</time>
      </trkpt>
      <trkpt lat="50.657167" lon="17.834279">
        <ele>160.917369</ele>
        <time>2026-03-30T18:10:26.932Z</time>
      </trkpt>
      <trkpt lat="50.657174" lon="17.834063">
        <ele>161.097721</ele>
        <time>2026-03-30T18:10:32.210Z</time>
      </trkpt>
      <trkpt lat="50.657291" lon="17.834139">
        <ele>161.264154</ele>
        <time>2026-03-30T18:10:37.187Z</time>
      </trkpt>
      <trkpt lat="50.657345" lon="17.834008">
        <ele>161.394453</ele>
        <time>2026-03-30T18:10:41.184Z</time>
      </trkpt>
      <trkpt lat="50.657360" lon="17.833539">
        <ele>161.833761</ele>
        <time>2026-03-30T18:10:53.441Z</time>
      </trkpt>
      <trkpt lat="50.657576" lon="17.832438">
        <ele>162.975134</ele>
        <time>2026-03-30T18:11:24.194Z</time>
      </trkpt>
      <trkpt lat="50.657597" lon="17.831993">
        <ele>163.417050</ele>
        <time>2026-03-30T18:11:35.385Z</time>
      </trkpt>
      <trkpt lat="50.657556" lon="17.831405">
        <ele>164.002876</ele>
        <time>2026-03-30T18:11:49.229Z</time>
      </trkpt>
      <trkpt lat="50.657242" lon="17.831169">
        <ele>164.252603</ele>
        <time>2026-03-30T18:12:01.887Z</time>
      </trkpt>
      <trkpt lat="50.656663" lon="17.830881">
        <ele>163.841231</ele>
        <time>2026-03-30T18:12:22.270Z</time>
      </trkpt>
      <trkpt lat="50.656635" lon="17.830871">
        <ele>163.821778</ele>
        <time>2026-03-30T18:12:23.194Z</time>
      </trkpt>
      <trkpt lat="50.655494" lon="17.830443">
        <ele>162.916625</ele>
        <time>2026-03-30T18:12:58.855Z</time>
      </trkpt>
      <trkpt lat="50.655307" lon="17.830425">
        <ele>162.643005</ele>
        <time>2026-03-30T18:13:04.419Z</time>
      </trkpt>
      <trkpt lat="50.655227" lon="17.830517">
        <ele>162.498410</ele>
        <time>2026-03-30T18:13:07.343Z</time>
      </trkpt>
      <trkpt lat="50.654979" lon="17.831040">
        <ele>161.893680</ele>
        <time>2026-03-30T18:13:19.549Z</time>
      </trkpt>
      <trkpt lat="50.654385" lon="17.832452">
        <ele>160.394913</ele>
        <time>2026-03-30T18:13:52.296Z</time>
      </trkpt>
      <trkpt lat="50.654233" lon="17.832795">
        <ele>160.166562</ele>
        <time>2026-03-30T18:14:00.580Z</time>
      </trkpt>
      <trkpt lat="50.654165" lon="17.832867">
        <ele>160.096073</ele>
        <time>2026-03-30T18:14:03.106Z</time>
      </trkpt>
      <trkpt lat="50.654057" lon="17.832864">
        <ele>160.003106</ele>
        <time>2026-03-30T18:14:06.492Z</time>
      </trkpt>
      <trkpt lat="50.653957" lon="17.832749">
        <ele>159.896591</ele>
        <time>2026-03-30T18:14:10.127Z</time>
      </trkpt>
      <trkpt lat="50.652182" lon="17.831679">
        <ele>159.356419</ele>
        <time>2026-03-30T18:15:06.933Z</time>
      </trkpt>
      <trkpt lat="50.652077" lon="17.831621">
        <ele>159.413411</ele>
        <time>2026-03-30T18:15:10.612Z</time>
      </trkpt>
      <trkpt lat="50.649490" lon="17.829992">
        <ele>163.153965</ele>
        <time>2026-03-30T18:17:00.016Z</time>
      </trkpt>
      <trkpt lat="50.649228" lon="17.829862">
        <ele>163.692866</ele>
        <time>2026-03-30T18:17:11.498Z</time>
      </trkpt>
      <trkpt lat="50.647757" lon="17.828905">
        <ele>166.563409</ele>
        <time>2026-03-30T18:18:17.007Z</time>
      </trkpt>
      <trkpt lat="50.647670" lon="17.828842">
        <ele>166.604895</ele>
        <time>2026-03-30T18:18:20.628Z</time>
      </trkpt>
      <trkpt lat="50.647194" lon="17.828543">
        <ele>166.826926</ele>
        <time>2026-03-30T18:18:36.235Z</time>
      </trkpt>
      <trkpt lat="50.647167" lon="17.828525">
        <ele>166.839628</ele>
        <time>2026-03-30T18:18:37.063Z</time>
      </trkpt>
      <trkpt lat="50.646742" lon="17.828261">
        <ele>167.037570</ele>
        <time>2026-03-30T18:18:49.327Z</time>
      </trkpt>
      <trkpt lat="50.646292" lon="17.827976">
        <ele>167.247712</ele>
        <time>2026-03-30T18:19:01.572Z</time>
      </trkpt>
      <trkpt lat="50.645830" lon="17.827661">
        <ele>166.817123</ele>
        <time>2026-03-30T18:19:13.968Z</time>
      </trkpt>
      <trkpt lat="50.645433" lon="17.827386">
        <ele>166.377693</ele>
        <time>2026-03-30T18:19:24.514Z</time>
      </trkpt>
      <trkpt lat="50.644994" lon="17.827082">
        <ele>165.891797</ele>
        <time>2026-03-30T18:19:35.783Z</time>
      </trkpt>
      <trkpt lat="50.644802" lon="17.826951">
        <ele>165.679789</ele>
        <time>2026-03-30T18:19:40.684Z</time>
      </trkpt>
      <trkpt lat="50.644690" lon="17.826832">
        <ele>165.542927</ele>
        <time>2026-03-30T18:19:43.829Z</time>
      </trkpt>
      <trkpt lat="50.644544" lon="17.826436">
        <ele>165.295318</ele>
        <time>2026-03-30T18:19:51.972Z</time>
      </trkpt>
      <trkpt lat="50.643948" lon="17.825040">
        <ele>164.466450</ele>
        <time>2026-03-30T18:20:22.714Z</time>
      </trkpt>
      <trkpt lat="50.643215" lon="17.823186">
        <ele>164.681354</ele>
        <time>2026-03-30T18:21:08.961Z</time>
      </trkpt>
      <trkpt lat="50.643052" lon="17.822836">
        <ele>164.884952</ele>
        <time>2026-03-30T18:21:19.167Z</time>
      </trkpt>
      <trkpt lat="50.642806" lon="17.822249">
        <ele>165.214840</ele>
        <time>2026-03-30T18:21:29.116Z</time>
      </trkpt>
      <trkpt lat="50.642787" lon="17.822146">
        <ele>165.265135</ele>
        <time>2026-03-30T18:21:30.583Z</time>
      </trkpt>
      <trkpt lat="50.642713" lon="17.822087">
        <ele>165.326442</ele>
        <time>2026-03-30T18:21:32.473Z</time>
      </trkpt>
      <trkpt lat="50.641659" lon="17.821670">
        <ele>166.411005</ele>
        <time>2026-03-30T18:21:56.405Z</time>
      </trkpt>
      <trkpt lat="50.640898" lon="17.821382">
        <ele>167.207018</ele>
        <time>2026-03-30T18:22:12.911Z</time>
      </trkpt>
      <trkpt lat="50.640322" lon="17.821140">
        <ele>167.474841</ele>
        <time>2026-03-30T18:22:25.929Z</time>
      </trkpt>
      <trkpt lat="50.640595" lon="17.819397">
        <ele>167.982103</ele>
        <time>2026-03-30T18:22:50.326Z</time>
      </trkpt>
      <trkpt lat="50.640806" lon="17.818092">
        <ele>167.693253</ele>
        <time>2026-03-30T18:23:16.383Z</time>
      </trkpt>
      <trkpt lat="50.640847" lon="17.817937">
        <ele>167.650025</ele>
        <time>2026-03-30T18:23:19.558Z</time>
      </trkpt>
      <trkpt lat="50.640955" lon="17.817715">
        <ele>167.578006</ele>
        <time>2026-03-30T18:23:24.774Z</time>
      </trkpt>
      <trkpt lat="50.641171" lon="17.817267">
        <ele>167.433149</ele>
        <time>2026-03-30T18:23:35.363Z</time>
      </trkpt>
      <trkpt lat="50.641249" lon="17.816885">
        <ele>167.329852</ele>
        <time>2026-03-30T18:23:43.108Z</time>
      </trkpt>
      <trkpt lat="50.641255" lon="17.816726">
        <ele>167.288853</ele>
        <time>2026-03-30T18:23:46.228Z</time>
      </trkpt>
      <trkpt lat="50.641233" lon="17.816597">
        <ele>167.281523</ele>
        <time>2026-03-30T18:23:48.879Z</time>
      </trkpt>
      <trkpt lat="50.641121" lon="17.816264">
        <ele>167.278749</ele>
        <time>2026-03-30T18:23:56.449Z</time>
      </trkpt>
      <trkpt lat="50.641061" lon="17.815946">
        <ele>167.276307</ele>
        <time>2026-03-30T18:24:03.255Z</time>
      </trkpt>
      <trkpt lat="50.641100" lon="17.815570">
        <ele>167.273503</ele>
        <time>2026-03-30T18:24:11.089Z</time>
      </trkpt>
      <trkpt lat="50.641139" lon="17.815372">
        <ele>167.271978</ele>
        <time>2026-03-30T18:24:15.379Z</time>
      </trkpt>
      <trkpt lat="50.641216" lon="17.815150">
        <ele>167.270116</ele>
        <time>2026-03-30T18:24:20.576Z</time>
      </trkpt>
      <trkpt lat="50.641473" lon="17.814583">
        <ele>167.264987</ele>
        <time>2026-03-30T18:24:34.904Z</time>
      </trkpt>
      <trkpt lat="50.641498" lon="17.814469">
        <ele>167.264099</ele>
        <time>2026-03-30T18:24:37.364Z</time>
      </trkpt>
      <trkpt lat="50.641482" lon="17.814342">
        <ele>167.263146</ele>
        <time>2026-03-30T18:24:40.011Z</time>
      </trkpt>
      <trkpt lat="50.641416" lon="17.814250">
        <ele>167.262124</ele>
        <time>2026-03-30T18:24:42.828Z</time>
      </trkpt>
      <trkpt lat="50.640952" lon="17.813953">
        <ele>167.264902</ele>
        <time>2026-03-30T18:24:58.631Z</time>
      </trkpt>
      <trkpt lat="50.640857" lon="17.813796">
        <ele>167.265976</ele>
        <time>2026-03-30T18:25:02.928Z</time>
      </trkpt>
      <trkpt lat="50.640858" lon="17.813708">
        <ele>167.266412</ele>
        <time>2026-03-30T18:25:04.647Z</time>
      </trkpt>
      <trkpt lat="50.640902" lon="17.813542">
        <ele>167.267303</ele>
        <time>2026-03-30T18:25:08.188Z</time>
      </trkpt>
      <trkpt lat="50.641297" lon="17.812493">
        <ele>167.273345</ele>
        <time>2026-03-30T18:25:32.114Z</time>
      </trkpt>
      <trkpt lat="50.641821" lon="17.811008">
        <ele>167.964436</ele>
        <time>2026-03-30T18:26:09.380Z</time>
      </trkpt>
      <trkpt lat="50.641835" lon="17.810891">
        <ele>168.029241</ele>
        <time>2026-03-30T18:26:12.190Z</time>
      </trkpt>
      <trkpt lat="50.641637" lon="17.810743">
        <ele>168.217303</ele>
        <time>2026-03-30T18:26:20.369Z</time>
      </trkpt>
      <trkpt lat="50.641580" lon="17.810614">
        <ele>168.302878</ele>
        <time>2026-03-30T18:26:24.097Z</time>
      </trkpt>
      <trkpt lat="50.641567" lon="17.810481">
        <ele>168.376122</ele>
        <time>2026-03-30T18:26:27.284Z</time>
      </trkpt>
      <trkpt lat="50.641561" lon="17.809799">
        <ele>168.747361</ele>
        <time>2026-03-30T18:26:38.412Z</time>
      </trkpt>
      <trkpt lat="50.641557" lon="17.809345">
        <ele>168.970454</ele>
        <time>2026-03-30T18:26:45.909Z</time>
      </trkpt>
      <trkpt lat="50.641530" lon="17.806175">
        <ele>170.499314</ele>
        <time>2026-03-30T18:27:31.381Z</time>
      </trkpt>
      <trkpt lat="50.641514" lon="17.805107">
        <ele>171.066061</ele>
        <time>2026-03-30T18:27:46.558Z</time>
      </trkpt>
      <trkpt lat="50.641484" lon="17.803342">
        <ele>172.312902</ele>
        <time>2026-03-30T18:28:14.489Z</time>
      </trkpt>
      <trkpt lat="50.641455" lon="17.802849">
        <ele>172.810427</ele>
        <time>2026-03-30T18:28:23.201Z</time>
      </trkpt>
      <trkpt lat="50.641270" lon="17.801690">
        <ele>174.011392</ele>
        <time>2026-03-30T18:28:44.624Z</time>
      </trkpt>
      <trkpt lat="50.641207" lon="17.801295">
        <ele>174.420675</ele>
        <time>2026-03-30T18:28:51.821Z</time>
      </trkpt>
      <trkpt lat="50.641024" lon="17.800434">
        <ele>174.876475</ele>
        <time>2026-03-30T18:29:07.064Z</time>
      </trkpt>
      <trkpt lat="50.640873" lon="17.800344">
        <ele>174.991056</ele>
        <time>2026-03-30T18:29:11.124Z</time>
      </trkpt>
      <trkpt lat="50.640018" lon="17.799797">
        <ele>175.645985</ele>
        <time>2026-03-30T18:29:31.260Z</time>
      </trkpt>
      <trkpt lat="50.639880" lon="17.799652">
        <ele>175.763692</ele>
        <time>2026-03-30T18:29:34.507Z</time>
      </trkpt>
      <trkpt lat="50.639789" lon="17.799473">
        <ele>175.757861</ele>
        <time>2026-03-30T18:29:37.335Z</time>
      </trkpt>
      <trkpt lat="50.639698" lon="17.799542">
        <ele>175.736878</ele>
        <time>2026-03-30T18:29:39.252Z</time>
      </trkpt>
      <trkpt lat="50.639527" lon="17.799905">
        <ele>175.677284</ele>
        <time>2026-03-30T18:29:44.684Z</time>
      </trkpt>
      <trkpt lat="50.639395" lon="17.799989">
        <ele>175.647704</ele>
        <time>2026-03-30T18:29:47.340Z</time>
      </trkpt>
      <trkpt lat="50.639068" lon="17.799732">
        <ele>175.571777</ele>
        <time>2026-03-30T18:29:54.077Z</time>
      </trkpt>
      <trkpt lat="50.639031" lon="17.799704">
        <ele>175.563248</ele>
        <time>2026-03-30T18:29:54.837Z</time>
      </trkpt>
      <trkpt lat="50.638981" lon="17.799824">
        <ele>175.544325</ele>
        <time>2026-03-30T18:29:56.259Z</time>
      </trkpt>
      <trkpt lat="50.638851" lon="17.799719">
        <ele>175.513972</ele>
        <time>2026-03-30T18:29:58.954Z</time>
      </trkpt>
      <trkpt lat="50.638235" lon="17.799542">
        <ele>175.476380</ele>
        <time>2026-03-30T18:30:11.241Z</time>
      </trkpt>
      <trkpt lat="50.638032" lon="17.799371">
        <ele>175.605976</ele>
        <time>2026-03-30T18:30:15.965Z</time>
      </trkpt>
      <trkpt lat="50.637684" lon="17.798919">
        <ele>175.859853</ele>
        <time>2026-03-30T18:30:25.869Z</time>
      </trkpt>
      <trkpt lat="50.636918" lon="17.798488">
        <ele>176.317817</ele>
        <time>2026-03-30T18:30:45.294Z</time>
      </trkpt>
      <trkpt lat="50.636354" lon="17.798019">
        <ele>176.770583</ele>
        <time>2026-03-30T18:31:00.442Z</time>
      </trkpt>
      <trkpt lat="50.636013" lon="17.797952">
        <ele>177.035122</ele>
        <time>2026-03-30T18:31:07.951Z</time>
      </trkpt>
      <trkpt lat="50.635661" lon="17.797896">
        <ele>177.307476</ele>
        <time>2026-03-30T18:31:15.514Z</time>
      </trkpt>
      <trkpt lat="50.634837" lon="17.797766">
        <ele>178.102052</ele>
        <time>2026-03-30T18:31:34.859Z</time>
      </trkpt>
      <trkpt lat="50.634181" lon="17.796039">
        <ele>180.197610</ele>
        <time>2026-03-30T18:32:11.264Z</time>
      </trkpt>
      <trkpt lat="50.633609" lon="17.794533">
        <ele>181.140725</ele>
        <time>2026-03-30T18:32:41.743Z</time>
      </trkpt>
      <trkpt lat="50.632510" lon="17.791384">
        <ele>181.603092</ele>
        <time>2026-03-30T18:33:51.545Z</time>
      </trkpt>
      <trkpt lat="50.632485" lon="17.791223">
        <ele>181.599192</ele>
        <time>2026-03-30T18:33:54.881Z</time>
      </trkpt>
      <trkpt lat="50.632503" lon="17.791132">
        <ele>181.596949</ele>
        <time>2026-03-30T18:33:56.840Z</time>
      </trkpt>
      <trkpt lat="50.632258" lon="17.791001">
        <ele>181.587351</ele>
        <time>2026-03-30T18:34:01.542Z</time>
      </trkpt>
      <trkpt lat="50.628878" lon="17.789473">
        <ele>186.449001</ele>
        <time>2026-03-30T18:35:23.798Z</time>
      </trkpt>
      <trkpt lat="50.627932" lon="17.788893">
        <ele>188.465246</ele>
        <time>2026-03-30T18:35:52.928Z</time>
      </trkpt>
      <trkpt lat="50.626978" lon="17.788098">
        <ele>190.552133</ele>
        <time>2026-03-30T18:36:21.850Z</time>
      </trkpt>
      <trkpt lat="50.626175" lon="17.787428">
        <ele>190.904462</ele>
        <time>2026-03-30T18:36:39.656Z</time>
      </trkpt>
      <trkpt lat="50.625701" lon="17.787072">
        <ele>191.108074</ele>
        <time>2026-03-30T18:36:48.010Z</time>
      </trkpt>
      <trkpt lat="50.625531" lon="17.786959">
        <ele>191.179620</ele>
        <time>2026-03-30T18:36:50.950Z</time>
      </trkpt>
      <trkpt lat="50.625456" lon="17.786851">
        <ele>191.215304</ele>
        <time>2026-03-30T18:36:52.557Z</time>
      </trkpt>
      <trkpt lat="50.625456" lon="17.786765">
        <ele>191.222002</ele>
        <time>2026-03-30T18:36:53.446Z</time>
      </trkpt>
      <trkpt lat="50.625537" lon="17.786368">
        <ele>191.254478</ele>
        <time>2026-03-30T18:36:57.720Z</time>
      </trkpt>
      <trkpt lat="50.625554" lon="17.786284">
        <ele>191.261344</ele>
        <time>2026-03-30T18:36:58.633Z</time>
      </trkpt>
      <trkpt lat="50.625934" lon="17.784521">
        <ele>191.406345</ele>
        <time>2026-03-30T18:37:19.415Z</time>
      </trkpt>
      <trkpt lat="50.625971" lon="17.784268">
        <ele>191.426564</ele>
        <time>2026-03-30T18:37:22.635Z</time>
      </trkpt>
      <trkpt lat="50.625952" lon="17.784159">
        <ele>191.440403</ele>
        <time>2026-03-30T18:37:24.069Z</time>
      </trkpt>
      <trkpt lat="50.625886" lon="17.784032">
        <ele>191.518528</ele>
        <time>2026-03-30T18:37:26.159Z</time>
      </trkpt>
      <trkpt lat="50.625776" lon="17.783911">
        <ele>191.619146</ele>
        <time>2026-03-30T18:37:28.896Z</time>
      </trkpt>
      <trkpt lat="50.625190" lon="17.783497">
        <ele>192.100848</ele>
        <time>2026-03-30T18:37:42.526Z</time>
      </trkpt>
      <trkpt lat="50.624450" lon="17.782909">
        <ele>192.722478</ele>
        <time>2026-03-30T18:38:00.089Z</time>
      </trkpt>
      <trkpt lat="50.624394" lon="17.782795">
        <ele>192.786262</ele>
        <time>2026-03-30T18:38:01.940Z</time>
      </trkpt>
      <trkpt lat="50.624382" lon="17.782582">
        <ele>192.822526</ele>
        <time>2026-03-30T18:38:04.638Z</time>
      </trkpt>
      <trkpt lat="50.624409" lon="17.782474">
        <ele>192.842213</ele>
        <time>2026-03-30T18:38:06.082Z</time>
      </trkpt>
      <trkpt lat="50.624580" lon="17.782126">
        <ele>192.916862</ele>
        <time>2026-03-30T18:38:11.430Z</time>
      </trkpt>
      <trkpt lat="50.625077" lon="17.781372">
        <ele>193.101257</ele>
        <time>2026-03-30T18:38:23.812Z</time>
      </trkpt>
      <trkpt lat="50.625356" lon="17.780389">
        <ele>193.268599</ele>
        <time>2026-03-30T18:38:35.663Z</time>
      </trkpt>
      <trkpt lat="50.625697" lon="17.779585">
        <ele>193.303942</ele>
        <time>2026-03-30T18:38:45.949Z</time>
      </trkpt>
      <trkpt lat="50.625774" lon="17.779311">
        <ele>193.314893</ele>
        <time>2026-03-30T18:38:49.210Z</time>
      </trkpt>
      <trkpt lat="50.625919" lon="17.778372">
        <ele>193.350210</ele>
        <time>2026-03-30T18:39:00.273Z</time>
      </trkpt>
      <trkpt lat="50.626008" lon="17.777951">
        <ele>193.366427</ele>
        <time>2026-03-30T18:39:05.458Z</time>
      </trkpt>
      <trkpt lat="50.626225" lon="17.776450">
        <ele>193.825757</ele>
        <time>2026-03-30T18:39:22.710Z</time>
      </trkpt>
      <trkpt lat="50.626270" lon="17.776271">
        <ele>193.884668</ele>
        <time>2026-03-30T18:39:24.808Z</time>
      </trkpt>
      <trkpt lat="50.625323" lon="17.775519">
        <ele>194.894264</ele>
        <time>2026-03-30T18:40:01.862Z</time>
      </trkpt>
      <trkpt lat="50.625716" lon="17.773316">
        <ele>197.766559</ele>
        <time>2026-03-30T18:41:06.686Z</time>
      </trkpt>
      <trkpt lat="50.625734" lon="17.772594">
        <ele>198.170888</ele>
        <time>2026-03-30T18:41:27.072Z</time>
      </trkpt>
      <trkpt lat="50.625763" lon="17.772302">
        <ele>198.329837</ele>
        <time>2026-03-30T18:41:34.912Z</time>
      </trkpt>
      <trkpt lat="50.625823" lon="17.772046">
        <ele>198.476609</ele>
        <time>2026-03-30T18:41:41.844Z</time>
      </trkpt>
      <trkpt lat="50.625832" lon="17.772006">
        <ele>198.499434</ele>
        <time>2026-03-30T18:41:42.888Z</time>
      </trkpt>
      <trkpt lat="50.626179" lon="17.771391">
        <ele>198.942069</ele>
        <time>2026-03-30T18:42:01.667Z</time>
      </trkpt>
      <trkpt lat="50.626437" lon="17.771049">
        <ele>199.227842</ele>
        <time>2026-03-30T18:42:12.578Z</time>
      </trkpt>
      <trkpt lat="50.627013" lon="17.769980">
        <ele>198.567732</ele>
        <time>2026-03-30T18:42:40.017Z</time>
      </trkpt>
      <trkpt lat="50.627288" lon="17.769567">
        <ele>198.203047</ele>
        <time>2026-03-30T18:42:51.587Z</time>
      </trkpt>
      <trkpt lat="50.627302" lon="17.769444">
        <ele>198.126934</ele>
        <time>2026-03-30T18:42:54.025Z</time>
      </trkpt>
      <trkpt lat="50.627268" lon="17.769330">
        <ele>198.050208</ele>
        <time>2026-03-30T18:42:56.488Z</time>
      </trkpt>
      <trkpt lat="50.626902" lon="17.768325">
        <ele>197.498192</ele>
        <time>2026-03-30T18:43:19.644Z</time>
      </trkpt>
      <trkpt lat="50.631026" lon="17.766562">
        <ele>195.942487</ele>
        <time>2026-03-30T18:45:31.796Z</time>
      </trkpt>
      <trkpt lat="50.631811" lon="17.766231">
        <ele>195.645197</ele>
        <time>2026-03-30T18:45:56.765Z</time>
      </trkpt>
      <trkpt lat="50.633624" lon="17.765464">
        <ele>194.508967</ele>
        <time>2026-03-30T18:46:53.388Z</time>
      </trkpt>
      <trkpt lat="50.633809" lon="17.765386">
        <ele>194.350102</ele>
        <time>2026-03-30T18:46:59.058Z</time>
      </trkpt>
      <trkpt lat="50.635036" lon="17.764894">
        <ele>193.299808</ele>
        <time>2026-03-30T18:47:36.027Z</time>
      </trkpt>
      <trkpt lat="50.634812" lon="17.763609">
        <ele>193.175550</ele>
        <time>2026-03-30T18:48:01.327Z</time>
      </trkpt>
      <trkpt lat="50.634573" lon="17.762237">
        <ele>193.409083</ele>
        <time>2026-03-30T18:48:31.342Z</time>
      </trkpt>
      <trkpt lat="50.634178" lon="17.759867">
        <ele>194.715883</ele>
        <time>2026-03-30T18:49:30.614Z</time>
      </trkpt>
      <trkpt lat="50.633859" lon="17.757866">
        <ele>194.638423</ele>
        <time>2026-03-30T18:50:14.885Z</time>
      </trkpt>
      <trkpt lat="50.633994" lon="17.757547">
        <ele>194.394446</ele>
        <time>2026-03-30T18:50:21.970Z</time>
      </trkpt>
      <trkpt lat="50.634518" lon="17.756988">
        <ele>193.759838</ele>
        <time>2026-03-30T18:50:39.471Z</time>
      </trkpt>
      <trkpt lat="50.634780" lon="17.756529">
        <ele>193.220580</ele>
        <time>2026-03-30T18:50:49.784Z</time>
      </trkpt>
      <trkpt lat="50.635217" lon="17.755766">
        <ele>191.995175</ele>
        <time>2026-03-30T18:51:07.107Z</time>
      </trkpt>
      <trkpt lat="50.635286" lon="17.755646">
        <ele>191.802110</ele>
        <time>2026-03-30T18:51:09.900Z</time>
      </trkpt>
      <trkpt lat="50.635474" lon="17.755412">
        <ele>191.351971</ele>
        <time>2026-03-30T18:51:16.511Z</time>
      </trkpt>
      <trkpt lat="50.635740" lon="17.755177">
        <ele>190.778944</ele>
        <time>2026-03-30T18:51:25.726Z</time>
      </trkpt>
      <trkpt lat="50.636042" lon="17.754734">
        <ele>190.069891</ele>
        <time>2026-03-30T18:51:38.581Z</time>
      </trkpt>
      <trkpt lat="50.636391" lon="17.754158">
        <ele>189.537435</ele>
        <time>2026-03-30T18:51:54.951Z</time>
      </trkpt>
      <trkpt lat="50.637041" lon="17.753227">
        <ele>188.611965</ele>
        <time>2026-03-30T18:52:22.587Z</time>
      </trkpt>
      <trkpt lat="50.637306" lon="17.752893">
        <ele>188.253074</ele>
        <time>2026-03-30T18:52:32.646Z</time>
      </trkpt>
      <trkpt lat="50.638198" lon="17.751975">
        <ele>186.783229</ele>
        <time>2026-03-30T18:53:04.122Z</time>
      </trkpt>
      <trkpt lat="50.638427" lon="17.751699">
        <ele>186.385494</ele>
        <time>2026-03-30T18:53:12.796Z</time>
      </trkpt>
      <trkpt lat="50.637537" lon="17.746770">
        <ele>183.663996</ele>
        <time>2026-03-30T18:54:56.955Z</time>
      </trkpt>
      <trkpt lat="50.636983" lon="17.743790">
        <ele>181.525369</ele>
        <time>2026-03-30T18:55:56.766Z</time>
      </trkpt>
      <trkpt lat="50.637147" lon="17.743555">
        <ele>181.264328</ele>
        <time>2026-03-30T18:56:03.349Z</time>
      </trkpt>
      <trkpt lat="50.637251" lon="17.743354">
        <ele>181.070532</ele>
        <time>2026-03-30T18:56:08.265Z</time>
      </trkpt>
      <trkpt lat="50.637358" lon="17.743090">
        <ele>180.836470</ele>
        <time>2026-03-30T18:56:14.243Z</time>
      </trkpt>
      <trkpt lat="50.637533" lon="17.742525">
        <ele>180.128290</ele>
        <time>2026-03-30T18:56:26.149Z</time>
      </trkpt>
      <trkpt lat="50.637620" lon="17.742357">
        <ele>179.876750</ele>
        <time>2026-03-30T18:56:30.191Z</time>
      </trkpt>
      <trkpt lat="50.637931" lon="17.741888">
        <ele>179.089809</ele>
        <time>2026-03-30T18:56:42.470Z</time>
      </trkpt>
      <trkpt lat="50.638077" lon="17.741668">
        <ele>178.720517</ele>
        <time>2026-03-30T18:56:48.047Z</time>
      </trkpt>
      <trkpt lat="50.638322" lon="17.741241">
        <ele>178.052723</ele>
        <time>2026-03-30T18:56:57.804Z</time>
      </trkpt>
      <trkpt lat="50.638764" lon="17.740531">
        <ele>176.767473</ele>
        <time>2026-03-30T18:57:14.083Z</time>
      </trkpt>
      <trkpt lat="50.638962" lon="17.740350">
        <ele>176.258836</ele>
        <time>2026-03-30T18:57:19.937Z</time>
      </trkpt>
      <trkpt lat="50.639356" lon="17.740022">
        <ele>175.268668</ele>
        <time>2026-03-30T18:57:31.632Z</time>
      </trkpt>
      <trkpt lat="50.639478" lon="17.739888">
        <ele>174.938241</ele>
        <time>2026-03-30T18:57:35.650Z</time>
      </trkpt>
      <trkpt lat="50.639806" lon="17.739419">
        <ele>173.954214</ele>
        <time>2026-03-30T18:57:47.985Z</time>
      </trkpt>
      <trkpt lat="50.640477" lon="17.738445">
        <ele>173.465585</ele>
        <time>2026-03-30T18:58:15.976Z</time>
      </trkpt>
      <trkpt lat="50.640926" lon="17.737852">
        <ele>173.427439</ele>
        <time>2026-03-30T18:58:35.051Z</time>
      </trkpt>
      <trkpt lat="50.641449" lon="17.737557">
        <ele>173.415723</ele>
        <time>2026-03-30T18:58:45.762Z</time>
      </trkpt>
      <trkpt lat="50.641754" lon="17.737386">
        <ele>173.537164</ele>
        <time>2026-03-30T18:58:52.267Z</time>
      </trkpt>
      <trkpt lat="50.642119" lon="17.737232">
        <ele>173.678914</ele>
        <time>2026-03-30T18:58:59.339Z</time>
      </trkpt>
      <trkpt lat="50.642727" lon="17.737096">
        <ele>173.909294</ele>
        <time>2026-03-30T18:59:11.360Z</time>
      </trkpt>
      <trkpt lat="50.642658" lon="17.735052">
        <ele>173.875121</ele>
        <time>2026-03-30T18:59:33.591Z</time>
      </trkpt>
      <trkpt lat="50.642612" lon="17.733700">
        <ele>173.683261</ele>
        <time>2026-03-30T18:59:47.296Z</time>
      </trkpt>
      <trkpt lat="50.642564" lon="17.733144">
        <ele>173.433970</ele>
        <time>2026-03-30T18:59:52.969Z</time>
      </trkpt>
      <trkpt lat="50.642380" lon="17.732579">
        <ele>173.105200</ele>
        <time>2026-03-30T18:59:59.256Z</time>
      </trkpt>
      <trkpt lat="50.642078" lon="17.731844">
        <ele>172.651863</ele>
        <time>2026-03-30T19:00:07.727Z</time>
      </trkpt>
      <trkpt lat="50.640934" lon="17.729362">
        <ele>170.366773</ele>
        <time>2026-03-30T19:00:35.946Z</time>
      </trkpt>
      <trkpt lat="50.640636" lon="17.728940">
        <ele>169.839304</ele>
        <time>2026-03-30T19:00:41.667Z</time>
      </trkpt>
      <trkpt lat="50.640311" lon="17.728694">
        <ele>169.220056</ele>
        <time>2026-03-30T19:00:46.751Z</time>
      </trkpt>
      <trkpt lat="50.640027" lon="17.728564">
        <ele>168.709959</ele>
        <time>2026-03-30T19:00:50.870Z</time>
      </trkpt>
      <trkpt lat="50.639584" lon="17.728453">
        <ele>167.936238</ele>
        <time>2026-03-30T19:00:57.015Z</time>
      </trkpt>
      <trkpt lat="50.638788" lon="17.728205">
        <ele>166.628600</ele>
        <time>2026-03-30T19:01:10.137Z</time>
      </trkpt>
      <trkpt lat="50.637953" lon="17.727659">
        <ele>165.816782</ele>
        <time>2026-03-30T19:01:25.512Z</time>
      </trkpt>
      <trkpt lat="50.637653" lon="17.727515">
        <ele>165.535152</ele>
        <time>2026-03-30T19:01:31.373Z</time>
      </trkpt>
      <trkpt lat="50.637276" lon="17.727435">
        <ele>165.193526</ele>
        <time>2026-03-30T19:01:38.876Z</time>
      </trkpt>
      <trkpt lat="50.636355" lon="17.727552">
        <ele>164.987313</ele>
        <time>2026-03-30T19:01:58.045Z</time>
      </trkpt>
      <trkpt lat="50.636204" lon="17.727520">
        <ele>164.964340</ele>
        <time>2026-03-30T19:02:01.058Z</time>
      </trkpt>
      <trkpt lat="50.635928" lon="17.727356">
        <ele>164.919866</ele>
        <time>2026-03-30T19:02:06.737Z</time>
      </trkpt>
      <trkpt lat="50.635791" lon="17.727227">
        <ele>164.895804</ele>
        <time>2026-03-30T19:02:09.735Z</time>
      </trkpt>
      <trkpt lat="50.635686" lon="17.727099">
        <ele>164.875791</ele>
        <time>2026-03-30T19:02:12.177Z</time>
      </trkpt>
      <trkpt lat="50.635420" lon="17.726607">
        <ele>164.842811</ele>
        <time>2026-03-30T19:02:19.565Z</time>
      </trkpt>
      <trkpt lat="50.634872" lon="17.725520">
        <ele>164.846991</ele>
        <time>2026-03-30T19:02:36.011Z</time>
      </trkpt>
      <trkpt lat="50.634801" lon="17.725310">
        <ele>164.847708</ele>
        <time>2026-03-30T19:02:39.137Z</time>
      </trkpt>
      <trkpt lat="50.634790" lon="17.725093">
        <ele>164.848363</ele>
        <time>2026-03-30T19:02:42.128Z</time>
      </trkpt>
      <trkpt lat="50.634954" lon="17.722359">
        <ele>165.492552</ele>
        <time>2026-03-30T19:03:23.941Z</time>
      </trkpt>
      <trkpt lat="50.633264" lon="17.722996">
        <ele>165.418600</ele>
        <time>2026-03-30T19:04:17.142Z</time>
      </trkpt>
      <trkpt lat="50.632232" lon="17.723392">
        <ele>165.376867</ele>
        <time>2026-03-30T19:04:50.543Z</time>
      </trkpt>
      <trkpt lat="50.626730" lon="17.725503">
        <ele>166.954532</ele>
        <time>2026-03-30T19:07:57.374Z</time>
      </trkpt>
      <trkpt lat="50.623037" lon="17.726928">
        <ele>169.402572</ele>
        <time>2026-03-30T19:10:09.629Z</time>
      </trkpt>
      <trkpt lat="50.619743" lon="17.728225">
        <ele>172.373046</ele>
        <time>2026-03-30T19:12:11.720Z</time>
      </trkpt>
      <trkpt lat="50.616430" lon="17.729450">
        <ele>174.985682</ele>
        <time>2026-03-30T19:14:12.573Z</time>
      </trkpt>
      <trkpt lat="50.613108" lon="17.730680">
        <ele>175.632459</ele>
        <time>2026-03-30T19:16:02.521Z</time>
      </trkpt>
      <trkpt lat="50.613018" lon="17.730152">
        <ele>175.697358</ele>
        <time>2026-03-30T19:16:13.614Z</time>
      </trkpt>
      <trkpt lat="50.612862" lon="17.729723">
        <ele>175.756052</ele>
        <time>2026-03-30T19:16:23.719Z</time>
      </trkpt>
      <trkpt lat="50.612209" lon="17.729145">
        <ele>175.896899</ele>
        <time>2026-03-30T19:16:48.358Z</time>
      </trkpt>
      <trkpt lat="50.612072" lon="17.729142">
        <ele>175.973306</ele>
        <time>2026-03-30T19:16:52.850Z</time>
      </trkpt>
      <trkpt lat="50.610588" lon="17.729128">
        <ele>176.800890</ele>
        <time>2026-03-30T19:17:44.756Z</time>
      </trkpt>
      <trkpt lat="50.610469" lon="17.729051">
        <ele>176.872629</ele>
        <time>2026-03-30T19:17:49.219Z</time>
      </trkpt>
      <trkpt lat="50.610147" lon="17.728609">
        <ele>176.876332</ele>
        <time>2026-03-30T19:18:03.320Z</time>
      </trkpt>
      <trkpt lat="50.609983" lon="17.728476">
        <ele>176.865419</ele>
        <time>2026-03-30T19:18:09.268Z</time>
      </trkpt>
      <trkpt lat="50.609721" lon="17.728369">
        <ele>176.849406</ele>
        <time>2026-03-30T19:18:17.899Z</time>
      </trkpt>
      <trkpt lat="50.609589" lon="17.728282">
        <ele>176.840940</ele>
        <time>2026-03-30T19:18:22.377Z</time>
      </trkpt>
      <trkpt lat="50.609430" lon="17.727954">
        <ele>176.825443</ele>
        <time>2026-03-30T19:18:30.497Z</time>
      </trkpt>
      <trkpt lat="50.609403" lon="17.727776">
        <ele>176.818571</ele>
        <time>2026-03-30T19:18:34.065Z</time>
      </trkpt>
      <trkpt lat="50.609404" lon="17.727531">
        <ele>176.809372</ele>
        <time>2026-03-30T19:18:38.806Z</time>
      </trkpt>
      <trkpt lat="50.609403" lon="17.726833">
        <ele>176.759052</ele>
        <time>2026-03-30T19:18:52.192Z</time>
      </trkpt>
      <trkpt lat="50.609312" lon="17.726453">
        <ele>176.703993</ele>
        <time>2026-03-30T19:19:00.025Z</time>
      </trkpt>
      <trkpt lat="50.609153" lon="17.726015">
        <ele>176.635589</ele>
        <time>2026-03-30T19:19:10.015Z</time>
      </trkpt>
      <trkpt lat="50.609061" lon="17.725761">
        <ele>176.595942</ele>
        <time>2026-03-30T19:19:15.786Z</time>
      </trkpt>
      <trkpt lat="50.608946" lon="17.725540">
        <ele>176.557199</ele>
        <time>2026-03-30T19:19:21.413Z</time>
      </trkpt>
      <trkpt lat="50.608832" lon="17.725385">
        <ele>176.525034</ele>
        <time>2026-03-30T19:19:26.054Z</time>
      </trkpt>
      <trkpt lat="50.608713" lon="17.725296">
        <ele>176.496896</ele>
        <time>2026-03-30T19:19:30.135Z</time>
      </trkpt>
      <trkpt lat="50.608566" lon="17.725255">
        <ele>176.465006</ele>
        <time>2026-03-30T19:19:34.853Z</time>
      </trkpt>
      <trkpt lat="50.608165" lon="17.725412">
        <ele>176.556692</ele>
        <time>2026-03-30T19:19:48.143Z</time>
      </trkpt>
      <trkpt lat="50.607670" lon="17.725427">
        <ele>177.056267</ele>
        <time>2026-03-30T19:20:04.739Z</time>
      </trkpt>
      <trkpt lat="50.607520" lon="17.725438">
        <ele>177.207790</ele>
        <time>2026-03-30T19:20:10.089Z</time>
      </trkpt>
      <trkpt lat="50.607394" lon="17.725498">
        <ele>177.340610</ele>
        <time>2026-03-30T19:20:14.950Z</time>
      </trkpt>
      <trkpt lat="50.607268" lon="17.725608">
        <ele>177.485961</ele>
        <time>2026-03-30T19:20:20.273Z</time>
      </trkpt>
      <trkpt lat="50.607117" lon="17.725829">
        <ele>177.693915</ele>
        <time>2026-03-30T19:20:27.984Z</time>
      </trkpt>
      <trkpt lat="50.606786" lon="17.726538">
        <ele>178.301202</ele>
        <time>2026-03-30T19:20:49.929Z</time>
      </trkpt>
      <trkpt lat="50.606624" lon="17.726646">
        <ele>178.703538</ele>
        <time>2026-03-30T19:20:56.915Z</time>
      </trkpt>
      <trkpt lat="50.605563" lon="17.726553">
        <ele>181.134071</ele>
        <time>2026-03-30T19:21:41.618Z</time>
      </trkpt>
      <trkpt lat="50.605105" lon="17.724519">
        <ele>183.704630</ele>
        <time>2026-03-30T19:22:21.471Z</time>
      </trkpt>
      <trkpt lat="50.605069" lon="17.724346">
        <ele>183.891905</ele>
        <time>2026-03-30T19:22:24.493Z</time>
      </trkpt>
      <trkpt lat="50.605032" lon="17.724173">
        <ele>184.079691</ele>
        <time>2026-03-30T19:22:27.326Z</time>
      </trkpt>
      <trkpt lat="50.604940" lon="17.723655">
        <ele>184.632993</ele>
        <time>2026-03-30T19:22:34.877Z</time>
      </trkpt>
      <trkpt lat="50.604876" lon="17.722647">
        <ele>185.213384</ele>
        <time>2026-03-30T19:22:45.943Z</time>
      </trkpt>
      <trkpt lat="50.604816" lon="17.722049">
        <ele>185.156158</ele>
        <time>2026-03-30T19:22:52.052Z</time>
      </trkpt>
      <trkpt lat="50.604805" lon="17.721139">
        <ele>185.070127</ele>
        <time>2026-03-30T19:23:01.380Z</time>
      </trkpt>
      <trkpt lat="50.604663" lon="17.720141">
        <ele>185.003130</ele>
        <time>2026-03-30T19:23:12.330Z</time>
      </trkpt>
      <trkpt lat="50.604579" lon="17.719505">
        <ele>185.108809</ele>
        <time>2026-03-30T19:23:19.560Z</time>
      </trkpt>
      <trkpt lat="50.604271" lon="17.717588">
        <ele>185.430500</ele>
        <time>2026-03-30T19:23:41.559Z</time>
      </trkpt>
      <trkpt lat="50.603938" lon="17.715772">
        <ele>187.490954</ele>
        <time>2026-03-30T19:24:09.667Z</time>
      </trkpt>
      <trkpt lat="50.603625" lon="17.714468">
        <ele>189.130881</ele>
        <time>2026-03-30T19:24:36.111Z</time>
      </trkpt>
      <trkpt lat="50.603367" lon="17.713579">
        <ele>190.390965</ele>
        <time>2026-03-30T19:24:54.602Z</time>
      </trkpt>
      <trkpt lat="50.603279" lon="17.713084">
        <ele>191.053606</ele>
        <time>2026-03-30T19:25:03.278Z</time>
      </trkpt>
      <trkpt lat="50.603271" lon="17.712759">
        <ele>191.472864</ele>
        <time>2026-03-30T19:25:08.285Z</time>
      </trkpt>
      <trkpt lat="50.603275" lon="17.712694">
        <ele>191.557046</ele>
        <time>2026-03-30T19:25:09.223Z</time>
      </trkpt>
      <trkpt lat="50.603184" lon="17.712721">
        <ele>191.745116</ele>
        <time>2026-03-30T19:25:11.645Z</time>
      </trkpt>
      <trkpt lat="50.603108" lon="17.712680">
        <ele>191.908270</ele>
        <time>2026-03-30T19:25:14.603Z</time>
      </trkpt>
      <trkpt lat="50.602940" lon="17.712719">
        <ele>192.253164</ele>
        <time>2026-03-30T19:25:20.801Z</time>
      </trkpt>
      <trkpt lat="50.602792" lon="17.712050">
        <ele>192.403851</ele>
        <time>2026-03-30T19:25:37.165Z</time>
      </trkpt>
      <trkpt lat="50.602119" lon="17.708629">
        <ele>192.452543</ele>
        <time>2026-03-30T19:26:48.822Z</time>
      </trkpt>
      <trkpt lat="50.601724" lon="17.706217">
        <ele>192.632757</ele>
        <time>2026-03-30T19:27:37.299Z</time>
      </trkpt>
      <trkpt lat="50.603021" lon="17.704220">
        <ele>193.863613</ele>
        <time>2026-03-30T19:28:22.288Z</time>
      </trkpt>
      <trkpt lat="50.603759" lon="17.703095">
        <ele>194.676545</ele>
        <time>2026-03-30T19:28:44.407Z</time>
      </trkpt>
      <trkpt lat="50.604516" lon="17.701936">
        <ele>195.002132</ele>
        <time>2026-03-30T19:29:19.124Z</time>
      </trkpt>
      <trkpt lat="50.604504" lon="17.701204">
        <ele>195.126117</ele>
        <time>2026-03-30T19:29:28.292Z</time>
      </trkpt>
      <trkpt lat="50.604533" lon="17.700046">
        <ele>194.797767</ele>
        <time>2026-03-30T19:29:41.906Z</time>
      </trkpt>
      <trkpt lat="50.604702" lon="17.696581">
        <ele>192.238497</ele>
        <time>2026-03-30T19:30:12.793Z</time>
      </trkpt>
      <trkpt lat="50.604772" lon="17.695143">
        <ele>191.139573</ele>
        <time>2026-03-30T19:30:26.039Z</time>
      </trkpt>
      <trkpt lat="50.604813" lon="17.694812">
        <ele>191.055804</ele>
        <time>2026-03-30T19:30:29.596Z</time>
      </trkpt>
      <trkpt lat="50.604887" lon="17.694555">
        <ele>191.120174</ele>
        <time>2026-03-30T19:30:32.644Z</time>
      </trkpt>
      <trkpt lat="50.604781" lon="17.694617">
        <ele>191.160809</ele>
        <time>2026-03-30T19:30:36.570Z</time>
      </trkpt>
      <trkpt lat="50.604544" lon="17.695021">
        <ele>191.286293</ele>
        <time>2026-03-30T19:30:48.920Z</time>
      </trkpt>
      <trkpt lat="50.604423" lon="17.695328">
        <ele>191.368721</ele>
        <time>2026-03-30T19:30:57.380Z</time>
      </trkpt>
      <trkpt lat="50.604022" lon="17.696680">
        <ele>191.707597</ele>
        <time>2026-03-30T19:31:30.849Z</time>
      </trkpt>
      <trkpt lat="50.603502" lon="17.698433">
        <ele>192.134640</ele>
        <time>2026-03-30T19:32:12.607Z</time>
      </trkpt>
      <trkpt lat="50.603268" lon="17.699152">
        <ele>192.189519</ele>
        <time>2026-03-30T19:32:29.301Z</time>
      </trkpt>
      <trkpt lat="50.603070" lon="17.699625">
        <ele>191.702592</ele>
        <time>2026-03-30T19:32:40.393Z</time>
      </trkpt>
      <trkpt lat="50.602088" lon="17.701449">
        <ele>189.497811</ele>
        <time>2026-03-30T19:33:22.628Z</time>
      </trkpt>
      <trkpt lat="50.601224" lon="17.703227">
        <ele>186.173555</ele>
        <time>2026-03-30T19:33:44.718Z</time>
      </trkpt>
      <trkpt lat="50.601071" lon="17.703447">
        <ele>185.689068</ele>
        <time>2026-03-30T19:33:47.991Z</time>
      </trkpt>
      <trkpt lat="50.600875" lon="17.703625">
        <ele>185.287686</ele>
        <time>2026-03-30T19:33:51.598Z</time>
      </trkpt>
      <trkpt lat="50.600327" lon="17.704004">
        <ele>184.256180</ele>
        <time>2026-03-30T19:34:01.240Z</time>
      </trkpt>
      <trkpt lat="50.599856" lon="17.704246">
        <ele>183.402306</ele>
        <time>2026-03-30T19:34:09.224Z</time>
      </trkpt>
      <trkpt lat="50.599569" lon="17.704272">
        <ele>182.906828</ele>
        <time>2026-03-30T19:34:13.983Z</time>
      </trkpt>
      <trkpt lat="50.598870" lon="17.704089">
        <ele>183.138008</ele>
        <time>2026-03-30T19:34:26.900Z</time>
      </trkpt>
      <trkpt lat="50.598797" lon="17.704062">
        <ele>183.227068</ele>
        <time>2026-03-30T19:34:28.428Z</time>
      </trkpt>
      <trkpt lat="50.598596" lon="17.704110">
        <ele>183.468524</ele>
        <time>2026-03-30T19:34:32.998Z</time>
      </trkpt>
      <trkpt lat="50.597758" lon="17.704563">
        <ele>184.520785</ele>
        <time>2026-03-30T19:34:59.590Z</time>
      </trkpt>
      <trkpt lat="50.597089" lon="17.704915">
        <ele>185.897210</ele>
        <time>2026-03-30T19:35:23.729Z</time>
      </trkpt>
      <trkpt lat="50.596801" lon="17.705133">
        <ele>186.578769</ele>
        <time>2026-03-30T19:35:33.738Z</time>
      </trkpt>
      <trkpt lat="50.596412" lon="17.705508">
        <ele>187.551563</ele>
        <time>2026-03-30T19:35:46.881Z</time>
      </trkpt>
      <trkpt lat="50.596065" lon="17.705842">
        <ele>188.418966</ele>
        <time>2026-03-30T19:35:57.140Z</time>
      </trkpt>
      <trkpt lat="50.595541" lon="17.706619">
        <ele>189.145307</ele>
        <time>2026-03-30T19:36:22.889Z</time>
      </trkpt>
      <trkpt lat="50.594783" lon="17.707702">
        <ele>190.098593</ele>
        <time>2026-03-30T19:36:59.152Z</time>
      </trkpt>
      <trkpt lat="50.594142" lon="17.708702">
        <ele>191.194573</ele>
        <time>2026-03-30T19:37:31.602Z</time>
      </trkpt>
      <trkpt lat="50.593404" lon="17.709949">
        <ele>192.521690</ele>
        <time>2026-03-30T19:38:13.511Z</time>
      </trkpt>
      <trkpt lat="50.592512" lon="17.711334">
        <ele>193.685063</ele>
        <time>2026-03-30T19:39:01.506Z</time>
      </trkpt>
      <trkpt lat="50.593378" lon="17.712720">
        <ele>193.829575</ele>
        <time>2026-03-30T19:39:39.257Z</time>
      </trkpt>
      <trkpt lat="50.594670" lon="17.714740">
        <ele>193.387623</ele>
        <time>2026-03-30T19:40:34.936Z</time>
      </trkpt>
      <trkpt lat="50.594812" lon="17.714974">
        <ele>193.371438</ele>
        <time>2026-03-30T19:40:41.330Z</time>
      </trkpt>
      <trkpt lat="50.595407" lon="17.716005">
        <ele>193.330251</ele>
        <time>2026-03-30T19:41:10.347Z</time>
      </trkpt>
      <trkpt lat="50.596176" lon="17.714826">
        <ele>193.605548</ele>
        <time>2026-03-30T19:41:32.789Z</time>
      </trkpt>
      <trkpt lat="50.596264" lon="17.715304">
        <ele>193.686599</ele>
        <time>2026-03-30T19:41:43.591Z</time>
      </trkpt>
      <trkpt lat="50.596786" lon="17.718227">
        <ele>193.616598</ele>
        <time>2026-03-30T19:42:44.721Z</time>
      </trkpt>
      <trkpt lat="50.597039" lon="17.719557">
        <ele>193.099545</ele>
        <time>2026-03-30T19:43:11.304Z</time>
      </trkpt>
      <trkpt lat="50.597054" lon="17.719601">
        <ele>193.076497</ele>
        <time>2026-03-30T19:43:12.218Z</time>
      </trkpt>
      <trkpt lat="50.597464" lon="17.720058">
        <ele>192.711376</ele>
        <time>2026-03-30T19:43:26.738Z</time>
      </trkpt>
      <trkpt lat="50.597961" lon="17.720532">
        <ele>192.290084</ele>
        <time>2026-03-30T19:43:43.684Z</time>
      </trkpt>
      <trkpt lat="50.598919" lon="17.721293">
        <ele>192.163111</ele>
        <time>2026-03-30T19:44:17.390Z</time>
      </trkpt>
      <trkpt lat="50.599042" lon="17.721355">
        <ele>192.147827</ele>
        <time>2026-03-30T19:44:21.889Z</time>
      </trkpt>
      <trkpt lat="50.599112" lon="17.721349">
        <ele>192.139530</ele>
        <time>2026-03-30T19:44:24.211Z</time>
      </trkpt>
      <trkpt lat="50.599281" lon="17.721271">
        <ele>192.118689</ele>
        <time>2026-03-30T19:44:30.068Z</time>
      </trkpt>
      <trkpt lat="50.599409" lon="17.721321">
        <ele>192.103082</ele>
        <time>2026-03-30T19:44:34.424Z</time>
      </trkpt>
      <trkpt lat="50.599610" lon="17.721425">
        <ele>192.078044</ele>
        <time>2026-03-30T19:44:41.295Z</time>
      </trkpt>
      <trkpt lat="50.599881" lon="17.721693">
        <ele>191.890610</ele>
        <time>2026-03-30T19:44:51.450Z</time>
      </trkpt>
      <trkpt lat="50.600103" lon="17.721883">
        <ele>191.740658</ele>
        <time>2026-03-30T19:44:59.736Z</time>
      </trkpt>
      <trkpt lat="50.600466" lon="17.722097">
        <ele>191.510615</ele>
        <time>2026-03-30T19:45:12.231Z</time>
      </trkpt>
      <trkpt lat="50.601342" lon="17.722615">
        <ele>190.958790</ele>
        <time>2026-03-30T19:45:41.023Z</time>
      </trkpt>
      <trkpt lat="50.601289" lon="17.723017">
        <ele>190.814103</ele>
        <time>2026-03-30T19:45:45.721Z</time>
      </trkpt>
      <trkpt lat="50.601222" lon="17.723750">
        <ele>190.553133</ele>
        <time>2026-03-30T19:45:54.478Z</time>
      </trkpt>
      <trkpt lat="50.601183" lon="17.724400">
        <ele>190.323054</ele>
        <time>2026-03-30T19:46:02.369Z</time>
      </trkpt>
      <trkpt lat="50.601210" lon="17.725545">
        <ele>189.909536</ele>
        <time>2026-03-30T19:46:16.106Z</time>
      </trkpt>
      <trkpt lat="50.601292" lon="17.726976">
        <ele>189.349549</ele>
        <time>2026-03-30T19:46:32.968Z</time>
      </trkpt>
      <trkpt lat="50.601329" lon="17.727307">
        <ele>189.218559</ele>
        <time>2026-03-30T19:46:36.692Z</time>
      </trkpt>
      <trkpt lat="50.601240" lon="17.727437">
        <ele>189.144037</ele>
        <time>2026-03-30T19:46:38.810Z</time>
      </trkpt>
      <trkpt lat="50.601259" lon="17.727677">
        <ele>189.049774</ele>
        <time>2026-03-30T19:46:41.515Z</time>
      </trkpt>
      <trkpt lat="50.601060" lon="17.728726">
        <ele>188.787345</ele>
        <time>2026-03-30T19:46:54.008Z</time>
      </trkpt>
      <trkpt lat="50.599652" lon="17.731584">
        <ele>188.736713</ele>
        <time>2026-03-30T19:47:39.529Z</time>
      </trkpt>
      <trkpt lat="50.599497" lon="17.731856">
        <ele>188.808003</ele>
        <time>2026-03-30T19:47:44.583Z</time>
      </trkpt>
      <trkpt lat="50.599240" lon="17.732445">
        <ele>188.947401</ele>
        <time>2026-03-30T19:47:54.691Z</time>
      </trkpt>
      <trkpt lat="50.597935" lon="17.735072">
        <ele>190.968882</ele>
        <time>2026-03-30T19:48:46.003Z</time>
      </trkpt>
      <trkpt lat="50.596776" lon="17.737346">
        <ele>193.111330</ele>
        <time>2026-03-30T19:49:36.064Z</time>
      </trkpt>
      <trkpt lat="50.596007" lon="17.738589">
        <ele>192.770237</ele>
        <time>2026-03-30T19:49:56.677Z</time>
      </trkpt>
      <trkpt lat="50.595261" lon="17.741444">
        <ele>191.480048</ele>
        <time>2026-03-30T19:50:29.973Z</time>
      </trkpt>
      <trkpt lat="50.595115" lon="17.741926">
        <ele>191.262744</ele>
        <time>2026-03-30T19:50:37.644Z</time>
      </trkpt>
      <trkpt lat="50.594936" lon="17.742239">
        <ele>191.603407</ele>
        <time>2026-03-30T19:50:44.235Z</time>
      </trkpt>
      <trkpt lat="50.594468" lon="17.742486">
        <ele>192.232130</ele>
        <time>2026-03-30T19:50:57.740Z</time>
      </trkpt>
      <trkpt lat="50.594314" lon="17.742649">
        <ele>192.468469</ele>
        <time>2026-03-30T19:51:03.207Z</time>
      </trkpt>
      <trkpt lat="50.593207" lon="17.745111">
        <ele>194.221025</ele>
        <time>2026-03-30T19:51:52.824Z</time>
      </trkpt>
      <trkpt lat="50.592245" lon="17.747203">
        <ele>194.097214</ele>
        <time>2026-03-30T19:52:23.614Z</time>
      </trkpt>
      <trkpt lat="50.592166" lon="17.747433">
        <ele>193.993046</ele>
        <time>2026-03-30T19:52:26.564Z</time>
      </trkpt>
      <trkpt lat="50.591841" lon="17.751703">
        <ele>192.112826</ele>
        <time>2026-03-30T19:53:14.925Z</time>
      </trkpt>
      <trkpt lat="50.591643" lon="17.754446">
        <ele>192.514223</ele>
        <time>2026-03-30T19:53:52.959Z</time>
      </trkpt>
      <trkpt lat="50.591612" lon="17.756425">
        <ele>193.336301</ele>
        <time>2026-03-30T19:54:23.043Z</time>
      </trkpt>
      <trkpt lat="50.591569" lon="17.756856">
        <ele>193.517481</ele>
        <time>2026-03-30T19:54:29.270Z</time>
      </trkpt>
      <trkpt lat="50.591510" lon="17.757193">
        <ele>193.567884</ele>
        <time>2026-03-30T19:54:34.093Z</time>
      </trkpt>
      <trkpt lat="50.590749" lon="17.760402">
        <ele>193.496085</ele>
        <time>2026-03-30T19:55:16.217Z</time>
      </trkpt>
      <trkpt lat="50.590539" lon="17.761294">
        <ele>193.497465</ele>
        <time>2026-03-30T19:55:27.981Z</time>
      </trkpt>
      <trkpt lat="50.589817" lon="17.764435">
        <ele>193.976731</ele>
        <time>2026-03-30T19:56:12.588Z</time>
      </trkpt>
      <trkpt lat="50.588560" lon="17.770121">
        <ele>195.596765</ele>
        <time>2026-03-30T19:57:37.084Z</time>
      </trkpt>
      <trkpt lat="50.588269" lon="17.771371">
        <ele>195.604001</ele>
        <time>2026-03-30T19:57:53.314Z</time>
      </trkpt>
      <trkpt lat="50.588648" lon="17.771954">
        <ele>195.571504</ele>
        <time>2026-03-30T19:58:03.399Z</time>
      </trkpt>
      <trkpt lat="50.591004" lon="17.775615">
        <ele>196.222991</ele>
        <time>2026-03-30T19:59:12.235Z</time>
      </trkpt>
      <trkpt lat="50.593377" lon="17.779214">
        <ele>197.759784</ele>
        <time>2026-03-30T20:00:24.709Z</time>
      </trkpt>
      <trkpt lat="50.593495" lon="17.779391">
        <ele>197.853366</ele>
        <time>2026-03-30T20:00:28.435Z</time>
      </trkpt>
      <trkpt lat="50.594059" lon="17.780237">
        <ele>198.300653</ele>
        <time>2026-03-30T20:00:46.277Z</time>
      </trkpt>
      <trkpt lat="50.595381" lon="17.782220">
        <ele>199.444539</ele>
        <time>2026-03-30T20:01:27.071Z</time>
      </trkpt>
      <trkpt lat="50.595935" lon="17.783076">
        <ele>199.864463</ele>
        <time>2026-03-30T20:01:45.515Z</time>
      </trkpt>
      <trkpt lat="50.597074" lon="17.784806">
        <ele>199.970762</ele>
        <time>2026-03-30T20:02:20.789Z</time>
      </trkpt>
      <trkpt lat="50.598332" lon="17.786719">
        <ele>197.836438</ele>
        <time>2026-03-30T20:02:48.705Z</time>
      </trkpt>
      <trkpt lat="50.599590" lon="17.788606">
        <ele>197.192890</ele>
        <time>2026-03-30T20:03:21.498Z</time>
      </trkpt>
      <trkpt lat="50.600010" lon="17.789245">
        <ele>197.876239</ele>
        <time>2026-03-30T20:03:36.812Z</time>
      </trkpt>
      <trkpt lat="50.600243" lon="17.789590">
        <ele>198.250469</ele>
        <time>2026-03-30T20:03:45.175Z</time>
      </trkpt>
      <trkpt lat="50.600591" lon="17.790127">
        <ele>198.820576</ele>
        <time>2026-03-30T20:03:57.405Z</time>
      </trkpt>
      <trkpt lat="50.601322" lon="17.791235">
        <ele>199.713657</ele>
        <time>2026-03-30T20:04:15.713Z</time>
      </trkpt>
      <trkpt lat="50.601716" lon="17.791846">
        <ele>200.174379</ele>
        <time>2026-03-30T20:04:27.649Z</time>
      </trkpt>
      <trkpt lat="50.602351" lon="17.792808">
        <ele>200.732762</ele>
        <time>2026-03-30T20:04:48.104Z</time>
      </trkpt>
      <trkpt lat="50.603237" lon="17.794163">
        <ele>201.334446</ele>
        <time>2026-03-30T20:05:11.219Z</time>
      </trkpt>
      <trkpt lat="50.603869" lon="17.795113">
        <ele>200.836880</ele>
        <time>2026-03-30T20:05:27.031Z</time>
      </trkpt>
      <trkpt lat="50.604091" lon="17.795449">
        <ele>200.639227</ele>
        <time>2026-03-30T20:05:32.660Z</time>
      </trkpt>
      <trkpt lat="50.604545" lon="17.796135">
        <ele>200.235339</ele>
        <time>2026-03-30T20:05:44.087Z</time>
      </trkpt>
      <trkpt lat="50.605003" lon="17.796827">
        <ele>199.531580</ele>
        <time>2026-03-30T20:05:54.957Z</time>
      </trkpt>
      <trkpt lat="50.605430" lon="17.797501">
        <ele>198.840048</ele>
        <time>2026-03-30T20:06:05.041Z</time>
      </trkpt>
      <trkpt lat="50.605664" lon="17.797806">
        <ele>198.492586</ele>
        <time>2026-03-30T20:06:10.132Z</time>
      </trkpt>
      <trkpt lat="50.603949" lon="17.800242">
        <ele>197.147509</ele>
        <time>2026-03-30T20:06:53.184Z</time>
      </trkpt>
      <trkpt lat="50.603046" lon="17.801581">
        <ele>196.465741</ele>
        <time>2026-03-30T20:07:17.626Z</time>
      </trkpt>
      <trkpt lat="50.602972" lon="17.801852">
        <ele>196.362793</ele>
        <time>2026-03-30T20:07:20.865Z</time>
      </trkpt>
      <trkpt lat="50.602966" lon="17.801893">
        <ele>196.348110</ele>
        <time>2026-03-30T20:07:21.310Z</time>
      </trkpt>
      <trkpt lat="50.602818" lon="17.803048">
        <ele>195.354662</ele>
        <time>2026-03-30T20:07:33.200Z</time>
      </trkpt>
      <trkpt lat="50.602807" lon="17.803323">
        <ele>195.092443</ele>
        <time>2026-03-30T20:07:35.954Z</time>
      </trkpt>
      <trkpt lat="50.602933" lon="17.803753">
        <ele>194.641735</ele>
        <time>2026-03-30T20:07:40.776Z</time>
      </trkpt>
      <trkpt lat="50.602944" lon="17.803982">
        <ele>194.423187</ele>
        <time>2026-03-30T20:07:43.192Z</time>
      </trkpt>
      <trkpt lat="50.602905" lon="17.804814">
        <ele>193.629272</ele>
        <time>2026-03-30T20:07:52.438Z</time>
      </trkpt>
      <trkpt lat="50.602873" lon="17.806356">
        <ele>193.068928</ele>
        <time>2026-03-30T20:08:12.036Z</time>
      </trkpt>
      <trkpt lat="50.602849" lon="17.806745">
        <ele>192.935427</ele>
        <time>2026-03-30T20:08:16.851Z</time>
      </trkpt>
      <trkpt lat="50.602859" lon="17.806988">
        <ele>192.852249</ele>
        <time>2026-03-30T20:08:19.717Z</time>
      </trkpt>
      <trkpt lat="50.602755" lon="17.808273">
        <ele>192.308125</ele>
        <time>2026-03-30T20:08:33.794Z</time>
      </trkpt>
      <trkpt lat="50.602680" lon="17.808805">
        <ele>192.027134</ele>
        <time>2026-03-30T20:08:39.484Z</time>
      </trkpt>
      <trkpt lat="50.602450" lon="17.810284">
        <ele>191.241983</ele>
        <time>2026-03-30T20:08:56.842Z</time>
      </trkpt>
      <trkpt lat="50.602288" lon="17.810892">
        <ele>191.304647</ele>
        <time>2026-03-30T20:09:05.822Z</time>
      </trkpt>
      <trkpt lat="50.601966" lon="17.812373">
        <ele>191.818225</ele>
        <time>2026-03-30T20:09:28.972Z</time>
      </trkpt>
      <trkpt lat="50.601869" lon="17.813180">
        <ele>192.073398</ele>
        <time>2026-03-30T20:09:41.172Z</time>
      </trkpt>
      <trkpt lat="50.601813" lon="17.813495">
        <ele>192.026342</ele>
        <time>2026-03-30T20:09:45.783Z</time>
      </trkpt>
      <trkpt lat="50.601604" lon="17.814672">
        <ele>191.850530</ele>
        <time>2026-03-30T20:10:01.521Z</time>
      </trkpt>
      <trkpt lat="50.601324" lon="17.815825">
        <ele>191.672945</ele>
        <time>2026-03-30T20:10:15.829Z</time>
      </trkpt>
      <trkpt lat="50.601182" lon="17.816275">
        <ele>191.119294</ele>
        <time>2026-03-30T20:10:21.338Z</time>
      </trkpt>
      <trkpt lat="50.600442" lon="17.818181">
        <ele>188.570349</ele>
        <time>2026-03-30T20:10:44.090Z</time>
      </trkpt>
      <trkpt lat="50.600291" lon="17.818649">
        <ele>188.043326</ele>
        <time>2026-03-30T20:10:49.398Z</time>
      </trkpt>
      <trkpt lat="50.600249" lon="17.818852">
        <ele>187.837343</ele>
        <time>2026-03-30T20:10:51.575Z</time>
      </trkpt>
      <trkpt lat="50.600228" lon="17.819125">
        <ele>187.572042</ele>
        <time>2026-03-30T20:10:54.399Z</time>
      </trkpt>
      <trkpt lat="50.600257" lon="17.819724">
        <ele>186.992484</ele>
        <time>2026-03-30T20:11:00.667Z</time>
      </trkpt>
      <trkpt lat="50.600209" lon="17.820877">
        <ele>185.877749</ele>
        <time>2026-03-30T20:11:13.327Z</time>
      </trkpt>
      <trkpt lat="50.600167" lon="17.821708">
        <ele>185.411726</ele>
        <time>2026-03-30T20:11:22.896Z</time>
      </trkpt>
      <trkpt lat="50.600141" lon="17.823246">
        <ele>184.724320</ele>
        <time>2026-03-30T20:11:40.801Z</time>
      </trkpt>
      <trkpt lat="50.600151" lon="17.824179">
        <ele>184.232472</ele>
        <time>2026-03-30T20:11:51.668Z</time>
      </trkpt>
      <trkpt lat="50.600164" lon="17.825336">
        <ele>183.417415</ele>
        <time>2026-03-30T20:12:04.612Z</time>
      </trkpt>
      <trkpt lat="50.600159" lon="17.826838">
        <ele>182.343955</ele>
        <time>2026-03-30T20:12:20.611Z</time>
      </trkpt>
      <trkpt lat="50.599453" lon="17.830951">
        <ele>179.405454</ele>
        <time>2026-03-30T20:13:06.763Z</time>
      </trkpt>
      <trkpt lat="50.599402" lon="17.831118">
        <ele>179.325916</ele>
        <time>2026-03-30T20:13:08.988Z</time>
      </trkpt>
      <trkpt lat="50.598920" lon="17.832219">
        <ele>178.905145</ele>
        <time>2026-03-30T20:13:26.110Z</time>
      </trkpt>
      <trkpt lat="50.598797" lon="17.832481">
        <ele>178.980023</ele>
        <time>2026-03-30T20:13:30.742Z</time>
      </trkpt>
      <trkpt lat="50.597819" lon="17.834559">
        <ele>179.480525</ele>
        <time>2026-03-30T20:14:06.981Z</time>
      </trkpt>
      <trkpt lat="50.596162" lon="17.838121">
        <ele>178.750930</ele>
        <time>2026-03-30T20:15:00.639Z</time>
      </trkpt>
      <trkpt lat="50.594015" lon="17.842774">
        <ele>175.931472</ele>
        <time>2026-03-30T20:16:55.599Z</time>
      </trkpt>
      <trkpt lat="50.593314" lon="17.844266">
        <ele>174.837737</ele>
        <time>2026-03-30T20:17:32.986Z</time>
      </trkpt>
      <trkpt lat="50.593251" lon="17.844404">
        <ele>174.727997</ele>
        <time>2026-03-30T20:17:36.395Z</time>
      </trkpt>
      <trkpt lat="50.591742" lon="17.851163">
        <ele>170.325773</ele>
        <time>2026-03-30T20:19:57.298Z</time>
      </trkpt>
      <trkpt lat="50.591202" lon="17.851691">
        <ele>170.150207</ele>
        <time>2026-03-30T20:20:18.946Z</time>
      </trkpt>
      <trkpt lat="50.591769" lon="17.851787">
        <ele>170.059963</ele>
        <time>2026-03-30T20:20:38.917Z</time>
      </trkpt>
      <trkpt lat="50.592355" lon="17.851886">
        <ele>169.966697</ele>
        <time>2026-03-30T20:20:58.437Z</time>
      </trkpt>
      <trkpt lat="50.593308" lon="17.852053">
        <ele>169.573774</ele>
        <time>2026-03-30T20:21:29.171Z</time>
      </trkpt>
      <trkpt lat="50.595229" lon="17.852290">
        <ele>168.774196</ele>
        <time>2026-03-30T20:22:31.933Z</time>
      </trkpt>
      <trkpt lat="50.595517" lon="17.852387">
        <ele>168.659455</ele>
        <time>2026-03-30T20:22:41.458Z</time>
      </trkpt>
      <trkpt lat="50.595649" lon="17.852470">
        <ele>168.604082</ele>
        <time>2026-03-30T20:22:46.031Z</time>
      </trkpt>
      <trkpt lat="50.596021" lon="17.852798">
        <ele>168.450444</ele>
        <time>2026-03-30T20:22:59.994Z</time>
      </trkpt>
      <trkpt lat="50.596399" lon="17.853050">
        <ele>168.404560</ele>
        <time>2026-03-30T20:23:13.644Z</time>
      </trkpt>
      <trkpt lat="50.596653" lon="17.853203">
        <ele>168.374162</ele>
        <time>2026-03-30T20:23:22.680Z</time>
      </trkpt>
      <trkpt lat="50.596972" lon="17.853339">
        <ele>168.337219</ele>
        <time>2026-03-30T20:23:33.762Z</time>
      </trkpt>
      <trkpt lat="50.597203" lon="17.853410">
        <ele>168.310909</ele>
        <time>2026-03-30T20:23:37.843Z</time>
      </trkpt>
      <trkpt lat="50.598462" lon="17.853563">
        <ele>168.145086</ele>
        <time>2026-03-30T20:23:59.084Z</time>
      </trkpt>
      <trkpt lat="50.599107" lon="17.853642">
        <ele>168.051690</ele>
        <time>2026-03-30T20:24:09.550Z</time>
      </trkpt>
      <trkpt lat="50.599320" lon="17.853705">
        <ele>168.020404</ele>
        <time>2026-03-30T20:24:13.123Z</time>
      </trkpt>
      <trkpt lat="50.600298" lon="17.854286">
        <ele>168.305729</ele>
        <time>2026-03-30T20:24:31.975Z</time>
      </trkpt>
      <trkpt lat="50.600679" lon="17.854394">
        <ele>168.444531</ele>
        <time>2026-03-30T20:24:39.869Z</time>
      </trkpt>
      <trkpt lat="50.601208" lon="17.854263">
        <ele>168.636534</ele>
        <time>2026-03-30T20:24:50.601Z</time>
      </trkpt>
      <trkpt lat="50.601278" lon="17.854229">
        <ele>168.609726</ele>
        <time>2026-03-30T20:24:52.021Z</time>
      </trkpt>
      <trkpt lat="50.601339" lon="17.854139">
        <ele>168.571029</ele>
        <time>2026-03-30T20:24:53.632Z</time>
      </trkpt>
      <trkpt lat="50.601363" lon="17.853753">
        <ele>168.457041</ele>
        <time>2026-03-30T20:24:58.136Z</time>
      </trkpt>
      <trkpt lat="50.601438" lon="17.853708">
        <ele>168.419880</ele>
        <time>2026-03-30T20:24:59.535Z</time>
      </trkpt>
      <trkpt lat="50.601623" lon="17.853676">
        <ele>168.333702</ele>
        <time>2026-03-30T20:25:02.637Z</time>
      </trkpt>
      <trkpt lat="50.602247" lon="17.853612">
        <ele>168.044152</ele>
        <time>2026-03-30T20:25:12.233Z</time>
      </trkpt>
      <trkpt lat="50.603373" lon="17.853539">
        <ele>167.728337</ele>
        <time>2026-03-30T20:25:28.760Z</time>
      </trkpt>
      <trkpt lat="50.603707" lon="17.853425">
        <ele>167.684695</ele>
        <time>2026-03-30T20:25:34.110Z</time>
      </trkpt>
      <trkpt lat="50.606793" lon="17.851863">
        <ele>169.299784</ele>
        <time>2026-03-30T20:26:41.112Z</time>
      </trkpt>
      <trkpt lat="50.607312" lon="17.851600">
        <ele>169.560898</ele>
        <time>2026-03-30T20:26:51.955Z</time>
      </trkpt>
      <trkpt lat="50.608855" lon="17.850857">
        <ele>169.791862</ele>
        <time>2026-03-30T20:27:20.503Z</time>
      </trkpt>
      <trkpt lat="50.609480" lon="17.850727">
        <ele>169.738046</ele>
        <time>2026-03-30T20:27:30.897Z</time>
      </trkpt>
      <trkpt lat="50.609996" lon="17.850570">
        <ele>169.530322</ele>
        <time>2026-03-30T20:27:39.261Z</time>
      </trkpt>
      <trkpt lat="50.610759" lon="17.850250">
        <ele>169.057785</ele>
        <time>2026-03-30T20:27:51.523Z</time>
      </trkpt>
      <trkpt lat="50.611182" lon="17.850044">
        <ele>168.792815</ele>
        <time>2026-03-30T20:27:58.266Z</time>
      </trkpt>
      <trkpt lat="50.611551" lon="17.849757">
        <ele>168.573694</ele>
        <time>2026-03-30T20:28:04.543Z</time>
      </trkpt>
      <trkpt lat="50.612181" lon="17.849052">
        <ele>168.240325</ele>
        <time>2026-03-30T20:28:16.725Z</time>
      </trkpt>
      <trkpt lat="50.613397" lon="17.847651">
        <ele>167.544800</ele>
        <time>2026-03-30T20:29:06.586Z</time>
      </trkpt>
      <trkpt lat="50.614133" lon="17.846754">
        <ele>167.077342</ele>
        <time>2026-03-30T20:29:36.604Z</time>
      </trkpt>
      <trkpt lat="50.615251" lon="17.845319">
        <ele>165.981162</ele>
        <time>2026-03-30T20:30:21.320Z</time>
      </trkpt>
      <trkpt lat="50.615847" lon="17.844530">
        <ele>165.539738</ele>
        <time>2026-03-30T20:30:46.383Z</time>
      </trkpt>
      <trkpt lat="50.616047" lon="17.844406">
        <ele>165.571363</ele>
        <time>2026-03-30T20:30:53.535Z</time>
      </trkpt>
      <trkpt lat="50.618672" lon="17.844516">
        <ele>166.238586</ele>
        <time>2026-03-30T20:32:26.090Z</time>
      </trkpt>
      <trkpt lat="50.619215" lon="17.844543">
        <ele>166.441708</ele>
        <time>2026-03-30T20:32:45.435Z</time>
      </trkpt>
      <trkpt lat="50.621053" lon="17.844634">
        <ele>167.421096</ele>
        <time>2026-03-30T20:33:52.064Z</time>
      </trkpt>
      <trkpt lat="50.621277" lon="17.844164">
        <ele>167.582951</ele>
        <time>2026-03-30T20:33:59.600Z</time>
      </trkpt>
      <trkpt lat="50.623367" lon="17.839890">
        <ele>168.420945</ele>
        <time>2026-03-30T20:35:03.828Z</time>
      </trkpt>
      <trkpt lat="50.623579" lon="17.839602">
        <ele>168.129464</ele>
        <time>2026-03-30T20:35:08.070Z</time>
      </trkpt>
      <trkpt lat="50.624307" lon="17.841134">
        <ele>166.864754</ele>
        <time>2026-03-30T20:35:25.252Z</time>
      </trkpt>
      <trkpt lat="50.624424" lon="17.841464">
        <ele>166.616979</ele>
        <time>2026-03-30T20:35:28.598Z</time>
      </trkpt>
      <trkpt lat="50.624497" lon="17.841819">
        <ele>166.373409</ele>
        <time>2026-03-30T20:35:31.960Z</time>
      </trkpt>
      <trkpt lat="50.624763" lon="17.843637">
        <ele>165.155693</ele>
        <time>2026-03-30T20:35:49.653Z</time>
      </trkpt>
      <trkpt lat="50.624882" lon="17.844447">
        <ele>164.749202</ele>
        <time>2026-03-30T20:35:57.884Z</time>
      </trkpt>
      <trkpt lat="50.625051" lon="17.845384">
        <ele>164.387373</ele>
        <time>2026-03-30T20:36:07.758Z</time>
      </trkpt>
      <trkpt lat="50.625247" lon="17.846774">
        <ele>163.844418</ele>
        <time>2026-03-30T20:36:22.000Z</time>
      </trkpt>
      <trkpt lat="50.625309" lon="17.847164">
        <ele>163.574815</ele>
        <time>2026-03-30T20:36:25.972Z</time>
      </trkpt>
      <trkpt lat="50.625327" lon="17.847304">
        <ele>163.479028</ele>
        <time>2026-03-30T20:36:27.351Z</time>
      </trkpt>
      <trkpt lat="50.625374" lon="17.847741">
        <ele>163.181814</ele>
        <time>2026-03-30T20:36:31.563Z</time>
      </trkpt>
      <trkpt lat="50.625402" lon="17.848382">
        <ele>162.750971</ele>
        <time>2026-03-30T20:36:37.511Z</time>
      </trkpt>
      <trkpt lat="50.625283" lon="17.849188">
        <ele>162.196059</ele>
        <time>2026-03-30T20:36:44.957Z</time>
      </trkpt>
      <trkpt lat="50.625290" lon="17.850147">
        <ele>161.705724</ele>
        <time>2026-03-30T20:36:53.836Z</time>
      </trkpt>
      <trkpt lat="50.625315" lon="17.850335">
        <ele>161.623571</ele>
        <time>2026-03-30T20:36:55.624Z</time>
      </trkpt>
      <trkpt lat="50.625714" lon="17.852605">
        <ele>160.793994</ele>
        <time>2026-03-30T20:37:19.427Z</time>
      </trkpt>
      <trkpt lat="50.625838" lon="17.852773">
        <ele>160.818030</ele>
        <time>2026-03-30T20:37:22.183Z</time>
      </trkpt>
      <trkpt lat="50.626437" lon="17.853431">
        <ele>160.925356</ele>
        <time>2026-03-30T20:37:34.671Z</time>
      </trkpt>
      <trkpt lat="50.626600" lon="17.853702">
        <ele>160.960182</ele>
        <time>2026-03-30T20:37:39.116Z</time>
      </trkpt>
      <trkpt lat="50.626673" lon="17.853907">
        <ele>160.982105</ele>
        <time>2026-03-30T20:37:42.129Z</time>
      </trkpt>
      <trkpt lat="50.626759" lon="17.854309">
        <ele>161.021667</ele>
        <time>2026-03-30T20:37:47.650Z</time>
      </trkpt>
      <trkpt lat="50.626797" lon="17.854845">
        <ele>161.160099</ele>
        <time>2026-03-30T20:37:54.515Z</time>
      </trkpt>
      <trkpt lat="50.626848" lon="17.855327">
        <ele>161.294134</ele>
        <time>2026-03-30T20:38:00.696Z</time>
      </trkpt>
      <trkpt lat="50.626860" lon="17.855423">
        <ele>161.320972</ele>
        <time>2026-03-30T20:38:01.987Z</time>
      </trkpt>
      <trkpt lat="50.626905" lon="17.855631">
        <ele>161.381251</ele>
        <time>2026-03-30T20:38:04.732Z</time>
      </trkpt>
      <trkpt lat="50.626912" lon="17.855846">
        <ele>161.440301</ele>
        <time>2026-03-30T20:38:07.421Z</time>
      </trkpt>
      <trkpt lat="50.627007" lon="17.855764">
        <ele>161.487132</ele>
        <time>2026-03-30T20:38:09.495Z</time>
      </trkpt>
      <trkpt lat="50.627166" lon="17.855705">
        <ele>161.557760</ele>
        <time>2026-03-30T20:38:12.723Z</time>
      </trkpt>
      <trkpt lat="50.627519" lon="17.855684">
        <ele>161.710500</ele>
        <time>2026-03-30T20:38:19.392Z</time>
      </trkpt>
      <trkpt lat="50.627861" lon="17.855749">
        <ele>161.777704</ele>
        <time>2026-03-30T20:38:25.297Z</time>
      </trkpt>
      <trkpt lat="50.629526" lon="17.856532">
        <ele>161.412147</ele>
        <time>2026-03-30T20:38:53.704Z</time>
      </trkpt>
      <trkpt lat="50.629945" lon="17.856735">
        <ele>161.295130</ele>
        <time>2026-03-30T20:39:00.821Z</time>
      </trkpt>
      <trkpt lat="50.630321" lon="17.856984">
        <ele>161.186259</ele>
        <time>2026-03-30T20:39:07.412Z</time>
      </trkpt>
      <trkpt lat="50.631537" lon="17.857793">
        <ele>160.913621</ele>
        <time>2026-03-30T20:39:29.016Z</time>
      </trkpt>
      <trkpt lat="50.633115" lon="17.858845">
        <ele>160.727987</ele>
        <time>2026-03-30T20:39:58.521Z</time>
      </trkpt>
      <trkpt lat="50.633315" lon="17.858978">
        <ele>160.683131</ele>
        <time>2026-03-30T20:40:02.212Z</time>
      </trkpt>
      <trkpt lat="50.633299" lon="17.859039">
        <ele>160.674479</ele>
        <time>2026-03-30T20:40:02.924Z</time>
      </trkpt>
      <trkpt lat="50.633556" lon="17.859213">
        <ele>160.616679</ele>
        <time>2026-03-30T20:40:07.610Z</time>
      </trkpt>
      <trkpt lat="50.633637" lon="17.859342">
        <ele>160.592887</ele>
        <time>2026-03-30T20:40:09.517Z</time>
      </trkpt>
      <trkpt lat="50.633975" lon="17.859565">
        <ele>160.517170</ele>
        <time>2026-03-30T20:40:15.485Z</time>
      </trkpt>
      <trkpt lat="50.634264" lon="17.859757">
        <ele>160.452362</ele>
        <time>2026-03-30T20:40:20.436Z</time>
      </trkpt>
      <trkpt lat="50.634774" lon="17.860094">
        <ele>160.169467</ele>
        <time>2026-03-30T20:40:29.086Z</time>
      </trkpt>
      <trkpt lat="50.635111" lon="17.860316">
        <ele>159.952933</ele>
        <time>2026-03-30T20:40:34.803Z</time>
      </trkpt>
      <trkpt lat="50.635461" lon="17.860549">
        <ele>159.727692</ele>
        <time>2026-03-30T20:40:40.572Z</time>
      </trkpt>
      <trkpt lat="50.635885" lon="17.860830">
        <ele>159.455013</ele>
        <time>2026-03-30T20:40:47.666Z</time>
      </trkpt>
      <trkpt lat="50.636085" lon="17.860963">
        <ele>159.364472</ele>
        <time>2026-03-30T20:40:51.166Z</time>
      </trkpt>
      <trkpt lat="50.636238" lon="17.861061">
        <ele>159.371371</ele>
        <time>2026-03-30T20:40:53.854Z</time>
      </trkpt>
      <trkpt lat="50.636294" lon="17.861059">
        <ele>159.373711</ele>
        <time>2026-03-30T20:40:54.786Z</time>
      </trkpt>
      <trkpt lat="50.636368" lon="17.861064">
        <ele>159.376805</ele>
        <time>2026-03-30T20:40:56.046Z</time>
      </trkpt>
      <trkpt lat="50.636469" lon="17.861130">
        <ele>159.381372</ele>
        <time>2026-03-30T20:40:57.880Z</time>
      </trkpt>
      <trkpt lat="50.637311" lon="17.861629">
        <ele>159.418951</ele>
        <time>2026-03-30T20:41:13.989Z</time>
      </trkpt>
      <trkpt lat="50.637363" lon="17.861636">
        <ele>159.421131</ele>
        <time>2026-03-30T20:41:17.589Z</time>
      </trkpt>
      <trkpt lat="50.637371" lon="17.861577">
        <ele>159.422729</ele>
        <time>2026-03-30T20:41:18.407Z</time>
      </trkpt>
      <trkpt lat="50.637547" lon="17.861627">
        <ele>159.430200</ele>
        <time>2026-03-30T20:41:21.810Z</time>
      </trkpt>
      <trkpt lat="50.637705" lon="17.861697">
        <ele>159.437057</ele>
        <time>2026-03-30T20:41:24.889Z</time>
      </trkpt>
      <trkpt lat="50.638056" lon="17.861899">
        <ele>159.350535</ele>
        <time>2026-03-30T20:41:31.564Z</time>
      </trkpt>
      <trkpt lat="50.638985" lon="17.862467">
        <ele>159.119039</ele>
        <time>2026-03-30T20:41:47.940Z</time>
      </trkpt>
      <trkpt lat="50.639200" lon="17.862643">
        <ele>159.062757</ele>
        <time>2026-03-30T20:41:51.673Z</time>
      </trkpt>
      <trkpt lat="50.639389" lon="17.862791">
        <ele>159.009502</ele>
        <time>2026-03-30T20:41:54.905Z</time>
      </trkpt>
      <trkpt lat="50.639682" lon="17.862932">
        <ele>158.883504</ele>
        <time>2026-03-30T20:41:59.604Z</time>
      </trkpt>
      <trkpt lat="50.640701" lon="17.863372">
        <ele>158.448960</ele>
        <time>2026-03-30T20:42:16.400Z</time>
      </trkpt>
      <trkpt lat="50.640866" lon="17.863504">
        <ele>158.372861</ele>
        <time>2026-03-30T20:42:19.401Z</time>
      </trkpt>
      <trkpt lat="50.642715" lon="17.865404">
        <ele>158.363469</ele>
        <time>2026-03-30T20:42:57.777Z</time>
      </trkpt>
      <trkpt lat="50.642900" lon="17.865610">
        <ele>158.398778</ele>
        <time>2026-03-30T20:43:01.818Z</time>
      </trkpt>
      <trkpt lat="50.642932" lon="17.865647">
        <ele>158.404964</ele>
        <time>2026-03-30T20:43:02.526Z</time>
      </trkpt>
      <trkpt lat="50.643199" lon="17.866001">
        <ele>158.459349</ele>
        <time>2026-03-30T20:43:08.796Z</time>
      </trkpt>
      <trkpt lat="50.643437" lon="17.866391">
        <ele>158.512861</ele>
        <time>2026-03-30T20:43:15.113Z</time>
      </trkpt>
      <trkpt lat="50.643563" lon="17.866607">
        <ele>158.541877</ele>
        <time>2026-03-30T20:43:18.557Z</time>
      </trkpt>
      <trkpt lat="50.643744" lon="17.867020">
        <ele>158.591511</ele>
        <time>2026-03-30T20:43:24.189Z</time>
      </trkpt>
      <trkpt lat="50.644034" lon="17.867736">
        <ele>158.571013</ele>
        <time>2026-03-30T20:43:33.378Z</time>
      </trkpt>
      <trkpt lat="50.644121" lon="17.867884">
        <ele>158.556138</ele>
        <time>2026-03-30T20:43:35.528Z</time>
      </trkpt>
      <trkpt lat="50.644174" lon="17.867854">
        <ele>158.549592</ele>
        <time>2026-03-30T20:43:36.467Z</time>
      </trkpt>
      <trkpt lat="50.644993" lon="17.867411">
        <ele>158.448951</ele>
        <time>2026-03-30T20:43:50.872Z</time>
      </trkpt>
      <trkpt lat="50.645073" lon="17.867368">
        <ele>158.439127</ele>
        <time>2026-03-30T20:43:52.264Z</time>
      </trkpt>
      <trkpt lat="50.645410" lon="17.867187">
        <ele>158.404018</ele>
        <time>2026-03-30T20:43:58.131Z</time>
      </trkpt>
      <trkpt lat="50.645689" lon="17.867030">
        <ele>158.394045</ele>
        <time>2026-03-30T20:44:03.019Z</time>
      </trkpt>
      <trkpt lat="50.646464" lon="17.866597">
        <ele>158.366365</ele>
        <time>2026-03-30T20:44:16.893Z</time>
      </trkpt>
      <trkpt lat="50.646887" lon="17.866366">
        <ele>158.351295</ele>
        <time>2026-03-30T20:44:24.776Z</time>
      </trkpt>
      <trkpt lat="50.647083" lon="17.866259">
        <ele>158.346023</ele>
        <time>2026-03-30T20:44:28.465Z</time>
      </trkpt>
      <trkpt lat="50.647334" lon="17.866121">
        <ele>158.346023</ele>
        <time>2026-03-30T20:44:33.293Z</time>
      </trkpt>
      <trkpt lat="50.648166" lon="17.865664">
        <ele>158.346023</ele>
        <time>2026-03-30T20:44:49.945Z</time>
      </trkpt>
      <trkpt lat="50.648418" lon="17.865458">
        <ele>158.346023</ele>
        <time>2026-03-30T20:44:55.413Z</time>
      </trkpt>
    </trkseg>
  </trk>
</gpx>