<?xml version='1.0' encoding='UTF-8'?>
<gpx version="1.1" creator="https://www.komoot.de" xmlns="http://www.topografix.com/GPX/1/1" xmlns:xsi="http://www.w3.org/2001/XMLSchema-instance" xsi:schemaLocation="http://www.topografix.com/GPX/1/1 http://www.topografix.com/GPX/1/1/gpx.xsd">
  <metadata>
    <name>2026/07/15 - GraveLova Środa #113 - Dzień świstaka</name>
    <author>
      <link href="https://www.komoot.de">
        <text>komoot</text>
        <type>text/html</type>
      </link>
    </author>
  </metadata>
  <trk>
    <name>2026/07/15 - GraveLova Środa #113 - Dzień świstaka</name>
    <type>mtb_easy</type>
    <trkseg>
      <trkpt lat="50.648827" lon="17.943642">
        <ele>160.357734</ele>
        <time>2026-07-13T19:23:07.451Z</time>
      </trkpt>
      <trkpt lat="50.648824" lon="17.943575">
        <ele>160.357734</ele>
        <time>2026-07-13T19:23:08.192Z</time>
      </trkpt>
      <trkpt lat="50.648726" lon="17.943844">
        <ele>160.357734</ele>
        <time>2026-07-13T19:23:11.542Z</time>
      </trkpt>
      <trkpt lat="50.647710" lon="17.945169">
        <ele>159.975186</ele>
        <time>2026-07-13T19:23:33.251Z</time>
      </trkpt>
      <trkpt lat="50.647247" lon="17.945772">
        <ele>159.626275</ele>
        <time>2026-07-13T19:23:44.290Z</time>
      </trkpt>
      <trkpt lat="50.646801" lon="17.945884">
        <ele>159.363856</ele>
        <time>2026-07-13T19:23:53.956Z</time>
      </trkpt>
      <trkpt lat="50.645892" lon="17.945992">
        <ele>160.151449</ele>
        <time>2026-07-13T19:24:16.933Z</time>
      </trkpt>
      <trkpt lat="50.645582" lon="17.946113">
        <ele>160.476799</ele>
        <time>2026-07-13T19:24:25.136Z</time>
      </trkpt>
      <trkpt lat="50.645504" lon="17.946336">
        <ele>160.641325</ele>
        <time>2026-07-13T19:24:31.137Z</time>
      </trkpt>
      <trkpt lat="50.645449" lon="17.946394">
        <ele>160.708731</ele>
        <time>2026-07-13T19:24:33.621Z</time>
      </trkpt>
      <trkpt lat="50.645128" lon="17.946566">
        <ele>161.054120</ele>
        <time>2026-07-13T19:24:45.955Z</time>
      </trkpt>
      <trkpt lat="50.645039" lon="17.946658">
        <ele>161.156010</ele>
        <time>2026-07-13T19:24:49.777Z</time>
      </trkpt>
      <trkpt lat="50.644925" lon="17.946884">
        <ele>161.273072</ele>
        <time>2026-07-13T19:24:56.306Z</time>
      </trkpt>
      <trkpt lat="50.644828" lon="17.947184">
        <ele>161.409578</ele>
        <time>2026-07-13T19:25:03.769Z</time>
      </trkpt>
      <trkpt lat="50.644771" lon="17.947466">
        <ele>161.529558</ele>
        <time>2026-07-13T19:25:10.276Z</time>
      </trkpt>
      <trkpt lat="50.644687" lon="17.947918">
        <ele>161.720490</ele>
        <time>2026-07-13T19:25:20.802Z</time>
      </trkpt>
      <trkpt lat="50.644657" lon="17.948159">
        <ele>161.820048</ele>
        <time>2026-07-13T19:25:26.238Z</time>
      </trkpt>
      <trkpt lat="50.644646" lon="17.948360">
        <ele>161.901829</ele>
        <time>2026-07-13T19:25:30.648Z</time>
      </trkpt>
      <trkpt lat="50.644168" lon="17.948282">
        <ele>162.209023</ele>
        <time>2026-07-13T19:25:46.924Z</time>
      </trkpt>
      <trkpt lat="50.643636" lon="17.948271">
        <ele>162.514878</ele>
        <time>2026-07-13T19:26:04.414Z</time>
      </trkpt>
      <trkpt lat="50.643122" lon="17.948326">
        <ele>162.799851</ele>
        <time>2026-07-13T19:26:21.366Z</time>
      </trkpt>
      <trkpt lat="50.642650" lon="17.948483">
        <ele>163.066683</ele>
        <time>2026-07-13T19:26:37.614Z</time>
      </trkpt>
      <trkpt lat="50.641869" lon="17.949019">
        <ele>164.040618</ele>
        <time>2026-07-13T19:27:08.590Z</time>
      </trkpt>
      <trkpt lat="50.641804" lon="17.949086">
        <ele>164.170619</ele>
        <time>2026-07-13T19:27:11.606Z</time>
      </trkpt>
      <trkpt lat="50.641336" lon="17.950456">
        <ele>165.822673</ele>
        <time>2026-07-13T19:27:52.463Z</time>
      </trkpt>
      <trkpt lat="50.641057" lon="17.951427">
        <ele>166.428154</ele>
        <time>2026-07-13T19:28:19.415Z</time>
      </trkpt>
      <trkpt lat="50.640889" lon="17.951944">
        <ele>166.548325</ele>
        <time>2026-07-13T19:28:32.714Z</time>
      </trkpt>
      <trkpt lat="50.640739" lon="17.952256">
        <ele>166.629317</ele>
        <time>2026-07-13T19:28:41.118Z</time>
      </trkpt>
      <trkpt lat="50.640471" lon="17.952606">
        <ele>166.742825</ele>
        <time>2026-07-13T19:28:51.958Z</time>
      </trkpt>
      <trkpt lat="50.637624" lon="17.955436">
        <ele>163.745473</ele>
        <time>2026-07-13T19:30:28.655Z</time>
      </trkpt>
      <trkpt lat="50.637357" lon="17.955722">
        <ele>163.470654</ele>
        <time>2026-07-13T19:30:34.289Z</time>
      </trkpt>
      <trkpt lat="50.637325" lon="17.955766">
        <ele>163.434505</ele>
        <time>2026-07-13T19:30:35.046Z</time>
      </trkpt>
      <trkpt lat="50.636725" lon="17.956604">
        <ele>163.231028</ele>
        <time>2026-07-13T19:30:50.107Z</time>
      </trkpt>
      <trkpt lat="50.635963" lon="17.957363">
        <ele>163.341971</ele>
        <time>2026-07-13T19:31:08.398Z</time>
      </trkpt>
      <trkpt lat="50.633602" lon="17.960529">
        <ele>164.202888</ele>
        <time>2026-07-13T19:32:09.652Z</time>
      </trkpt>
      <trkpt lat="50.633436" lon="17.960783">
        <ele>164.307570</ele>
        <time>2026-07-13T19:32:14.592Z</time>
      </trkpt>
      <trkpt lat="50.633241" lon="17.961236">
        <ele>164.464713</ele>
        <time>2026-07-13T19:32:22.217Z</time>
      </trkpt>
      <trkpt lat="50.633116" lon="17.961809">
        <ele>164.633991</ele>
        <time>2026-07-13T19:32:30.891Z</time>
      </trkpt>
      <trkpt lat="50.633045" lon="17.962686">
        <ele>164.843784</ele>
        <time>2026-07-13T19:32:43.445Z</time>
      </trkpt>
      <trkpt lat="50.633053" lon="17.963088">
        <ele>164.939223</ele>
        <time>2026-07-13T19:32:48.884Z</time>
      </trkpt>
      <trkpt lat="50.633094" lon="17.963596">
        <ele>165.060739</ele>
        <time>2026-07-13T19:32:55.533Z</time>
      </trkpt>
      <trkpt lat="50.632877" lon="17.963671">
        <ele>165.143848</ele>
        <time>2026-07-13T19:32:59.872Z</time>
      </trkpt>
      <trkpt lat="50.632410" lon="17.963600">
        <ele>165.247729</ele>
        <time>2026-07-13T19:33:08.603Z</time>
      </trkpt>
      <trkpt lat="50.632264" lon="17.963672">
        <ele>165.186668</ele>
        <time>2026-07-13T19:33:11.343Z</time>
      </trkpt>
      <trkpt lat="50.631572" lon="17.964312">
        <ele>164.866434</ele>
        <time>2026-07-13T19:33:25.519Z</time>
      </trkpt>
      <trkpt lat="50.630730" lon="17.965091">
        <ele>164.402167</ele>
        <time>2026-07-13T19:33:42.734Z</time>
      </trkpt>
      <trkpt lat="50.630486" lon="17.965443">
        <ele>164.160785</ele>
        <time>2026-07-13T19:33:48.491Z</time>
      </trkpt>
      <trkpt lat="50.630386" lon="17.965532">
        <ele>164.076976</ele>
        <time>2026-07-13T19:33:50.465Z</time>
      </trkpt>
      <trkpt lat="50.630342" lon="17.965568">
        <ele>164.040797</ele>
        <time>2026-07-13T19:33:51.311Z</time>
      </trkpt>
      <trkpt lat="50.630222" lon="17.965741">
        <ele>163.922120</ele>
        <time>2026-07-13T19:33:54.096Z</time>
      </trkpt>
      <trkpt lat="50.629776" lon="17.966678">
        <ele>163.379797</ele>
        <time>2026-07-13T19:34:06.571Z</time>
      </trkpt>
      <trkpt lat="50.629205" lon="17.967487">
        <ele>162.807921</ele>
        <time>2026-07-13T19:34:19.431Z</time>
      </trkpt>
      <trkpt lat="50.628137" lon="17.969552">
        <ele>161.497800</ele>
        <time>2026-07-13T19:34:48.412Z</time>
      </trkpt>
      <trkpt lat="50.628001" lon="17.969813">
        <ele>161.318003</ele>
        <time>2026-07-13T19:34:52.305Z</time>
      </trkpt>
      <trkpt lat="50.627964" lon="17.970046">
        <ele>161.190146</ele>
        <time>2026-07-13T19:34:55.043Z</time>
      </trkpt>
      <trkpt lat="50.628001" lon="17.970539">
        <ele>160.925884</ele>
        <time>2026-07-13T19:35:00.682Z</time>
      </trkpt>
      <trkpt lat="50.628073" lon="17.971006">
        <ele>160.670057</ele>
        <time>2026-07-13T19:35:06.096Z</time>
      </trkpt>
      <trkpt lat="50.628536" lon="17.973126">
        <ele>159.350324</ele>
        <time>2026-07-13T19:35:30.807Z</time>
      </trkpt>
      <trkpt lat="50.628883" lon="17.974320">
        <ele>158.671109</ele>
        <time>2026-07-13T19:35:45.648Z</time>
      </trkpt>
      <trkpt lat="50.629129" lon="17.975331">
        <ele>158.620401</ele>
        <time>2026-07-13T19:35:58.543Z</time>
      </trkpt>
      <trkpt lat="50.629284" lon="17.976170">
        <ele>158.579478</ele>
        <time>2026-07-13T19:36:10.017Z</time>
      </trkpt>
      <trkpt lat="50.629325" lon="17.976685">
        <ele>158.555171</ele>
        <time>2026-07-13T19:36:17.369Z</time>
      </trkpt>
      <trkpt lat="50.629318" lon="17.976905">
        <ele>158.559298</ele>
        <time>2026-07-13T19:36:20.506Z</time>
      </trkpt>
      <trkpt lat="50.629230" lon="17.977543">
        <ele>158.667813</ele>
        <time>2026-07-13T19:36:29.679Z</time>
      </trkpt>
      <trkpt lat="50.629220" lon="17.977793">
        <ele>158.709447</ele>
        <time>2026-07-13T19:36:33.096Z</time>
      </trkpt>
      <trkpt lat="50.629084" lon="17.978288">
        <ele>158.799103</ele>
        <time>2026-07-13T19:36:40.297Z</time>
      </trkpt>
      <trkpt lat="50.628855" lon="17.978821">
        <ele>158.906096</ele>
        <time>2026-07-13T19:36:48.650Z</time>
      </trkpt>
      <trkpt lat="50.628477" lon="17.979401">
        <ele>159.037964</ele>
        <time>2026-07-13T19:36:59.303Z</time>
      </trkpt>
      <trkpt lat="50.628183" lon="17.980047">
        <ele>159.136605</ele>
        <time>2026-07-13T19:37:09.434Z</time>
      </trkpt>
      <trkpt lat="50.627864" lon="17.981041">
        <ele>159.274812</ele>
        <time>2026-07-13T19:37:24.291Z</time>
      </trkpt>
      <trkpt lat="50.627734" lon="17.981603">
        <ele>159.349029</ele>
        <time>2026-07-13T19:37:32.534Z</time>
      </trkpt>
      <trkpt lat="50.627528" lon="17.983619">
        <ele>159.601687</ele>
        <time>2026-07-13T19:37:59.350Z</time>
      </trkpt>
      <trkpt lat="50.627315" lon="17.984833">
        <ele>159.824866</ele>
        <time>2026-07-13T19:38:15.502Z</time>
      </trkpt>
      <trkpt lat="50.627147" lon="17.985516">
        <ele>160.086552</ele>
        <time>2026-07-13T19:38:25.452Z</time>
      </trkpt>
      <trkpt lat="50.626886" lon="17.986300">
        <ele>160.402842</ele>
        <time>2026-07-13T19:38:38.005Z</time>
      </trkpt>
      <trkpt lat="50.626655" lon="17.986878">
        <ele>160.646881</ele>
        <time>2026-07-13T19:38:48.065Z</time>
      </trkpt>
      <trkpt lat="50.626508" lon="17.987176">
        <ele>160.804713</ele>
        <time>2026-07-13T19:38:53.808Z</time>
      </trkpt>
      <trkpt lat="50.626272" lon="17.987949">
        <ele>161.260818</ele>
        <time>2026-07-13T19:39:07.507Z</time>
      </trkpt>
      <trkpt lat="50.626064" lon="17.988463">
        <ele>161.584968</ele>
        <time>2026-07-13T19:39:17.113Z</time>
      </trkpt>
      <trkpt lat="50.625733" lon="17.989216">
        <ele>162.072045</ele>
        <time>2026-07-13T19:39:29.527Z</time>
      </trkpt>
      <trkpt lat="50.624735" lon="17.991433">
        <ele>162.218340</ele>
        <time>2026-07-13T19:40:00.400Z</time>
      </trkpt>
      <trkpt lat="50.624636" lon="17.991655">
        <ele>162.215648</ele>
        <time>2026-07-13T19:40:03.026Z</time>
      </trkpt>
      <trkpt lat="50.624421" lon="17.992266">
        <ele>161.944772</ele>
        <time>2026-07-13T19:40:09.588Z</time>
      </trkpt>
      <trkpt lat="50.624192" lon="17.992951">
        <ele>161.553923</ele>
        <time>2026-07-13T19:40:16.774Z</time>
      </trkpt>
      <trkpt lat="50.624015" lon="17.993472">
        <ele>161.255593</ele>
        <time>2026-07-13T19:40:22.290Z</time>
      </trkpt>
      <trkpt lat="50.624017" lon="17.993658">
        <ele>161.161688</ele>
        <time>2026-07-13T19:40:24.052Z</time>
      </trkpt>
      <trkpt lat="50.622983" lon="17.993906">
        <ele>160.758350</ele>
        <time>2026-07-13T19:40:40.679Z</time>
      </trkpt>
      <trkpt lat="50.622291" lon="17.994072">
        <ele>160.728250</ele>
        <time>2026-07-13T19:40:53.384Z</time>
      </trkpt>
      <trkpt lat="50.622329" lon="17.994357">
        <ele>160.720304</ele>
        <time>2026-07-13T19:40:56.820Z</time>
      </trkpt>
      <trkpt lat="50.622472" lon="17.996183">
        <ele>160.551568</ele>
        <time>2026-07-13T19:41:17.409Z</time>
      </trkpt>
      <trkpt lat="50.622422" lon="17.996464">
        <ele>160.516942</ele>
        <time>2026-07-13T19:41:20.438Z</time>
      </trkpt>
      <trkpt lat="50.622237" lon="17.996828">
        <ele>160.461605</ele>
        <time>2026-07-13T19:41:25.221Z</time>
      </trkpt>
      <trkpt lat="50.621967" lon="17.997145">
        <ele>160.398643</ele>
        <time>2026-07-13T19:41:30.624Z</time>
      </trkpt>
      <trkpt lat="50.621524" lon="17.997773">
        <ele>160.094176</ele>
        <time>2026-07-13T19:41:39.859Z</time>
      </trkpt>
      <trkpt lat="50.621332" lon="17.998074">
        <ele>159.924188</ele>
        <time>2026-07-13T19:41:44.013Z</time>
      </trkpt>
      <trkpt lat="50.621190" lon="17.998426">
        <ele>159.758063</ele>
        <time>2026-07-13T19:41:48.118Z</time>
      </trkpt>
      <trkpt lat="50.620927" lon="17.999377">
        <ele>159.344903</ele>
        <time>2026-07-13T19:41:58.245Z</time>
      </trkpt>
      <trkpt lat="50.620886" lon="17.999629">
        <ele>159.241295</ele>
        <time>2026-07-13T19:42:00.804Z</time>
      </trkpt>
      <trkpt lat="50.620900" lon="17.999853">
        <ele>159.228824</ele>
        <time>2026-07-13T19:42:03.027Z</time>
      </trkpt>
      <trkpt lat="50.621106" lon="18.000815">
        <ele>159.177342</ele>
        <time>2026-07-13T19:42:13.360Z</time>
      </trkpt>
      <trkpt lat="50.621349" lon="18.001868">
        <ele>159.120527</ele>
        <time>2026-07-13T19:42:26.203Z</time>
      </trkpt>
      <trkpt lat="50.621405" lon="18.002107">
        <ele>159.107608</ele>
        <time>2026-07-13T19:42:29.193Z</time>
      </trkpt>
      <trkpt lat="50.621554" lon="18.002754">
        <ele>159.147339</ele>
        <time>2026-07-13T19:42:37.443Z</time>
      </trkpt>
      <trkpt lat="50.621640" lon="18.003157">
        <ele>159.193882</ele>
        <time>2026-07-13T19:42:42.531Z</time>
      </trkpt>
      <trkpt lat="50.621789" lon="18.003848">
        <ele>159.273771</ele>
        <time>2026-07-13T19:42:51.071Z</time>
      </trkpt>
      <trkpt lat="50.621841" lon="18.004084">
        <ele>159.301118</ele>
        <time>2026-07-13T19:42:53.893Z</time>
      </trkpt>
      <trkpt lat="50.622036" lon="18.004957">
        <ele>159.402429</ele>
        <time>2026-07-13T19:43:03.819Z</time>
      </trkpt>
      <trkpt lat="50.622186" lon="18.005630">
        <ele>159.337179</ele>
        <time>2026-07-13T19:43:11.368Z</time>
      </trkpt>
      <trkpt lat="50.622659" lon="18.007737">
        <ele>159.113274</ele>
        <time>2026-07-13T19:43:34.836Z</time>
      </trkpt>
      <trkpt lat="50.622772" lon="18.008234">
        <ele>159.103540</ele>
        <time>2026-07-13T19:43:40.372Z</time>
      </trkpt>
      <trkpt lat="50.623079" lon="18.009226">
        <ele>159.083191</ele>
        <time>2026-07-13T19:43:52.279Z</time>
      </trkpt>
      <trkpt lat="50.623585" lon="18.010562">
        <ele>158.990042</ele>
        <time>2026-07-13T19:44:09.647Z</time>
      </trkpt>
      <trkpt lat="50.623964" lon="18.011620">
        <ele>158.784274</ele>
        <time>2026-07-13T19:44:23.109Z</time>
      </trkpt>
      <trkpt lat="50.624406" lon="18.012855">
        <ele>158.445844</ele>
        <time>2026-07-13T19:44:37.191Z</time>
      </trkpt>
      <trkpt lat="50.625044" lon="18.014812">
        <ele>157.111860</ele>
        <time>2026-07-13T19:44:57.689Z</time>
      </trkpt>
      <trkpt lat="50.623644" lon="18.014829">
        <ele>156.123719</ele>
        <time>2026-07-13T19:45:39.376Z</time>
      </trkpt>
      <trkpt lat="50.621931" lon="18.014849">
        <ele>155.475263</ele>
        <time>2026-07-13T19:46:31.671Z</time>
      </trkpt>
      <trkpt lat="50.622021" lon="18.021987">
        <ele>156.606238</ele>
        <time>2026-07-13T19:48:58.495Z</time>
      </trkpt>
      <trkpt lat="50.622033" lon="18.023112">
        <ele>158.209137</ele>
        <time>2026-07-13T19:49:28.919Z</time>
      </trkpt>
      <trkpt lat="50.622072" lon="18.026938">
        <ele>163.206006</ele>
        <time>2026-07-13T19:51:18.095Z</time>
      </trkpt>
      <trkpt lat="50.617513" lon="18.027065">
        <ele>158.091607</ele>
        <time>2026-07-13T19:53:25.234Z</time>
      </trkpt>
      <trkpt lat="50.613045" lon="18.027195">
        <ele>158.263836</ele>
        <time>2026-07-13T19:55:54.930Z</time>
      </trkpt>
      <trkpt lat="50.611908" lon="18.027207">
        <ele>157.997559</ele>
        <time>2026-07-13T19:56:28.887Z</time>
      </trkpt>
      <trkpt lat="50.611568" lon="18.027211">
        <ele>157.882959</ele>
        <time>2026-07-13T19:56:39.074Z</time>
      </trkpt>
      <trkpt lat="50.605588" lon="18.027360">
        <ele>159.312155</ele>
        <time>2026-07-13T19:59:56.536Z</time>
      </trkpt>
      <trkpt lat="50.605612" lon="18.032966">
        <ele>161.990571</ele>
        <time>2026-07-13T20:02:08.628Z</time>
      </trkpt>
      <trkpt lat="50.605644" lon="18.038282">
        <ele>165.515753</ele>
        <time>2026-07-13T20:04:13.625Z</time>
      </trkpt>
      <trkpt lat="50.605684" lon="18.043562">
        <ele>166.316829</ele>
        <time>2026-07-13T20:06:03.588Z</time>
      </trkpt>
      <trkpt lat="50.605714" lon="18.049000">
        <ele>165.627930</ele>
        <time>2026-07-13T20:07:48.576Z</time>
      </trkpt>
      <trkpt lat="50.605720" lon="18.051551">
        <ele>167.026983</ele>
        <time>2026-07-13T20:08:48.734Z</time>
      </trkpt>
      <trkpt lat="50.605721" lon="18.052456">
        <ele>167.788792</ele>
        <time>2026-07-13T20:09:11.538Z</time>
      </trkpt>
      <trkpt lat="50.605739" lon="18.054366">
        <ele>168.893430</ele>
        <time>2026-07-13T20:09:42.217Z</time>
      </trkpt>
      <trkpt lat="50.605756" lon="18.057836">
        <ele>170.120063</ele>
        <time>2026-07-13T20:10:28.746Z</time>
      </trkpt>
      <trkpt lat="50.605771" lon="18.059781">
        <ele>170.371018</ele>
        <time>2026-07-13T20:10:56.849Z</time>
      </trkpt>
      <trkpt lat="50.605802" lon="18.064449">
        <ele>169.832920</ele>
        <time>2026-07-13T20:12:28.365Z</time>
      </trkpt>
      <trkpt lat="50.605852" lon="18.064704">
        <ele>169.806767</ele>
        <time>2026-07-13T20:12:33.495Z</time>
      </trkpt>
      <trkpt lat="50.605937" lon="18.064951">
        <ele>169.779235</ele>
        <time>2026-07-13T20:12:38.944Z</time>
      </trkpt>
      <trkpt lat="50.605418" lon="18.064995">
        <ele>169.698986</ele>
        <time>2026-07-13T20:12:55.080Z</time>
      </trkpt>
      <trkpt lat="50.604353" lon="18.065184">
        <ele>169.651914</ele>
        <time>2026-07-13T20:13:29.417Z</time>
      </trkpt>
      <trkpt lat="50.598945" lon="18.065218">
        <ele>171.013292</ele>
        <time>2026-07-13T20:16:26.429Z</time>
      </trkpt>
      <trkpt lat="50.592054" lon="18.065351">
        <ele>175.955031</ele>
        <time>2026-07-13T20:20:29.088Z</time>
      </trkpt>
      <trkpt lat="50.592057" lon="18.065776">
        <ele>176.086454</ele>
        <time>2026-07-13T20:20:38.506Z</time>
      </trkpt>
      <trkpt lat="50.592089" lon="18.070759">
        <ele>177.064129</ele>
        <time>2026-07-13T20:22:24.810Z</time>
      </trkpt>
      <trkpt lat="50.592121" lon="18.076176">
        <ele>174.323712</ele>
        <time>2026-07-13T20:24:03.981Z</time>
      </trkpt>
      <trkpt lat="50.592142" lon="18.081510">
        <ele>178.446664</ele>
        <time>2026-07-13T20:26:16.316Z</time>
      </trkpt>
      <trkpt lat="50.592187" lon="18.086903">
        <ele>180.113603</ele>
        <time>2026-07-13T20:28:12.265Z</time>
      </trkpt>
      <trkpt lat="50.592216" lon="18.089816">
        <ele>180.280015</ele>
        <time>2026-07-13T20:29:08.893Z</time>
      </trkpt>
      <trkpt lat="50.592215" lon="18.089900">
        <ele>180.283747</ele>
        <time>2026-07-13T20:29:10.661Z</time>
      </trkpt>
      <trkpt lat="50.593267" lon="18.090708">
        <ele>180.802885</ele>
        <time>2026-07-13T20:29:53.267Z</time>
      </trkpt>
      <trkpt lat="50.593906" lon="18.091154">
        <ele>181.356311</ele>
        <time>2026-07-13T20:30:18.844Z</time>
      </trkpt>
      <trkpt lat="50.594154" lon="18.091400">
        <ele>181.588376</ele>
        <time>2026-07-13T20:30:28.932Z</time>
      </trkpt>
      <trkpt lat="50.594393" lon="18.091536">
        <ele>181.717178</ele>
        <time>2026-07-13T20:30:37.378Z</time>
      </trkpt>
      <trkpt lat="50.594716" lon="18.091628">
        <ele>181.530043</ele>
        <time>2026-07-13T20:30:47.788Z</time>
      </trkpt>
      <trkpt lat="50.594853" lon="18.091731">
        <ele>181.443497</ele>
        <time>2026-07-13T20:30:50.679Z</time>
      </trkpt>
      <trkpt lat="50.594948" lon="18.091802">
        <ele>181.383549</ele>
        <time>2026-07-13T20:30:52.666Z</time>
      </trkpt>
      <trkpt lat="50.595021" lon="18.091910">
        <ele>181.326454</ele>
        <time>2026-07-13T20:30:54.528Z</time>
      </trkpt>
      <trkpt lat="50.595079" lon="18.091787">
        <ele>181.271001</ele>
        <time>2026-07-13T20:30:57.412Z</time>
      </trkpt>
      <trkpt lat="50.595127" lon="18.091694">
        <ele>181.227622</ele>
        <time>2026-07-13T20:30:59.697Z</time>
      </trkpt>
      <trkpt lat="50.595168" lon="18.091612">
        <ele>181.189845</ele>
        <time>2026-07-13T20:31:01.670Z</time>
      </trkpt>
      <trkpt lat="50.595073" lon="18.091521">
        <ele>181.126457</ele>
        <time>2026-07-13T20:31:03.693Z</time>
      </trkpt>
      <trkpt lat="50.595168" lon="18.091612">
        <ele>181.063068</ele>
        <time>2026-07-13T20:31:11.422Z</time>
      </trkpt>
      <trkpt lat="50.595367" lon="18.091627">
        <ele>180.949485</ele>
        <time>2026-07-13T20:31:17.259Z</time>
      </trkpt>
      <trkpt lat="50.595469" lon="18.091569">
        <ele>180.887660</ele>
        <time>2026-07-13T20:31:20.427Z</time>
      </trkpt>
      <trkpt lat="50.595513" lon="18.091663">
        <ele>180.845392</ele>
        <time>2026-07-13T20:31:22.599Z</time>
      </trkpt>
      <trkpt lat="50.595582" lon="18.091769">
        <ele>180.790445</ele>
        <time>2026-07-13T20:31:25.395Z</time>
      </trkpt>
      <trkpt lat="50.595641" lon="18.091876">
        <ele>180.739152</ele>
        <time>2026-07-13T20:31:27.962Z</time>
      </trkpt>
      <trkpt lat="50.595617" lon="18.091964">
        <ele>180.689409</ele>
        <time>2026-07-13T20:31:28.845Z</time>
      </trkpt>
      <trkpt lat="50.595635" lon="18.092195">
        <ele>180.532844</ele>
        <time>2026-07-13T20:31:30.956Z</time>
      </trkpt>
      <trkpt lat="50.595589" lon="18.092279">
        <ele>180.458213</ele>
        <time>2026-07-13T20:31:31.966Z</time>
      </trkpt>
      <trkpt lat="50.595551" lon="18.092363">
        <ele>180.388823</ele>
        <time>2026-07-13T20:31:32.919Z</time>
      </trkpt>
      <trkpt lat="50.595509" lon="18.092433">
        <ele>180.324027</ele>
        <time>2026-07-13T20:31:33.786Z</time>
      </trkpt>
      <trkpt lat="50.595687" lon="18.092606">
        <ele>180.102377</ele>
        <time>2026-07-13T20:31:36.770Z</time>
      </trkpt>
      <trkpt lat="50.595801" lon="18.092603">
        <ele>179.981548</ele>
        <time>2026-07-13T20:31:38.399Z</time>
      </trkpt>
      <trkpt lat="50.595841" lon="18.092547">
        <ele>179.924837</ele>
        <time>2026-07-13T20:31:39.171Z</time>
      </trkpt>
      <trkpt lat="50.596215" lon="18.092659">
        <ele>179.521391</ele>
        <time>2026-07-13T20:31:44.644Z</time>
      </trkpt>
      <trkpt lat="50.597693" lon="18.093708">
        <ele>178.489627</ele>
        <time>2026-07-13T20:32:09.513Z</time>
      </trkpt>
      <trkpt lat="50.598016" lon="18.093991">
        <ele>178.363398</ele>
        <time>2026-07-13T20:32:16.027Z</time>
      </trkpt>
      <trkpt lat="50.598163" lon="18.094194">
        <ele>178.296634</ele>
        <time>2026-07-13T20:32:19.545Z</time>
      </trkpt>
      <trkpt lat="50.598326" lon="18.094491">
        <ele>178.211518</ele>
        <time>2026-07-13T20:32:24.095Z</time>
      </trkpt>
      <trkpt lat="50.598524" lon="18.094907">
        <ele>178.170919</ele>
        <time>2026-07-13T20:32:30.113Z</time>
      </trkpt>
      <trkpt lat="50.598623" lon="18.095234">
        <ele>178.147467</ele>
        <time>2026-07-13T20:32:34.236Z</time>
      </trkpt>
      <trkpt lat="50.598820" lon="18.096066">
        <ele>178.089984</ele>
        <time>2026-07-13T20:32:43.839Z</time>
      </trkpt>
      <trkpt lat="50.598939" lon="18.097074">
        <ele>178.023615</ele>
        <time>2026-07-13T20:32:54.354Z</time>
      </trkpt>
      <trkpt lat="50.599563" lon="18.104402">
        <ele>175.251023</ele>
        <time>2026-07-13T20:34:08.139Z</time>
      </trkpt>
      <trkpt lat="50.599580" lon="18.105293">
        <ele>174.802445</ele>
        <time>2026-07-13T20:34:16.426Z</time>
      </trkpt>
      <trkpt lat="50.599573" lon="18.109388">
        <ele>172.501721</ele>
        <time>2026-07-13T20:34:55.129Z</time>
      </trkpt>
      <trkpt lat="50.599621" lon="18.110085">
        <ele>172.215904</ele>
        <time>2026-07-13T20:35:02.089Z</time>
      </trkpt>
      <trkpt lat="50.599694" lon="18.110554">
        <ele>172.019039</ele>
        <time>2026-07-13T20:35:06.956Z</time>
      </trkpt>
      <trkpt lat="50.599503" lon="18.110633">
        <ele>171.892207</ele>
        <time>2026-07-13T20:35:12.991Z</time>
      </trkpt>
      <trkpt lat="50.598959" lon="18.110686">
        <ele>171.704287</ele>
        <time>2026-07-13T20:35:29.928Z</time>
      </trkpt>
      <trkpt lat="50.597293" lon="18.113346">
        <ele>171.648967</ele>
        <time>2026-07-13T20:36:49.478Z</time>
      </trkpt>
      <trkpt lat="50.594551" lon="18.117592">
        <ele>172.242516</ele>
        <time>2026-07-13T20:39:02.305Z</time>
      </trkpt>
      <trkpt lat="50.594431" lon="18.117715">
        <ele>172.273983</ele>
        <time>2026-07-13T20:39:07.244Z</time>
      </trkpt>
      <trkpt lat="50.594091" lon="18.117749">
        <ele>172.348862</ele>
        <time>2026-07-13T20:39:19.089Z</time>
      </trkpt>
      <trkpt lat="50.592605" lon="18.118091">
        <ele>172.722079</ele>
        <time>2026-07-13T20:40:11.677Z</time>
      </trkpt>
      <trkpt lat="50.592329" lon="18.118186">
        <ele>172.793450</ele>
        <time>2026-07-13T20:40:21.460Z</time>
      </trkpt>
      <trkpt lat="50.592186" lon="18.118427">
        <ele>172.845579</ele>
        <time>2026-07-13T20:40:28.653Z</time>
      </trkpt>
      <trkpt lat="50.591896" lon="18.119107">
        <ele>172.919418</ele>
        <time>2026-07-13T20:40:46.412Z</time>
      </trkpt>
      <trkpt lat="50.591601" lon="18.120217">
        <ele>173.027884</ele>
        <time>2026-07-13T20:41:12.352Z</time>
      </trkpt>
      <trkpt lat="50.591538" lon="18.120358">
        <ele>173.043426</ele>
        <time>2026-07-13T20:41:16.097Z</time>
      </trkpt>
      <trkpt lat="50.591406" lon="18.120580">
        <ele>173.070843</ele>
        <time>2026-07-13T20:41:22.778Z</time>
      </trkpt>
      <trkpt lat="50.591108" lon="18.120965">
        <ele>173.123518</ele>
        <time>2026-07-13T20:41:36.187Z</time>
      </trkpt>
      <trkpt lat="50.590649" lon="18.121464">
        <ele>173.196370</ele>
        <time>2026-07-13T20:41:55.947Z</time>
      </trkpt>
      <trkpt lat="50.590588" lon="18.121608">
        <ele>173.210726</ele>
        <time>2026-07-13T20:41:59.811Z</time>
      </trkpt>
      <trkpt lat="50.590468" lon="18.121946">
        <ele>173.242842</ele>
        <time>2026-07-13T20:42:04.959Z</time>
      </trkpt>
      <trkpt lat="50.590125" lon="18.122304">
        <ele>173.296591</ele>
        <time>2026-07-13T20:42:13.218Z</time>
      </trkpt>
      <trkpt lat="50.590074" lon="18.122404">
        <ele>173.307229</ele>
        <time>2026-07-13T20:42:14.837Z</time>
      </trkpt>
      <trkpt lat="50.590089" lon="18.122417">
        <ele>173.309465</ele>
        <time>2026-07-13T20:42:15.119Z</time>
      </trkpt>
      <trkpt lat="50.590427" lon="18.122668">
        <ele>173.299438</ele>
        <time>2026-07-13T20:42:21.314Z</time>
      </trkpt>
      <trkpt lat="50.590532" lon="18.122722">
        <ele>173.277529</ele>
        <time>2026-07-13T20:42:23.123Z</time>
      </trkpt>
      <trkpt lat="50.590623" lon="18.122765">
        <ele>173.258685</ele>
        <time>2026-07-13T20:42:24.671Z</time>
      </trkpt>
      <trkpt lat="50.590862" lon="18.122906">
        <ele>173.208062</ele>
        <time>2026-07-13T20:42:28.800Z</time>
      </trkpt>
      <trkpt lat="50.591348" lon="18.123380">
        <ele>173.094680</ele>
        <time>2026-07-13T20:42:38.000Z</time>
      </trkpt>
      <trkpt lat="50.591548" lon="18.123667">
        <ele>173.041016</ele>
        <time>2026-07-13T20:42:42.434Z</time>
      </trkpt>
      <trkpt lat="50.592248" lon="18.124892">
        <ele>173.264505</ele>
        <time>2026-07-13T20:43:00.838Z</time>
      </trkpt>
      <trkpt lat="50.592332" lon="18.125090">
        <ele>173.323860</ele>
        <time>2026-07-13T20:43:03.769Z</time>
      </trkpt>
      <trkpt lat="50.592459" lon="18.125666">
        <ele>173.475833</ele>
        <time>2026-07-13T20:43:11.414Z</time>
      </trkpt>
      <trkpt lat="50.592532" lon="18.126586">
        <ele>173.708578</ele>
        <time>2026-07-13T20:43:23.285Z</time>
      </trkpt>
      <trkpt lat="50.592576" lon="18.126736">
        <ele>173.752790</ele>
        <time>2026-07-13T20:43:25.411Z</time>
      </trkpt>
      <trkpt lat="50.592650" lon="18.126869">
        <ele>173.800110</ele>
        <time>2026-07-13T20:43:27.653Z</time>
      </trkpt>
      <trkpt lat="50.592864" lon="18.127081">
        <ele>173.906660</ele>
        <time>2026-07-13T20:43:32.721Z</time>
      </trkpt>
      <trkpt lat="50.593374" lon="18.127396">
        <ele>174.137545</ele>
        <time>2026-07-13T20:43:43.405Z</time>
      </trkpt>
      <trkpt lat="50.593526" lon="18.127524">
        <ele>174.210190</ele>
        <time>2026-07-13T20:43:46.602Z</time>
      </trkpt>
      <trkpt lat="50.593735" lon="18.127756">
        <ele>174.317952</ele>
        <time>2026-07-13T20:43:51.238Z</time>
      </trkpt>
      <trkpt lat="50.593967" lon="18.128087">
        <ele>174.436854</ele>
        <time>2026-07-13T20:43:56.758Z</time>
      </trkpt>
      <trkpt lat="50.594208" lon="18.128565">
        <ele>174.316179</ele>
        <time>2026-07-13T20:44:03.437Z</time>
      </trkpt>
      <trkpt lat="50.594451" lon="18.129264">
        <ele>174.158628</ele>
        <time>2026-07-13T20:44:11.782Z</time>
      </trkpt>
      <trkpt lat="50.594593" lon="18.129757">
        <ele>174.051603</ele>
        <time>2026-07-13T20:44:17.274Z</time>
      </trkpt>
      <trkpt lat="50.594667" lon="18.129929">
        <ele>174.010526</ele>
        <time>2026-07-13T20:44:19.348Z</time>
      </trkpt>
      <trkpt lat="50.594767" lon="18.130049">
        <ele>173.971378</ele>
        <time>2026-07-13T20:44:21.308Z</time>
      </trkpt>
      <trkpt lat="50.594876" lon="18.130102">
        <ele>173.935853</ele>
        <time>2026-07-13T20:44:23.077Z</time>
      </trkpt>
      <trkpt lat="50.595075" lon="18.130126">
        <ele>173.878532</ele>
        <time>2026-07-13T20:44:26.145Z</time>
      </trkpt>
      <trkpt lat="50.596048" lon="18.130133">
        <ele>173.746718</ele>
        <time>2026-07-13T20:44:41.150Z</time>
      </trkpt>
      <trkpt lat="50.596319" lon="18.130091">
        <ele>173.709828</ele>
        <time>2026-07-13T20:44:45.530Z</time>
      </trkpt>
      <trkpt lat="50.597387" lon="18.129780">
        <ele>174.752918</ele>
        <time>2026-07-13T20:45:08.208Z</time>
      </trkpt>
      <trkpt lat="50.598201" lon="18.129637">
        <ele>176.382017</ele>
        <time>2026-07-13T20:45:31.487Z</time>
      </trkpt>
      <trkpt lat="50.599247" lon="18.129197">
        <ele>178.056524</ele>
        <time>2026-07-13T20:46:03.417Z</time>
      </trkpt>
      <trkpt lat="50.599589" lon="18.129130">
        <ele>178.493181</ele>
        <time>2026-07-13T20:46:11.759Z</time>
      </trkpt>
      <trkpt lat="50.599714" lon="18.129118">
        <ele>178.651852</ele>
        <time>2026-07-13T20:46:14.519Z</time>
      </trkpt>
      <trkpt lat="50.600354" lon="18.131161">
        <ele>179.246713</ele>
        <time>2026-07-13T20:46:38.033Z</time>
      </trkpt>
      <trkpt lat="50.600513" lon="18.131579">
        <ele>179.148313</ele>
        <time>2026-07-13T20:46:42.820Z</time>
      </trkpt>
      <trkpt lat="50.600656" lon="18.131851">
        <ele>179.076996</ele>
        <time>2026-07-13T20:46:46.361Z</time>
      </trkpt>
      <trkpt lat="50.600992" lon="18.132295">
        <ele>178.937485</ele>
        <time>2026-07-13T20:46:53.518Z</time>
      </trkpt>
      <trkpt lat="50.601884" lon="18.133162">
        <ele>179.117018</ele>
        <time>2026-07-13T20:47:12.037Z</time>
      </trkpt>
      <trkpt lat="50.602338" lon="18.133619">
        <ele>179.221413</ele>
        <time>2026-07-13T20:47:22.309Z</time>
      </trkpt>
      <trkpt lat="50.602641" lon="18.133927">
        <ele>179.295257</ele>
        <time>2026-07-13T20:47:29.057Z</time>
      </trkpt>
      <trkpt lat="50.602779" lon="18.134113">
        <ele>179.337467</ele>
        <time>2026-07-13T20:47:32.403Z</time>
      </trkpt>
      <trkpt lat="50.604119" lon="18.136718">
        <ele>179.877678</ele>
        <time>2026-07-13T20:48:10.762Z</time>
      </trkpt>
      <trkpt lat="50.604306" lon="18.136967">
        <ele>179.952757</ele>
        <time>2026-07-13T20:48:15.189Z</time>
      </trkpt>
      <trkpt lat="50.604613" lon="18.137215">
        <ele>180.058551</ele>
        <time>2026-07-13T20:48:21.530Z</time>
      </trkpt>
      <trkpt lat="50.604937" lon="18.137345">
        <ele>180.161076</ele>
        <time>2026-07-13T20:48:27.743Z</time>
      </trkpt>
      <trkpt lat="50.607644" lon="18.137371">
        <ele>181.513039</ele>
        <time>2026-07-13T20:49:20.395Z</time>
      </trkpt>
      <trkpt lat="50.609652" lon="18.137377">
        <ele>182.567792</ele>
        <time>2026-07-13T20:49:59.629Z</time>
      </trkpt>
      <trkpt lat="50.614667" lon="18.137391">
        <ele>185.182273</ele>
        <time>2026-07-13T20:51:36.975Z</time>
      </trkpt>
      <trkpt lat="50.616231" lon="18.137386">
        <ele>186.699305</ele>
        <time>2026-07-13T20:52:07.601Z</time>
      </trkpt>
      <trkpt lat="50.616553" lon="18.137302">
        <ele>187.563800</ele>
        <time>2026-07-13T20:52:15.836Z</time>
      </trkpt>
      <trkpt lat="50.617800" lon="18.136674">
        <ele>191.010271</ele>
        <time>2026-07-13T20:52:58.321Z</time>
      </trkpt>
      <trkpt lat="50.617974" lon="18.136620">
        <ele>191.432513</ele>
        <time>2026-07-13T20:53:04.631Z</time>
      </trkpt>
      <trkpt lat="50.618251" lon="18.136617">
        <ele>192.092055</ele>
        <time>2026-07-13T20:53:13.900Z</time>
      </trkpt>
      <trkpt lat="50.618751" lon="18.136756">
        <ele>193.300913</ele>
        <time>2026-07-13T20:53:29.340Z</time>
      </trkpt>
      <trkpt lat="50.618915" lon="18.136771">
        <ele>193.692047</ele>
        <time>2026-07-13T20:53:33.841Z</time>
      </trkpt>
      <trkpt lat="50.619074" lon="18.136701">
        <ele>194.085111</ele>
        <time>2026-07-13T20:53:38.081Z</time>
      </trkpt>
      <trkpt lat="50.619428" lon="18.136408">
        <ele>195.037123</ele>
        <time>2026-07-13T20:53:47.095Z</time>
      </trkpt>
      <trkpt lat="50.619576" lon="18.136321">
        <ele>195.053590</ele>
        <time>2026-07-13T20:53:50.144Z</time>
      </trkpt>
      <trkpt lat="50.619585" lon="18.136218">
        <ele>195.026868</ele>
        <time>2026-07-13T20:53:51.348Z</time>
      </trkpt>
      <trkpt lat="50.619766" lon="18.135780">
        <ele>194.892530</ele>
        <time>2026-07-13T20:53:56.693Z</time>
      </trkpt>
      <trkpt lat="50.619948" lon="18.135316">
        <ele>194.752333</ele>
        <time>2026-07-13T20:54:02.050Z</time>
      </trkpt>
      <trkpt lat="50.620237" lon="18.134654">
        <ele>194.545814</ele>
        <time>2026-07-13T20:54:09.787Z</time>
      </trkpt>
      <trkpt lat="50.620725" lon="18.133645">
        <ele>193.994067</ele>
        <time>2026-07-13T20:54:21.856Z</time>
      </trkpt>
      <trkpt lat="50.620846" lon="18.133323">
        <ele>193.760117</ele>
        <time>2026-07-13T20:54:25.429Z</time>
      </trkpt>
      <trkpt lat="50.620951" lon="18.132952">
        <ele>193.506164</ele>
        <time>2026-07-13T20:54:29.305Z</time>
      </trkpt>
      <trkpt lat="50.621021" lon="18.132556">
        <ele>193.249184</ele>
        <time>2026-07-13T20:54:33.210Z</time>
      </trkpt>
      <trkpt lat="50.621045" lon="18.131982">
        <ele>192.889581</ele>
        <time>2026-07-13T20:54:38.666Z</time>
      </trkpt>
      <trkpt lat="50.620896" lon="18.129692">
        <ele>191.462399</ele>
        <time>2026-07-13T20:55:00.343Z</time>
      </trkpt>
      <trkpt lat="50.620837" lon="18.126292">
        <ele>189.426995</ele>
        <time>2026-07-13T20:55:32.801Z</time>
      </trkpt>
      <trkpt lat="50.620808" lon="18.125072">
        <ele>188.407369</ele>
        <time>2026-07-13T20:55:44.260Z</time>
      </trkpt>
      <trkpt lat="50.620796" lon="18.124610">
        <ele>187.961388</ele>
        <time>2026-07-13T20:55:48.415Z</time>
      </trkpt>
      <trkpt lat="50.620775" lon="18.123568">
        <ele>186.955852</ele>
        <time>2026-07-13T20:55:57.570Z</time>
      </trkpt>
      <trkpt lat="50.620717" lon="18.123008">
        <ele>186.417111</ele>
        <time>2026-07-13T20:56:02.469Z</time>
      </trkpt>
      <trkpt lat="50.620511" lon="18.122308">
        <ele>185.853681</ele>
        <time>2026-07-13T20:56:09.245Z</time>
      </trkpt>
      <trkpt lat="50.620180" lon="18.121444">
        <ele>185.116714</ele>
        <time>2026-07-13T20:56:18.592Z</time>
      </trkpt>
      <trkpt lat="50.619897" lon="18.120688">
        <ele>184.475774</ele>
        <time>2026-07-13T20:56:27.228Z</time>
      </trkpt>
      <trkpt lat="50.619802" lon="18.120234">
        <ele>184.288767</ele>
        <time>2026-07-13T20:56:32.048Z</time>
      </trkpt>
      <trkpt lat="50.619617" lon="18.116546">
        <ele>183.510040</ele>
        <time>2026-07-13T20:57:10.044Z</time>
      </trkpt>
      <trkpt lat="50.619589" lon="18.116123">
        <ele>183.456356</ele>
        <time>2026-07-13T20:57:14.696Z</time>
      </trkpt>
      <trkpt lat="50.619482" lon="18.115248">
        <ele>183.343875</ele>
        <time>2026-07-13T20:57:24.446Z</time>
      </trkpt>
      <trkpt lat="50.619317" lon="18.114457">
        <ele>183.020605</ele>
        <time>2026-07-13T20:57:33.197Z</time>
      </trkpt>
      <trkpt lat="50.619160" lon="18.113899">
        <ele>182.685992</ele>
        <time>2026-07-13T20:57:39.288Z</time>
      </trkpt>
      <trkpt lat="50.619044" lon="18.113550">
        <ele>182.470014</ele>
        <time>2026-07-13T20:57:43.075Z</time>
      </trkpt>
      <trkpt lat="50.618428" lon="18.112018">
        <ele>181.420056</ele>
        <time>2026-07-13T20:57:59.542Z</time>
      </trkpt>
      <trkpt lat="50.618379" lon="18.111830">
        <ele>181.286015</ele>
        <time>2026-07-13T20:58:01.341Z</time>
      </trkpt>
      <trkpt lat="50.618105" lon="18.110200">
        <ele>180.173925</ele>
        <time>2026-07-13T20:58:17.102Z</time>
      </trkpt>
      <trkpt lat="50.619218" lon="18.109967">
        <ele>179.416665</ele>
        <time>2026-07-13T20:58:51.628Z</time>
      </trkpt>
      <trkpt lat="50.619839" lon="18.109910">
        <ele>179.073401</ele>
        <time>2026-07-13T20:59:10.686Z</time>
      </trkpt>
      <trkpt lat="50.620091" lon="18.109824">
        <ele>178.931118</ele>
        <time>2026-07-13T20:59:18.347Z</time>
      </trkpt>
      <trkpt lat="50.620610" lon="18.109526">
        <ele>178.207788</ele>
        <time>2026-07-13T20:59:34.377Z</time>
      </trkpt>
      <trkpt lat="50.622470" lon="18.108169">
        <ele>175.423109</ele>
        <time>2026-07-13T21:00:31.854Z</time>
      </trkpt>
      <trkpt lat="50.623385" lon="18.107550">
        <ele>174.208691</ele>
        <time>2026-07-13T21:01:00.743Z</time>
      </trkpt>
      <trkpt lat="50.624144" lon="18.107011">
        <ele>173.911182</ele>
        <time>2026-07-13T21:01:26.285Z</time>
      </trkpt>
      <trkpt lat="50.624333" lon="18.106831">
        <ele>173.851940</ele>
        <time>2026-07-13T21:01:33.347Z</time>
      </trkpt>
      <trkpt lat="50.624477" lon="18.106612">
        <ele>173.798257</ele>
        <time>2026-07-13T21:01:39.918Z</time>
      </trkpt>
      <trkpt lat="50.624719" lon="18.105988">
        <ele>173.673779</ele>
        <time>2026-07-13T21:01:54.801Z</time>
      </trkpt>
      <trkpt lat="50.625024" lon="18.105093">
        <ele>173.280028</ele>
        <time>2026-07-13T21:02:14.565Z</time>
      </trkpt>
      <trkpt lat="50.625230" lon="18.104565">
        <ele>172.995579</ele>
        <time>2026-07-13T21:02:26.295Z</time>
      </trkpt>
      <trkpt lat="50.625328" lon="18.104396">
        <ele>172.890509</ele>
        <time>2026-07-13T21:02:30.589Z</time>
      </trkpt>
      <trkpt lat="50.625534" lon="18.104149">
        <ele>172.703288</ele>
        <time>2026-07-13T21:02:38.172Z</time>
      </trkpt>
      <trkpt lat="50.625929" lon="18.103771">
        <ele>172.369031</ele>
        <time>2026-07-13T21:02:51.594Z</time>
      </trkpt>
      <trkpt lat="50.626274" lon="18.103548">
        <ele>172.010804</ele>
        <time>2026-07-13T21:03:02.443Z</time>
      </trkpt>
      <trkpt lat="50.626901" lon="18.103301">
        <ele>171.363956</ele>
        <time>2026-07-13T21:03:21.381Z</time>
      </trkpt>
      <trkpt lat="50.627321" lon="18.103267">
        <ele>170.943035</ele>
        <time>2026-07-13T21:03:33.759Z</time>
      </trkpt>
      <trkpt lat="50.626912" lon="18.100874">
        <ele>169.405657</ele>
        <time>2026-07-13T21:04:19.649Z</time>
      </trkpt>
      <trkpt lat="50.626902" lon="18.100745">
        <ele>169.325715</ele>
        <time>2026-07-13T21:04:22.057Z</time>
      </trkpt>
      <trkpt lat="50.626980" lon="18.099862">
        <ele>168.782519</ele>
        <time>2026-07-13T21:04:38.731Z</time>
      </trkpt>
      <trkpt lat="50.626885" lon="18.099015">
        <ele>168.582980</ele>
        <time>2026-07-13T21:04:55.100Z</time>
      </trkpt>
      <trkpt lat="50.626890" lon="18.098870">
        <ele>168.549293</ele>
        <time>2026-07-13T21:04:57.888Z</time>
      </trkpt>
      <trkpt lat="50.627089" lon="18.097899">
        <ele>168.312572</ele>
        <time>2026-07-13T21:05:17.770Z</time>
      </trkpt>
      <trkpt lat="50.627081" lon="18.096617">
        <ele>168.100531</ele>
        <time>2026-07-13T21:05:43.672Z</time>
      </trkpt>
      <trkpt lat="50.627101" lon="18.095566">
        <ele>168.041290</ele>
        <time>2026-07-13T21:06:05.330Z</time>
      </trkpt>
      <trkpt lat="50.627219" lon="18.095196">
        <ele>168.017958</ele>
        <time>2026-07-13T21:06:13.625Z</time>
      </trkpt>
      <trkpt lat="50.627365" lon="18.094844">
        <ele>167.994263</ele>
        <time>2026-07-13T21:06:21.968Z</time>
      </trkpt>
      <trkpt lat="50.627368" lon="18.094656">
        <ele>167.983667</ele>
        <time>2026-07-13T21:06:24.249Z</time>
      </trkpt>
      <trkpt lat="50.627263" lon="18.093592">
        <ele>167.725317</ele>
        <time>2026-07-13T21:06:36.886Z</time>
      </trkpt>
      <trkpt lat="50.627227" lon="18.093441">
        <ele>167.676454</ele>
        <time>2026-07-13T21:06:38.729Z</time>
      </trkpt>
      <trkpt lat="50.626887" lon="18.092500">
        <ele>167.348427</ele>
        <time>2026-07-13T21:06:51.127Z</time>
      </trkpt>
      <trkpt lat="50.626858" lon="18.092317">
        <ele>167.291291</ele>
        <time>2026-07-13T21:06:53.321Z</time>
      </trkpt>
      <trkpt lat="50.626870" lon="18.092208">
        <ele>167.257781</ele>
        <time>2026-07-13T21:06:54.628Z</time>
      </trkpt>
      <trkpt lat="50.629163" lon="18.086634">
        <ele>166.641559</ele>
        <time>2026-07-13T21:08:17.108Z</time>
      </trkpt>
      <trkpt lat="50.629194" lon="18.086387">
        <ele>166.638236</ele>
        <time>2026-07-13T21:08:20.232Z</time>
      </trkpt>
      <trkpt lat="50.629238" lon="18.084901">
        <ele>166.618603</ele>
        <time>2026-07-13T21:08:38.945Z</time>
      </trkpt>
      <trkpt lat="50.629599" lon="18.084193">
        <ele>166.634736</ele>
        <time>2026-07-13T21:08:50.386Z</time>
      </trkpt>
      <trkpt lat="50.629657" lon="18.084005">
        <ele>166.651915</ele>
        <time>2026-07-13T21:08:53.008Z</time>
      </trkpt>
      <trkpt lat="50.629610" lon="18.082605">
        <ele>166.767115</ele>
        <time>2026-07-13T21:09:10.870Z</time>
      </trkpt>
      <trkpt lat="50.629514" lon="18.081940">
        <ele>166.823156</ele>
        <time>2026-07-13T21:09:19.957Z</time>
      </trkpt>
      <trkpt lat="50.629476" lon="18.081454">
        <ele>166.849502</ele>
        <time>2026-07-13T21:09:26.566Z</time>
      </trkpt>
      <trkpt lat="50.629454" lon="18.081234">
        <ele>166.855023</ele>
        <time>2026-07-13T21:09:29.548Z</time>
      </trkpt>
      <trkpt lat="50.629444" lon="18.081128">
        <ele>166.857679</ele>
        <time>2026-07-13T21:09:30.994Z</time>
      </trkpt>
      <trkpt lat="50.629882" lon="18.080427">
        <ele>166.882069</ele>
        <time>2026-07-13T21:09:44.039Z</time>
      </trkpt>
      <trkpt lat="50.630076" lon="18.080196">
        <ele>166.891569</ele>
        <time>2026-07-13T21:09:49.027Z</time>
      </trkpt>
      <trkpt lat="50.632173" lon="18.078868">
        <ele>166.420439</ele>
        <time>2026-07-13T21:10:25.757Z</time>
      </trkpt>
      <trkpt lat="50.632566" lon="18.078711">
        <ele>166.326581</ele>
        <time>2026-07-13T21:10:32.395Z</time>
      </trkpt>
      <trkpt lat="50.634039" lon="18.078323">
        <ele>166.013209</ele>
        <time>2026-07-13T21:10:57.067Z</time>
      </trkpt>
      <trkpt lat="50.634244" lon="18.078290">
        <ele>166.030964</ele>
        <time>2026-07-13T21:11:00.515Z</time>
      </trkpt>
      <trkpt lat="50.634323" lon="18.078314">
        <ele>166.038750</ele>
        <time>2026-07-13T21:11:01.874Z</time>
      </trkpt>
      <trkpt lat="50.634389" lon="18.078268">
        <ele>166.045735</ele>
        <time>2026-07-13T21:11:04.154Z</time>
      </trkpt>
      <trkpt lat="50.634437" lon="18.078169">
        <ele>166.053384</ele>
        <time>2026-07-13T21:11:06.651Z</time>
      </trkpt>
      <trkpt lat="50.634511" lon="18.077830">
        <ele>166.075393</ele>
        <time>2026-07-13T21:11:13.856Z</time>
      </trkpt>
      <trkpt lat="50.634910" lon="18.075330">
        <ele>166.373241</ele>
        <time>2026-07-13T21:12:07.338Z</time>
      </trkpt>
      <trkpt lat="50.635009" lon="18.074542">
        <ele>166.566412</ele>
        <time>2026-07-13T21:12:24.488Z</time>
      </trkpt>
      <trkpt lat="50.635191" lon="18.072539">
        <ele>167.068239</ele>
        <time>2026-07-13T21:13:07.926Z</time>
      </trkpt>
      <trkpt lat="50.635152" lon="18.071299">
        <ele>167.391364</ele>
        <time>2026-07-13T21:13:34.238Z</time>
      </trkpt>
      <trkpt lat="50.636127" lon="18.068031">
        <ele>168.361247</ele>
        <time>2026-07-13T21:14:51.255Z</time>
      </trkpt>
      <trkpt lat="50.636249" lon="18.067624">
        <ele>168.510877</ele>
        <time>2026-07-13T21:15:01.048Z</time>
      </trkpt>
      <trkpt lat="50.636419" lon="18.067167">
        <ele>168.690879</ele>
        <time>2026-07-13T21:15:12.574Z</time>
      </trkpt>
      <trkpt lat="50.637065" lon="18.065688">
        <ele>169.301000</ele>
        <time>2026-07-13T21:15:52.233Z</time>
      </trkpt>
      <trkpt lat="50.637106" lon="18.065461">
        <ele>169.349077</ele>
        <time>2026-07-13T21:15:57.163Z</time>
      </trkpt>
      <trkpt lat="50.637071" lon="18.064999">
        <ele>169.390113</ele>
        <time>2026-07-13T21:16:06.664Z</time>
      </trkpt>
      <trkpt lat="50.638335" lon="18.064985">
        <ele>169.565887</ele>
        <time>2026-07-13T21:16:32.347Z</time>
      </trkpt>
      <trkpt lat="50.638608" lon="18.065305">
        <ele>169.560350</ele>
        <time>2026-07-13T21:16:43.166Z</time>
      </trkpt>
      <trkpt lat="50.639030" lon="18.065613">
        <ele>169.489720</ele>
        <time>2026-07-13T21:16:57.941Z</time>
      </trkpt>
      <trkpt lat="50.639342" lon="18.065588">
        <ele>169.442271</ele>
        <time>2026-07-13T21:17:07.854Z</time>
      </trkpt>
      <trkpt lat="50.639749" lon="18.065613">
        <ele>169.380406</ele>
        <time>2026-07-13T21:17:20.563Z</time>
      </trkpt>
      <trkpt lat="50.639968" lon="18.065552">
        <ele>169.346629</ele>
        <time>2026-07-13T21:17:27.386Z</time>
      </trkpt>
      <trkpt lat="50.640210" lon="18.065441">
        <ele>169.312986</ele>
        <time>2026-07-13T21:17:35.036Z</time>
      </trkpt>
      <trkpt lat="50.640304" lon="18.065083">
        <ele>169.302716</ele>
        <time>2026-07-13T21:17:42.455Z</time>
      </trkpt>
      <trkpt lat="50.640439" lon="18.065021">
        <ele>169.296840</ele>
        <time>2026-07-13T21:17:46.714Z</time>
      </trkpt>
      <trkpt lat="50.640749" lon="18.064972">
        <ele>169.283819</ele>
        <time>2026-07-13T21:17:56.288Z</time>
      </trkpt>
      <trkpt lat="50.641078" lon="18.065009">
        <ele>169.270033</ele>
        <time>2026-07-13T21:18:06.593Z</time>
      </trkpt>
      <trkpt lat="50.641976" lon="18.064960">
        <ele>169.324719</ele>
        <time>2026-07-13T21:18:36.653Z</time>
      </trkpt>
      <trkpt lat="50.642963" lon="18.064960">
        <ele>169.819795</ele>
        <time>2026-07-13T21:19:10.529Z</time>
      </trkpt>
      <trkpt lat="50.643297" lon="18.064935">
        <ele>169.987517</ele>
        <time>2026-07-13T21:19:22.080Z</time>
      </trkpt>
      <trkpt lat="50.644087" lon="18.064960">
        <ele>170.338576</ele>
        <time>2026-07-13T21:19:48.873Z</time>
      </trkpt>
      <trkpt lat="50.645715" lon="18.064909">
        <ele>170.924213</ele>
        <time>2026-07-13T21:20:43.329Z</time>
      </trkpt>
      <trkpt lat="50.646048" lon="18.064898">
        <ele>170.976476</ele>
        <time>2026-07-13T21:20:54.272Z</time>
      </trkpt>
      <trkpt lat="50.646861" lon="18.064935">
        <ele>171.104098</ele>
        <time>2026-07-13T21:21:20.505Z</time>
      </trkpt>
      <trkpt lat="50.647447" lon="18.064861">
        <ele>171.102239</ele>
        <time>2026-07-13T21:21:39.084Z</time>
      </trkpt>
      <trkpt lat="50.648557" lon="18.064886">
        <ele>170.855131</ele>
        <time>2026-07-13T21:22:13.658Z</time>
      </trkpt>
      <trkpt lat="50.649810" lon="18.064729">
        <ele>170.481339</ele>
        <time>2026-07-13T21:22:52.462Z</time>
      </trkpt>
      <trkpt lat="50.649817" lon="18.063053">
        <ele>170.087995</ele>
        <time>2026-07-13T21:23:25.353Z</time>
      </trkpt>
      <trkpt lat="50.649826" lon="18.060715">
        <ele>168.952843</ele>
        <time>2026-07-13T21:24:09.675Z</time>
      </trkpt>
      <trkpt lat="50.649831" lon="18.059412">
        <ele>168.097356</ele>
        <time>2026-07-13T21:24:33.174Z</time>
      </trkpt>
      <trkpt lat="50.649843" lon="18.056484">
        <ele>166.437166</ele>
        <time>2026-07-13T21:25:27.170Z</time>
      </trkpt>
      <trkpt lat="50.649803" lon="18.054013">
        <ele>165.988731</ele>
        <time>2026-07-13T21:26:16.791Z</time>
      </trkpt>
      <trkpt lat="50.649757" lon="18.048637">
        <ele>166.215212</ele>
        <time>2026-07-13T21:28:07.650Z</time>
      </trkpt>
      <trkpt lat="50.649757" lon="18.048366">
        <ele>166.113856</ele>
        <time>2026-07-13T21:28:12.858Z</time>
      </trkpt>
      <trkpt lat="50.649733" lon="18.045002">
        <ele>164.925074</ele>
        <time>2026-07-13T21:29:16.141Z</time>
      </trkpt>
      <trkpt lat="50.649746" lon="18.044545">
        <ele>164.781391</ele>
        <time>2026-07-13T21:29:25.012Z</time>
      </trkpt>
      <trkpt lat="50.650096" lon="18.044216">
        <ele>164.579556</ele>
        <time>2026-07-13T21:29:37.439Z</time>
      </trkpt>
      <trkpt lat="50.650170" lon="18.044089">
        <ele>164.525382</ele>
        <time>2026-07-13T21:29:40.792Z</time>
      </trkpt>
      <trkpt lat="50.650277" lon="18.044065">
        <ele>164.471845</ele>
        <time>2026-07-13T21:29:42.541Z</time>
      </trkpt>
      <trkpt lat="50.650367" lon="18.043979">
        <ele>164.419718</ele>
        <time>2026-07-13T21:29:44.293Z</time>
      </trkpt>
      <trkpt lat="50.650567" lon="18.043805">
        <ele>164.473377</ele>
        <time>2026-07-13T21:29:48.219Z</time>
      </trkpt>
      <trkpt lat="50.651046" lon="18.043426">
        <ele>164.691219</ele>
        <time>2026-07-13T21:29:57.685Z</time>
      </trkpt>
      <trkpt lat="50.651066" lon="18.043412">
        <ele>164.700114</ele>
        <time>2026-07-13T21:29:58.051Z</time>
      </trkpt>
      <trkpt lat="50.651041" lon="18.043356">
        <ele>164.717766</ele>
        <time>2026-07-13T21:29:58.916Z</time>
      </trkpt>
      <trkpt lat="50.650066" lon="18.041761">
        <ele>165.289600</ele>
        <time>2026-07-13T21:30:31.677Z</time>
      </trkpt>
      <trkpt lat="50.649478" lon="18.040812">
        <ele>165.633307</ele>
        <time>2026-07-13T21:30:51.429Z</time>
      </trkpt>
      <trkpt lat="50.648132" lon="18.038507">
        <ele>165.102580</ele>
        <time>2026-07-13T21:31:28.818Z</time>
      </trkpt>
      <trkpt lat="50.647562" lon="18.037813">
        <ele>164.605749</ele>
        <time>2026-07-13T21:31:49.597Z</time>
      </trkpt>
      <trkpt lat="50.644384" lon="18.037829">
        <ele>162.102622</ele>
        <time>2026-07-13T21:33:23.989Z</time>
      </trkpt>
      <trkpt lat="50.642811" lon="18.037836">
        <ele>161.815849</ele>
        <time>2026-07-13T21:34:12.447Z</time>
      </trkpt>
      <trkpt lat="50.635914" lon="18.037927">
        <ele>166.434360</ele>
        <time>2026-07-13T21:38:16.953Z</time>
      </trkpt>
      <trkpt lat="50.635898" lon="18.035479">
        <ele>165.834675</ele>
        <time>2026-07-13T21:39:03.143Z</time>
      </trkpt>
      <trkpt lat="50.635879" lon="18.032601">
        <ele>164.939017</ele>
        <time>2026-07-13T21:39:57.160Z</time>
      </trkpt>
      <trkpt lat="50.635844" lon="18.026616">
        <ele>165.570676</ele>
        <time>2026-07-13T21:42:07.000Z</time>
      </trkpt>
      <trkpt lat="50.635781" lon="18.021842">
        <ele>162.178263</ele>
        <time>2026-07-13T21:43:33.010Z</time>
      </trkpt>
      <trkpt lat="50.635766" lon="18.020437">
        <ele>161.028373</ele>
        <time>2026-07-13T21:43:58.359Z</time>
      </trkpt>
      <trkpt lat="50.635745" lon="18.018359">
        <ele>160.483146</ele>
        <time>2026-07-13T21:44:37.663Z</time>
      </trkpt>
      <trkpt lat="50.635706" lon="18.014817">
        <ele>161.085324</ele>
        <time>2026-07-13T21:45:56.138Z</time>
      </trkpt>
      <trkpt lat="50.640004" lon="18.014832">
        <ele>160.555543</ele>
        <time>2026-07-13T21:48:10.149Z</time>
      </trkpt>
      <trkpt lat="50.640207" lon="18.014833">
        <ele>160.539295</ele>
        <time>2026-07-13T21:48:16.472Z</time>
      </trkpt>
      <trkpt lat="50.640541" lon="18.014867">
        <ele>160.512505</ele>
        <time>2026-07-13T21:48:26.925Z</time>
      </trkpt>
      <trkpt lat="50.642693" lon="18.014841">
        <ele>160.653741</ele>
        <time>2026-07-13T21:49:35.412Z</time>
      </trkpt>
      <trkpt lat="50.645957" lon="18.014872">
        <ele>161.557958</ele>
        <time>2026-07-13T21:51:25.636Z</time>
      </trkpt>
      <trkpt lat="50.649567" lon="18.014911">
        <ele>160.309134</ele>
        <time>2026-07-13T21:53:16.826Z</time>
      </trkpt>
      <trkpt lat="50.651728" lon="18.014928">
        <ele>158.242434</ele>
        <time>2026-07-13T21:54:19.230Z</time>
      </trkpt>
      <trkpt lat="50.653516" lon="18.014942">
        <ele>157.355950</ele>
        <time>2026-07-13T21:55:12.174Z</time>
      </trkpt>
      <trkpt lat="50.656421" lon="18.014922">
        <ele>158.879327</ele>
        <time>2026-07-13T21:56:58.448Z</time>
      </trkpt>
      <trkpt lat="50.656375" lon="18.010724">
        <ele>157.323719</ele>
        <time>2026-07-13T21:58:16.904Z</time>
      </trkpt>
      <trkpt lat="50.656368" lon="18.008451">
        <ele>156.246039</ele>
        <time>2026-07-13T21:58:59.595Z</time>
      </trkpt>
      <trkpt lat="50.656358" lon="18.005302">
        <ele>155.523390</ele>
        <time>2026-07-13T22:00:00.080Z</time>
      </trkpt>
      <trkpt lat="50.656344" lon="18.003120">
        <ele>156.090639</ele>
        <time>2026-07-13T22:00:47.603Z</time>
      </trkpt>
      <trkpt lat="50.656346" lon="18.002340">
        <ele>156.455051</ele>
        <time>2026-07-13T22:01:06.231Z</time>
      </trkpt>
      <trkpt lat="50.656369" lon="18.000950">
        <ele>156.843904</ele>
        <time>2026-07-13T22:01:37.423Z</time>
      </trkpt>
      <trkpt lat="50.656393" lon="17.999915">
        <ele>156.961426</ele>
        <time>2026-07-13T22:01:59.485Z</time>
      </trkpt>
      <trkpt lat="50.656396" lon="17.999781">
        <ele>156.976640</ele>
        <time>2026-07-13T22:02:02.275Z</time>
      </trkpt>
      <trkpt lat="50.656343" lon="17.998466">
        <ele>157.143990</ele>
        <time>2026-07-13T22:02:29.817Z</time>
      </trkpt>
      <trkpt lat="50.656441" lon="17.997614">
        <ele>157.282094</ele>
        <time>2026-07-13T22:02:48.640Z</time>
      </trkpt>
      <trkpt lat="50.656554" lon="17.997292">
        <ele>157.340794</ele>
        <time>2026-07-13T22:02:57.007Z</time>
      </trkpt>
      <trkpt lat="50.656798" lon="17.996596">
        <ele>157.467640</ele>
        <time>2026-07-13T22:03:15.538Z</time>
      </trkpt>
      <trkpt lat="50.656845" lon="17.996372">
        <ele>157.505272</ele>
        <time>2026-07-13T22:03:20.998Z</time>
      </trkpt>
      <trkpt lat="50.657011" lon="17.996347">
        <ele>157.522532</ele>
        <time>2026-07-13T22:03:24.701Z</time>
      </trkpt>
      <trkpt lat="50.657076" lon="17.996305">
        <ele>157.505426</ele>
        <time>2026-07-13T22:03:26.262Z</time>
      </trkpt>
      <trkpt lat="50.657125" lon="17.996236">
        <ele>157.489431</ele>
        <time>2026-07-13T22:03:27.663Z</time>
      </trkpt>
      <trkpt lat="50.657184" lon="17.995933">
        <ele>157.440496</ele>
        <time>2026-07-13T22:03:31.780Z</time>
      </trkpt>
      <trkpt lat="50.657178" lon="17.995526">
        <ele>157.377645</ele>
        <time>2026-07-13T22:03:36.808Z</time>
      </trkpt>
      <trkpt lat="50.657150" lon="17.995397">
        <ele>157.356595</ele>
        <time>2026-07-13T22:03:38.480Z</time>
      </trkpt>
      <trkpt lat="50.657038" lon="17.995139">
        <ele>157.308321</ele>
        <time>2026-07-13T22:03:42.233Z</time>
      </trkpt>
      <trkpt lat="50.656981" lon="17.994730">
        <ele>157.243670</ele>
        <time>2026-07-13T22:03:47.291Z</time>
      </trkpt>
      <trkpt lat="50.656950" lon="17.993819">
        <ele>157.102824</ele>
        <time>2026-07-13T22:04:04.506Z</time>
      </trkpt>
      <trkpt lat="50.656917" lon="17.993715">
        <ele>157.081793</ele>
        <time>2026-07-13T22:04:06.648Z</time>
      </trkpt>
      <trkpt lat="50.656773" lon="17.993583">
        <ele>157.030661</ele>
        <time>2026-07-13T22:04:11.477Z</time>
      </trkpt>
      <trkpt lat="50.655739" lon="17.993250">
        <ele>156.706661</ele>
        <time>2026-07-13T22:04:43.405Z</time>
      </trkpt>
      <trkpt lat="50.655410" lon="17.993206">
        <ele>156.605292</ele>
        <time>2026-07-13T22:04:54.219Z</time>
      </trkpt>
      <trkpt lat="50.654804" lon="17.993034">
        <ele>156.781164</ele>
        <time>2026-07-13T22:05:15.316Z</time>
      </trkpt>
      <trkpt lat="50.654406" lon="17.992853">
        <ele>157.015944</ele>
        <time>2026-07-13T22:05:30.112Z</time>
      </trkpt>
      <trkpt lat="50.654212" lon="17.992843">
        <ele>157.125964</ele>
        <time>2026-07-13T22:05:36.989Z</time>
      </trkpt>
      <trkpt lat="50.653692" lon="17.992632">
        <ele>157.430302</ele>
        <time>2026-07-13T22:05:55.460Z</time>
      </trkpt>
      <trkpt lat="50.653624" lon="17.992478">
        <ele>157.497743</ele>
        <time>2026-07-13T22:05:59.456Z</time>
      </trkpt>
      <trkpt lat="50.653538" lon="17.989448">
        <ele>158.165586</ele>
        <time>2026-07-13T22:07:03.018Z</time>
      </trkpt>
      <trkpt lat="50.655166" lon="17.989094">
        <ele>159.028416</ele>
        <time>2026-07-13T22:07:39.581Z</time>
      </trkpt>
      <trkpt lat="50.655222" lon="17.989065">
        <ele>159.059362</ele>
        <time>2026-07-13T22:07:40.730Z</time>
      </trkpt>
      <trkpt lat="50.655197" lon="17.988682">
        <ele>159.209347</ele>
        <time>2026-07-13T22:07:45.593Z</time>
      </trkpt>
      <trkpt lat="50.655130" lon="17.987670">
        <ele>159.638687</ele>
        <time>2026-07-13T22:07:58.641Z</time>
      </trkpt>
      <trkpt lat="50.655070" lon="17.986569">
        <ele>160.104972</ele>
        <time>2026-07-13T22:08:12.810Z</time>
      </trkpt>
      <trkpt lat="50.655007" lon="17.985292">
        <ele>160.623276</ele>
        <time>2026-07-13T22:08:29.256Z</time>
      </trkpt>
      <trkpt lat="50.654994" lon="17.985187">
        <ele>160.665496</ele>
        <time>2026-07-13T22:08:30.610Z</time>
      </trkpt>
      <trkpt lat="50.654983" lon="17.985095">
        <ele>160.702443</ele>
        <time>2026-07-13T22:08:31.782Z</time>
      </trkpt>
      <trkpt lat="50.654906" lon="17.983782">
        <ele>161.222818</ele>
        <time>2026-07-13T22:08:47.995Z</time>
      </trkpt>
      <trkpt lat="50.654863" lon="17.983436">
        <ele>161.361963</ele>
        <time>2026-07-13T22:08:52.243Z</time>
      </trkpt>
      <trkpt lat="50.654694" lon="17.982893">
        <ele>161.771209</ele>
        <time>2026-07-13T22:09:01.006Z</time>
      </trkpt>
      <trkpt lat="50.654556" lon="17.982595">
        <ele>162.056369</ele>
        <time>2026-07-13T22:09:06.780Z</time>
      </trkpt>
      <trkpt lat="50.654360" lon="17.982296">
        <ele>162.388711</ele>
        <time>2026-07-13T22:09:13.663Z</time>
      </trkpt>
      <trkpt lat="50.654078" lon="17.982009">
        <ele>162.797758</ele>
        <time>2026-07-13T22:09:22.284Z</time>
      </trkpt>
      <trkpt lat="50.653795" lon="17.981799">
        <ele>163.178952</ele>
        <time>2026-07-13T22:09:30.462Z</time>
      </trkpt>
      <trkpt lat="50.653334" lon="17.981506">
        <ele>163.787437</ele>
        <time>2026-07-13T22:09:43.953Z</time>
      </trkpt>
      <trkpt lat="50.652979" lon="17.981333">
        <ele>164.247511</ele>
        <time>2026-07-13T22:09:54.500Z</time>
      </trkpt>
      <trkpt lat="50.652772" lon="17.981162">
        <ele>164.536852</ele>
        <time>2026-07-13T22:10:01.020Z</time>
      </trkpt>
      <trkpt lat="50.651759" lon="17.980292">
        <ele>165.870737</ele>
        <time>2026-07-13T22:10:29.380Z</time>
      </trkpt>
      <trkpt lat="50.650704" lon="17.979506">
        <ele>166.207584</ele>
        <time>2026-07-13T22:10:53.389Z</time>
      </trkpt>
      <trkpt lat="50.649823" lon="17.978844">
        <ele>166.598742</ele>
        <time>2026-07-13T22:11:12.992Z</time>
      </trkpt>
      <trkpt lat="50.649719" lon="17.978690">
        <ele>166.675133</ele>
        <time>2026-07-13T22:11:16.080Z</time>
      </trkpt>
      <trkpt lat="50.649733" lon="17.978126">
        <ele>166.866777</ele>
        <time>2026-07-13T22:11:24.076Z</time>
      </trkpt>
      <trkpt lat="50.649857" lon="17.977607">
        <ele>167.055090</ele>
        <time>2026-07-13T22:11:32.217Z</time>
      </trkpt>
      <trkpt lat="50.649089" lon="17.977050">
        <ele>167.631060</ele>
        <time>2026-07-13T22:11:52.201Z</time>
      </trkpt>
      <trkpt lat="50.648981" lon="17.976972">
        <ele>167.737467</ele>
        <time>2026-07-13T22:11:55.066Z</time>
      </trkpt>
      <trkpt lat="50.649023" lon="17.976794">
        <ele>167.845342</ele>
        <time>2026-07-13T22:11:58.755Z</time>
      </trkpt>
      <trkpt lat="50.649011" lon="17.976714">
        <ele>167.892036</ele>
        <time>2026-07-13T22:12:00.367Z</time>
      </trkpt>
      <trkpt lat="50.649020" lon="17.975907">
        <ele>168.350475</ele>
        <time>2026-07-13T22:12:16.130Z</time>
      </trkpt>
      <trkpt lat="50.649042" lon="17.975805">
        <ele>168.411670</ele>
        <time>2026-07-13T22:12:18.235Z</time>
      </trkpt>
      <trkpt lat="50.649050" lon="17.975701">
        <ele>168.471174</ele>
        <time>2026-07-13T22:12:20.267Z</time>
      </trkpt>
      <trkpt lat="50.648926" lon="17.975596">
        <ele>168.597250</ele>
        <time>2026-07-13T22:12:24.597Z</time>
      </trkpt>
      <trkpt lat="50.648497" lon="17.975268">
        <ele>169.040932</ele>
        <time>2026-07-13T22:12:35.995Z</time>
      </trkpt>
      <trkpt lat="50.648537" lon="17.974609">
        <ele>169.487419</ele>
        <time>2026-07-13T22:12:46.160Z</time>
      </trkpt>
      <trkpt lat="50.648635" lon="17.972977">
        <ele>170.593026</ele>
        <time>2026-07-13T22:13:09.029Z</time>
      </trkpt>
      <trkpt lat="50.648710" lon="17.971220">
        <ele>171.671933</ele>
        <time>2026-07-13T22:13:33.625Z</time>
      </trkpt>
      <trkpt lat="50.648683" lon="17.970758">
        <ele>171.948323</ele>
        <time>2026-07-13T22:13:40.061Z</time>
      </trkpt>
      <trkpt lat="50.648675" lon="17.970615">
        <ele>172.033842</ele>
        <time>2026-07-13T22:13:42.051Z</time>
      </trkpt>
      <trkpt lat="50.648153" lon="17.968107">
        <ele>172.870813</ele>
        <time>2026-07-13T22:14:15.455Z</time>
      </trkpt>
      <trkpt lat="50.647903" lon="17.966714">
        <ele>173.018101</ele>
        <time>2026-07-13T22:14:30.343Z</time>
      </trkpt>
      <trkpt lat="50.647797" lon="17.965857">
        <ele>172.917954</ele>
        <time>2026-07-13T22:14:39.308Z</time>
      </trkpt>
      <trkpt lat="50.647854" lon="17.965353">
        <ele>172.859235</ele>
        <time>2026-07-13T22:14:44.782Z</time>
      </trkpt>
      <trkpt lat="50.647998" lon="17.964582">
        <ele>172.767049</ele>
        <time>2026-07-13T22:14:53.750Z</time>
      </trkpt>
      <trkpt lat="50.648279" lon="17.963243">
        <ele>172.451860</ele>
        <time>2026-07-13T22:15:08.816Z</time>
      </trkpt>
      <trkpt lat="50.648592" lon="17.961167">
        <ele>172.047958</ele>
        <time>2026-07-13T22:15:29.729Z</time>
      </trkpt>
      <trkpt lat="50.648657" lon="17.960712">
        <ele>172.055520</ele>
        <time>2026-07-13T22:15:34.654Z</time>
      </trkpt>
      <trkpt lat="50.648643" lon="17.960402">
        <ele>172.060559</ele>
        <time>2026-07-13T22:15:37.995Z</time>
      </trkpt>
      <trkpt lat="50.648772" lon="17.960360">
        <ele>172.063927</ele>
        <time>2026-07-13T22:15:40.343Z</time>
      </trkpt>
      <trkpt lat="50.648800" lon="17.960351">
        <ele>172.064658</ele>
        <time>2026-07-13T22:15:40.846Z</time>
      </trkpt>
      <trkpt lat="50.649135" lon="17.960224">
        <ele>172.073469</ele>
        <time>2026-07-13T22:15:49.285Z</time>
      </trkpt>
      <trkpt lat="50.649283" lon="17.960147">
        <ele>172.077454</ele>
        <time>2026-07-13T22:15:53.225Z</time>
      </trkpt>
      <trkpt lat="50.649158" lon="17.959038">
        <ele>172.129517</ele>
        <time>2026-07-13T22:16:09.064Z</time>
      </trkpt>
      <trkpt lat="50.649203" lon="17.958768">
        <ele>172.150535</ele>
        <time>2026-07-13T22:16:12.749Z</time>
      </trkpt>
      <trkpt lat="50.649477" lon="17.957853">
        <ele>172.226718</ele>
        <time>2026-07-13T22:16:25.520Z</time>
      </trkpt>
      <trkpt lat="50.649204" lon="17.957693">
        <ele>172.261299</ele>
        <time>2026-07-13T22:16:31.289Z</time>
      </trkpt>
      <trkpt lat="50.649163" lon="17.957643">
        <ele>172.267452</ele>
        <time>2026-07-13T22:16:32.317Z</time>
      </trkpt>
      <trkpt lat="50.649137" lon="17.957518">
        <ele>172.277357</ele>
        <time>2026-07-13T22:16:33.960Z</time>
      </trkpt>
      <trkpt lat="50.649215" lon="17.956159">
        <ele>172.235711</ele>
        <time>2026-07-13T22:16:51.059Z</time>
      </trkpt>
      <trkpt lat="50.649435" lon="17.954479">
        <ele>172.132032</ele>
        <time>2026-07-13T22:17:12.859Z</time>
      </trkpt>
      <trkpt lat="50.649504" lon="17.953599">
        <ele>171.504513</ele>
        <time>2026-07-13T22:17:23.135Z</time>
      </trkpt>
      <trkpt lat="50.649685" lon="17.951357">
        <ele>169.767558</ele>
        <time>2026-07-13T22:17:46.962Z</time>
      </trkpt>
      <trkpt lat="50.649733" lon="17.949971">
        <ele>168.524630</ele>
        <time>2026-07-13T22:18:01.856Z</time>
      </trkpt>
      <trkpt lat="50.649731" lon="17.949836">
        <ele>168.403713</ele>
        <time>2026-07-13T22:18:03.338Z</time>
      </trkpt>
      <trkpt lat="50.649725" lon="17.949547">
        <ele>168.144792</ele>
        <time>2026-07-13T22:18:06.468Z</time>
      </trkpt>
      <trkpt lat="50.649719" lon="17.949357">
        <ele>167.974448</ele>
        <time>2026-07-13T22:18:08.487Z</time>
      </trkpt>
      <trkpt lat="50.649614" lon="17.948790">
        <ele>167.445345</ele>
        <time>2026-07-13T22:18:14.792Z</time>
      </trkpt>
      <trkpt lat="50.649473" lon="17.948344">
        <ele>166.989350</ele>
        <time>2026-07-13T22:18:20.170Z</time>
      </trkpt>
      <trkpt lat="50.649467" lon="17.948330">
        <ele>166.973888</ele>
        <time>2026-07-13T22:18:20.349Z</time>
      </trkpt>
      <trkpt lat="50.649420" lon="17.948200">
        <ele>166.836962</ele>
        <time>2026-07-13T22:18:21.969Z</time>
      </trkpt>
      <trkpt lat="50.649375" lon="17.948012">
        <ele>166.653096</ele>
        <time>2026-07-13T22:18:24.939Z</time>
      </trkpt>
      <trkpt lat="50.649311" lon="17.947685">
        <ele>166.339965</ele>
        <time>2026-07-13T22:18:29.979Z</time>
      </trkpt>
      <trkpt lat="50.649308" lon="17.947665">
        <ele>166.321160</ele>
        <time>2026-07-13T22:18:30.288Z</time>
      </trkpt>
      <trkpt lat="50.648839" lon="17.943900">
        <ele>164.858139</ele>
        <time>2026-07-13T22:19:11.087Z</time>
      </trkpt>
      <trkpt lat="50.648833" lon="17.943769">
        <ele>164.858139</ele>
        <time>2026-07-13T22:19:12.603Z</time>
      </trkpt>
    </trkseg>
  </trk>
</gpx>