<?xml version='1.0' encoding='UTF-8'?>
<gpx version="1.1" creator="https://www.komoot.de" xmlns="http://www.topografix.com/GPX/1/1" xmlns:xsi="http://www.w3.org/2001/XMLSchema-instance" xsi:schemaLocation="http://www.topografix.com/GPX/1/1 http://www.topografix.com/GPX/1/1/gpx.xsd">
  <metadata>
    <name>GraveLova Środa #091 - Przełęcz Ocalonych</name>
    <author>
      <link href="https://www.komoot.de">
        <text>komoot</text>
        <type>text/html</type>
      </link>
    </author>
  </metadata>
  <wpt lat="50.704526" lon="17.932884">
    <name>BP</name>
    <sym>Flag, Blue</sym>
  </wpt>
  <trk>
    <name>GraveLova Środa #091 - Przełęcz Ocalonych</name>
    <trkseg>
      <trkpt lat="50.704301" lon="17.932839">
        <ele>153.018031</ele>
        <time>2026-02-08T21:05:28.146Z</time>
      </trkpt>
      <trkpt lat="50.704278" lon="17.933134">
        <ele>153.018031</ele>
        <time>2026-02-08T21:05:31.067Z</time>
      </trkpt>
      <trkpt lat="50.704358" lon="17.933249">
        <ele>153.018031</ele>
        <time>2026-02-08T21:05:32.756Z</time>
      </trkpt>
      <trkpt lat="50.704559" lon="17.933357">
        <ele>153.018031</ele>
        <time>2026-02-08T21:05:36.055Z</time>
      </trkpt>
      <trkpt lat="50.704777" lon="17.933390">
        <ele>153.018031</ele>
        <time>2026-02-08T21:05:39.457Z</time>
      </trkpt>
      <trkpt lat="50.704814" lon="17.933866">
        <ele>153.057260</ele>
        <time>2026-02-08T21:05:44.153Z</time>
      </trkpt>
      <trkpt lat="50.705128" lon="17.935116">
        <ele>153.310080</ele>
        <time>2026-02-08T21:05:57.860Z</time>
      </trkpt>
      <trkpt lat="50.705160" lon="17.935388">
        <ele>153.362093</ele>
        <time>2026-02-08T21:06:00.715Z</time>
      </trkpt>
      <trkpt lat="50.705152" lon="17.935689">
        <ele>153.418732</ele>
        <time>2026-02-08T21:06:03.823Z</time>
      </trkpt>
      <trkpt lat="50.705104" lon="17.935951">
        <ele>153.470010</ele>
        <time>2026-02-08T21:06:06.646Z</time>
      </trkpt>
      <trkpt lat="50.705046" lon="17.936127">
        <ele>153.507310</ele>
        <time>2026-02-08T21:06:08.689Z</time>
      </trkpt>
      <trkpt lat="50.704886" lon="17.936440">
        <ele>153.565197</ele>
        <time>2026-02-08T21:06:12.739Z</time>
      </trkpt>
      <trkpt lat="50.704806" lon="17.936581">
        <ele>153.580395</ele>
        <time>2026-02-08T21:06:14.604Z</time>
      </trkpt>
      <trkpt lat="50.705052" lon="17.936963">
        <ele>153.624132</ele>
        <time>2026-02-08T21:06:20.061Z</time>
      </trkpt>
      <trkpt lat="50.705191" lon="17.937185">
        <ele>153.649193</ele>
        <time>2026-02-08T21:06:23.161Z</time>
      </trkpt>
      <trkpt lat="50.705329" lon="17.937471">
        <ele>153.678058</ele>
        <time>2026-02-08T21:06:26.584Z</time>
      </trkpt>
      <trkpt lat="50.705754" lon="17.938839">
        <ele>153.768252</ele>
        <time>2026-02-08T21:06:40.956Z</time>
      </trkpt>
      <trkpt lat="50.705872" lon="17.939178">
        <ele>153.750402</ele>
        <time>2026-02-08T21:06:44.550Z</time>
      </trkpt>
      <trkpt lat="50.706072" lon="17.939566">
        <ele>153.727317</ele>
        <time>2026-02-08T21:06:49.053Z</time>
      </trkpt>
      <trkpt lat="50.706536" lon="17.940213">
        <ele>153.682213</ele>
        <time>2026-02-08T21:06:57.859Z</time>
      </trkpt>
      <trkpt lat="50.706873" lon="17.940683">
        <ele>153.649452</ele>
        <time>2026-02-08T21:07:04.485Z</time>
      </trkpt>
      <trkpt lat="50.707149" lon="17.941071">
        <ele>153.682564</ele>
        <time>2026-02-08T21:07:10.236Z</time>
      </trkpt>
      <trkpt lat="50.707271" lon="17.941271">
        <ele>153.698893</ele>
        <time>2026-02-08T21:07:12.952Z</time>
      </trkpt>
      <trkpt lat="50.707566" lon="17.941758">
        <ele>153.738521</ele>
        <time>2026-02-08T21:07:19.240Z</time>
      </trkpt>
      <trkpt lat="50.707905" lon="17.942287">
        <ele>153.782775</ele>
        <time>2026-02-08T21:07:26.666Z</time>
      </trkpt>
      <trkpt lat="50.707966" lon="17.942352">
        <ele>153.789608</ele>
        <time>2026-02-08T21:07:27.843Z</time>
      </trkpt>
      <trkpt lat="50.707993" lon="17.942382">
        <ele>153.792673</ele>
        <time>2026-02-08T21:07:28.375Z</time>
      </trkpt>
      <trkpt lat="50.708076" lon="17.942405">
        <ele>153.800498</ele>
        <time>2026-02-08T21:07:29.743Z</time>
      </trkpt>
      <trkpt lat="50.708216" lon="17.942336">
        <ele>153.814116</ele>
        <time>2026-02-08T21:07:32.114Z</time>
      </trkpt>
      <trkpt lat="50.708497" lon="17.941954">
        <ele>153.695136</ele>
        <time>2026-02-08T21:07:37.726Z</time>
      </trkpt>
      <trkpt lat="50.708765" lon="17.941537">
        <ele>153.565726</ele>
        <time>2026-02-08T21:07:42.785Z</time>
      </trkpt>
      <trkpt lat="50.708902" lon="17.941334">
        <ele>153.501107</ele>
        <time>2026-02-08T21:07:45.172Z</time>
      </trkpt>
      <trkpt lat="50.709005" lon="17.941271">
        <ele>153.463115</ele>
        <time>2026-02-08T21:07:46.611Z</time>
      </trkpt>
      <trkpt lat="50.709088" lon="17.941292">
        <ele>153.434202</ele>
        <time>2026-02-08T21:07:47.697Z</time>
      </trkpt>
      <trkpt lat="50.709359" lon="17.941469">
        <ele>153.333332</ele>
        <time>2026-02-08T21:07:51.591Z</time>
      </trkpt>
      <trkpt lat="50.709498" lon="17.941463">
        <ele>153.285504</ele>
        <time>2026-02-08T21:07:53.483Z</time>
      </trkpt>
      <trkpt lat="50.709980" lon="17.941332">
        <ele>153.153356</ele>
        <time>2026-02-08T21:08:00.002Z</time>
      </trkpt>
      <trkpt lat="50.710180" lon="17.941317">
        <ele>153.115544</ele>
        <time>2026-02-08T21:08:02.619Z</time>
      </trkpt>
      <trkpt lat="50.710305" lon="17.941358">
        <ele>153.091434</ele>
        <time>2026-02-08T21:08:04.311Z</time>
      </trkpt>
      <trkpt lat="50.710646" lon="17.941576">
        <ele>153.021961</ele>
        <time>2026-02-08T21:08:09.407Z</time>
      </trkpt>
      <trkpt lat="50.710832" lon="17.941693">
        <ele>152.984151</ele>
        <time>2026-02-08T21:08:12.306Z</time>
      </trkpt>
      <trkpt lat="50.711823" lon="17.942325">
        <ele>152.881741</ele>
        <time>2026-02-08T21:08:28.520Z</time>
      </trkpt>
      <trkpt lat="50.712018" lon="17.942454">
        <ele>152.894537</ele>
        <time>2026-02-08T21:08:31.725Z</time>
      </trkpt>
      <trkpt lat="50.712361" lon="17.942670">
        <ele>152.916886</ele>
        <time>2026-02-08T21:08:37.350Z</time>
      </trkpt>
      <trkpt lat="50.712901" lon="17.942951">
        <ele>152.951297</ele>
        <time>2026-02-08T21:08:45.973Z</time>
      </trkpt>
      <trkpt lat="50.715525" lon="17.944349">
        <ele>152.802867</ele>
        <time>2026-02-08T21:09:26.534Z</time>
      </trkpt>
      <trkpt lat="50.716330" lon="17.944763">
        <ele>152.660173</ele>
        <time>2026-02-08T21:09:38.413Z</time>
      </trkpt>
      <trkpt lat="50.716460" lon="17.944830">
        <ele>152.637125</ele>
        <time>2026-02-08T21:09:40.263Z</time>
      </trkpt>
      <trkpt lat="50.716564" lon="17.944882">
        <ele>152.619032</ele>
        <time>2026-02-08T21:09:41.743Z</time>
      </trkpt>
      <trkpt lat="50.717831" lon="17.945534">
        <ele>152.422988</ele>
        <time>2026-02-08T21:10:00.499Z</time>
      </trkpt>
      <trkpt lat="50.718128" lon="17.945706">
        <ele>152.376449</ele>
        <time>2026-02-08T21:10:05.169Z</time>
      </trkpt>
      <trkpt lat="50.718284" lon="17.945789">
        <ele>152.358083</ele>
        <time>2026-02-08T21:10:07.668Z</time>
      </trkpt>
      <trkpt lat="50.718844" lon="17.946072">
        <ele>152.391943</ele>
        <time>2026-02-08T21:10:16.942Z</time>
      </trkpt>
      <trkpt lat="50.718975" lon="17.946144">
        <ele>152.399931</ele>
        <time>2026-02-08T21:10:19.217Z</time>
      </trkpt>
      <trkpt lat="50.720043" lon="17.946699">
        <ele>152.457736</ele>
        <time>2026-02-08T21:10:35.816Z</time>
      </trkpt>
      <trkpt lat="50.721369" lon="17.947393">
        <ele>152.418358</ele>
        <time>2026-02-08T21:10:55.654Z</time>
      </trkpt>
      <trkpt lat="50.721733" lon="17.947641">
        <ele>152.437758</ele>
        <time>2026-02-08T21:11:02.008Z</time>
      </trkpt>
      <trkpt lat="50.721902" lon="17.947823">
        <ele>152.514710</ele>
        <time>2026-02-08T21:11:05.466Z</time>
      </trkpt>
      <trkpt lat="50.721952" lon="17.947882">
        <ele>152.538190</ele>
        <time>2026-02-08T21:11:06.556Z</time>
      </trkpt>
      <trkpt lat="50.722331" lon="17.948364">
        <ele>152.721247</ele>
        <time>2026-02-08T21:11:14.637Z</time>
      </trkpt>
      <trkpt lat="50.722769" lon="17.948921">
        <ele>152.932796</ele>
        <time>2026-02-08T21:11:24.131Z</time>
      </trkpt>
      <trkpt lat="50.722999" lon="17.949208">
        <ele>153.043068</ele>
        <time>2026-02-08T21:11:28.941Z</time>
      </trkpt>
      <trkpt lat="50.723243" lon="17.949513">
        <ele>153.151405</ele>
        <time>2026-02-08T21:11:33.964Z</time>
      </trkpt>
      <trkpt lat="50.723550" lon="17.949904">
        <ele>153.282308</ele>
        <time>2026-02-08T21:11:39.846Z</time>
      </trkpt>
      <trkpt lat="50.723757" lon="17.950168">
        <ele>153.370619</ele>
        <time>2026-02-08T21:11:43.841Z</time>
      </trkpt>
      <trkpt lat="50.723862" lon="17.950300">
        <ele>153.415163</ele>
        <time>2026-02-08T21:11:45.948Z</time>
      </trkpt>
      <trkpt lat="50.724085" lon="17.950575">
        <ele>153.509071</ele>
        <time>2026-02-08T21:11:50.534Z</time>
      </trkpt>
      <trkpt lat="50.724298" lon="17.950841">
        <ele>153.599200</ele>
        <time>2026-02-08T21:11:55.053Z</time>
      </trkpt>
      <trkpt lat="50.724348" lon="17.950903">
        <ele>153.620300</ele>
        <time>2026-02-08T21:11:56.144Z</time>
      </trkpt>
      <trkpt lat="50.724590" lon="17.951210">
        <ele>153.745208</ele>
        <time>2026-02-08T21:12:01.549Z</time>
      </trkpt>
      <trkpt lat="50.725028" lon="17.951767">
        <ele>154.033219</ele>
        <time>2026-02-08T21:12:11.431Z</time>
      </trkpt>
      <trkpt lat="50.725423" lon="17.952269">
        <ele>154.292889</ele>
        <time>2026-02-08T21:12:20.317Z</time>
      </trkpt>
      <trkpt lat="50.725591" lon="17.952482">
        <ele>154.403227</ele>
        <time>2026-02-08T21:12:23.847Z</time>
      </trkpt>
      <trkpt lat="50.725850" lon="17.952813">
        <ele>154.573866</ele>
        <time>2026-02-08T21:12:29.185Z</time>
      </trkpt>
      <trkpt lat="50.725927" lon="17.952909">
        <ele>154.599593</ele>
        <time>2026-02-08T21:12:30.754Z</time>
      </trkpt>
      <trkpt lat="50.726044" lon="17.953053">
        <ele>154.581500</ele>
        <time>2026-02-08T21:12:33.069Z</time>
      </trkpt>
      <trkpt lat="50.726672" lon="17.953856">
        <ele>154.482938</ele>
        <time>2026-02-08T21:12:44.494Z</time>
      </trkpt>
      <trkpt lat="50.726731" lon="17.953931">
        <ele>154.473700</ele>
        <time>2026-02-08T21:12:45.518Z</time>
      </trkpt>
      <trkpt lat="50.726800" lon="17.954019">
        <ele>154.462882</ele>
        <time>2026-02-08T21:12:46.726Z</time>
      </trkpt>
      <trkpt lat="50.727116" lon="17.954415">
        <ele>154.413677</ele>
        <time>2026-02-08T21:12:52.257Z</time>
      </trkpt>
      <trkpt lat="50.727274" lon="17.954645">
        <ele>154.387467</ele>
        <time>2026-02-08T21:12:55.320Z</time>
      </trkpt>
      <trkpt lat="50.727385" lon="17.954964">
        <ele>154.435481</ele>
        <time>2026-02-08T21:12:58.650Z</time>
      </trkpt>
      <trkpt lat="50.727562" lon="17.955565">
        <ele>154.536892</ele>
        <time>2026-02-08T21:13:04.965Z</time>
      </trkpt>
      <trkpt lat="50.727668" lon="17.955888">
        <ele>154.592554</ele>
        <time>2026-02-08T21:13:08.541Z</time>
      </trkpt>
      <trkpt lat="50.727769" lon="17.956147">
        <ele>154.639093</ele>
        <time>2026-02-08T21:13:11.684Z</time>
      </trkpt>
      <trkpt lat="50.727811" lon="17.956248">
        <ele>154.657581</ele>
        <time>2026-02-08T21:13:12.924Z</time>
      </trkpt>
      <trkpt lat="50.728229" lon="17.957282">
        <ele>154.836365</ele>
        <time>2026-02-08T21:13:26.017Z</time>
      </trkpt>
      <trkpt lat="50.728394" lon="17.957635">
        <ele>154.880196</ele>
        <time>2026-02-08T21:13:30.679Z</time>
      </trkpt>
      <trkpt lat="50.728715" lon="17.958180">
        <ele>154.954556</ele>
        <time>2026-02-08T21:13:38.346Z</time>
      </trkpt>
      <trkpt lat="50.728817" lon="17.958310">
        <ele>154.975237</ele>
        <time>2026-02-08T21:13:40.437Z</time>
      </trkpt>
      <trkpt lat="50.728958" lon="17.958414">
        <ele>154.999792</ele>
        <time>2026-02-08T21:13:42.857Z</time>
      </trkpt>
      <trkpt lat="50.729433" lon="17.958475">
        <ele>155.074995</ele>
        <time>2026-02-08T21:13:49.868Z</time>
      </trkpt>
      <trkpt lat="50.729594" lon="17.958425">
        <ele>155.100887</ele>
        <time>2026-02-08T21:13:52.139Z</time>
      </trkpt>
      <trkpt lat="50.729627" lon="17.958290">
        <ele>155.070518</ele>
        <time>2026-02-08T21:13:53.383Z</time>
      </trkpt>
      <trkpt lat="50.729623" lon="17.957916">
        <ele>154.967339</ele>
        <time>2026-02-08T21:13:56.600Z</time>
      </trkpt>
      <trkpt lat="50.729643" lon="17.957773">
        <ele>154.926943</ele>
        <time>2026-02-08T21:13:57.855Z</time>
      </trkpt>
      <trkpt lat="50.729714" lon="17.957560">
        <ele>154.860540</ele>
        <time>2026-02-08T21:13:59.892Z</time>
      </trkpt>
      <trkpt lat="50.729836" lon="17.957303">
        <ele>154.771928</ele>
        <time>2026-02-08T21:14:02.615Z</time>
      </trkpt>
      <trkpt lat="50.729909" lon="17.957172">
        <ele>154.723786</ele>
        <time>2026-02-08T21:14:04.078Z</time>
      </trkpt>
      <trkpt lat="50.730016" lon="17.957063">
        <ele>154.668304</ele>
        <time>2026-02-08T21:14:05.765Z</time>
      </trkpt>
      <trkpt lat="50.730189" lon="17.957013">
        <ele>154.591663</ele>
        <time>2026-02-08T21:14:08.054Z</time>
      </trkpt>
      <trkpt lat="50.730443" lon="17.957042">
        <ele>154.480687</ele>
        <time>2026-02-08T21:14:11.305Z</time>
      </trkpt>
      <trkpt lat="50.731044" lon="17.957083">
        <ele>154.334227</ele>
        <time>2026-02-08T21:14:19.240Z</time>
      </trkpt>
      <trkpt lat="50.731597" lon="17.957134">
        <ele>154.369125</ele>
        <time>2026-02-08T21:14:27.272Z</time>
      </trkpt>
      <trkpt lat="50.731766" lon="17.957147">
        <ele>154.379784</ele>
        <time>2026-02-08T21:14:29.855Z</time>
      </trkpt>
      <trkpt lat="50.732127" lon="17.957262">
        <ele>154.402985</ele>
        <time>2026-02-08T21:14:35.655Z</time>
      </trkpt>
      <trkpt lat="50.733069" lon="17.958009">
        <ele>154.588450</ele>
        <time>2026-02-08T21:14:53.448Z</time>
      </trkpt>
      <trkpt lat="50.733547" lon="17.958397">
        <ele>154.732871</ele>
        <time>2026-02-08T21:15:02.017Z</time>
      </trkpt>
      <trkpt lat="50.733863" lon="17.958584">
        <ele>154.823556</ele>
        <time>2026-02-08T21:15:07.101Z</time>
      </trkpt>
      <trkpt lat="50.734070" lon="17.958666">
        <ele>154.880908</ele>
        <time>2026-02-08T21:15:10.203Z</time>
      </trkpt>
      <trkpt lat="50.734292" lon="17.958717">
        <ele>154.948445</ele>
        <time>2026-02-08T21:15:13.521Z</time>
      </trkpt>
      <trkpt lat="50.735146" lon="17.958779">
        <ele>155.245095</ele>
        <time>2026-02-08T21:15:26.681Z</time>
      </trkpt>
      <trkpt lat="50.735534" lon="17.958811">
        <ele>155.379913</ele>
        <time>2026-02-08T21:15:33.330Z</time>
      </trkpt>
      <trkpt lat="50.735667" lon="17.958822">
        <ele>155.426127</ele>
        <time>2026-02-08T21:15:35.732Z</time>
      </trkpt>
      <trkpt lat="50.735954" lon="17.958918">
        <ele>155.527923</ele>
        <time>2026-02-08T21:15:40.981Z</time>
      </trkpt>
      <trkpt lat="50.736306" lon="17.959114">
        <ele>155.590381</ele>
        <time>2026-02-08T21:15:47.508Z</time>
      </trkpt>
      <trkpt lat="50.736401" lon="17.959171">
        <ele>155.605435</ele>
        <time>2026-02-08T21:15:49.215Z</time>
      </trkpt>
      <trkpt lat="50.736687" lon="17.959366">
        <ele>155.651581</ele>
        <time>2026-02-08T21:15:54.187Z</time>
      </trkpt>
      <trkpt lat="50.736856" lon="17.959496">
        <ele>155.679427</ele>
        <time>2026-02-08T21:15:57.064Z</time>
      </trkpt>
      <trkpt lat="50.737404" lon="17.959979">
        <ele>155.772387</ele>
        <time>2026-02-08T21:16:06.160Z</time>
      </trkpt>
      <trkpt lat="50.738188" lon="17.960726">
        <ele>155.743135</ele>
        <time>2026-02-08T21:16:18.643Z</time>
      </trkpt>
      <trkpt lat="50.738658" lon="17.961150">
        <ele>155.692587</ele>
        <time>2026-02-08T21:16:26.586Z</time>
      </trkpt>
      <trkpt lat="50.739998" lon="17.962391">
        <ele>155.653974</ele>
        <time>2026-02-08T21:16:50.194Z</time>
      </trkpt>
      <trkpt lat="50.740831" lon="17.963255">
        <ele>155.677388</ele>
        <time>2026-02-08T21:17:04.908Z</time>
      </trkpt>
      <trkpt lat="50.741027" lon="17.963399">
        <ele>155.690609</ele>
        <time>2026-02-08T21:17:07.924Z</time>
      </trkpt>
      <trkpt lat="50.741363" lon="17.963574">
        <ele>155.712247</ele>
        <time>2026-02-08T21:17:13.093Z</time>
      </trkpt>
      <trkpt lat="50.742061" lon="17.963755">
        <ele>155.755511</ele>
        <time>2026-02-08T21:17:23.725Z</time>
      </trkpt>
      <trkpt lat="50.742260" lon="17.963886">
        <ele>155.768696</ele>
        <time>2026-02-08T21:17:27.080Z</time>
      </trkpt>
      <trkpt lat="50.742379" lon="17.964041">
        <ele>155.789756</ele>
        <time>2026-02-08T21:17:29.466Z</time>
      </trkpt>
      <trkpt lat="50.742838" lon="17.964934">
        <ele>156.179197</ele>
        <time>2026-02-08T21:17:41.395Z</time>
      </trkpt>
      <trkpt lat="50.742954" lon="17.965133">
        <ele>156.270784</ele>
        <time>2026-02-08T21:17:44.425Z</time>
      </trkpt>
      <trkpt lat="50.743121" lon="17.965294">
        <ele>156.375429</ele>
        <time>2026-02-08T21:17:47.784Z</time>
      </trkpt>
      <trkpt lat="50.743846" lon="17.965688">
        <ele>156.791972</ele>
        <time>2026-02-08T21:18:01.076Z</time>
      </trkpt>
      <trkpt lat="50.744410" lon="17.965965">
        <ele>157.151315</ele>
        <time>2026-02-08T21:18:12.058Z</time>
      </trkpt>
      <trkpt lat="50.744690" lon="17.966048">
        <ele>157.324645</ele>
        <time>2026-02-08T21:18:17.482Z</time>
      </trkpt>
      <trkpt lat="50.745961" lon="17.966258">
        <ele>157.526555</ele>
        <time>2026-02-08T21:18:38.630Z</time>
      </trkpt>
      <trkpt lat="50.746945" lon="17.966433">
        <ele>156.840072</ele>
        <time>2026-02-08T21:18:50.399Z</time>
      </trkpt>
      <trkpt lat="50.747264" lon="17.966560">
        <ele>156.612009</ele>
        <time>2026-02-08T21:18:54.161Z</time>
      </trkpt>
      <trkpt lat="50.747433" lon="17.966679">
        <ele>156.564807</ele>
        <time>2026-02-08T21:18:56.348Z</time>
      </trkpt>
      <trkpt lat="50.748798" lon="17.968091">
        <ele>156.328868</ele>
        <time>2026-02-08T21:19:20.234Z</time>
      </trkpt>
      <trkpt lat="50.749636" lon="17.968931">
        <ele>157.228610</ele>
        <time>2026-02-08T21:19:38.533Z</time>
      </trkpt>
      <trkpt lat="50.749871" lon="17.969115">
        <ele>157.471926</ele>
        <time>2026-02-08T21:19:43.599Z</time>
      </trkpt>
      <trkpt lat="50.750518" lon="17.969528">
        <ele>158.207911</ele>
        <time>2026-02-08T21:19:57.091Z</time>
      </trkpt>
      <trkpt lat="50.752004" lon="17.970440">
        <ele>160.739282</ele>
        <time>2026-02-08T21:20:30.045Z</time>
      </trkpt>
      <trkpt lat="50.753919" lon="17.971428">
        <ele>165.587025</ele>
        <time>2026-02-08T21:21:22.407Z</time>
      </trkpt>
      <trkpt lat="50.754188" lon="17.971598">
        <ele>165.850633</ele>
        <time>2026-02-08T21:21:29.090Z</time>
      </trkpt>
      <trkpt lat="50.754447" lon="17.971813">
        <ele>166.116826</ele>
        <time>2026-02-08T21:21:35.200Z</time>
      </trkpt>
      <trkpt lat="50.754655" lon="17.972018">
        <ele>166.339867</ele>
        <time>2026-02-08T21:21:39.808Z</time>
      </trkpt>
      <trkpt lat="50.755661" lon="17.973232">
        <ele>166.978136</ele>
        <time>2026-02-08T21:21:57.611Z</time>
      </trkpt>
      <trkpt lat="50.756202" lon="17.973925">
        <ele>166.798973</ele>
        <time>2026-02-08T21:22:06.840Z</time>
      </trkpt>
      <trkpt lat="50.759556" lon="17.978268">
        <ele>166.247110</ele>
        <time>2026-02-08T21:23:09.110Z</time>
      </trkpt>
      <trkpt lat="50.762836" lon="17.982521">
        <ele>166.581075</ele>
        <time>2026-02-08T21:24:13.298Z</time>
      </trkpt>
      <trkpt lat="50.763173" lon="17.982947">
        <ele>166.659272</ele>
        <time>2026-02-08T21:24:20.203Z</time>
      </trkpt>
      <trkpt lat="50.763435" lon="17.983351">
        <ele>166.725598</ele>
        <time>2026-02-08T21:24:26.059Z</time>
      </trkpt>
      <trkpt lat="50.764116" lon="17.984728">
        <ele>166.940718</ele>
        <time>2026-02-08T21:24:43.453Z</time>
      </trkpt>
      <trkpt lat="50.765094" lon="17.986604">
        <ele>167.304793</ele>
        <time>2026-02-08T21:25:07.120Z</time>
      </trkpt>
      <trkpt lat="50.766028" lon="17.988585">
        <ele>167.744818</ele>
        <time>2026-02-08T21:25:32.836Z</time>
      </trkpt>
      <trkpt lat="50.766344" lon="17.989141">
        <ele>167.842042</ele>
        <time>2026-02-08T21:25:40.528Z</time>
      </trkpt>
      <trkpt lat="50.766554" lon="17.989446">
        <ele>167.900682</ele>
        <time>2026-02-08T21:25:45.018Z</time>
      </trkpt>
      <trkpt lat="50.767631" lon="17.990971">
        <ele>168.102886</ele>
        <time>2026-02-08T21:26:06.252Z</time>
      </trkpt>
      <trkpt lat="50.767813" lon="17.991193">
        <ele>168.120346</ele>
        <time>2026-02-08T21:26:09.640Z</time>
      </trkpt>
      <trkpt lat="50.768273" lon="17.991661">
        <ele>168.161896</ele>
        <time>2026-02-08T21:26:17.969Z</time>
      </trkpt>
      <trkpt lat="50.768973" lon="17.992291">
        <ele>168.344504</ele>
        <time>2026-02-08T21:26:31.017Z</time>
      </trkpt>
      <trkpt lat="50.770134" lon="17.993317">
        <ele>168.753771</ele>
        <time>2026-02-08T21:26:52.485Z</time>
      </trkpt>
      <trkpt lat="50.771574" lon="17.994576">
        <ele>169.125565</ele>
        <time>2026-02-08T21:27:18.021Z</time>
      </trkpt>
      <trkpt lat="50.772814" lon="17.995534">
        <ele>169.616828</ele>
        <time>2026-02-08T21:27:40.166Z</time>
      </trkpt>
      <trkpt lat="50.773629" lon="17.996049">
        <ele>169.982119</ele>
        <time>2026-02-08T21:27:55.282Z</time>
      </trkpt>
      <trkpt lat="50.773809" lon="17.996149">
        <ele>170.075490</ele>
        <time>2026-02-08T21:27:58.602Z</time>
      </trkpt>
      <trkpt lat="50.774276" lon="17.996351">
        <ele>170.312437</ele>
        <time>2026-02-08T21:28:07.001Z</time>
      </trkpt>
      <trkpt lat="50.774424" lon="17.996414">
        <ele>170.387446</ele>
        <time>2026-02-08T21:28:09.656Z</time>
      </trkpt>
      <trkpt lat="50.775949" lon="17.997002">
        <ele>170.672719</ele>
        <time>2026-02-08T21:28:34.749Z</time>
      </trkpt>
      <trkpt lat="50.778607" lon="17.997954">
        <ele>169.909865</ele>
        <time>2026-02-08T21:29:11.534Z</time>
      </trkpt>
      <trkpt lat="50.778667" lon="17.997969">
        <ele>169.880557</ele>
        <time>2026-02-08T21:29:12.372Z</time>
      </trkpt>
      <trkpt lat="50.778965" lon="17.998076">
        <ele>169.733119</ele>
        <time>2026-02-08T21:29:16.550Z</time>
      </trkpt>
      <trkpt lat="50.779060" lon="17.998152">
        <ele>169.681753</ele>
        <time>2026-02-08T21:29:18.018Z</time>
      </trkpt>
      <trkpt lat="50.779185" lon="17.998327">
        <ele>169.601207</ele>
        <time>2026-02-08T21:29:20.330Z</time>
      </trkpt>
      <trkpt lat="50.779409" lon="17.998628">
        <ele>169.459388</ele>
        <time>2026-02-08T21:29:24.354Z</time>
      </trkpt>
      <trkpt lat="50.779523" lon="17.998709">
        <ele>169.399090</ele>
        <time>2026-02-08T21:29:26.053Z</time>
      </trkpt>
      <trkpt lat="50.779845" lon="17.998867">
        <ele>169.236425</ele>
        <time>2026-02-08T21:29:30.562Z</time>
      </trkpt>
      <trkpt lat="50.780287" lon="17.999014">
        <ele>168.996938</ele>
        <time>2026-02-08T21:29:36.285Z</time>
      </trkpt>
      <trkpt lat="50.781146" lon="17.999286">
        <ele>168.429432</ele>
        <time>2026-02-08T21:29:47.298Z</time>
      </trkpt>
      <trkpt lat="50.781964" lon="17.999545">
        <ele>167.907104</ele>
        <time>2026-02-08T21:29:58.086Z</time>
      </trkpt>
      <trkpt lat="50.784443" lon="18.000502">
        <ele>167.380248</ele>
        <time>2026-02-08T21:30:34.287Z</time>
      </trkpt>
      <trkpt lat="50.784720" lon="18.000613">
        <ele>167.328566</ele>
        <time>2026-02-08T21:30:38.474Z</time>
      </trkpt>
      <trkpt lat="50.785149" lon="18.000776">
        <ele>167.248769</ele>
        <time>2026-02-08T21:30:44.839Z</time>
      </trkpt>
      <trkpt lat="50.785871" lon="18.001040">
        <ele>167.074228</ele>
        <time>2026-02-08T21:30:55.203Z</time>
      </trkpt>
      <trkpt lat="50.785927" lon="18.001062">
        <ele>167.058760</ele>
        <time>2026-02-08T21:30:56.048Z</time>
      </trkpt>
      <trkpt lat="50.786138" lon="18.001148">
        <ele>167.000350</ele>
        <time>2026-02-08T21:30:59.041Z</time>
      </trkpt>
      <trkpt lat="50.786293" lon="18.001269">
        <ele>166.954014</ele>
        <time>2026-02-08T21:31:01.494Z</time>
      </trkpt>
      <trkpt lat="50.788612" lon="18.002747">
        <ele>166.133968</ele>
        <time>2026-02-08T21:31:35.662Z</time>
      </trkpt>
      <trkpt lat="50.790360" lon="18.003622">
        <ele>165.224554</ele>
        <time>2026-02-08T21:31:59.907Z</time>
      </trkpt>
      <trkpt lat="50.790895" lon="18.003907">
        <ele>165.013003</ele>
        <time>2026-02-08T21:32:07.401Z</time>
      </trkpt>
      <trkpt lat="50.790956" lon="18.003898">
        <ele>164.993048</ele>
        <time>2026-02-08T21:32:08.232Z</time>
      </trkpt>
      <trkpt lat="50.791460" lon="18.004199">
        <ele>164.817581</ele>
        <time>2026-02-08T21:32:15.731Z</time>
      </trkpt>
      <trkpt lat="50.791513" lon="18.004261">
        <ele>164.796111</ele>
        <time>2026-02-08T21:32:16.672Z</time>
      </trkpt>
      <trkpt lat="50.791660" lon="18.004457">
        <ele>164.733492</ele>
        <time>2026-02-08T21:32:19.458Z</time>
      </trkpt>
      <trkpt lat="50.791858" lon="18.004391">
        <ele>164.667585</ele>
        <time>2026-02-08T21:32:23.569Z</time>
      </trkpt>
      <trkpt lat="50.792881" lon="18.004820">
        <ele>164.082861</ele>
        <time>2026-02-08T21:32:43.203Z</time>
      </trkpt>
      <trkpt lat="50.793400" lon="18.003181">
        <ele>163.388455</ele>
        <time>2026-02-08T21:33:03.287Z</time>
      </trkpt>
      <trkpt lat="50.794736" lon="17.998640">
        <ele>163.476864</ele>
        <time>2026-02-08T21:34:09.473Z</time>
      </trkpt>
      <trkpt lat="50.795297" lon="17.997420">
        <ele>163.452095</ele>
        <time>2026-02-08T21:34:44.094Z</time>
      </trkpt>
      <trkpt lat="50.795394" lon="17.997148">
        <ele>163.436275</ele>
        <time>2026-02-08T21:34:51.153Z</time>
      </trkpt>
      <trkpt lat="50.797440" lon="17.990859">
        <ele>163.094164</ele>
        <time>2026-02-08T21:37:35.947Z</time>
      </trkpt>
      <trkpt lat="50.797953" lon="17.989279">
        <ele>162.974728</ele>
        <time>2026-02-08T21:38:17.216Z</time>
      </trkpt>
      <trkpt lat="50.798183" lon="17.987172">
        <ele>162.882730</ele>
        <time>2026-02-08T21:39:06.540Z</time>
      </trkpt>
      <trkpt lat="50.798184" lon="17.986704">
        <ele>162.879925</ele>
        <time>2026-02-08T21:39:17.460Z</time>
      </trkpt>
      <trkpt lat="50.798116" lon="17.986424">
        <ele>162.878128</ele>
        <time>2026-02-08T21:39:24.473Z</time>
      </trkpt>
      <trkpt lat="50.798062" lon="17.986266">
        <ele>162.877052</ele>
        <time>2026-02-08T21:39:28.658Z</time>
      </trkpt>
      <trkpt lat="50.798064" lon="17.985917">
        <ele>162.874960</ele>
        <time>2026-02-08T21:39:36.812Z</time>
      </trkpt>
      <trkpt lat="50.798123" lon="17.985787">
        <ele>162.874001</ele>
        <time>2026-02-08T21:39:40.573Z</time>
      </trkpt>
      <trkpt lat="50.798327" lon="17.985663">
        <ele>162.871929</ele>
        <time>2026-02-08T21:39:48.700Z</time>
      </trkpt>
      <trkpt lat="50.798426" lon="17.985516">
        <ele>162.898029</ele>
        <time>2026-02-08T21:39:53.810Z</time>
      </trkpt>
      <trkpt lat="50.798587" lon="17.984605">
        <ele>163.281411</ele>
        <time>2026-02-08T21:40:16.699Z</time>
      </trkpt>
      <trkpt lat="50.798676" lon="17.984305">
        <ele>163.415726</ele>
        <time>2026-02-08T21:40:24.898Z</time>
      </trkpt>
      <trkpt lat="50.798846" lon="17.984167">
        <ele>163.538246</ele>
        <time>2026-02-08T21:40:32.434Z</time>
      </trkpt>
      <trkpt lat="50.799149" lon="17.984191">
        <ele>163.732784</ele>
        <time>2026-02-08T21:40:44.579Z</time>
      </trkpt>
      <trkpt lat="50.799201" lon="17.984079">
        <ele>163.789106</ele>
        <time>2026-02-08T21:40:48.118Z</time>
      </trkpt>
      <trkpt lat="50.799369" lon="17.983935">
        <ele>163.911627</ele>
        <time>2026-02-08T21:41:04.049Z</time>
      </trkpt>
      <trkpt lat="50.801819" lon="17.983920">
        <ele>166.962419</ele>
        <time>2026-02-08T21:44:32.274Z</time>
      </trkpt>
      <trkpt lat="50.802063" lon="17.983918">
        <ele>167.235697</ele>
        <time>2026-02-08T21:44:42.457Z</time>
      </trkpt>
      <trkpt lat="50.805163" lon="17.983881">
        <ele>170.347668</ele>
        <time>2026-02-08T21:46:49.219Z</time>
      </trkpt>
      <trkpt lat="50.809741" lon="17.983877">
        <ele>173.671156</ele>
        <time>2026-02-08T21:53:07.593Z</time>
      </trkpt>
      <trkpt lat="50.810105" lon="17.983877">
        <ele>173.835591</ele>
        <time>2026-02-08T21:53:36.801Z</time>
      </trkpt>
      <trkpt lat="50.810117" lon="17.978617">
        <ele>172.716378</ele>
        <time>2026-02-08T21:55:34.901Z</time>
      </trkpt>
      <trkpt lat="50.810206" lon="17.977697">
        <ele>172.405538</ele>
        <time>2026-02-08T21:55:55.702Z</time>
      </trkpt>
      <trkpt lat="50.810162" lon="17.976087">
        <ele>171.416369</ele>
        <time>2026-02-08T21:56:30.735Z</time>
      </trkpt>
      <trkpt lat="50.810097" lon="17.973662">
        <ele>169.834438</ele>
        <time>2026-02-08T21:57:21.203Z</time>
      </trkpt>
      <trkpt lat="50.810051" lon="17.971920">
        <ele>168.766357</ele>
        <time>2026-02-08T21:57:58.337Z</time>
      </trkpt>
      <trkpt lat="50.809935" lon="17.967508">
        <ele>168.195726</ele>
        <time>2026-02-08T21:59:41.458Z</time>
      </trkpt>
      <trkpt lat="50.809748" lon="17.961331">
        <ele>166.353893</ele>
        <time>2026-02-08T22:01:58.956Z</time>
      </trkpt>
      <trkpt lat="50.805393" lon="17.961270">
        <ele>163.521162</ele>
        <time>2026-02-08T22:04:30.468Z</time>
      </trkpt>
      <trkpt lat="50.805618" lon="17.960570">
        <ele>163.135643</ele>
        <time>2026-02-08T22:04:47.266Z</time>
      </trkpt>
      <trkpt lat="50.805655" lon="17.960363">
        <ele>163.030042</ele>
        <time>2026-02-08T22:04:51.891Z</time>
      </trkpt>
      <trkpt lat="50.805641" lon="17.960242">
        <ele>162.969657</ele>
        <time>2026-02-08T22:04:54.524Z</time>
      </trkpt>
      <trkpt lat="50.804943" lon="17.959857">
        <ele>162.419981</ele>
        <time>2026-02-08T22:05:20.053Z</time>
      </trkpt>
      <trkpt lat="50.804084" lon="17.959376">
        <ele>162.147522</ele>
        <time>2026-02-08T22:05:37.310Z</time>
      </trkpt>
      <trkpt lat="50.801780" lon="17.958096">
        <ele>161.700997</ele>
        <time>2026-02-08T22:06:25.617Z</time>
      </trkpt>
      <trkpt lat="50.801072" lon="17.957668">
        <ele>161.580382</ele>
        <time>2026-02-08T22:06:40.641Z</time>
      </trkpt>
      <trkpt lat="50.800839" lon="17.957396">
        <ele>161.530668</ele>
        <time>2026-02-08T22:06:46.350Z</time>
      </trkpt>
      <trkpt lat="50.800817" lon="17.957310">
        <ele>161.520600</ele>
        <time>2026-02-08T22:06:47.497Z</time>
      </trkpt>
      <trkpt lat="50.800816" lon="17.957201">
        <ele>161.508771</ele>
        <time>2026-02-08T22:06:48.851Z</time>
      </trkpt>
      <trkpt lat="50.800917" lon="17.956814">
        <ele>161.463338</ele>
        <time>2026-02-08T22:06:54.013Z</time>
      </trkpt>
      <trkpt lat="50.801028" lon="17.956235">
        <ele>161.397683</ele>
        <time>2026-02-08T22:07:01.360Z</time>
      </trkpt>
      <trkpt lat="50.801112" lon="17.955980">
        <ele>161.364983</ele>
        <time>2026-02-08T22:07:04.816Z</time>
      </trkpt>
      <trkpt lat="50.802304" lon="17.953267">
        <ele>160.862403</ele>
        <time>2026-02-08T22:07:44.744Z</time>
      </trkpt>
      <trkpt lat="50.802320" lon="17.953157">
        <ele>160.867717</ele>
        <time>2026-02-08T22:07:46.154Z</time>
      </trkpt>
      <trkpt lat="50.802301" lon="17.953056">
        <ele>160.872678</ele>
        <time>2026-02-08T22:07:47.477Z</time>
      </trkpt>
      <trkpt lat="50.802256" lon="17.952975">
        <ele>160.877755</ele>
        <time>2026-02-08T22:07:48.841Z</time>
      </trkpt>
      <trkpt lat="50.801618" lon="17.952268">
        <ele>160.935778</ele>
        <time>2026-02-08T22:08:05.133Z</time>
      </trkpt>
      <trkpt lat="50.801569" lon="17.952182">
        <ele>160.941229</ele>
        <time>2026-02-08T22:08:06.703Z</time>
      </trkpt>
      <trkpt lat="50.801354" lon="17.951796">
        <ele>160.965452</ele>
        <time>2026-02-08T22:08:13.690Z</time>
      </trkpt>
      <trkpt lat="50.801211" lon="17.951412">
        <ele>160.977459</ele>
        <time>2026-02-08T22:08:19.694Z</time>
      </trkpt>
      <trkpt lat="50.801186" lon="17.951237">
        <ele>160.979857</ele>
        <time>2026-02-08T22:08:22.103Z</time>
      </trkpt>
      <trkpt lat="50.801218" lon="17.950751">
        <ele>160.986387</ele>
        <time>2026-02-08T22:08:28.587Z</time>
      </trkpt>
      <trkpt lat="50.801674" lon="17.949287">
        <ele>161.008199</ele>
        <time>2026-02-08T22:08:49.441Z</time>
      </trkpt>
      <trkpt lat="50.801898" lon="17.948714">
        <ele>160.938841</ele>
        <time>2026-02-08T22:08:57.571Z</time>
      </trkpt>
      <trkpt lat="50.802062" lon="17.948389">
        <ele>160.861738</ele>
        <time>2026-02-08T22:09:02.596Z</time>
      </trkpt>
      <trkpt lat="50.802247" lon="17.947880">
        <ele>160.752880</ele>
        <time>2026-02-08T22:09:09.669Z</time>
      </trkpt>
      <trkpt lat="50.802332" lon="17.947486">
        <ele>160.675697</ele>
        <time>2026-02-08T22:09:14.685Z</time>
      </trkpt>
      <trkpt lat="50.802721" lon="17.945185">
        <ele>160.303675</ele>
        <time>2026-02-08T22:09:43.384Z</time>
      </trkpt>
      <trkpt lat="50.802769" lon="17.944998">
        <ele>160.276660</ele>
        <time>2026-02-08T22:09:45.833Z</time>
      </trkpt>
      <trkpt lat="50.803460" lon="17.943353">
        <ele>160.339986</ele>
        <time>2026-02-08T22:10:10.387Z</time>
      </trkpt>
      <trkpt lat="50.803595" lon="17.942607">
        <ele>160.609725</ele>
        <time>2026-02-08T22:10:21.266Z</time>
      </trkpt>
      <trkpt lat="50.803893" lon="17.941395">
        <ele>161.061788</ele>
        <time>2026-02-08T22:10:41.204Z</time>
      </trkpt>
      <trkpt lat="50.803894" lon="17.941254">
        <ele>161.102488</ele>
        <time>2026-02-08T22:10:43.372Z</time>
      </trkpt>
      <trkpt lat="50.803840" lon="17.940996">
        <ele>161.153575</ele>
        <time>2026-02-08T22:10:47.523Z</time>
      </trkpt>
      <trkpt lat="50.803645" lon="17.940680">
        <ele>161.236593</ele>
        <time>2026-02-08T22:10:54.151Z</time>
      </trkpt>
      <trkpt lat="50.803628" lon="17.940510">
        <ele>161.268945</ele>
        <time>2026-02-08T22:10:56.631Z</time>
      </trkpt>
      <trkpt lat="50.803554" lon="17.940524">
        <ele>161.291112</ele>
        <time>2026-02-08T22:10:57.929Z</time>
      </trkpt>
      <trkpt lat="50.803369" lon="17.940421">
        <ele>161.349444</ele>
        <time>2026-02-08T22:11:01.195Z</time>
      </trkpt>
      <trkpt lat="50.801974" lon="17.939174">
        <ele>161.692454</ele>
        <time>2026-02-08T22:11:24.002Z</time>
      </trkpt>
      <trkpt lat="50.801707" lon="17.939017">
        <ele>161.720129</ele>
        <time>2026-02-08T22:11:28.254Z</time>
      </trkpt>
      <trkpt lat="50.801517" lon="17.938972">
        <ele>161.738795</ele>
        <time>2026-02-08T22:11:31.230Z</time>
      </trkpt>
      <trkpt lat="50.801368" lon="17.938992">
        <ele>161.753324</ele>
        <time>2026-02-08T22:11:33.580Z</time>
      </trkpt>
      <trkpt lat="50.801240" lon="17.939082">
        <ele>161.766933</ele>
        <time>2026-02-08T22:11:35.808Z</time>
      </trkpt>
      <trkpt lat="50.800998" lon="17.939536">
        <ele>161.805940</ele>
        <time>2026-02-08T22:11:41.939Z</time>
      </trkpt>
      <trkpt lat="50.800829" lon="17.939303">
        <ele>161.884165</ele>
        <time>2026-02-08T22:11:45.683Z</time>
      </trkpt>
      <trkpt lat="50.800780" lon="17.939281">
        <ele>161.901940</ele>
        <time>2026-02-08T22:11:46.531Z</time>
      </trkpt>
      <trkpt lat="50.800641" lon="17.939309">
        <ele>161.950839</ele>
        <time>2026-02-08T22:11:48.844Z</time>
      </trkpt>
      <trkpt lat="50.800285" lon="17.939415">
        <ele>162.077254</ele>
        <time>2026-02-08T22:11:54.696Z</time>
      </trkpt>
      <trkpt lat="50.799991" lon="17.939452">
        <ele>162.180176</ele>
        <time>2026-02-08T22:11:59.500Z</time>
      </trkpt>
      <trkpt lat="50.799964" lon="17.939513">
        <ele>162.196602</ele>
        <time>2026-02-08T22:12:00.525Z</time>
      </trkpt>
      <trkpt lat="50.799863" lon="17.939524">
        <ele>162.231932</ele>
        <time>2026-02-08T22:12:02.160Z</time>
      </trkpt>
      <trkpt lat="50.799730" lon="17.939609">
        <ele>162.281988</ele>
        <time>2026-02-08T22:12:04.459Z</time>
      </trkpt>
      <trkpt lat="50.799333" lon="17.939624">
        <ele>162.420570</ele>
        <time>2026-02-08T22:12:10.854Z</time>
      </trkpt>
      <trkpt lat="50.796257" lon="17.939639">
        <ele>163.430874</ele>
        <time>2026-02-08T22:13:01.172Z</time>
      </trkpt>
      <trkpt lat="50.795527" lon="17.939596">
        <ele>163.556136</ele>
        <time>2026-02-08T22:13:12.191Z</time>
      </trkpt>
      <trkpt lat="50.794675" lon="17.939166">
        <ele>163.484712</ele>
        <time>2026-02-08T22:13:24.918Z</time>
      </trkpt>
      <trkpt lat="50.790959" lon="17.937028">
        <ele>163.386015</ele>
        <time>2026-02-08T22:14:22.141Z</time>
      </trkpt>
      <trkpt lat="50.790520" lon="17.936769">
        <ele>163.470345</ele>
        <time>2026-02-08T22:14:30.250Z</time>
      </trkpt>
      <trkpt lat="50.790382" lon="17.936592">
        <ele>163.553772</ele>
        <time>2026-02-08T22:14:33.433Z</time>
      </trkpt>
      <trkpt lat="50.789125" lon="17.935846">
        <ele>164.184210</ele>
        <time>2026-02-08T22:14:56.858Z</time>
      </trkpt>
      <trkpt lat="50.789151" lon="17.935781">
        <ele>164.207044</ele>
        <time>2026-02-08T22:14:58.683Z</time>
      </trkpt>
      <trkpt lat="50.787398" lon="17.934688">
        <ele>164.099552</ele>
        <time>2026-02-08T22:15:25.260Z</time>
      </trkpt>
      <trkpt lat="50.787075" lon="17.934524">
        <ele>164.103957</ele>
        <time>2026-02-08T22:15:29.999Z</time>
      </trkpt>
      <trkpt lat="50.785427" lon="17.933846">
        <ele>164.194926</ele>
        <time>2026-02-08T22:15:55.706Z</time>
      </trkpt>
      <trkpt lat="50.784218" lon="17.933452">
        <ele>164.494457</ele>
        <time>2026-02-08T22:16:16.354Z</time>
      </trkpt>
      <trkpt lat="50.784159" lon="17.933436">
        <ele>164.508982</ele>
        <time>2026-02-08T22:16:17.292Z</time>
      </trkpt>
      <trkpt lat="50.782637" lon="17.933190">
        <ele>164.325161</ele>
        <time>2026-02-08T22:16:38.813Z</time>
      </trkpt>
      <trkpt lat="50.781137" lon="17.933195">
        <ele>163.987910</ele>
        <time>2026-02-08T22:16:59.448Z</time>
      </trkpt>
      <trkpt lat="50.780744" lon="17.933196">
        <ele>163.895834</ele>
        <time>2026-02-08T22:17:04.952Z</time>
      </trkpt>
      <trkpt lat="50.780291" lon="17.933248">
        <ele>163.789422</ele>
        <time>2026-02-08T22:17:11.451Z</time>
      </trkpt>
      <trkpt lat="50.779702" lon="17.933315">
        <ele>163.870429</ele>
        <time>2026-02-08T22:17:20.089Z</time>
      </trkpt>
      <trkpt lat="50.778742" lon="17.933266">
        <ele>164.016218</ele>
        <time>2026-02-08T22:17:34.907Z</time>
      </trkpt>
      <trkpt lat="50.777055" lon="17.933362">
        <ele>165.027450</ele>
        <time>2026-02-08T22:18:03.406Z</time>
      </trkpt>
      <trkpt lat="50.775667" lon="17.933333">
        <ele>165.606604</ele>
        <time>2026-02-08T22:18:31.488Z</time>
      </trkpt>
      <trkpt lat="50.775578" lon="17.933328">
        <ele>165.634782</ele>
        <time>2026-02-08T22:18:32.984Z</time>
      </trkpt>
      <trkpt lat="50.775580" lon="17.933276">
        <ele>165.645206</ele>
        <time>2026-02-08T22:18:36.773Z</time>
      </trkpt>
      <trkpt lat="50.775583" lon="17.933199">
        <ele>165.660642</ele>
        <time>2026-02-08T22:18:38.670Z</time>
      </trkpt>
      <trkpt lat="50.771878" lon="17.932851">
        <ele>162.076564</ele>
        <time>2026-02-08T22:19:22.370Z</time>
      </trkpt>
      <trkpt lat="50.770586" lon="17.932685">
        <ele>161.054932</ele>
        <time>2026-02-08T22:19:38.522Z</time>
      </trkpt>
      <trkpt lat="50.770062" lon="17.932635">
        <ele>160.765074</ele>
        <time>2026-02-08T22:19:45.628Z</time>
      </trkpt>
      <trkpt lat="50.769874" lon="17.932660">
        <ele>160.660902</ele>
        <time>2026-02-08T22:19:48.239Z</time>
      </trkpt>
      <trkpt lat="50.766614" lon="17.932353">
        <ele>159.826936</ele>
        <time>2026-02-08T22:20:35.308Z</time>
      </trkpt>
      <trkpt lat="50.766107" lon="17.932274">
        <ele>159.645873</ele>
        <time>2026-02-08T22:20:41.838Z</time>
      </trkpt>
      <trkpt lat="50.766102" lon="17.932329">
        <ele>159.633383</ele>
        <time>2026-02-08T22:20:42.270Z</time>
      </trkpt>
      <trkpt lat="50.766096" lon="17.932390">
        <ele>159.619506</ele>
        <time>2026-02-08T22:20:46.493Z</time>
      </trkpt>
      <trkpt lat="50.765568" lon="17.932207">
        <ele>159.219123</ele>
        <time>2026-02-08T22:20:53.111Z</time>
      </trkpt>
      <trkpt lat="50.765106" lon="17.931966">
        <ele>158.842714</ele>
        <time>2026-02-08T22:20:59.066Z</time>
      </trkpt>
      <trkpt lat="50.764718" lon="17.931684">
        <ele>158.512313</ele>
        <time>2026-02-08T22:21:04.264Z</time>
      </trkpt>
      <trkpt lat="50.764072" lon="17.931170">
        <ele>158.127242</ele>
        <time>2026-02-08T22:21:13.995Z</time>
      </trkpt>
      <trkpt lat="50.763885" lon="17.931007">
        <ele>158.072915</ele>
        <time>2026-02-08T22:21:17.224Z</time>
      </trkpt>
      <trkpt lat="50.763955" lon="17.930853">
        <ele>158.042398</ele>
        <time>2026-02-08T22:21:19.039Z</time>
      </trkpt>
      <trkpt lat="50.764467" lon="17.929510">
        <ele>157.790061</ele>
        <time>2026-02-08T22:21:33.310Z</time>
      </trkpt>
      <trkpt lat="50.765525" lon="17.926754">
        <ele>156.848596</ele>
        <time>2026-02-08T22:22:00.226Z</time>
      </trkpt>
      <trkpt lat="50.765709" lon="17.925670">
        <ele>156.654217</ele>
        <time>2026-02-08T22:22:09.712Z</time>
      </trkpt>
      <trkpt lat="50.766081" lon="17.923314">
        <ele>156.451783</ele>
        <time>2026-02-08T22:22:31.813Z</time>
      </trkpt>
      <trkpt lat="50.766731" lon="17.918899">
        <ele>156.956947</ele>
        <time>2026-02-08T22:23:16.862Z</time>
      </trkpt>
      <trkpt lat="50.766822" lon="17.918143">
        <ele>157.146883</ele>
        <time>2026-02-08T22:23:24.055Z</time>
      </trkpt>
      <trkpt lat="50.766856" lon="17.917857">
        <ele>157.237348</ele>
        <time>2026-02-08T22:23:26.817Z</time>
      </trkpt>
      <trkpt lat="50.767324" lon="17.913455">
        <ele>158.656933</ele>
        <time>2026-02-08T22:24:16.385Z</time>
      </trkpt>
      <trkpt lat="50.767396" lon="17.912358">
        <ele>158.596487</ele>
        <time>2026-02-08T22:24:26.929Z</time>
      </trkpt>
      <trkpt lat="50.767380" lon="17.911589">
        <ele>158.354961</ele>
        <time>2026-02-08T22:24:33.399Z</time>
      </trkpt>
      <trkpt lat="50.767361" lon="17.911328">
        <ele>158.272490</ele>
        <time>2026-02-08T22:24:35.521Z</time>
      </trkpt>
      <trkpt lat="50.767323" lon="17.911148">
        <ele>158.212922</ele>
        <time>2026-02-08T22:24:37.047Z</time>
      </trkpt>
      <trkpt lat="50.767246" lon="17.910912">
        <ele>158.129563</ele>
        <time>2026-02-08T22:24:39.159Z</time>
      </trkpt>
      <trkpt lat="50.766934" lon="17.910176">
        <ele>157.777744</ele>
        <time>2026-02-08T22:24:46.075Z</time>
      </trkpt>
      <trkpt lat="50.766871" lon="17.909966">
        <ele>157.612062</ele>
        <time>2026-02-08T22:24:47.856Z</time>
      </trkpt>
      <trkpt lat="50.766838" lon="17.909764">
        <ele>157.463342</ele>
        <time>2026-02-08T22:24:49.464Z</time>
      </trkpt>
      <trkpt lat="50.766751" lon="17.908680">
        <ele>156.684427</ele>
        <time>2026-02-08T22:24:57.892Z</time>
      </trkpt>
      <trkpt lat="50.766694" lon="17.908027">
        <ele>156.214529</ele>
        <time>2026-02-08T22:25:02.880Z</time>
      </trkpt>
      <trkpt lat="50.766249" lon="17.903295">
        <ele>151.943185</ele>
        <time>2026-02-08T22:25:37.575Z</time>
      </trkpt>
      <trkpt lat="50.766050" lon="17.901215">
        <ele>151.185314</ele>
        <time>2026-02-08T22:25:53.521Z</time>
      </trkpt>
      <trkpt lat="50.765998" lon="17.901007">
        <ele>151.295565</ele>
        <time>2026-02-08T22:25:55.738Z</time>
      </trkpt>
      <trkpt lat="50.764650" lon="17.897839">
        <ele>153.196521</ele>
        <time>2026-02-08T22:26:47.791Z</time>
      </trkpt>
      <trkpt lat="50.762356" lon="17.892536">
        <ele>150.647510</ele>
        <time>2026-02-08T22:27:37.633Z</time>
      </trkpt>
      <trkpt lat="50.760269" lon="17.887662">
        <ele>151.343983</ele>
        <time>2026-02-08T22:28:37.767Z</time>
      </trkpt>
      <trkpt lat="50.759782" lon="17.886565">
        <ele>151.115148</ele>
        <time>2026-02-08T22:28:49.243Z</time>
      </trkpt>
      <trkpt lat="50.758831" lon="17.884441">
        <ele>150.750366</ele>
        <time>2026-02-08T22:29:11.695Z</time>
      </trkpt>
      <trkpt lat="50.758737" lon="17.884214">
        <ele>150.723247</ele>
        <time>2026-02-08T22:29:14.266Z</time>
      </trkpt>
      <trkpt lat="50.758695" lon="17.883888">
        <ele>150.689993</ele>
        <time>2026-02-08T22:29:17.509Z</time>
      </trkpt>
      <trkpt lat="50.759821" lon="17.878941">
        <ele>150.393304</ele>
        <time>2026-02-08T22:30:06.185Z</time>
      </trkpt>
      <trkpt lat="50.759875" lon="17.878712">
        <ele>150.368768</ele>
        <time>2026-02-08T22:30:08.303Z</time>
      </trkpt>
      <trkpt lat="50.760055" lon="17.877957">
        <ele>150.287765</ele>
        <time>2026-02-08T22:30:15.303Z</time>
      </trkpt>
      <trkpt lat="50.760132" lon="17.877629">
        <ele>150.252641</ele>
        <time>2026-02-08T22:30:18.367Z</time>
      </trkpt>
      <trkpt lat="50.760605" lon="17.875619">
        <ele>150.048048</ele>
        <time>2026-02-08T22:30:37.917Z</time>
      </trkpt>
      <trkpt lat="50.758614" lon="17.874488">
        <ele>149.472879</ele>
        <time>2026-02-08T22:31:07.712Z</time>
      </trkpt>
      <trkpt lat="50.758486" lon="17.874392">
        <ele>149.428558</ele>
        <time>2026-02-08T22:31:09.549Z</time>
      </trkpt>
      <trkpt lat="50.758408" lon="17.874284">
        <ele>149.390175</ele>
        <time>2026-02-08T22:31:10.883Z</time>
      </trkpt>
      <trkpt lat="50.758370" lon="17.874179">
        <ele>149.350700</ele>
        <time>2026-02-08T22:31:11.847Z</time>
      </trkpt>
      <trkpt lat="50.758353" lon="17.873930">
        <ele>149.268973</ele>
        <time>2026-02-08T22:31:13.844Z</time>
      </trkpt>
      <trkpt lat="50.758582" lon="17.872674">
        <ele>148.842423</ele>
        <time>2026-02-08T22:31:24.358Z</time>
      </trkpt>
      <trkpt lat="50.758591" lon="17.872426">
        <ele>148.761362</ele>
        <time>2026-02-08T22:31:26.428Z</time>
      </trkpt>
      <trkpt lat="50.758533" lon="17.872077">
        <ele>148.643610</ele>
        <time>2026-02-08T22:31:29.433Z</time>
      </trkpt>
      <trkpt lat="50.758491" lon="17.871963">
        <ele>148.600559</ele>
        <time>2026-02-08T22:31:30.541Z</time>
      </trkpt>
      <trkpt lat="50.758230" lon="17.871510">
        <ele>148.540548</ele>
        <time>2026-02-08T22:31:35.757Z</time>
      </trkpt>
      <trkpt lat="50.758082" lon="17.871311">
        <ele>148.622873</ele>
        <time>2026-02-08T22:31:38.640Z</time>
      </trkpt>
      <trkpt lat="50.757529" lon="17.870566">
        <ele>148.930733</ele>
        <time>2026-02-08T22:31:51.020Z</time>
      </trkpt>
      <trkpt lat="50.756892" lon="17.869708">
        <ele>149.305961</ele>
        <time>2026-02-08T22:32:05.875Z</time>
      </trkpt>
      <trkpt lat="50.756621" lon="17.869343">
        <ele>149.524788</ele>
        <time>2026-02-08T22:32:12.369Z</time>
      </trkpt>
      <trkpt lat="50.756522" lon="17.869250">
        <ele>149.595571</ele>
        <time>2026-02-08T22:32:14.480Z</time>
      </trkpt>
      <trkpt lat="50.756329" lon="17.869190">
        <ele>149.716467</ele>
        <time>2026-02-08T22:32:17.974Z</time>
      </trkpt>
      <trkpt lat="50.756257" lon="17.869204">
        <ele>149.761054</ele>
        <time>2026-02-08T22:32:19.239Z</time>
      </trkpt>
      <trkpt lat="50.756156" lon="17.869256">
        <ele>149.826341</ele>
        <time>2026-02-08T22:32:21.063Z</time>
      </trkpt>
      <trkpt lat="50.754869" lon="17.870511">
        <ele>150.621791</ele>
        <time>2026-02-08T22:32:46.354Z</time>
      </trkpt>
      <trkpt lat="50.754650" lon="17.870696">
        <ele>150.724623</ele>
        <time>2026-02-08T22:32:50.746Z</time>
      </trkpt>
      <trkpt lat="50.754460" lon="17.870800">
        <ele>150.807891</ele>
        <time>2026-02-08T22:32:54.283Z</time>
      </trkpt>
      <trkpt lat="50.754258" lon="17.870758">
        <ele>150.892265</ele>
        <time>2026-02-08T22:32:57.783Z</time>
      </trkpt>
      <trkpt lat="50.754126" lon="17.870608">
        <ele>150.959590</ele>
        <time>2026-02-08T22:33:00.544Z</time>
      </trkpt>
      <trkpt lat="50.754054" lon="17.870471">
        <ele>151.006252</ele>
        <time>2026-02-08T22:33:02.414Z</time>
      </trkpt>
      <trkpt lat="50.753917" lon="17.870145">
        <ele>151.043593</ele>
        <time>2026-02-08T22:33:06.264Z</time>
      </trkpt>
      <trkpt lat="50.753555" lon="17.869384">
        <ele>150.431668</ele>
        <time>2026-02-08T22:33:14.389Z</time>
      </trkpt>
      <trkpt lat="50.753481" lon="17.869169">
        <ele>150.274362</ele>
        <time>2026-02-08T22:33:16.318Z</time>
      </trkpt>
      <trkpt lat="50.753426" lon="17.868848">
        <ele>150.060622</ele>
        <time>2026-02-08T22:33:18.827Z</time>
      </trkpt>
      <trkpt lat="50.753434" lon="17.868347">
        <ele>149.738525</ele>
        <time>2026-02-08T22:33:22.456Z</time>
      </trkpt>
      <trkpt lat="50.753574" lon="17.867733">
        <ele>149.319059</ele>
        <time>2026-02-08T22:33:27.011Z</time>
      </trkpt>
      <trkpt lat="50.753850" lon="17.866770">
        <ele>148.797860</ele>
        <time>2026-02-08T22:33:34.590Z</time>
      </trkpt>
      <trkpt lat="50.753843" lon="17.866286">
        <ele>148.565743</ele>
        <time>2026-02-08T22:33:38.341Z</time>
      </trkpt>
      <trkpt lat="50.753816" lon="17.866173">
        <ele>148.507829</ele>
        <time>2026-02-08T22:33:39.305Z</time>
      </trkpt>
      <trkpt lat="50.753788" lon="17.866055">
        <ele>148.447405</ele>
        <time>2026-02-08T22:33:40.344Z</time>
      </trkpt>
      <trkpt lat="50.753616" lon="17.865644">
        <ele>148.211137</ele>
        <time>2026-02-08T22:33:44.530Z</time>
      </trkpt>
      <trkpt lat="50.752241" lon="17.864198">
        <ele>148.239534</ele>
        <time>2026-02-08T22:34:11.521Z</time>
      </trkpt>
      <trkpt lat="50.751672" lon="17.863600">
        <ele>148.384303</ele>
        <time>2026-02-08T22:34:22.202Z</time>
      </trkpt>
      <trkpt lat="50.750988" lon="17.862829">
        <ele>148.329301</ele>
        <time>2026-02-08T22:34:34.361Z</time>
      </trkpt>
      <trkpt lat="50.750067" lon="17.861958">
        <ele>148.279759</ele>
        <time>2026-02-08T22:34:49.615Z</time>
      </trkpt>
      <trkpt lat="50.748677" lon="17.860730">
        <ele>148.309194</ele>
        <time>2026-02-08T22:35:13.759Z</time>
      </trkpt>
      <trkpt lat="50.748632" lon="17.860673">
        <ele>148.303741</ele>
        <time>2026-02-08T22:35:14.602Z</time>
      </trkpt>
      <trkpt lat="50.748112" lon="17.860127">
        <ele>148.244706</ele>
        <time>2026-02-08T22:35:24.190Z</time>
      </trkpt>
      <trkpt lat="50.747622" lon="17.859634">
        <ele>148.189779</ele>
        <time>2026-02-08T22:35:32.614Z</time>
      </trkpt>
      <trkpt lat="50.747507" lon="17.859473">
        <ele>148.175251</ele>
        <time>2026-02-08T22:35:34.709Z</time>
      </trkpt>
      <trkpt lat="50.747398" lon="17.859864">
        <ele>148.149687</ele>
        <time>2026-02-08T22:35:38.389Z</time>
      </trkpt>
      <trkpt lat="50.747204" lon="17.860540">
        <ele>147.949978</ele>
        <time>2026-02-08T22:35:44.675Z</time>
      </trkpt>
      <trkpt lat="50.747052" lon="17.860819">
        <ele>147.835541</ele>
        <time>2026-02-08T22:35:47.707Z</time>
      </trkpt>
      <trkpt lat="50.746683" lon="17.861280">
        <ele>147.604479</ele>
        <time>2026-02-08T22:35:53.634Z</time>
      </trkpt>
      <trkpt lat="50.746109" lon="17.861775">
        <ele>147.283262</ele>
        <time>2026-02-08T22:36:02.237Z</time>
      </trkpt>
      <trkpt lat="50.745948" lon="17.861913">
        <ele>147.236181</ele>
        <time>2026-02-08T22:36:04.990Z</time>
      </trkpt>
      <trkpt lat="50.745679" lon="17.862206">
        <ele>147.180872</ele>
        <time>2026-02-08T22:36:10.018Z</time>
      </trkpt>
      <trkpt lat="50.745351" lon="17.862545">
        <ele>147.114522</ele>
        <time>2026-02-08T22:36:16.045Z</time>
      </trkpt>
      <trkpt lat="50.745225" lon="17.862629">
        <ele>147.091370</ele>
        <time>2026-02-08T22:36:18.025Z</time>
      </trkpt>
      <trkpt lat="50.744560" lon="17.863074">
        <ele>146.969111</ele>
        <time>2026-02-08T22:36:28.261Z</time>
      </trkpt>
      <trkpt lat="50.744281" lon="17.863380">
        <ele>146.888335</ele>
        <time>2026-02-08T22:36:32.668Z</time>
      </trkpt>
      <trkpt lat="50.744185" lon="17.863588">
        <ele>146.845687</ele>
        <time>2026-02-08T22:36:34.659Z</time>
      </trkpt>
      <trkpt lat="50.743847" lon="17.865333">
        <ele>146.543379</ele>
        <time>2026-02-08T22:36:50.725Z</time>
      </trkpt>
      <trkpt lat="50.743823" lon="17.866003">
        <ele>146.427679</ele>
        <time>2026-02-08T22:36:57.274Z</time>
      </trkpt>
      <trkpt lat="50.743726" lon="17.866791">
        <ele>146.282913</ele>
        <time>2026-02-08T22:37:04.943Z</time>
      </trkpt>
      <trkpt lat="50.743570" lon="17.866833">
        <ele>146.237815</ele>
        <time>2026-02-08T22:37:08.141Z</time>
      </trkpt>
      <trkpt lat="50.743496" lon="17.867092">
        <ele>146.186568</ele>
        <time>2026-02-08T22:37:11.678Z</time>
      </trkpt>
      <trkpt lat="50.743240" lon="17.868909">
        <ele>145.927686</ele>
        <time>2026-02-08T22:37:32.623Z</time>
      </trkpt>
      <trkpt lat="50.742911" lon="17.870875">
        <ele>145.795862</ele>
        <time>2026-02-08T22:37:59.111Z</time>
      </trkpt>
      <trkpt lat="50.742617" lon="17.872060">
        <ele>146.034056</ele>
        <time>2026-02-08T22:38:16.699Z</time>
      </trkpt>
      <trkpt lat="50.742354" lon="17.873119">
        <ele>146.283469</ele>
        <time>2026-02-08T22:38:32.213Z</time>
      </trkpt>
      <trkpt lat="50.742255" lon="17.873700">
        <ele>146.419053</ele>
        <time>2026-02-08T22:38:40.611Z</time>
      </trkpt>
      <trkpt lat="50.742231" lon="17.874061">
        <ele>146.549864</ele>
        <time>2026-02-08T22:38:45.747Z</time>
      </trkpt>
      <trkpt lat="50.742233" lon="17.874609">
        <ele>146.747352</ele>
        <time>2026-02-08T22:38:53.519Z</time>
      </trkpt>
      <trkpt lat="50.742344" lon="17.875854">
        <ele>147.200449</ele>
        <time>2026-02-08T22:39:11.590Z</time>
      </trkpt>
      <trkpt lat="50.742322" lon="17.876307">
        <ele>147.364179</ele>
        <time>2026-02-08T22:39:18.120Z</time>
      </trkpt>
      <trkpt lat="50.742255" lon="17.876654">
        <ele>147.484789</ele>
        <time>2026-02-08T22:39:23.336Z</time>
      </trkpt>
      <trkpt lat="50.741780" lon="17.877883">
        <ele>147.917484</ele>
        <time>2026-02-08T22:39:43.635Z</time>
      </trkpt>
      <trkpt lat="50.741897" lon="17.878042">
        <ele>147.990754</ele>
        <time>2026-02-08T22:40:01.070Z</time>
      </trkpt>
      <trkpt lat="50.741180" lon="17.878863">
        <ele>148.342425</ele>
        <time>2026-02-08T22:40:15.582Z</time>
      </trkpt>
      <trkpt lat="50.740705" lon="17.879279">
        <ele>148.456375</ele>
        <time>2026-02-08T22:40:23.778Z</time>
      </trkpt>
      <trkpt lat="50.740361" lon="17.879527">
        <ele>148.535713</ele>
        <time>2026-02-08T22:40:29.608Z</time>
      </trkpt>
      <trkpt lat="50.740024" lon="17.879611">
        <ele>148.607298</ele>
        <time>2026-02-08T22:40:35.116Z</time>
      </trkpt>
      <trkpt lat="50.739671" lon="17.879650">
        <ele>148.676500</ele>
        <time>2026-02-08T22:40:40.736Z</time>
      </trkpt>
      <trkpt lat="50.739156" lon="17.879868">
        <ele>148.753419</ele>
        <time>2026-02-08T22:40:49.078Z</time>
      </trkpt>
      <trkpt lat="50.738655" lon="17.880307">
        <ele>148.836069</ele>
        <time>2026-02-08T22:40:57.988Z</time>
      </trkpt>
      <trkpt lat="50.738234" lon="17.880751">
        <ele>148.909093</ele>
        <time>2026-02-08T22:41:05.711Z</time>
      </trkpt>
      <trkpt lat="50.738137" lon="17.880864">
        <ele>148.924635</ele>
        <time>2026-02-08T22:41:07.456Z</time>
      </trkpt>
      <trkpt lat="50.737290" lon="17.881872">
        <ele>148.900864</ele>
        <time>2026-02-08T22:41:22.632Z</time>
      </trkpt>
      <trkpt lat="50.737164" lon="17.882038">
        <ele>148.897186</ele>
        <time>2026-02-08T22:41:25.087Z</time>
      </trkpt>
      <trkpt lat="50.737035" lon="17.882199">
        <ele>148.893501</ele>
        <time>2026-02-08T22:41:27.552Z</time>
      </trkpt>
      <trkpt lat="50.736403" lon="17.882717">
        <ele>148.887499</ele>
        <time>2026-02-08T22:41:38.336Z</time>
      </trkpt>
      <trkpt lat="50.735031" lon="17.883767">
        <ele>148.892377</ele>
        <time>2026-02-08T22:42:01.191Z</time>
      </trkpt>
      <trkpt lat="50.734408" lon="17.884409">
        <ele>148.719741</ele>
        <time>2026-02-08T22:42:11.429Z</time>
      </trkpt>
      <trkpt lat="50.734119" lon="17.884745">
        <ele>148.636460</ele>
        <time>2026-02-08T22:42:16.201Z</time>
      </trkpt>
      <trkpt lat="50.733359" lon="17.885629">
        <ele>148.443468</ele>
        <time>2026-02-08T22:42:29.457Z</time>
      </trkpt>
      <trkpt lat="50.734043" lon="17.886533">
        <ele>148.317517</ele>
        <time>2026-02-08T22:42:42.737Z</time>
      </trkpt>
      <trkpt lat="50.734099" lon="17.886701">
        <ele>148.300543</ele>
        <time>2026-02-08T22:42:44.492Z</time>
      </trkpt>
      <trkpt lat="50.734105" lon="17.886913">
        <ele>148.281573</ele>
        <time>2026-02-08T22:42:46.440Z</time>
      </trkpt>
      <trkpt lat="50.734004" lon="17.887142">
        <ele>148.256621</ele>
        <time>2026-02-08T22:42:48.910Z</time>
      </trkpt>
      <trkpt lat="50.733881" lon="17.887151">
        <ele>148.239230</ele>
        <time>2026-02-08T22:42:50.558Z</time>
      </trkpt>
      <trkpt lat="50.733741" lon="17.887054">
        <ele>148.221178</ele>
        <time>2026-02-08T22:42:52.595Z</time>
      </trkpt>
      <trkpt lat="50.733254" lon="17.886338">
        <ele>148.154287</ele>
        <time>2026-02-08T22:43:01.745Z</time>
      </trkpt>
      <trkpt lat="50.732986" lon="17.886073">
        <ele>148.122497</ele>
        <time>2026-02-08T22:43:06.199Z</time>
      </trkpt>
      <trkpt lat="50.732552" lon="17.886569">
        <ele>148.068637</ele>
        <time>2026-02-08T22:43:14.038Z</time>
      </trkpt>
      <trkpt lat="50.732211" lon="17.886857">
        <ele>148.173761</ele>
        <time>2026-02-08T22:43:20.148Z</time>
      </trkpt>
      <trkpt lat="50.731519" lon="17.887175">
        <ele>148.641699</ele>
        <time>2026-02-08T22:43:32.915Z</time>
      </trkpt>
      <trkpt lat="50.731429" lon="17.887242">
        <ele>148.706299</ele>
        <time>2026-02-08T22:43:34.646Z</time>
      </trkpt>
      <trkpt lat="50.730149" lon="17.888512">
        <ele>149.398296</ele>
        <time>2026-02-08T22:44:01.796Z</time>
      </trkpt>
      <trkpt lat="50.729472" lon="17.889197">
        <ele>149.599393</ele>
        <time>2026-02-08T22:44:14.095Z</time>
      </trkpt>
      <trkpt lat="50.729282" lon="17.889267">
        <ele>149.648195</ele>
        <time>2026-02-08T22:44:16.762Z</time>
      </trkpt>
      <trkpt lat="50.729151" lon="17.889185">
        <ele>149.631241</ele>
        <time>2026-02-08T22:44:18.677Z</time>
      </trkpt>
      <trkpt lat="50.728481" lon="17.889561">
        <ele>149.249853</ele>
        <time>2026-02-08T22:44:31.888Z</time>
      </trkpt>
      <trkpt lat="50.727542" lon="17.890112">
        <ele>148.712552</ele>
        <time>2026-02-08T22:44:44.571Z</time>
      </trkpt>
      <trkpt lat="50.726945" lon="17.890504">
        <ele>148.529838</ele>
        <time>2026-02-08T22:44:56.794Z</time>
      </trkpt>
      <trkpt lat="50.725383" lon="17.891727">
        <ele>148.183466</ele>
        <time>2026-02-08T22:45:31.166Z</time>
      </trkpt>
      <trkpt lat="50.724760" lon="17.892104">
        <ele>148.154853</ele>
        <time>2026-02-08T22:45:45.044Z</time>
      </trkpt>
      <trkpt lat="50.724272" lon="17.892322">
        <ele>148.133102</ele>
        <time>2026-02-08T22:45:55.243Z</time>
      </trkpt>
      <trkpt lat="50.723968" lon="17.892462">
        <ele>148.012225</ele>
        <time>2026-02-08T22:45:59.661Z</time>
      </trkpt>
      <trkpt lat="50.723886" lon="17.892552">
        <ele>147.967351</ele>
        <time>2026-02-08T22:46:01.034Z</time>
      </trkpt>
      <trkpt lat="50.723852" lon="17.892662">
        <ele>147.932524</ele>
        <time>2026-02-08T22:46:02.084Z</time>
      </trkpt>
      <trkpt lat="50.723889" lon="17.892987">
        <ele>147.838577</ele>
        <time>2026-02-08T22:46:04.890Z</time>
      </trkpt>
      <trkpt lat="50.723928" lon="17.893191">
        <ele>147.777949</ele>
        <time>2026-02-08T22:46:06.665Z</time>
      </trkpt>
      <trkpt lat="50.724426" lon="17.896137">
        <ele>147.438845</ele>
        <time>2026-02-08T22:46:31.815Z</time>
      </trkpt>
      <trkpt lat="50.724819" lon="17.898505">
        <ele>148.322293</ele>
        <time>2026-02-08T22:47:08.343Z</time>
      </trkpt>
      <trkpt lat="50.724935" lon="17.898972">
        <ele>148.689118</ele>
        <time>2026-02-08T22:47:16.703Z</time>
      </trkpt>
      <trkpt lat="50.725171" lon="17.899397">
        <ele>149.102500</ele>
        <time>2026-02-08T22:47:24.066Z</time>
      </trkpt>
      <trkpt lat="50.725244" lon="17.899962">
        <ele>149.524152</ele>
        <time>2026-02-08T22:47:31.639Z</time>
      </trkpt>
      <trkpt lat="50.725264" lon="17.900121">
        <ele>149.632005</ele>
        <time>2026-02-08T22:47:33.755Z</time>
      </trkpt>
      <trkpt lat="50.725096" lon="17.900185">
        <ele>149.683436</ele>
        <time>2026-02-08T22:47:37.203Z</time>
      </trkpt>
      <trkpt lat="50.724837" lon="17.900261">
        <ele>149.761835</ele>
        <time>2026-02-08T22:47:42.048Z</time>
      </trkpt>
      <trkpt lat="50.724311" lon="17.900333">
        <ele>149.918961</ele>
        <time>2026-02-08T22:47:50.644Z</time>
      </trkpt>
      <trkpt lat="50.723480" lon="17.900355">
        <ele>150.163294</ele>
        <time>2026-02-08T22:48:02.214Z</time>
      </trkpt>
      <trkpt lat="50.722971" lon="17.900361">
        <ele>150.147240</ele>
        <time>2026-02-08T22:48:09.068Z</time>
      </trkpt>
      <trkpt lat="50.722567" lon="17.900417">
        <ele>150.134449</ele>
        <time>2026-02-08T22:48:14.413Z</time>
      </trkpt>
      <trkpt lat="50.722443" lon="17.900444">
        <ele>150.130501</ele>
        <time>2026-02-08T22:48:16.019Z</time>
      </trkpt>
      <trkpt lat="50.722071" lon="17.900598">
        <ele>150.118372</ele>
        <time>2026-02-08T22:48:21.556Z</time>
      </trkpt>
      <trkpt lat="50.721789" lon="17.900764">
        <ele>150.108880</ele>
        <time>2026-02-08T22:48:26.831Z</time>
      </trkpt>
      <trkpt lat="50.721423" lon="17.901073">
        <ele>150.476215</ele>
        <time>2026-02-08T22:48:35.016Z</time>
      </trkpt>
      <trkpt lat="50.721036" lon="17.901497">
        <ele>150.972183</ele>
        <time>2026-02-08T22:48:44.763Z</time>
      </trkpt>
      <trkpt lat="50.720821" lon="17.901777">
        <ele>151.265620</ele>
        <time>2026-02-08T22:48:50.262Z</time>
      </trkpt>
      <trkpt lat="50.720806" lon="17.901799">
        <ele>151.287176</ele>
        <time>2026-02-08T22:48:50.656Z</time>
      </trkpt>
      <trkpt lat="50.720771" lon="17.901846">
        <ele>151.335552</ele>
        <time>2026-02-08T22:48:51.603Z</time>
      </trkpt>
      <trkpt lat="50.720691" lon="17.901952">
        <ele>151.445511</ele>
        <time>2026-02-08T22:48:53.666Z</time>
      </trkpt>
      <trkpt lat="50.720405" lon="17.902318">
        <ele>151.833125</ele>
        <time>2026-02-08T22:49:01.251Z</time>
      </trkpt>
      <trkpt lat="50.720380" lon="17.902353">
        <ele>151.868304</ele>
        <time>2026-02-08T22:49:01.892Z</time>
      </trkpt>
      <trkpt lat="50.720178" lon="17.902659">
        <ele>151.930444</ele>
        <time>2026-02-08T22:49:06.822Z</time>
      </trkpt>
      <trkpt lat="50.720084" lon="17.902759">
        <ele>151.878569</ele>
        <time>2026-02-08T22:49:08.553Z</time>
      </trkpt>
      <trkpt lat="50.720139" lon="17.903140">
        <ele>151.765325</ele>
        <time>2026-02-08T22:49:11.958Z</time>
      </trkpt>
      <trkpt lat="50.720143" lon="17.903272">
        <ele>151.727029</ele>
        <time>2026-02-08T22:49:13.072Z</time>
      </trkpt>
      <trkpt lat="50.720158" lon="17.903904">
        <ele>151.543754</ele>
        <time>2026-02-08T22:49:18.073Z</time>
      </trkpt>
      <trkpt lat="50.720160" lon="17.904271">
        <ele>151.437397</ele>
        <time>2026-02-08T22:49:20.906Z</time>
      </trkpt>
      <trkpt lat="50.720159" lon="17.904942">
        <ele>151.242948</ele>
        <time>2026-02-08T22:49:26.191Z</time>
      </trkpt>
      <trkpt lat="50.720120" lon="17.905337">
        <ele>151.123835</ele>
        <time>2026-02-08T22:49:29.307Z</time>
      </trkpt>
      <trkpt lat="50.720112" lon="17.905375">
        <ele>151.111480</ele>
        <time>2026-02-08T22:49:29.623Z</time>
      </trkpt>
      <trkpt lat="50.719810" lon="17.906270">
        <ele>150.798600</ele>
        <time>2026-02-08T22:49:37.593Z</time>
      </trkpt>
      <trkpt lat="50.719747" lon="17.906554">
        <ele>150.705761</ele>
        <time>2026-02-08T22:49:40.121Z</time>
      </trkpt>
      <trkpt lat="50.719669" lon="17.907193">
        <ele>150.504994</ele>
        <time>2026-02-08T22:49:45.809Z</time>
      </trkpt>
      <trkpt lat="50.719518" lon="17.907625">
        <ele>150.352756</ele>
        <time>2026-02-08T22:49:50.264Z</time>
      </trkpt>
      <trkpt lat="50.718383" lon="17.909610">
        <ele>150.613160</ele>
        <time>2026-02-08T22:50:16.585Z</time>
      </trkpt>
      <trkpt lat="50.718192" lon="17.909827">
        <ele>150.665368</ele>
        <time>2026-02-08T22:50:20.515Z</time>
      </trkpt>
      <trkpt lat="50.717722" lon="17.910119">
        <ele>150.889204</ele>
        <time>2026-02-08T22:50:29.173Z</time>
      </trkpt>
      <trkpt lat="50.717542" lon="17.910298">
        <ele>150.983474</ele>
        <time>2026-02-08T22:50:32.847Z</time>
      </trkpt>
      <trkpt lat="50.717179" lon="17.910804">
        <ele>151.198049</ele>
        <time>2026-02-08T22:50:40.933Z</time>
      </trkpt>
      <trkpt lat="50.716834" lon="17.911326">
        <ele>151.409790</ele>
        <time>2026-02-08T22:50:48.629Z</time>
      </trkpt>
      <trkpt lat="50.716758" lon="17.911436">
        <ele>151.454177</ele>
        <time>2026-02-08T22:50:50.291Z</time>
      </trkpt>
      <trkpt lat="50.716103" lon="17.912403">
        <ele>151.711611</ele>
        <time>2026-02-08T22:51:04.477Z</time>
      </trkpt>
      <trkpt lat="50.715632" lon="17.913204">
        <ele>151.910339</ele>
        <time>2026-02-08T22:51:15.404Z</time>
      </trkpt>
      <trkpt lat="50.714851" lon="17.914757">
        <ele>152.197802</ele>
        <time>2026-02-08T22:51:35.734Z</time>
      </trkpt>
      <trkpt lat="50.714805" lon="17.914851">
        <ele>152.214185</ele>
        <time>2026-02-08T22:51:36.888Z</time>
      </trkpt>
      <trkpt lat="50.714241" lon="17.915968">
        <ele>152.382793</ele>
        <time>2026-02-08T22:51:50.594Z</time>
      </trkpt>
      <trkpt lat="50.713706" lon="17.917045">
        <ele>152.466948</ele>
        <time>2026-02-08T22:52:03.552Z</time>
      </trkpt>
      <trkpt lat="50.713410" lon="17.917781">
        <ele>152.520551</ele>
        <time>2026-02-08T22:52:12.076Z</time>
      </trkpt>
      <trkpt lat="50.713197" lon="17.918433">
        <ele>152.610198</ele>
        <time>2026-02-08T22:52:19.297Z</time>
      </trkpt>
      <trkpt lat="50.712720" lon="17.920103">
        <ele>152.884241</ele>
        <time>2026-02-08T22:52:37.586Z</time>
      </trkpt>
      <trkpt lat="50.712698" lon="17.920180">
        <ele>152.896877</ele>
        <time>2026-02-08T22:52:38.462Z</time>
      </trkpt>
      <trkpt lat="50.712391" lon="17.921183">
        <ele>153.069341</ele>
        <time>2026-02-08T22:52:50.072Z</time>
      </trkpt>
      <trkpt lat="50.712267" lon="17.921485">
        <ele>153.126194</ele>
        <time>2026-02-08T22:52:53.638Z</time>
      </trkpt>
      <trkpt lat="50.712061" lon="17.921872">
        <ele>153.206052</ele>
        <time>2026-02-08T22:52:58.544Z</time>
      </trkpt>
      <trkpt lat="50.711864" lon="17.922179">
        <ele>153.275092</ele>
        <time>2026-02-08T22:53:02.889Z</time>
      </trkpt>
      <trkpt lat="50.711359" lon="17.922928">
        <ele>153.411847</ele>
        <time>2026-02-08T22:53:13.934Z</time>
      </trkpt>
      <trkpt lat="50.711210" lon="17.923147">
        <ele>153.416577</ele>
        <time>2026-02-08T22:53:17.023Z</time>
      </trkpt>
      <trkpt lat="50.711179" lon="17.923193">
        <ele>153.417566</ele>
        <time>2026-02-08T22:53:17.682Z</time>
      </trkpt>
      <trkpt lat="50.710943" lon="17.923540">
        <ele>153.425060</ele>
        <time>2026-02-08T22:53:22.507Z</time>
      </trkpt>
      <trkpt lat="50.710745" lon="17.923836">
        <ele>153.431396</ele>
        <time>2026-02-08T22:53:26.664Z</time>
      </trkpt>
      <trkpt lat="50.709579" lon="17.925552">
        <ele>153.292066</ele>
        <time>2026-02-08T22:53:49.875Z</time>
      </trkpt>
      <trkpt lat="50.709494" lon="17.925680">
        <ele>153.268766</ele>
        <time>2026-02-08T22:53:51.500Z</time>
      </trkpt>
      <trkpt lat="50.708923" lon="17.926519">
        <ele>153.114039</ele>
        <time>2026-02-08T22:54:02.113Z</time>
      </trkpt>
      <trkpt lat="50.708369" lon="17.927335">
        <ele>152.958766</ele>
        <time>2026-02-08T22:54:12.449Z</time>
      </trkpt>
      <trkpt lat="50.707831" lon="17.928116">
        <ele>152.808208</ele>
        <time>2026-02-08T22:54:22.723Z</time>
      </trkpt>
      <trkpt lat="50.706996" lon="17.929175">
        <ele>152.764252</ele>
        <time>2026-02-08T22:54:38.797Z</time>
      </trkpt>
      <trkpt lat="50.706739" lon="17.929543">
        <ele>152.786320</ele>
        <time>2026-02-08T22:54:44.116Z</time>
      </trkpt>
      <trkpt lat="50.705325" lon="17.932023">
        <ele>152.881444</ele>
        <time>2026-02-08T22:55:16.032Z</time>
      </trkpt>
      <trkpt lat="50.705156" lon="17.932334">
        <ele>152.890206</ele>
        <time>2026-02-08T22:55:19.899Z</time>
      </trkpt>
      <trkpt lat="50.704959" lon="17.932709">
        <ele>152.897709</ele>
        <time>2026-02-08T22:55:24.421Z</time>
      </trkpt>
      <trkpt lat="50.704877" lon="17.932555">
        <ele>152.897709</ele>
        <time>2026-02-08T22:55:38.555Z</time>
      </trkpt>
      <trkpt lat="50.704770" lon="17.932492">
        <ele>152.897709</ele>
        <time>2026-02-08T22:55:51.229Z</time>
      </trkpt>
      <trkpt lat="50.704385" lon="17.932464">
        <ele>152.897709</ele>
        <time>2026-02-08T22:56:34.036Z</time>
      </trkpt>
      <trkpt lat="50.704328" lon="17.932513">
        <ele>152.897709</ele>
        <time>2026-02-08T22:56:41.237Z</time>
      </trkpt>
      <trkpt lat="50.704301" lon="17.932839">
        <ele>152.897709</ele>
        <time>2026-02-08T22:56:44.262Z</time>
      </trkpt>
    </trkseg>
  </trk>
</gpx>