<?xml version='1.0' encoding='UTF-8'?>
<gpx version="1.1" creator="https://www.komoot.de" xmlns="http://www.topografix.com/GPX/1/1" xmlns:xsi="http://www.w3.org/2001/XMLSchema-instance" xsi:schemaLocation="http://www.topografix.com/GPX/1/1 http://www.topografix.com/GPX/1/1/gpx.xsd">
  <metadata>
    <name>GraveLova Środa #088 - Reggae na lodzie</name>
    <author>
      <link href="https://www.komoot.de">
        <text>komoot</text>
        <type>text/html</type>
      </link>
    </author>
  </metadata>
  <trk>
    <name>GraveLova Środa #088 - Reggae na lodzie</name>
    <trkseg>
      <trkpt lat="50.649827" lon="18.044469">
        <ele>164.147936</ele>
        <time>2026-01-19T20:18:46.769Z</time>
      </trkpt>
      <trkpt lat="50.649965" lon="18.044339">
        <ele>164.147936</ele>
        <time>2026-01-19T20:18:52.575Z</time>
      </trkpt>
      <trkpt lat="50.650096" lon="18.044216">
        <ele>164.147936</ele>
        <time>2026-01-19T20:18:58.018Z</time>
      </trkpt>
      <trkpt lat="50.650170" lon="18.044089">
        <ele>164.147936</ele>
        <time>2026-01-19T20:19:01.919Z</time>
      </trkpt>
      <trkpt lat="50.650277" lon="18.044065">
        <ele>164.147936</ele>
        <time>2026-01-19T20:19:03.355Z</time>
      </trkpt>
      <trkpt lat="50.650367" lon="18.043979">
        <ele>164.147936</ele>
        <time>2026-01-19T20:19:04.747Z</time>
      </trkpt>
      <trkpt lat="50.650567" lon="18.043805">
        <ele>164.147936</ele>
        <time>2026-01-19T20:19:07.802Z</time>
      </trkpt>
      <trkpt lat="50.651046" lon="18.043426">
        <ele>164.093297</ele>
        <time>2026-01-19T20:19:14.935Z</time>
      </trkpt>
      <trkpt lat="50.651066" lon="18.043412">
        <ele>164.090909</ele>
        <time>2026-01-19T20:19:15.208Z</time>
      </trkpt>
      <trkpt lat="50.651255" lon="18.043277">
        <ele>164.068275</ele>
        <time>2026-01-19T20:19:17.874Z</time>
      </trkpt>
      <trkpt lat="50.651299" lon="18.043367">
        <ele>164.060414</ele>
        <time>2026-01-19T20:19:18.818Z</time>
      </trkpt>
      <trkpt lat="50.651871" lon="18.044520">
        <ele>163.959151</ele>
        <time>2026-01-19T20:19:33.017Z</time>
      </trkpt>
      <trkpt lat="50.651946" lon="18.044670">
        <ele>163.978945</ele>
        <time>2026-01-19T20:19:35.107Z</time>
      </trkpt>
      <trkpt lat="50.652029" lon="18.044839">
        <ele>164.048605</ele>
        <time>2026-01-19T20:19:37.490Z</time>
      </trkpt>
      <trkpt lat="50.653095" lon="18.046734">
        <ele>164.874113</ele>
        <time>2026-01-19T20:20:04.934Z</time>
      </trkpt>
      <trkpt lat="50.654144" lon="18.048580">
        <ele>165.570031</ele>
        <time>2026-01-19T20:20:30.806Z</time>
      </trkpt>
      <trkpt lat="50.654172" lon="18.048637">
        <ele>165.590266</ele>
        <time>2026-01-19T20:20:31.577Z</time>
      </trkpt>
      <trkpt lat="50.654086" lon="18.048672">
        <ele>165.629577</ele>
        <time>2026-01-19T20:20:33.108Z</time>
      </trkpt>
      <trkpt lat="50.653930" lon="18.048898">
        <ele>165.668857</ele>
        <time>2026-01-19T20:20:36.756Z</time>
      </trkpt>
      <trkpt lat="50.653849" lon="18.049116">
        <ele>165.664185</ele>
        <time>2026-01-19T20:20:39.527Z</time>
      </trkpt>
      <trkpt lat="50.653853" lon="18.049214">
        <ele>165.662369</ele>
        <time>2026-01-19T20:20:40.604Z</time>
      </trkpt>
      <trkpt lat="50.653885" lon="18.049305">
        <ele>165.660445</ele>
        <time>2026-01-19T20:20:41.734Z</time>
      </trkpt>
      <trkpt lat="50.655172" lon="18.051606">
        <ele>164.820041</ele>
        <time>2026-01-19T20:21:09.201Z</time>
      </trkpt>
      <trkpt lat="50.656542" lon="18.053838">
        <ele>162.040161</ele>
        <time>2026-01-19T20:21:30.720Z</time>
      </trkpt>
      <trkpt lat="50.656666" lon="18.054095">
        <ele>161.765679</ele>
        <time>2026-01-19T20:21:33.060Z</time>
      </trkpt>
      <trkpt lat="50.656640" lon="18.054235">
        <ele>161.641695</ele>
        <time>2026-01-19T20:21:34.126Z</time>
      </trkpt>
      <trkpt lat="50.656443" lon="18.054490">
        <ele>161.300061</ele>
        <time>2026-01-19T20:21:37.166Z</time>
      </trkpt>
      <trkpt lat="50.656283" lon="18.054760">
        <ele>160.985953</ele>
        <time>2026-01-19T20:21:40.084Z</time>
      </trkpt>
      <trkpt lat="50.656188" lon="18.055043">
        <ele>160.713797</ele>
        <time>2026-01-19T20:21:42.751Z</time>
      </trkpt>
      <trkpt lat="50.656042" lon="18.055842">
        <ele>160.645446</ele>
        <time>2026-01-19T20:21:50.486Z</time>
      </trkpt>
      <trkpt lat="50.655793" lon="18.056853">
        <ele>160.722398</ele>
        <time>2026-01-19T20:22:01.431Z</time>
      </trkpt>
      <trkpt lat="50.655739" lon="18.057071">
        <ele>160.739003</ele>
        <time>2026-01-19T20:22:03.837Z</time>
      </trkpt>
      <trkpt lat="50.655782" lon="18.057190">
        <ele>160.748721</ele>
        <time>2026-01-19T20:22:05.254Z</time>
      </trkpt>
      <trkpt lat="50.655865" lon="18.057260">
        <ele>160.759254</ele>
        <time>2026-01-19T20:22:06.792Z</time>
      </trkpt>
      <trkpt lat="50.656462" lon="18.057621">
        <ele>160.833932</ele>
        <time>2026-01-19T20:22:16.914Z</time>
      </trkpt>
      <trkpt lat="50.656509" lon="18.057636">
        <ele>160.839803</ele>
        <time>2026-01-19T20:22:17.686Z</time>
      </trkpt>
      <trkpt lat="50.656593" lon="18.057602">
        <ele>160.850420</ele>
        <time>2026-01-19T20:22:19.026Z</time>
      </trkpt>
      <trkpt lat="50.656906" lon="18.057327">
        <ele>160.894284</ele>
        <time>2026-01-19T20:22:24.562Z</time>
      </trkpt>
      <trkpt lat="50.657025" lon="18.057314">
        <ele>160.908888</ele>
        <time>2026-01-19T20:22:26.362Z</time>
      </trkpt>
      <trkpt lat="50.657859" lon="18.057328">
        <ele>161.011000</ele>
        <time>2026-01-19T20:22:38.834Z</time>
      </trkpt>
      <trkpt lat="50.658777" lon="18.059050">
        <ele>161.085564</ele>
        <time>2026-01-19T20:23:00.467Z</time>
      </trkpt>
      <trkpt lat="50.658943" lon="18.059356">
        <ele>161.098190</ele>
        <time>2026-01-19T20:23:05.699Z</time>
      </trkpt>
      <trkpt lat="50.660825" lon="18.062816">
        <ele>161.397308</ele>
        <time>2026-01-19T20:23:48.736Z</time>
      </trkpt>
      <trkpt lat="50.661680" lon="18.064386">
        <ele>161.916720</ele>
        <time>2026-01-19T20:24:10.577Z</time>
      </trkpt>
      <trkpt lat="50.661727" lon="18.064443">
        <ele>161.957855</ele>
        <time>2026-01-19T20:24:11.635Z</time>
      </trkpt>
      <trkpt lat="50.661883" lon="18.064647">
        <ele>162.098455</ele>
        <time>2026-01-19T20:24:15.269Z</time>
      </trkpt>
      <trkpt lat="50.662010" lon="18.064779">
        <ele>162.203985</ele>
        <time>2026-01-19T20:24:17.991Z</time>
      </trkpt>
      <trkpt lat="50.662532" lon="18.065175">
        <ele>162.605895</ele>
        <time>2026-01-19T20:24:28.857Z</time>
      </trkpt>
      <trkpt lat="50.662714" lon="18.065310">
        <ele>162.745444</ele>
        <time>2026-01-19T20:24:32.679Z</time>
      </trkpt>
      <trkpt lat="50.662874" lon="18.065536">
        <ele>162.872072</ele>
        <time>2026-01-19T20:24:36.510Z</time>
      </trkpt>
      <trkpt lat="50.662914" lon="18.065709">
        <ele>162.892514</ele>
        <time>2026-01-19T20:24:38.416Z</time>
      </trkpt>
      <trkpt lat="50.662925" lon="18.065903">
        <ele>162.914135</ele>
        <time>2026-01-19T20:24:40.269Z</time>
      </trkpt>
      <trkpt lat="50.662919" lon="18.066058">
        <ele>162.931374</ele>
        <time>2026-01-19T20:24:41.724Z</time>
      </trkpt>
      <trkpt lat="50.662925" lon="18.066261">
        <ele>162.953933</ele>
        <time>2026-01-19T20:24:43.665Z</time>
      </trkpt>
      <trkpt lat="50.662958" lon="18.066452">
        <ele>162.975909</ele>
        <time>2026-01-19T20:24:45.606Z</time>
      </trkpt>
      <trkpt lat="50.663037" lon="18.066870">
        <ele>163.024329</ele>
        <time>2026-01-19T20:24:49.865Z</time>
      </trkpt>
      <trkpt lat="50.663104" lon="18.067138">
        <ele>163.056309</ele>
        <time>2026-01-19T20:24:52.649Z</time>
      </trkpt>
      <trkpt lat="50.663244" lon="18.067618">
        <ele>163.114963</ele>
        <time>2026-01-19T20:24:57.742Z</time>
      </trkpt>
      <trkpt lat="50.663340" lon="18.067810">
        <ele>163.142109</ele>
        <time>2026-01-19T20:25:00.000Z</time>
      </trkpt>
      <trkpt lat="50.663476" lon="18.068054">
        <ele>163.178176</ele>
        <time>2026-01-19T20:25:02.977Z</time>
      </trkpt>
      <trkpt lat="50.664162" lon="18.069443">
        <ele>163.106227</ele>
        <time>2026-01-19T20:25:19.263Z</time>
      </trkpt>
      <trkpt lat="50.663727" lon="18.069879">
        <ele>163.072164</ele>
        <time>2026-01-19T20:25:26.752Z</time>
      </trkpt>
      <trkpt lat="50.663181" lon="18.070550">
        <ele>163.056236</ele>
        <time>2026-01-19T20:25:36.800Z</time>
      </trkpt>
      <trkpt lat="50.662798" lon="18.071243">
        <ele>163.051300</ele>
        <time>2026-01-19T20:25:45.420Z</time>
      </trkpt>
      <trkpt lat="50.662386" lon="18.071966">
        <ele>163.046081</ele>
        <time>2026-01-19T20:25:54.656Z</time>
      </trkpt>
      <trkpt lat="50.662146" lon="18.072324">
        <ele>163.052920</ele>
        <time>2026-01-19T20:25:59.676Z</time>
      </trkpt>
      <trkpt lat="50.661732" lon="18.072938">
        <ele>163.070174</ele>
        <time>2026-01-19T20:26:08.262Z</time>
      </trkpt>
      <trkpt lat="50.661411" lon="18.073398">
        <ele>163.083342</ele>
        <time>2026-01-19T20:26:14.657Z</time>
      </trkpt>
      <trkpt lat="50.661319" lon="18.073471">
        <ele>163.086469</ele>
        <time>2026-01-19T20:26:16.179Z</time>
      </trkpt>
      <trkpt lat="50.661186" lon="18.073511">
        <ele>163.090580</ele>
        <time>2026-01-19T20:26:18.202Z</time>
      </trkpt>
      <trkpt lat="50.660850" lon="18.073518">
        <ele>163.099310</ele>
        <time>2026-01-19T20:26:23.215Z</time>
      </trkpt>
      <trkpt lat="50.660711" lon="18.073552">
        <ele>163.095552</ele>
        <time>2026-01-19T20:26:25.293Z</time>
      </trkpt>
      <trkpt lat="50.660530" lon="18.073759">
        <ele>163.089578</ele>
        <time>2026-01-19T20:26:28.596Z</time>
      </trkpt>
      <trkpt lat="50.660274" lon="18.074058">
        <ele>163.081067</ele>
        <time>2026-01-19T20:26:33.228Z</time>
      </trkpt>
      <trkpt lat="50.660173" lon="18.074241">
        <ele>163.076957</ele>
        <time>2026-01-19T20:26:35.453Z</time>
      </trkpt>
      <trkpt lat="50.660030" lon="18.074504">
        <ele>163.071088</ele>
        <time>2026-01-19T20:26:38.652Z</time>
      </trkpt>
      <trkpt lat="50.659949" lon="18.074648">
        <ele>163.067827</ele>
        <time>2026-01-19T20:26:41.087Z</time>
      </trkpt>
      <trkpt lat="50.659522" lon="18.075205">
        <ele>163.053022</ele>
        <time>2026-01-19T20:26:49.310Z</time>
      </trkpt>
      <trkpt lat="50.659388" lon="18.075314">
        <ele>163.043507</ele>
        <time>2026-01-19T20:26:51.515Z</time>
      </trkpt>
      <trkpt lat="50.659256" lon="18.075321">
        <ele>163.033408</ele>
        <time>2026-01-19T20:26:53.448Z</time>
      </trkpt>
      <trkpt lat="50.659158" lon="18.075310">
        <ele>163.025895</ele>
        <time>2026-01-19T20:26:54.862Z</time>
      </trkpt>
      <trkpt lat="50.659068" lon="18.076359">
        <ele>162.974581</ele>
        <time>2026-01-19T20:27:04.554Z</time>
      </trkpt>
      <trkpt lat="50.658021" lon="18.083453">
        <ele>162.568031</ele>
        <time>2026-01-19T20:28:11.335Z</time>
      </trkpt>
      <trkpt lat="50.657433" lon="18.087616">
        <ele>162.888103</ele>
        <time>2026-01-19T20:28:52.477Z</time>
      </trkpt>
      <trkpt lat="50.657269" lon="18.088340">
        <ele>162.979905</ele>
        <time>2026-01-19T20:29:00.255Z</time>
      </trkpt>
      <trkpt lat="50.657137" lon="18.088764">
        <ele>163.075450</ele>
        <time>2026-01-19T20:29:05.136Z</time>
      </trkpt>
      <trkpt lat="50.656048" lon="18.091813">
        <ele>164.194411</ele>
        <time>2026-01-19T20:29:42.843Z</time>
      </trkpt>
      <trkpt lat="50.655892" lon="18.092251">
        <ele>164.361669</ele>
        <time>2026-01-19T20:29:48.307Z</time>
      </trkpt>
      <trkpt lat="50.655603" lon="18.093157">
        <ele>164.699332</ele>
        <time>2026-01-19T20:29:59.228Z</time>
      </trkpt>
      <trkpt lat="50.655535" lon="18.093484">
        <ele>164.813908</ele>
        <time>2026-01-19T20:30:02.870Z</time>
      </trkpt>
      <trkpt lat="50.655345" lon="18.094936">
        <ele>165.253940</ele>
        <time>2026-01-19T20:30:17.795Z</time>
      </trkpt>
      <trkpt lat="50.655220" lon="18.095941">
        <ele>165.554819</ele>
        <time>2026-01-19T20:30:28.691Z</time>
      </trkpt>
      <trkpt lat="50.654936" lon="18.098090">
        <ele>166.548197</ele>
        <time>2026-01-19T20:30:54.060Z</time>
      </trkpt>
      <trkpt lat="50.654814" lon="18.098827">
        <ele>166.923589</ele>
        <time>2026-01-19T20:31:03.021Z</time>
      </trkpt>
      <trkpt lat="50.654583" lon="18.099635">
        <ele>167.223258</ele>
        <time>2026-01-19T20:31:12.455Z</time>
      </trkpt>
      <trkpt lat="50.654606" lon="18.099741">
        <ele>167.251118</ele>
        <time>2026-01-19T20:31:13.549Z</time>
      </trkpt>
      <trkpt lat="50.654668" lon="18.099819">
        <ele>167.282225</ele>
        <time>2026-01-19T20:31:14.773Z</time>
      </trkpt>
      <trkpt lat="50.654733" lon="18.099991">
        <ele>167.332019</ele>
        <time>2026-01-19T20:31:16.693Z</time>
      </trkpt>
      <trkpt lat="50.654748" lon="18.100129">
        <ele>167.366836</ele>
        <time>2026-01-19T20:31:18.011Z</time>
      </trkpt>
      <trkpt lat="50.654747" lon="18.100524">
        <ele>167.465063</ele>
        <time>2026-01-19T20:31:21.746Z</time>
      </trkpt>
      <trkpt lat="50.654742" lon="18.101640">
        <ele>167.742590</ele>
        <time>2026-01-19T20:31:33.408Z</time>
      </trkpt>
      <trkpt lat="50.654700" lon="18.101616">
        <ele>167.760111</ele>
        <time>2026-01-19T20:31:34.184Z</time>
      </trkpt>
      <trkpt lat="50.654447" lon="18.101475">
        <ele>167.952583</ele>
        <time>2026-01-19T20:31:38.771Z</time>
      </trkpt>
      <trkpt lat="50.654192" lon="18.101408">
        <ele>168.169895</ele>
        <time>2026-01-19T20:31:43.296Z</time>
      </trkpt>
      <trkpt lat="50.654055" lon="18.101400">
        <ele>168.285138</ele>
        <time>2026-01-19T20:31:46.476Z</time>
      </trkpt>
      <trkpt lat="50.653688" lon="18.101314">
        <ele>168.597032</ele>
        <time>2026-01-19T20:31:53.301Z</time>
      </trkpt>
      <trkpt lat="50.653313" lon="18.101114">
        <ele>168.929798</ele>
        <time>2026-01-19T20:32:00.849Z</time>
      </trkpt>
      <trkpt lat="50.652629" lon="18.100641">
        <ele>169.468209</ele>
        <time>2026-01-19T20:32:14.965Z</time>
      </trkpt>
      <trkpt lat="50.652430" lon="18.100769">
        <ele>169.585917</ele>
        <time>2026-01-19T20:32:18.815Z</time>
      </trkpt>
      <trkpt lat="50.651767" lon="18.101526">
        <ele>170.034208</ele>
        <time>2026-01-19T20:32:33.153Z</time>
      </trkpt>
      <trkpt lat="50.651391" lon="18.102028">
        <ele>170.267973</ele>
        <time>2026-01-19T20:32:41.185Z</time>
      </trkpt>
      <trkpt lat="50.649905" lon="18.104464">
        <ele>168.899221</ele>
        <time>2026-01-19T20:33:08.683Z</time>
      </trkpt>
      <trkpt lat="50.649610" lon="18.105045">
        <ele>168.418325</ele>
        <time>2026-01-19T20:33:14.097Z</time>
      </trkpt>
      <trkpt lat="50.649188" lon="18.106016">
        <ele>167.657755</ele>
        <time>2026-01-19T20:33:22.959Z</time>
      </trkpt>
      <trkpt lat="50.648668" lon="18.107427">
        <ele>167.399296</ele>
        <time>2026-01-19T20:33:36.864Z</time>
      </trkpt>
      <trkpt lat="50.648076" lon="18.108537">
        <ele>167.342215</ele>
        <time>2026-01-19T20:33:51.834Z</time>
      </trkpt>
      <trkpt lat="50.647943" lon="18.108837">
        <ele>167.414845</ele>
        <time>2026-01-19T20:33:55.606Z</time>
      </trkpt>
      <trkpt lat="50.646909" lon="18.111836">
        <ele>168.337146</ele>
        <time>2026-01-19T20:34:31.133Z</time>
      </trkpt>
      <trkpt lat="50.646488" lon="18.112898">
        <ele>168.716629</ele>
        <time>2026-01-19T20:34:44.555Z</time>
      </trkpt>
      <trkpt lat="50.646403" lon="18.113258">
        <ele>168.833023</ele>
        <time>2026-01-19T20:34:48.688Z</time>
      </trkpt>
      <trkpt lat="50.646134" lon="18.114883">
        <ele>169.453645</ele>
        <time>2026-01-19T20:35:06.724Z</time>
      </trkpt>
      <trkpt lat="50.646117" lon="18.115157">
        <ele>169.559880</ele>
        <time>2026-01-19T20:35:09.704Z</time>
      </trkpt>
      <trkpt lat="50.646158" lon="18.115918">
        <ele>169.854591</ele>
        <time>2026-01-19T20:35:18.116Z</time>
      </trkpt>
      <trkpt lat="50.646147" lon="18.116152">
        <ele>169.945134</ele>
        <time>2026-01-19T20:35:20.723Z</time>
      </trkpt>
      <trkpt lat="50.646093" lon="18.116431">
        <ele>170.075151</ele>
        <time>2026-01-19T20:35:24.002Z</time>
      </trkpt>
      <trkpt lat="50.645950" lon="18.116868">
        <ele>170.375986</ele>
        <time>2026-01-19T20:35:29.575Z</time>
      </trkpt>
      <trkpt lat="50.645777" lon="18.117217">
        <ele>170.646983</ele>
        <time>2026-01-19T20:35:34.712Z</time>
      </trkpt>
      <trkpt lat="50.645185" lon="18.118060">
        <ele>171.416497</ele>
        <time>2026-01-19T20:35:49.900Z</time>
      </trkpt>
      <trkpt lat="50.642374" lon="18.120586">
        <ele>174.952557</ele>
        <time>2026-01-19T20:36:53.678Z</time>
      </trkpt>
      <trkpt lat="50.641998" lon="18.120787">
        <ele>175.315379</ele>
        <time>2026-01-19T20:37:00.398Z</time>
      </trkpt>
      <trkpt lat="50.641273" lon="18.120896">
        <ele>175.806904</ele>
        <time>2026-01-19T20:37:12.258Z</time>
      </trkpt>
      <trkpt lat="50.640638" lon="18.121088">
        <ele>176.119327</ele>
        <time>2026-01-19T20:37:22.624Z</time>
      </trkpt>
      <trkpt lat="50.640123" lon="18.121412">
        <ele>176.387252</ele>
        <time>2026-01-19T20:37:32.200Z</time>
      </trkpt>
      <trkpt lat="50.640011" lon="18.121532">
        <ele>176.452682</ele>
        <time>2026-01-19T20:37:34.633Z</time>
      </trkpt>
      <trkpt lat="50.639539" lon="18.122208">
        <ele>176.804391</ele>
        <time>2026-01-19T20:37:46.107Z</time>
      </trkpt>
      <trkpt lat="50.638956" lon="18.122879">
        <ele>177.207465</ele>
        <time>2026-01-19T20:37:58.618Z</time>
      </trkpt>
      <trkpt lat="50.638852" lon="18.122966">
        <ele>177.273209</ele>
        <time>2026-01-19T20:38:00.578Z</time>
      </trkpt>
      <trkpt lat="50.638696" lon="18.123046">
        <ele>177.364817</ele>
        <time>2026-01-19T20:38:03.296Z</time>
      </trkpt>
      <trkpt lat="50.638116" lon="18.123140">
        <ele>177.552612</ele>
        <time>2026-01-19T20:38:12.535Z</time>
      </trkpt>
      <trkpt lat="50.637976" lon="18.123199">
        <ele>177.579201</ele>
        <time>2026-01-19T20:38:14.721Z</time>
      </trkpt>
      <trkpt lat="50.637039" lon="18.123929">
        <ele>177.770969</ele>
        <time>2026-01-19T20:38:30.593Z</time>
      </trkpt>
      <trkpt lat="50.635981" lon="18.124603">
        <ele>178.047093</ele>
        <time>2026-01-19T20:38:49.084Z</time>
      </trkpt>
      <trkpt lat="50.635651" lon="18.124910">
        <ele>178.145814</ele>
        <time>2026-01-19T20:38:55.267Z</time>
      </trkpt>
      <trkpt lat="50.635387" lon="18.125216">
        <ele>178.230236</ele>
        <time>2026-01-19T20:39:00.448Z</time>
      </trkpt>
      <trkpt lat="50.634256" lon="18.126796">
        <ele>178.107111</ele>
        <time>2026-01-19T20:39:22.638Z</time>
      </trkpt>
      <trkpt lat="50.634056" lon="18.126990">
        <ele>178.076678</ele>
        <time>2026-01-19T20:39:25.847Z</time>
      </trkpt>
      <trkpt lat="50.633386" lon="18.127539">
        <ele>177.873081</ele>
        <time>2026-01-19T20:39:35.893Z</time>
      </trkpt>
      <trkpt lat="50.632224" lon="18.128669">
        <ele>177.487760</ele>
        <time>2026-01-19T20:39:54.316Z</time>
      </trkpt>
      <trkpt lat="50.631786" lon="18.129045">
        <ele>177.763727</ele>
        <time>2026-01-19T20:40:01.991Z</time>
      </trkpt>
      <trkpt lat="50.631202" lon="18.129453">
        <ele>178.117189</ele>
        <time>2026-01-19T20:40:12.910Z</time>
      </trkpt>
      <trkpt lat="50.630855" lon="18.129748">
        <ele>178.335339</ele>
        <time>2026-01-19T20:40:20.342Z</time>
      </trkpt>
      <trkpt lat="50.630454" lon="18.130256">
        <ele>178.910196</ele>
        <time>2026-01-19T20:40:30.687Z</time>
      </trkpt>
      <trkpt lat="50.630333" lon="18.130476">
        <ele>179.175455</ele>
        <time>2026-01-19T20:40:34.592Z</time>
      </trkpt>
      <trkpt lat="50.629884" lon="18.131466">
        <ele>180.284127</ele>
        <time>2026-01-19T20:40:51.013Z</time>
      </trkpt>
      <trkpt lat="50.629737" lon="18.131688">
        <ele>180.576476</ele>
        <time>2026-01-19T20:40:55.329Z</time>
      </trkpt>
      <trkpt lat="50.629569" lon="18.131808">
        <ele>180.841356</ele>
        <time>2026-01-19T20:40:59.212Z</time>
      </trkpt>
      <trkpt lat="50.628907" lon="18.131911">
        <ele>181.479805</ele>
        <time>2026-01-19T20:41:12.588Z</time>
      </trkpt>
      <trkpt lat="50.628177" lon="18.132229">
        <ele>182.123032</ele>
        <time>2026-01-19T20:41:25.954Z</time>
      </trkpt>
      <trkpt lat="50.626733" lon="18.133201">
        <ele>183.304526</ele>
        <time>2026-01-19T20:41:52.209Z</time>
      </trkpt>
      <trkpt lat="50.626321" lon="18.133574">
        <ele>183.640464</ele>
        <time>2026-01-19T20:42:00.937Z</time>
      </trkpt>
      <trkpt lat="50.625757" lon="18.134445">
        <ele>184.419701</ele>
        <time>2026-01-19T20:42:16.140Z</time>
      </trkpt>
      <trkpt lat="50.625579" lon="18.134644">
        <ele>184.664149</ele>
        <time>2026-01-19T20:42:20.374Z</time>
      </trkpt>
      <trkpt lat="50.625276" lon="18.134910">
        <ele>185.052650</ele>
        <time>2026-01-19T20:42:26.979Z</time>
      </trkpt>
      <trkpt lat="50.625021" lon="18.135068">
        <ele>185.359570</ele>
        <time>2026-01-19T20:42:32.231Z</time>
      </trkpt>
      <trkpt lat="50.624872" lon="18.135122">
        <ele>185.530831</ele>
        <time>2026-01-19T20:42:35.190Z</time>
      </trkpt>
      <trkpt lat="50.624411" lon="18.135139">
        <ele>186.085198</ele>
        <time>2026-01-19T20:42:44.306Z</time>
      </trkpt>
      <trkpt lat="50.624220" lon="18.135202">
        <ele>186.342778</ele>
        <time>2026-01-19T20:42:48.208Z</time>
      </trkpt>
      <trkpt lat="50.623957" lon="18.135351">
        <ele>186.711680</ele>
        <time>2026-01-19T20:42:53.815Z</time>
      </trkpt>
      <trkpt lat="50.623599" lon="18.135668">
        <ele>187.253697</ele>
        <time>2026-01-19T20:43:02.135Z</time>
      </trkpt>
      <trkpt lat="50.622567" lon="18.136738">
        <ele>188.860210</ele>
        <time>2026-01-19T20:43:27.265Z</time>
      </trkpt>
      <trkpt lat="50.622410" lon="18.136841">
        <ele>189.076695</ele>
        <time>2026-01-19T20:43:30.756Z</time>
      </trkpt>
      <trkpt lat="50.621988" lon="18.136912">
        <ele>189.616963</ele>
        <time>2026-01-19T20:43:39.576Z</time>
      </trkpt>
      <trkpt lat="50.621017" lon="18.137092">
        <ele>190.677719</ele>
        <time>2026-01-19T20:43:58.176Z</time>
      </trkpt>
      <trkpt lat="50.621187" lon="18.137636">
        <ele>190.918953</ele>
        <time>2026-01-19T20:44:05.207Z</time>
      </trkpt>
      <trkpt lat="50.621453" lon="18.138337">
        <ele>191.243884</ele>
        <time>2026-01-19T20:44:14.223Z</time>
      </trkpt>
      <trkpt lat="50.622567" lon="18.140579">
        <ele>191.075753</ele>
        <time>2026-01-19T20:44:42.493Z</time>
      </trkpt>
      <trkpt lat="50.623845" lon="18.143008">
        <ele>188.268050</ele>
        <time>2026-01-19T20:45:04.964Z</time>
      </trkpt>
      <trkpt lat="50.624949" lon="18.145108">
        <ele>184.940329</ele>
        <time>2026-01-19T20:45:23.870Z</time>
      </trkpt>
      <trkpt lat="50.625004" lon="18.145214">
        <ele>184.770244</ele>
        <time>2026-01-19T20:45:24.840Z</time>
      </trkpt>
      <trkpt lat="50.626513" lon="18.148058">
        <ele>180.847572</ele>
        <time>2026-01-19T20:45:51.588Z</time>
      </trkpt>
      <trkpt lat="50.626708" lon="18.148384">
        <ele>180.486987</ele>
        <time>2026-01-19T20:45:54.752Z</time>
      </trkpt>
      <trkpt lat="50.627149" lon="18.148938">
        <ele>179.771624</ele>
        <time>2026-01-19T20:46:01.226Z</time>
      </trkpt>
      <trkpt lat="50.627521" lon="18.149273">
        <ele>179.228135</ele>
        <time>2026-01-19T20:46:06.398Z</time>
      </trkpt>
      <trkpt lat="50.627829" lon="18.149496">
        <ele>178.798170</ele>
        <time>2026-01-19T20:46:10.651Z</time>
      </trkpt>
      <trkpt lat="50.628107" lon="18.149648">
        <ele>178.646606</ele>
        <time>2026-01-19T20:46:14.536Z</time>
      </trkpt>
      <trkpt lat="50.629394" lon="18.150157">
        <ele>178.001662</ele>
        <time>2026-01-19T20:46:32.589Z</time>
      </trkpt>
      <trkpt lat="50.629523" lon="18.150208">
        <ele>177.937019</ele>
        <time>2026-01-19T20:46:34.274Z</time>
      </trkpt>
      <trkpt lat="50.631199" lon="18.150901">
        <ele>176.989604</ele>
        <time>2026-01-19T20:46:56.624Z</time>
      </trkpt>
      <trkpt lat="50.631869" lon="18.151335">
        <ele>176.875796</ele>
        <time>2026-01-19T20:47:07.116Z</time>
      </trkpt>
      <trkpt lat="50.632202" lon="18.151614">
        <ele>176.846283</ele>
        <time>2026-01-19T20:47:13.060Z</time>
      </trkpt>
      <trkpt lat="50.632659" lon="18.152052">
        <ele>176.804426</ele>
        <time>2026-01-19T20:47:21.886Z</time>
      </trkpt>
      <trkpt lat="50.633705" lon="18.153151">
        <ele>175.273575</ele>
        <time>2026-01-19T20:47:37.956Z</time>
      </trkpt>
      <trkpt lat="50.633773" lon="18.153223">
        <ele>175.146601</ele>
        <time>2026-01-19T20:47:38.839Z</time>
      </trkpt>
      <trkpt lat="50.635013" lon="18.154505">
        <ele>172.640044</ele>
        <time>2026-01-19T20:47:54.308Z</time>
      </trkpt>
      <trkpt lat="50.635249" lon="18.154748">
        <ele>172.123818</ele>
        <time>2026-01-19T20:47:57.410Z</time>
      </trkpt>
      <trkpt lat="50.635381" lon="18.154884">
        <ele>171.835028</ele>
        <time>2026-01-19T20:47:59.208Z</time>
      </trkpt>
      <trkpt lat="50.635411" lon="18.154915">
        <ele>171.769336</ele>
        <time>2026-01-19T20:47:59.622Z</time>
      </trkpt>
      <trkpt lat="50.635567" lon="18.155075">
        <ele>171.428501</ele>
        <time>2026-01-19T20:48:01.821Z</time>
      </trkpt>
      <trkpt lat="50.636207" lon="18.155738">
        <ele>170.491504</ele>
        <time>2026-01-19T20:48:11.676Z</time>
      </trkpt>
      <trkpt lat="50.636343" lon="18.155882">
        <ele>170.398696</ele>
        <time>2026-01-19T20:48:13.853Z</time>
      </trkpt>
      <trkpt lat="50.636366" lon="18.155908">
        <ele>170.382663</ele>
        <time>2026-01-19T20:48:14.235Z</time>
      </trkpt>
      <trkpt lat="50.636922" lon="18.156545">
        <ele>169.993301</ele>
        <time>2026-01-19T20:48:23.394Z</time>
      </trkpt>
      <trkpt lat="50.637722" lon="18.157624">
        <ele>169.489437</ele>
        <time>2026-01-19T20:48:37.176Z</time>
      </trkpt>
      <trkpt lat="50.637817" lon="18.157764">
        <ele>169.439766</ele>
        <time>2026-01-19T20:48:38.890Z</time>
      </trkpt>
      <trkpt lat="50.638871" lon="18.159323">
        <ele>169.166210</ele>
        <time>2026-01-19T20:48:58.474Z</time>
      </trkpt>
      <trkpt lat="50.639303" lon="18.159833">
        <ele>169.500494</ele>
        <time>2026-01-19T20:49:07.679Z</time>
      </trkpt>
      <trkpt lat="50.639997" lon="18.160541">
        <ele>170.012505</ele>
        <time>2026-01-19T20:49:23.551Z</time>
      </trkpt>
      <trkpt lat="50.641406" lon="18.161974">
        <ele>171.150708</ele>
        <time>2026-01-19T20:49:54.497Z</time>
      </trkpt>
      <trkpt lat="50.642426" lon="18.162999">
        <ele>172.266171</ele>
        <time>2026-01-19T20:50:11.850Z</time>
      </trkpt>
      <trkpt lat="50.650063" lon="18.170687">
        <ele>190.701573</ele>
        <time>2026-01-19T20:53:42.482Z</time>
      </trkpt>
      <trkpt lat="50.650239" lon="18.170864">
        <ele>191.204538</ele>
        <time>2026-01-19T20:53:47.947Z</time>
      </trkpt>
      <trkpt lat="50.651428" lon="18.172066">
        <ele>194.280067</ele>
        <time>2026-01-19T20:54:24.563Z</time>
      </trkpt>
      <trkpt lat="50.652507" lon="18.173183">
        <ele>196.447373</ele>
        <time>2026-01-19T20:54:51.418Z</time>
      </trkpt>
      <trkpt lat="50.653313" lon="18.174181">
        <ele>197.112166</ele>
        <time>2026-01-19T20:55:08.385Z</time>
      </trkpt>
      <trkpt lat="50.653754" lon="18.174806">
        <ele>197.420583</ele>
        <time>2026-01-19T20:55:17.958Z</time>
      </trkpt>
      <trkpt lat="50.654376" lon="18.175815">
        <ele>197.490613</ele>
        <time>2026-01-19T20:55:31.633Z</time>
      </trkpt>
      <trkpt lat="50.654919" lon="18.176862">
        <ele>197.534671</ele>
        <time>2026-01-19T20:55:44.314Z</time>
      </trkpt>
      <trkpt lat="50.656025" lon="18.179321">
        <ele>197.232256</ele>
        <time>2026-01-19T20:56:10.903Z</time>
      </trkpt>
      <trkpt lat="50.656734" lon="18.180722">
        <ele>197.420333</ele>
        <time>2026-01-19T20:56:28.345Z</time>
      </trkpt>
      <trkpt lat="50.657115" lon="18.181373">
        <ele>197.562451</ele>
        <time>2026-01-19T20:56:37.847Z</time>
      </trkpt>
      <trkpt lat="50.657981" lon="18.182639">
        <ele>198.355281</ele>
        <time>2026-01-19T20:56:58.479Z</time>
      </trkpt>
      <trkpt lat="50.658379" lon="18.183147">
        <ele>198.699061</ele>
        <time>2026-01-19T20:57:07.454Z</time>
      </trkpt>
      <trkpt lat="50.658898" lon="18.183713">
        <ele>198.866562</ele>
        <time>2026-01-19T20:57:18.927Z</time>
      </trkpt>
      <trkpt lat="50.659544" lon="18.184372">
        <ele>199.066381</ele>
        <time>2026-01-19T20:57:31.635Z</time>
      </trkpt>
      <trkpt lat="50.662848" lon="18.187738">
        <ele>197.370522</ele>
        <time>2026-01-19T20:58:22.507Z</time>
      </trkpt>
      <trkpt lat="50.660850" lon="18.191730">
        <ele>199.166089</ele>
        <time>2026-01-19T20:59:21.207Z</time>
      </trkpt>
      <trkpt lat="50.659661" lon="18.194092">
        <ele>198.286574</ele>
        <time>2026-01-19T20:59:46.223Z</time>
      </trkpt>
      <trkpt lat="50.659251" lon="18.194906">
        <ele>197.524085</ele>
        <time>2026-01-19T20:59:53.897Z</time>
      </trkpt>
      <trkpt lat="50.657967" lon="18.197485">
        <ele>194.824085</ele>
        <time>2026-01-19T21:00:17.217Z</time>
      </trkpt>
      <trkpt lat="50.656481" lon="18.199901">
        <ele>193.716060</ele>
        <time>2026-01-19T21:00:48.915Z</time>
      </trkpt>
      <trkpt lat="50.655543" lon="18.201502">
        <ele>193.097393</ele>
        <time>2026-01-19T21:01:06.211Z</time>
      </trkpt>
      <trkpt lat="50.655076" lon="18.202298">
        <ele>192.744141</ele>
        <time>2026-01-19T21:01:15.123Z</time>
      </trkpt>
      <trkpt lat="50.655046" lon="18.202349">
        <ele>192.721480</ele>
        <time>2026-01-19T21:01:15.735Z</time>
      </trkpt>
      <trkpt lat="50.654854" lon="18.202688">
        <ele>192.573417</ele>
        <time>2026-01-19T21:01:19.836Z</time>
      </trkpt>
      <trkpt lat="50.654730" lon="18.202966">
        <ele>192.462701</ele>
        <time>2026-01-19T21:01:23.006Z</time>
      </trkpt>
      <trkpt lat="50.654717" lon="18.203023">
        <ele>192.443973</ele>
        <time>2026-01-19T21:01:23.561Z</time>
      </trkpt>
      <trkpt lat="50.654501" lon="18.203982">
        <ele>192.417157</ele>
        <time>2026-01-19T21:01:32.918Z</time>
      </trkpt>
      <trkpt lat="50.654186" lon="18.205333">
        <ele>192.379229</ele>
        <time>2026-01-19T21:01:46.409Z</time>
      </trkpt>
      <trkpt lat="50.653944" lon="18.206357">
        <ele>192.438417</ele>
        <time>2026-01-19T21:01:56.509Z</time>
      </trkpt>
      <trkpt lat="50.653646" lon="18.207574">
        <ele>192.564271</ele>
        <time>2026-01-19T21:02:09.393Z</time>
      </trkpt>
      <trkpt lat="50.652848" lon="18.210792">
        <ele>192.935584</ele>
        <time>2026-01-19T21:02:44.406Z</time>
      </trkpt>
      <trkpt lat="50.652508" lon="18.212131">
        <ele>192.640646</ele>
        <time>2026-01-19T21:02:56.827Z</time>
      </trkpt>
      <trkpt lat="50.652453" lon="18.212347">
        <ele>192.581405</ele>
        <time>2026-01-19T21:02:58.746Z</time>
      </trkpt>
      <trkpt lat="50.652151" lon="18.213607">
        <ele>192.238577</ele>
        <time>2026-01-19T21:03:09.880Z</time>
      </trkpt>
      <trkpt lat="50.651797" lon="18.215038">
        <ele>191.913116</ele>
        <time>2026-01-19T21:03:23.186Z</time>
      </trkpt>
      <trkpt lat="50.651246" lon="18.217167">
        <ele>191.644932</ele>
        <time>2026-01-19T21:03:43.636Z</time>
      </trkpt>
      <trkpt lat="50.650851" lon="18.218587">
        <ele>191.659957</ele>
        <time>2026-01-19T21:03:58.431Z</time>
      </trkpt>
      <trkpt lat="50.650781" lon="18.218861">
        <ele>191.662819</ele>
        <time>2026-01-19T21:04:01.440Z</time>
      </trkpt>
      <trkpt lat="50.650343" lon="18.220578">
        <ele>191.825759</ele>
        <time>2026-01-19T21:04:20.329Z</time>
      </trkpt>
      <trkpt lat="50.650092" lon="18.220662">
        <ele>191.861459</ele>
        <time>2026-01-19T21:04:24.315Z</time>
      </trkpt>
      <trkpt lat="50.649770" lon="18.220422">
        <ele>191.911010</ele>
        <time>2026-01-19T21:04:29.631Z</time>
      </trkpt>
      <trkpt lat="50.647886" lon="18.219204">
        <ele>191.274367</ele>
        <time>2026-01-19T21:04:57.286Z</time>
      </trkpt>
      <trkpt lat="50.647643" lon="18.219044">
        <ele>191.154883</ele>
        <time>2026-01-19T21:05:00.805Z</time>
      </trkpt>
      <trkpt lat="50.646746" lon="18.218447">
        <ele>190.713117</ele>
        <time>2026-01-19T21:05:14.273Z</time>
      </trkpt>
      <trkpt lat="50.646477" lon="18.218413">
        <ele>190.590669</ele>
        <time>2026-01-19T21:05:17.862Z</time>
      </trkpt>
      <trkpt lat="50.646383" lon="18.218402">
        <ele>190.528194</ele>
        <time>2026-01-19T21:05:19.099Z</time>
      </trkpt>
      <trkpt lat="50.644883" lon="18.218392">
        <ele>188.657809</ele>
        <time>2026-01-19T21:05:36.964Z</time>
      </trkpt>
      <trkpt lat="50.643383" lon="18.218382">
        <ele>186.276598</ele>
        <time>2026-01-19T21:05:53.602Z</time>
      </trkpt>
      <trkpt lat="50.640703" lon="18.218480">
        <ele>182.412557</ele>
        <time>2026-01-19T21:06:24.906Z</time>
      </trkpt>
      <trkpt lat="50.638246" lon="18.218548">
        <ele>179.321527</ele>
        <time>2026-01-19T21:06:53.671Z</time>
      </trkpt>
      <trkpt lat="50.636360" lon="18.218620">
        <ele>177.625901</ele>
        <time>2026-01-19T21:07:17.330Z</time>
      </trkpt>
      <trkpt lat="50.635811" lon="18.218641">
        <ele>177.225267</ele>
        <time>2026-01-19T21:07:24.357Z</time>
      </trkpt>
      <trkpt lat="50.632210" lon="18.218752">
        <ele>175.438578</ele>
        <time>2026-01-19T21:08:11.585Z</time>
      </trkpt>
      <trkpt lat="50.628680" lon="18.218926">
        <ele>176.976800</ele>
        <time>2026-01-19T21:09:11.776Z</time>
      </trkpt>
      <trkpt lat="50.628596" lon="18.218867">
        <ele>177.021541</ele>
        <time>2026-01-19T21:09:13.277Z</time>
      </trkpt>
      <trkpt lat="50.625124" lon="18.216446">
        <ele>178.028176</ele>
        <time>2026-01-19T21:10:12.521Z</time>
      </trkpt>
      <trkpt lat="50.623718" lon="18.215425">
        <ele>178.835609</ele>
        <time>2026-01-19T21:10:40.507Z</time>
      </trkpt>
      <trkpt lat="50.621899" lon="18.212346">
        <ele>178.392660</ele>
        <time>2026-01-19T21:11:18.596Z</time>
      </trkpt>
      <trkpt lat="50.621735" lon="18.212193">
        <ele>178.276791</ele>
        <time>2026-01-19T21:11:21.011Z</time>
      </trkpt>
      <trkpt lat="50.620138" lon="18.210905">
        <ele>176.876645</ele>
        <time>2026-01-19T21:11:43.089Z</time>
      </trkpt>
      <trkpt lat="50.619803" lon="18.210641">
        <ele>176.511382</ele>
        <time>2026-01-19T21:11:47.676Z</time>
      </trkpt>
      <trkpt lat="50.617686" lon="18.208880">
        <ele>174.404459</ele>
        <time>2026-01-19T21:12:17.117Z</time>
      </trkpt>
      <trkpt lat="50.616767" lon="18.208153">
        <ele>174.634131</ele>
        <time>2026-01-19T21:12:31.993Z</time>
      </trkpt>
      <trkpt lat="50.616305" lon="18.207787">
        <ele>174.749625</ele>
        <time>2026-01-19T21:12:41.399Z</time>
      </trkpt>
      <trkpt lat="50.615870" lon="18.207448">
        <ele>175.013944</ele>
        <time>2026-01-19T21:12:50.570Z</time>
      </trkpt>
      <trkpt lat="50.615712" lon="18.207318">
        <ele>175.166907</ele>
        <time>2026-01-19T21:12:54.008Z</time>
      </trkpt>
      <trkpt lat="50.615707" lon="18.207315">
        <ele>175.171498</ele>
        <time>2026-01-19T21:12:54.103Z</time>
      </trkpt>
      <trkpt lat="50.613911" lon="18.205897">
        <ele>176.545467</ele>
        <time>2026-01-19T21:13:30.585Z</time>
      </trkpt>
      <trkpt lat="50.613478" lon="18.205488">
        <ele>176.702368</ele>
        <time>2026-01-19T21:13:38.499Z</time>
      </trkpt>
      <trkpt lat="50.613425" lon="18.205432">
        <ele>176.722200</ele>
        <time>2026-01-19T21:13:39.455Z</time>
      </trkpt>
      <trkpt lat="50.613153" lon="18.205116">
        <ele>176.827228</ele>
        <time>2026-01-19T21:13:44.361Z</time>
      </trkpt>
      <trkpt lat="50.612940" lon="18.204833">
        <ele>176.906528</ele>
        <time>2026-01-19T21:13:48.217Z</time>
      </trkpt>
      <trkpt lat="50.612878" lon="18.204711">
        <ele>176.909380</ele>
        <time>2026-01-19T21:13:49.573Z</time>
      </trkpt>
      <trkpt lat="50.612644" lon="18.204406">
        <ele>176.918114</ele>
        <time>2026-01-19T21:13:53.818Z</time>
      </trkpt>
      <trkpt lat="50.612472" lon="18.204192">
        <ele>176.924416</ele>
        <time>2026-01-19T21:13:56.960Z</time>
      </trkpt>
      <trkpt lat="50.612139" lon="18.203802">
        <ele>176.936348</ele>
        <time>2026-01-19T21:14:02.964Z</time>
      </trkpt>
      <trkpt lat="50.611111" lon="18.202824">
        <ele>177.172702</ele>
        <time>2026-01-19T21:14:21.877Z</time>
      </trkpt>
      <trkpt lat="50.611056" lon="18.202707">
        <ele>177.215471</ele>
        <time>2026-01-19T21:14:23.431Z</time>
      </trkpt>
      <trkpt lat="50.611043" lon="18.202482">
        <ele>177.281833</ele>
        <time>2026-01-19T21:14:25.873Z</time>
      </trkpt>
      <trkpt lat="50.611080" lon="18.201892">
        <ele>177.455977</ele>
        <time>2026-01-19T21:14:32.266Z</time>
      </trkpt>
      <trkpt lat="50.611317" lon="18.198119">
        <ele>178.590489</ele>
        <time>2026-01-19T21:15:13.300Z</time>
      </trkpt>
      <trkpt lat="50.611317" lon="18.198050">
        <ele>178.611299</ele>
        <time>2026-01-19T21:15:14.027Z</time>
      </trkpt>
      <trkpt lat="50.611280" lon="18.197492">
        <ele>178.654296</ele>
        <time>2026-01-19T21:15:19.808Z</time>
      </trkpt>
      <trkpt lat="50.610733" lon="18.192584">
        <ele>178.617738</ele>
        <time>2026-01-19T21:16:05.756Z</time>
      </trkpt>
      <trkpt lat="50.610770" lon="18.192109">
        <ele>178.619256</ele>
        <time>2026-01-19T21:16:10.120Z</time>
      </trkpt>
      <trkpt lat="50.610973" lon="18.191047">
        <ele>178.662109</ele>
        <time>2026-01-19T21:16:20.504Z</time>
      </trkpt>
      <trkpt lat="50.611047" lon="18.190707">
        <ele>178.675997</ele>
        <time>2026-01-19T21:16:23.939Z</time>
      </trkpt>
      <trkpt lat="50.611212" lon="18.189875">
        <ele>178.709675</ele>
        <time>2026-01-19T21:16:32.348Z</time>
      </trkpt>
      <trkpt lat="50.611543" lon="18.188314">
        <ele>179.197839</ele>
        <time>2026-01-19T21:16:49.487Z</time>
      </trkpt>
      <trkpt lat="50.611928" lon="18.187583">
        <ele>179.523796</ele>
        <time>2026-01-19T21:16:59.915Z</time>
      </trkpt>
      <trkpt lat="50.611136" lon="18.186573">
        <ele>180.291927</ele>
        <time>2026-01-19T21:17:18.475Z</time>
      </trkpt>
      <trkpt lat="50.610994" lon="18.186351">
        <ele>180.461466</ele>
        <time>2026-01-19T21:17:22.169Z</time>
      </trkpt>
      <trkpt lat="50.610859" lon="18.186066">
        <ele>180.652754</ele>
        <time>2026-01-19T21:17:26.271Z</time>
      </trkpt>
      <trkpt lat="50.610391" lon="18.184818">
        <ele>181.545250</ele>
        <time>2026-01-19T21:17:42.978Z</time>
      </trkpt>
      <trkpt lat="50.610314" lon="18.184561">
        <ele>181.777937</ele>
        <time>2026-01-19T21:17:46.414Z</time>
      </trkpt>
      <trkpt lat="50.610253" lon="18.184198">
        <ele>182.085380</ele>
        <time>2026-01-19T21:17:51.062Z</time>
      </trkpt>
      <trkpt lat="50.610211" lon="18.183516">
        <ele>182.646378</ele>
        <time>2026-01-19T21:17:59.833Z</time>
      </trkpt>
      <trkpt lat="50.610148" lon="18.183044">
        <ele>183.041275</ele>
        <time>2026-01-19T21:18:06.214Z</time>
      </trkpt>
      <trkpt lat="50.609865" lon="18.181573">
        <ele>184.190280</ele>
        <time>2026-01-19T21:18:26.974Z</time>
      </trkpt>
      <trkpt lat="50.609814" lon="18.181106">
        <ele>184.522563</ele>
        <time>2026-01-19T21:18:32.868Z</time>
      </trkpt>
      <trkpt lat="50.609811" lon="18.180769">
        <ele>184.758898</ele>
        <time>2026-01-19T21:18:36.907Z</time>
      </trkpt>
      <trkpt lat="50.609842" lon="18.179603">
        <ele>185.550289</ele>
        <time>2026-01-19T21:18:50.009Z</time>
      </trkpt>
      <trkpt lat="50.609882" lon="18.178353">
        <ele>185.979722</ele>
        <time>2026-01-19T21:19:03.206Z</time>
      </trkpt>
      <trkpt lat="50.609949" lon="18.177582">
        <ele>186.246729</ele>
        <time>2026-01-19T21:19:11.667Z</time>
      </trkpt>
      <trkpt lat="50.610068" lon="18.176907">
        <ele>186.487099</ele>
        <time>2026-01-19T21:19:19.231Z</time>
      </trkpt>
      <trkpt lat="50.610354" lon="18.175858">
        <ele>186.898075</ele>
        <time>2026-01-19T21:19:31.487Z</time>
      </trkpt>
      <trkpt lat="50.610387" lon="18.175522">
        <ele>187.020610</ele>
        <time>2026-01-19T21:19:35.125Z</time>
      </trkpt>
      <trkpt lat="50.610391" lon="18.173806">
        <ele>187.684484</ele>
        <time>2026-01-19T21:19:53.975Z</time>
      </trkpt>
      <trkpt lat="50.610371" lon="18.173449">
        <ele>187.862292</ele>
        <time>2026-01-19T21:19:58.052Z</time>
      </trkpt>
      <trkpt lat="50.609944" lon="18.171680">
        <ele>188.801298</ele>
        <time>2026-01-19T21:20:19.418Z</time>
      </trkpt>
      <trkpt lat="50.609704" lon="18.170711">
        <ele>189.514661</ele>
        <time>2026-01-19T21:20:31.826Z</time>
      </trkpt>
      <trkpt lat="50.609064" lon="18.168074">
        <ele>191.129462</ele>
        <time>2026-01-19T21:21:07.752Z</time>
      </trkpt>
      <trkpt lat="50.609012" lon="18.167731">
        <ele>191.171129</ele>
        <time>2026-01-19T21:21:11.686Z</time>
      </trkpt>
      <trkpt lat="50.609019" lon="18.166443">
        <ele>191.323313</ele>
        <time>2026-01-19T21:21:23.651Z</time>
      </trkpt>
      <trkpt lat="50.609088" lon="18.162699">
        <ele>189.263308</ele>
        <time>2026-01-19T21:21:51.994Z</time>
      </trkpt>
      <trkpt lat="50.609099" lon="18.161688">
        <ele>188.995110</ele>
        <time>2026-01-19T21:22:00.006Z</time>
      </trkpt>
      <trkpt lat="50.609116" lon="18.160244">
        <ele>188.731380</ele>
        <time>2026-01-19T21:22:13.915Z</time>
      </trkpt>
      <trkpt lat="50.609065" lon="18.159506">
        <ele>189.276057</ele>
        <time>2026-01-19T21:22:22.388Z</time>
      </trkpt>
      <trkpt lat="50.608945" lon="18.158729">
        <ele>189.862787</ele>
        <time>2026-01-19T21:22:32.401Z</time>
      </trkpt>
      <trkpt lat="50.608586" lon="18.156846">
        <ele>191.164216</ele>
        <time>2026-01-19T21:22:59.099Z</time>
      </trkpt>
      <trkpt lat="50.608536" lon="18.156692">
        <ele>191.260362</ele>
        <time>2026-01-19T21:23:01.200Z</time>
      </trkpt>
      <trkpt lat="50.608464" lon="18.156584">
        <ele>191.347423</ele>
        <time>2026-01-19T21:23:03.093Z</time>
      </trkpt>
      <trkpt lat="50.608498" lon="18.156416">
        <ele>191.445432</ele>
        <time>2026-01-19T21:23:05.866Z</time>
      </trkpt>
      <trkpt lat="50.608542" lon="18.156233">
        <ele>191.554201</ele>
        <time>2026-01-19T21:23:08.788Z</time>
      </trkpt>
      <trkpt lat="50.608701" lon="18.155835">
        <ele>191.815594</ele>
        <time>2026-01-19T21:23:15.690Z</time>
      </trkpt>
      <trkpt lat="50.610882" lon="18.152830">
        <ele>193.627058</ele>
        <time>2026-01-19T21:24:16.558Z</time>
      </trkpt>
      <trkpt lat="50.612141" lon="18.150968">
        <ele>196.482381</ele>
        <time>2026-01-19T21:25:06.986Z</time>
      </trkpt>
      <trkpt lat="50.612398" lon="18.150506">
        <ele>197.193017</ele>
        <time>2026-01-19T21:25:18.105Z</time>
      </trkpt>
      <trkpt lat="50.612852" lon="18.149303">
        <ele>198.811950</ele>
        <time>2026-01-19T21:25:41.803Z</time>
      </trkpt>
      <trkpt lat="50.613228" lon="18.148768">
        <ele>199.257485</ele>
        <time>2026-01-19T21:25:54.591Z</time>
      </trkpt>
      <trkpt lat="50.613813" lon="18.147848">
        <ele>199.907315</ele>
        <time>2026-01-19T21:26:14.285Z</time>
      </trkpt>
      <trkpt lat="50.614717" lon="18.146574">
        <ele>200.301800</ele>
        <time>2026-01-19T21:26:39.238Z</time>
      </trkpt>
      <trkpt lat="50.615018" lon="18.146064">
        <ele>200.297120</ele>
        <time>2026-01-19T21:26:48.038Z</time>
      </trkpt>
      <trkpt lat="50.615249" lon="18.145511">
        <ele>200.292670</ele>
        <time>2026-01-19T21:26:56.405Z</time>
      </trkpt>
      <trkpt lat="50.615750" lon="18.144066">
        <ele>199.982262</ele>
        <time>2026-01-19T21:27:17.081Z</time>
      </trkpt>
      <trkpt lat="50.616372" lon="18.142720">
        <ele>199.538267</ele>
        <time>2026-01-19T21:27:36.546Z</time>
      </trkpt>
      <trkpt lat="50.616486" lon="18.142369">
        <ele>199.287016</ele>
        <time>2026-01-19T21:27:40.944Z</time>
      </trkpt>
      <trkpt lat="50.616996" lon="18.140433">
        <ele>197.951335</ele>
        <time>2026-01-19T21:28:03.820Z</time>
      </trkpt>
      <trkpt lat="50.617177" lon="18.139843">
        <ele>197.539400</ele>
        <time>2026-01-19T21:28:10.802Z</time>
      </trkpt>
      <trkpt lat="50.617866" lon="18.138122">
        <ele>196.270230</ele>
        <time>2026-01-19T21:28:32.961Z</time>
      </trkpt>
      <trkpt lat="50.618608" lon="18.137136">
        <ele>195.845350</ele>
        <time>2026-01-19T21:28:51.515Z</time>
      </trkpt>
      <trkpt lat="50.618915" lon="18.136771">
        <ele>195.746763</ele>
        <time>2026-01-19T21:28:59.434Z</time>
      </trkpt>
      <trkpt lat="50.619074" lon="18.136701">
        <ele>195.704440</ele>
        <time>2026-01-19T21:29:01.847Z</time>
      </trkpt>
      <trkpt lat="50.619428" lon="18.136408">
        <ele>195.601933</ele>
        <time>2026-01-19T21:29:07.455Z</time>
      </trkpt>
      <trkpt lat="50.619576" lon="18.136321">
        <ele>195.544438</ele>
        <time>2026-01-19T21:29:09.595Z</time>
      </trkpt>
      <trkpt lat="50.619585" lon="18.136218">
        <ele>195.497232</ele>
        <time>2026-01-19T21:29:10.491Z</time>
      </trkpt>
      <trkpt lat="50.619766" lon="18.135780">
        <ele>195.259906</ele>
        <time>2026-01-19T21:29:14.821Z</time>
      </trkpt>
      <trkpt lat="50.619948" lon="18.135316">
        <ele>195.012230</ele>
        <time>2026-01-19T21:29:19.269Z</time>
      </trkpt>
      <trkpt lat="50.620237" lon="18.134654">
        <ele>194.647390</ele>
        <time>2026-01-19T21:29:25.659Z</time>
      </trkpt>
      <trkpt lat="50.620271" lon="18.134583">
        <ele>194.607003</ele>
        <time>2026-01-19T21:29:26.348Z</time>
      </trkpt>
      <trkpt lat="50.620725" lon="18.133645">
        <ele>193.999692</ele>
        <time>2026-01-19T21:29:35.598Z</time>
      </trkpt>
      <trkpt lat="50.620846" lon="18.133323">
        <ele>193.772464</ele>
        <time>2026-01-19T21:29:38.543Z</time>
      </trkpt>
      <trkpt lat="50.620959" lon="18.132916">
        <ele>193.502721</ele>
        <time>2026-01-19T21:29:42.024Z</time>
      </trkpt>
      <trkpt lat="50.621021" lon="18.132556">
        <ele>193.276231</ele>
        <time>2026-01-19T21:29:44.945Z</time>
      </trkpt>
      <trkpt lat="50.621045" lon="18.131982">
        <ele>192.926962</ele>
        <time>2026-01-19T21:29:49.432Z</time>
      </trkpt>
      <trkpt lat="50.620896" lon="18.129692">
        <ele>191.485863</ele>
        <time>2026-01-19T21:30:07.215Z</time>
      </trkpt>
      <trkpt lat="50.620837" lon="18.126292">
        <ele>189.411967</ele>
        <time>2026-01-19T21:30:33.948Z</time>
      </trkpt>
      <trkpt lat="50.620808" lon="18.125072">
        <ele>188.430921</ele>
        <time>2026-01-19T21:30:43.347Z</time>
      </trkpt>
      <trkpt lat="50.620796" lon="18.124610">
        <ele>187.977070</ele>
        <time>2026-01-19T21:30:46.725Z</time>
      </trkpt>
      <trkpt lat="50.620775" lon="18.123568">
        <ele>186.953790</ele>
        <time>2026-01-19T21:30:54.143Z</time>
      </trkpt>
      <trkpt lat="50.620717" lon="18.123008">
        <ele>186.396852</ele>
        <time>2026-01-19T21:30:58.103Z</time>
      </trkpt>
      <trkpt lat="50.620511" lon="18.122308">
        <ele>185.829933</ele>
        <time>2026-01-19T21:31:03.593Z</time>
      </trkpt>
      <trkpt lat="50.620180" lon="18.121444">
        <ele>185.129254</ele>
        <time>2026-01-19T21:31:11.236Z</time>
      </trkpt>
      <trkpt lat="50.619897" lon="18.120688">
        <ele>184.519871</ele>
        <time>2026-01-19T21:31:18.416Z</time>
      </trkpt>
      <trkpt lat="50.619802" lon="18.120234">
        <ele>184.275171</ele>
        <time>2026-01-19T21:31:22.455Z</time>
      </trkpt>
      <trkpt lat="50.619617" lon="18.116546">
        <ele>183.501387</ele>
        <time>2026-01-19T21:31:54.536Z</time>
      </trkpt>
      <trkpt lat="50.619589" lon="18.116123">
        <ele>183.448200</ele>
        <time>2026-01-19T21:31:58.568Z</time>
      </trkpt>
      <trkpt lat="50.619482" lon="18.115248">
        <ele>183.336760</ele>
        <time>2026-01-19T21:32:07.020Z</time>
      </trkpt>
      <trkpt lat="50.619317" lon="18.114457">
        <ele>183.060568</ele>
        <time>2026-01-19T21:32:14.480Z</time>
      </trkpt>
      <trkpt lat="50.619160" lon="18.113899">
        <ele>182.701828</ele>
        <time>2026-01-19T21:32:19.567Z</time>
      </trkpt>
      <trkpt lat="50.619044" lon="18.113550">
        <ele>182.470277</ele>
        <time>2026-01-19T21:32:22.691Z</time>
      </trkpt>
      <trkpt lat="50.618428" lon="18.112018">
        <ele>181.371136</ele>
        <time>2026-01-19T21:32:36.103Z</time>
      </trkpt>
      <trkpt lat="50.618379" lon="18.111830">
        <ele>181.232696</ele>
        <time>2026-01-19T21:32:37.563Z</time>
      </trkpt>
      <trkpt lat="50.618105" lon="18.110200">
        <ele>180.084112</ele>
        <time>2026-01-19T21:32:50.096Z</time>
      </trkpt>
      <trkpt lat="50.617863" lon="18.108669">
        <ele>179.822870</ele>
        <time>2026-01-19T21:33:04.074Z</time>
      </trkpt>
      <trkpt lat="50.617810" lon="18.108076">
        <ele>179.908211</ele>
        <time>2026-01-19T21:33:10.439Z</time>
      </trkpt>
      <trkpt lat="50.617798" lon="18.107429">
        <ele>180.000452</ele>
        <time>2026-01-19T21:33:17.617Z</time>
      </trkpt>
      <trkpt lat="50.617885" lon="18.105037">
        <ele>180.249913</ele>
        <time>2026-01-19T21:33:43.597Z</time>
      </trkpt>
      <trkpt lat="50.617887" lon="18.104431">
        <ele>180.305221</ele>
        <time>2026-01-19T21:33:49.118Z</time>
      </trkpt>
      <trkpt lat="50.617829" lon="18.103838">
        <ele>180.187764</ele>
        <time>2026-01-19T21:33:54.221Z</time>
      </trkpt>
      <trkpt lat="50.617603" lon="18.102368">
        <ele>178.757904</ele>
        <time>2026-01-19T21:34:05.386Z</time>
      </trkpt>
      <trkpt lat="50.617574" lon="18.102049">
        <ele>178.453261</ele>
        <time>2026-01-19T21:34:07.614Z</time>
      </trkpt>
      <trkpt lat="50.617567" lon="18.101424">
        <ele>177.862331</ele>
        <time>2026-01-19T21:34:11.933Z</time>
      </trkpt>
      <trkpt lat="50.617592" lon="18.101132">
        <ele>177.562541</ele>
        <time>2026-01-19T21:34:13.973Z</time>
      </trkpt>
      <trkpt lat="50.617674" lon="18.100595">
        <ele>176.903770</ele>
        <time>2026-01-19T21:34:17.800Z</time>
      </trkpt>
      <trkpt lat="50.617735" lon="18.100348">
        <ele>176.587642</ele>
        <time>2026-01-19T21:34:19.650Z</time>
      </trkpt>
      <trkpt lat="50.618260" lon="18.098254">
        <ele>173.862369</ele>
        <time>2026-01-19T21:34:35.706Z</time>
      </trkpt>
      <trkpt lat="50.618324" lon="18.097948">
        <ele>173.437972</ele>
        <time>2026-01-19T21:34:37.920Z</time>
      </trkpt>
      <trkpt lat="50.618361" lon="18.097561">
        <ele>172.922461</ele>
        <time>2026-01-19T21:34:40.582Z</time>
      </trkpt>
      <trkpt lat="50.618343" lon="18.097041">
        <ele>172.236499</ele>
        <time>2026-01-19T21:34:44.116Z</time>
      </trkpt>
      <trkpt lat="50.618253" lon="18.095968">
        <ele>170.810846</ele>
        <time>2026-01-19T21:34:51.502Z</time>
      </trkpt>
      <trkpt lat="50.618253" lon="18.095191">
        <ele>170.103298</ele>
        <time>2026-01-19T21:34:56.962Z</time>
      </trkpt>
      <trkpt lat="50.618255" lon="18.093052">
        <ele>168.453083</ele>
        <time>2026-01-19T21:35:13.402Z</time>
      </trkpt>
      <trkpt lat="50.618202" lon="18.092720">
        <ele>168.338296</ele>
        <time>2026-01-19T21:35:16.252Z</time>
      </trkpt>
      <trkpt lat="50.618022" lon="18.092094">
        <ele>168.263301</ele>
        <time>2026-01-19T21:35:22.198Z</time>
      </trkpt>
      <trkpt lat="50.617943" lon="18.091859">
        <ele>168.234282</ele>
        <time>2026-01-19T21:35:24.572Z</time>
      </trkpt>
      <trkpt lat="50.617906" lon="18.091751">
        <ele>168.220889</ele>
        <time>2026-01-19T21:35:25.701Z</time>
      </trkpt>
      <trkpt lat="50.617744" lon="18.091159">
        <ele>168.150540</ele>
        <time>2026-01-19T21:35:31.761Z</time>
      </trkpt>
      <trkpt lat="50.617740" lon="18.090756">
        <ele>168.106560</ele>
        <time>2026-01-19T21:35:35.674Z</time>
      </trkpt>
      <trkpt lat="50.617814" lon="18.090403">
        <ele>168.065993</ele>
        <time>2026-01-19T21:35:39.271Z</time>
      </trkpt>
      <trkpt lat="50.618375" lon="18.089113">
        <ele>168.473154</ele>
        <time>2026-01-19T21:35:55.069Z</time>
      </trkpt>
      <trkpt lat="50.618498" lon="18.088780">
        <ele>168.584646</ele>
        <time>2026-01-19T21:35:59.211Z</time>
      </trkpt>
      <trkpt lat="50.619336" lon="18.085624">
        <ele>169.923726</ele>
        <time>2026-01-19T21:36:37.855Z</time>
      </trkpt>
      <trkpt lat="50.619432" lon="18.085290">
        <ele>170.082685</ele>
        <time>2026-01-19T21:36:41.887Z</time>
      </trkpt>
      <trkpt lat="50.619493" lon="18.085189">
        <ele>170.116343</ele>
        <time>2026-01-19T21:36:43.396Z</time>
      </trkpt>
      <trkpt lat="50.619914" lon="18.085095">
        <ele>170.213928</ele>
        <time>2026-01-19T21:36:50.305Z</time>
      </trkpt>
      <trkpt lat="50.620497" lon="18.085110">
        <ele>170.347745</ele>
        <time>2026-01-19T21:36:59.059Z</time>
      </trkpt>
      <trkpt lat="50.621287" lon="18.085164">
        <ele>170.515297</ele>
        <time>2026-01-19T21:37:11.460Z</time>
      </trkpt>
      <trkpt lat="50.621449" lon="18.085111">
        <ele>170.514499</ele>
        <time>2026-01-19T21:37:13.922Z</time>
      </trkpt>
      <trkpt lat="50.621542" lon="18.084947">
        <ele>170.513826</ele>
        <time>2026-01-19T21:37:15.974Z</time>
      </trkpt>
      <trkpt lat="50.621665" lon="18.084539">
        <ele>170.512444</ele>
        <time>2026-01-19T21:37:20.125Z</time>
      </trkpt>
      <trkpt lat="50.621803" lon="18.084344">
        <ele>170.511551</ele>
        <time>2026-01-19T21:37:22.837Z</time>
      </trkpt>
      <trkpt lat="50.622990" lon="18.083673">
        <ele>170.527145</ele>
        <time>2026-01-19T21:37:41.406Z</time>
      </trkpt>
      <trkpt lat="50.624335" lon="18.082815">
        <ele>170.625422</ele>
        <time>2026-01-19T21:38:03.336Z</time>
      </trkpt>
      <trkpt lat="50.624635" lon="18.082489">
        <ele>170.559645</ele>
        <time>2026-01-19T21:38:09.091Z</time>
      </trkpt>
      <trkpt lat="50.625064" lon="18.081824">
        <ele>170.427861</ele>
        <time>2026-01-19T21:38:18.009Z</time>
      </trkpt>
      <trkpt lat="50.625251" lon="18.081626">
        <ele>170.378521</ele>
        <time>2026-01-19T21:38:21.179Z</time>
      </trkpt>
      <trkpt lat="50.625357" lon="18.081545">
        <ele>170.352720</ele>
        <time>2026-01-19T21:38:22.796Z</time>
      </trkpt>
      <trkpt lat="50.626314" lon="18.081121">
        <ele>169.875502</ele>
        <time>2026-01-19T21:38:35.667Z</time>
      </trkpt>
      <trkpt lat="50.626577" lon="18.081023">
        <ele>169.662403</ele>
        <time>2026-01-19T21:38:38.996Z</time>
      </trkpt>
      <trkpt lat="50.626924" lon="18.080964">
        <ele>169.387194</ele>
        <time>2026-01-19T21:38:43.300Z</time>
      </trkpt>
      <trkpt lat="50.629377" lon="18.080402">
        <ele>167.525712</ele>
        <time>2026-01-19T21:39:14.588Z</time>
      </trkpt>
      <trkpt lat="50.630076" lon="18.080196">
        <ele>167.236059</ele>
        <time>2026-01-19T21:39:24.251Z</time>
      </trkpt>
      <trkpt lat="50.632173" lon="18.078868">
        <ele>166.425287</ele>
        <time>2026-01-19T21:39:55.126Z</time>
      </trkpt>
      <trkpt lat="50.632566" lon="18.078711">
        <ele>166.290849</ele>
        <time>2026-01-19T21:40:00.754Z</time>
      </trkpt>
      <trkpt lat="50.634039" lon="18.078323">
        <ele>165.805606</ele>
        <time>2026-01-19T21:40:21.275Z</time>
      </trkpt>
      <trkpt lat="50.634244" lon="18.078290">
        <ele>165.738947</ele>
        <time>2026-01-19T21:40:24.046Z</time>
      </trkpt>
      <trkpt lat="50.634323" lon="18.078314">
        <ele>165.712922</ele>
        <time>2026-01-19T21:40:25.134Z</time>
      </trkpt>
      <trkpt lat="50.634502" lon="18.078741">
        <ele>165.609826</ele>
        <time>2026-01-19T21:40:29.502Z</time>
      </trkpt>
      <trkpt lat="50.639792" lon="18.076565">
        <ele>164.173206</ele>
        <time>2026-01-19T21:41:45.555Z</time>
      </trkpt>
      <trkpt lat="50.642191" lon="18.075578">
        <ele>164.023569</ele>
        <time>2026-01-19T21:42:22.028Z</time>
      </trkpt>
      <trkpt lat="50.642282" lon="18.075541">
        <ele>164.014514</ele>
        <time>2026-01-19T21:42:23.424Z</time>
      </trkpt>
      <trkpt lat="50.643810" lon="18.074912">
        <ele>163.794284</ele>
        <time>2026-01-19T21:42:45.999Z</time>
      </trkpt>
      <trkpt lat="50.648159" lon="18.073124">
        <ele>162.941592</ele>
        <time>2026-01-19T21:43:49.245Z</time>
      </trkpt>
      <trkpt lat="50.649618" lon="18.072523">
        <ele>162.828374</ele>
        <time>2026-01-19T21:44:11.120Z</time>
      </trkpt>
      <trkpt lat="50.649932" lon="18.072451">
        <ele>162.810292</ele>
        <time>2026-01-19T21:44:15.807Z</time>
      </trkpt>
      <trkpt lat="50.650195" lon="18.072507">
        <ele>162.797313</ele>
        <time>2026-01-19T21:44:19.745Z</time>
      </trkpt>
      <trkpt lat="50.654893" lon="18.073976">
        <ele>162.745711</ele>
        <time>2026-01-19T21:45:30.350Z</time>
      </trkpt>
      <trkpt lat="50.659158" lon="18.075310">
        <ele>163.072451</ele>
        <time>2026-01-19T21:46:36.391Z</time>
      </trkpt>
      <trkpt lat="50.659256" lon="18.075321">
        <ele>163.074147</ele>
        <time>2026-01-19T21:46:37.851Z</time>
      </trkpt>
      <trkpt lat="50.659388" lon="18.075314">
        <ele>163.076426</ele>
        <time>2026-01-19T21:46:39.840Z</time>
      </trkpt>
      <trkpt lat="50.659522" lon="18.075205">
        <ele>163.079028</ele>
        <time>2026-01-19T21:46:42.078Z</time>
      </trkpt>
      <trkpt lat="50.659949" lon="18.074648">
        <ele>163.088591</ele>
        <time>2026-01-19T21:46:50.219Z</time>
      </trkpt>
      <trkpt lat="50.660030" lon="18.074504">
        <ele>163.090697</ele>
        <time>2026-01-19T21:46:52.694Z</time>
      </trkpt>
      <trkpt lat="50.660173" lon="18.074241">
        <ele>163.094488</ele>
        <time>2026-01-19T21:46:56.021Z</time>
      </trkpt>
      <trkpt lat="50.660274" lon="18.074058">
        <ele>163.097143</ele>
        <time>2026-01-19T21:46:58.359Z</time>
      </trkpt>
      <trkpt lat="50.660530" lon="18.073759">
        <ele>163.097923</ele>
        <time>2026-01-19T21:47:03.162Z</time>
      </trkpt>
      <trkpt lat="50.660711" lon="18.073552">
        <ele>163.094887</ele>
        <time>2026-01-19T21:47:06.500Z</time>
      </trkpt>
      <trkpt lat="50.660850" lon="18.073518">
        <ele>163.092977</ele>
        <time>2026-01-19T21:47:08.589Z</time>
      </trkpt>
      <trkpt lat="50.661186" lon="18.073511">
        <ele>163.088414</ele>
        <time>2026-01-19T21:47:13.549Z</time>
      </trkpt>
      <trkpt lat="50.661319" lon="18.073471">
        <ele>163.086575</ele>
        <time>2026-01-19T21:47:15.543Z</time>
      </trkpt>
      <trkpt lat="50.661411" lon="18.073398">
        <ele>163.085177</ele>
        <time>2026-01-19T21:47:17.067Z</time>
      </trkpt>
      <trkpt lat="50.661732" lon="18.072938">
        <ele>163.079288</ele>
        <time>2026-01-19T21:47:23.528Z</time>
      </trkpt>
      <trkpt lat="50.662146" lon="18.072324">
        <ele>163.067996</ele>
        <time>2026-01-19T21:47:31.800Z</time>
      </trkpt>
      <trkpt lat="50.662386" lon="18.071966">
        <ele>163.059504</ele>
        <time>2026-01-19T21:47:36.569Z</time>
      </trkpt>
      <trkpt lat="50.662798" lon="18.071243">
        <ele>163.043662</ele>
        <time>2026-01-19T21:47:45.607Z</time>
      </trkpt>
      <trkpt lat="50.663181" lon="18.070550">
        <ele>163.031060</ele>
        <time>2026-01-19T21:47:54.273Z</time>
      </trkpt>
      <trkpt lat="50.663727" lon="18.069879">
        <ele>163.077651</ele>
        <time>2026-01-19T21:48:04.775Z</time>
      </trkpt>
      <trkpt lat="50.664162" lon="18.069443">
        <ele>163.112344</ele>
        <time>2026-01-19T21:48:12.567Z</time>
      </trkpt>
      <trkpt lat="50.663476" lon="18.068054">
        <ele>163.133524</ele>
        <time>2026-01-19T21:48:29.396Z</time>
      </trkpt>
      <trkpt lat="50.663340" lon="18.067810">
        <ele>163.127205</ele>
        <time>2026-01-19T21:48:32.520Z</time>
      </trkpt>
      <trkpt lat="50.663244" lon="18.067618">
        <ele>163.122449</ele>
        <time>2026-01-19T21:48:34.851Z</time>
      </trkpt>
      <trkpt lat="50.663104" lon="18.067138">
        <ele>163.112173</ele>
        <time>2026-01-19T21:48:39.708Z</time>
      </trkpt>
      <trkpt lat="50.663037" lon="18.066870">
        <ele>163.106570</ele>
        <time>2026-01-19T21:48:42.329Z</time>
      </trkpt>
      <trkpt lat="50.662958" lon="18.066452">
        <ele>163.098087</ele>
        <time>2026-01-19T21:48:46.283Z</time>
      </trkpt>
      <trkpt lat="50.662925" lon="18.066261">
        <ele>163.075584</ele>
        <time>2026-01-19T21:48:48.076Z</time>
      </trkpt>
      <trkpt lat="50.662919" lon="18.066058">
        <ele>162.997508</ele>
        <time>2026-01-19T21:48:49.954Z</time>
      </trkpt>
      <trkpt lat="50.662925" lon="18.065903">
        <ele>162.937848</ele>
        <time>2026-01-19T21:48:51.414Z</time>
      </trkpt>
      <trkpt lat="50.662914" lon="18.065709">
        <ele>162.863017</ele>
        <time>2026-01-19T21:48:53.223Z</time>
      </trkpt>
      <trkpt lat="50.662874" lon="18.065536">
        <ele>162.792268</ele>
        <time>2026-01-19T21:48:54.819Z</time>
      </trkpt>
      <trkpt lat="50.662714" lon="18.065310">
        <ele>162.662102</ele>
        <time>2026-01-19T21:48:57.534Z</time>
      </trkpt>
      <trkpt lat="50.662532" lon="18.065175">
        <ele>162.540208</ele>
        <time>2026-01-19T21:48:59.969Z</time>
      </trkpt>
      <trkpt lat="50.662010" lon="18.064779">
        <ele>162.189147</ele>
        <time>2026-01-19T21:49:07.083Z</time>
      </trkpt>
      <trkpt lat="50.661883" lon="18.064647">
        <ele>162.096968</ele>
        <time>2026-01-19T21:49:09.000Z</time>
      </trkpt>
      <trkpt lat="50.661727" lon="18.064443">
        <ele>161.991287</ele>
        <time>2026-01-19T21:49:11.561Z</time>
      </trkpt>
      <trkpt lat="50.661680" lon="18.064386">
        <ele>161.975257</ele>
        <time>2026-01-19T21:49:12.318Z</time>
      </trkpt>
      <trkpt lat="50.658943" lon="18.059356">
        <ele>161.150287</ele>
        <time>2026-01-19T21:50:12.229Z</time>
      </trkpt>
      <trkpt lat="50.658777" lon="18.059050">
        <ele>161.125148</ele>
        <time>2026-01-19T21:50:17.334Z</time>
      </trkpt>
      <trkpt lat="50.657859" lon="18.057328">
        <ele>160.998875</ele>
        <time>2026-01-19T21:50:38.010Z</time>
      </trkpt>
      <trkpt lat="50.657025" lon="18.057314">
        <ele>160.936505</ele>
        <time>2026-01-19T21:50:50.266Z</time>
      </trkpt>
      <trkpt lat="50.656906" lon="18.057327">
        <ele>160.927585</ele>
        <time>2026-01-19T21:50:52.024Z</time>
      </trkpt>
      <trkpt lat="50.656593" lon="18.057602">
        <ele>160.884878</ele>
        <time>2026-01-19T21:50:57.123Z</time>
      </trkpt>
      <trkpt lat="50.656509" lon="18.057636">
        <ele>160.865980</ele>
        <time>2026-01-19T21:50:58.351Z</time>
      </trkpt>
      <trkpt lat="50.656462" lon="18.057621">
        <ele>160.855531</ele>
        <time>2026-01-19T21:50:59.026Z</time>
      </trkpt>
      <trkpt lat="50.655865" lon="18.057260">
        <ele>160.716203</ele>
        <time>2026-01-19T21:51:07.931Z</time>
      </trkpt>
      <trkpt lat="50.655782" lon="18.057190">
        <ele>160.695693</ele>
        <time>2026-01-19T21:51:09.200Z</time>
      </trkpt>
      <trkpt lat="50.655739" lon="18.057071">
        <ele>160.676769</ele>
        <time>2026-01-19T21:51:10.388Z</time>
      </trkpt>
      <trkpt lat="50.656042" lon="18.055842">
        <ele>160.601756</ele>
        <time>2026-01-19T21:51:21.944Z</time>
      </trkpt>
      <trkpt lat="50.656188" lon="18.055043">
        <ele>161.032526</ele>
        <time>2026-01-19T21:51:29.848Z</time>
      </trkpt>
      <trkpt lat="50.656283" lon="18.054760">
        <ele>161.198417</ele>
        <time>2026-01-19T21:51:33.302Z</time>
      </trkpt>
      <trkpt lat="50.656443" lon="18.054490">
        <ele>161.389880</ele>
        <time>2026-01-19T21:51:37.582Z</time>
      </trkpt>
      <trkpt lat="50.656640" lon="18.054235">
        <ele>161.598121</ele>
        <time>2026-01-19T21:51:42.604Z</time>
      </trkpt>
      <trkpt lat="50.656666" lon="18.054095">
        <ele>161.673694</ele>
        <time>2026-01-19T21:51:44.492Z</time>
      </trkpt>
      <trkpt lat="50.656542" lon="18.053838">
        <ele>161.841003</ele>
        <time>2026-01-19T21:51:48.823Z</time>
      </trkpt>
      <trkpt lat="50.655172" lon="18.051606">
        <ele>165.161632</ele>
        <time>2026-01-19T21:52:34.224Z</time>
      </trkpt>
      <trkpt lat="50.653885" lon="18.049305">
        <ele>165.730893</ele>
        <time>2026-01-19T21:53:04.604Z</time>
      </trkpt>
      <trkpt lat="50.653853" lon="18.049214">
        <ele>165.707387</ele>
        <time>2026-01-19T21:53:05.458Z</time>
      </trkpt>
      <trkpt lat="50.653849" lon="18.049116">
        <ele>165.685204</ele>
        <time>2026-01-19T21:53:06.256Z</time>
      </trkpt>
      <trkpt lat="50.653930" lon="18.048898">
        <ele>165.628128</ele>
        <time>2026-01-19T21:53:08.344Z</time>
      </trkpt>
      <trkpt lat="50.654086" lon="18.048672">
        <ele>165.552661</ele>
        <time>2026-01-19T21:53:11.103Z</time>
      </trkpt>
      <trkpt lat="50.654172" lon="18.048637">
        <ele>165.521017</ele>
        <time>2026-01-19T21:53:12.246Z</time>
      </trkpt>
      <trkpt lat="50.654144" lon="18.048580">
        <ele>165.504730</ele>
        <time>2026-01-19T21:53:12.833Z</time>
      </trkpt>
      <trkpt lat="50.653095" lon="18.046734">
        <ele>164.852830</ele>
        <time>2026-01-19T21:53:34.033Z</time>
      </trkpt>
      <trkpt lat="50.652029" lon="18.044839">
        <ele>164.148020</ele>
        <time>2026-01-19T21:53:55.067Z</time>
      </trkpt>
      <trkpt lat="50.651946" lon="18.044670">
        <ele>164.129493</ele>
        <time>2026-01-19T21:53:56.808Z</time>
      </trkpt>
      <trkpt lat="50.651871" lon="18.044520">
        <ele>164.112937</ele>
        <time>2026-01-19T21:53:58.381Z</time>
      </trkpt>
      <trkpt lat="50.651299" lon="18.043367">
        <ele>163.986055</ele>
        <time>2026-01-19T21:54:11.739Z</time>
      </trkpt>
      <trkpt lat="50.651255" lon="18.043277">
        <ele>163.976205</ele>
        <time>2026-01-19T21:54:12.953Z</time>
      </trkpt>
      <trkpt lat="50.651066" lon="18.043412">
        <ele>163.950618</ele>
        <time>2026-01-19T21:54:16.584Z</time>
      </trkpt>
      <trkpt lat="50.651046" lon="18.043426">
        <ele>163.950618</ele>
        <time>2026-01-19T21:54:16.954Z</time>
      </trkpt>
      <trkpt lat="50.650567" lon="18.043805">
        <ele>163.950618</ele>
        <time>2026-01-19T21:54:26.145Z</time>
      </trkpt>
      <trkpt lat="50.650367" lon="18.043979">
        <ele>163.950618</ele>
        <time>2026-01-19T21:54:30.079Z</time>
      </trkpt>
      <trkpt lat="50.650277" lon="18.044065">
        <ele>163.950618</ele>
        <time>2026-01-19T21:54:31.898Z</time>
      </trkpt>
      <trkpt lat="50.650170" lon="18.044089">
        <ele>163.950618</ele>
        <time>2026-01-19T21:54:33.763Z</time>
      </trkpt>
      <trkpt lat="50.650096" lon="18.044216">
        <ele>163.950618</ele>
        <time>2026-01-19T21:54:38.070Z</time>
      </trkpt>
      <trkpt lat="50.649965" lon="18.044339">
        <ele>163.950618</ele>
        <time>2026-01-19T21:54:44.028Z</time>
      </trkpt>
    </trkseg>
  </trk>
</gpx>