<?xml version='1.0' encoding='UTF-8'?>
<gpx version="1.1" creator="https://www.komoot.de" xmlns="http://www.topografix.com/GPX/1/1" xmlns:xsi="http://www.w3.org/2001/XMLSchema-instance" xsi:schemaLocation="http://www.topografix.com/GPX/1/1 http://www.topografix.com/GPX/1/1/gpx.xsd">
  <metadata>
    <name>GraveLova Środa #099 - Braveheart. Waleczne serce</name>
    <author>
      <link href="https://www.komoot.de">
        <text>komoot</text>
        <type>text/html</type>
      </link>
    </author>
  </metadata>
  <trk>
    <name>GraveLova Środa #099 - Braveheart. Waleczne serce</name>
    <trkseg>
      <trkpt lat="50.763678" lon="17.931026">
        <ele>156.410809</ele>
        <time>2026-04-06T09:01:51.824Z</time>
      </trkpt>
      <trkpt lat="50.763675" lon="17.931022">
        <ele>156.410809</ele>
        <time>2026-04-06T09:01:51.905Z</time>
      </trkpt>
      <trkpt lat="50.763625" lon="17.930974">
        <ele>156.410809</ele>
        <time>2026-04-06T09:01:53.130Z</time>
      </trkpt>
      <trkpt lat="50.763655" lon="17.930905">
        <ele>156.410809</ele>
        <time>2026-04-06T09:01:54.239Z</time>
      </trkpt>
      <trkpt lat="50.763693" lon="17.930816">
        <ele>156.410809</ele>
        <time>2026-04-06T09:01:55.658Z</time>
      </trkpt>
      <trkpt lat="50.763632" lon="17.930748">
        <ele>156.410809</ele>
        <time>2026-04-06T09:01:56.763Z</time>
      </trkpt>
      <trkpt lat="50.763592" lon="17.930700">
        <ele>156.410809</ele>
        <time>2026-04-06T09:01:57.504Z</time>
      </trkpt>
      <trkpt lat="50.763514" lon="17.930590">
        <ele>156.410809</ele>
        <time>2026-04-06T09:01:59.032Z</time>
      </trkpt>
      <trkpt lat="50.763408" lon="17.930438">
        <ele>156.410809</ele>
        <time>2026-04-06T09:02:01.105Z</time>
      </trkpt>
      <trkpt lat="50.763340" lon="17.930340">
        <ele>156.410809</ele>
        <time>2026-04-06T09:02:02.428Z</time>
      </trkpt>
      <trkpt lat="50.762450" lon="17.929067">
        <ele>155.715179</ele>
        <time>2026-04-06T09:02:19.969Z</time>
      </trkpt>
      <trkpt lat="50.762238" lon="17.929714">
        <ele>155.377214</ele>
        <time>2026-04-06T09:02:33.995Z</time>
      </trkpt>
      <trkpt lat="50.762121" lon="17.929988">
        <ele>155.223880</ele>
        <time>2026-04-06T09:02:40.490Z</time>
      </trkpt>
      <trkpt lat="50.761330" lon="17.931524">
        <ele>155.147303</ele>
        <time>2026-04-06T09:03:20.818Z</time>
      </trkpt>
      <trkpt lat="50.757698" lon="17.939103">
        <ele>155.680315</ele>
        <time>2026-04-06T09:06:35.074Z</time>
      </trkpt>
      <trkpt lat="50.757572" lon="17.939166">
        <ele>155.680008</ele>
        <time>2026-04-06T09:06:39.115Z</time>
      </trkpt>
      <trkpt lat="50.757347" lon="17.939045">
        <ele>155.631079</ele>
        <time>2026-04-06T09:06:46.357Z</time>
      </trkpt>
      <trkpt lat="50.756825" lon="17.938450">
        <ele>155.498587</ele>
        <time>2026-04-06T09:07:05.988Z</time>
      </trkpt>
      <trkpt lat="50.754755" lon="17.938979">
        <ele>155.157145</ele>
        <time>2026-04-06T09:08:12.024Z</time>
      </trkpt>
      <trkpt lat="50.754656" lon="17.938982">
        <ele>155.144179</ele>
        <time>2026-04-06T09:08:15.117Z</time>
      </trkpt>
      <trkpt lat="50.754533" lon="17.938936">
        <ele>155.127627</ele>
        <time>2026-04-06T09:08:19.066Z</time>
      </trkpt>
      <trkpt lat="50.753905" lon="17.938233">
        <ele>155.102129</ele>
        <time>2026-04-06T09:08:43.213Z</time>
      </trkpt>
      <trkpt lat="50.753837" lon="17.938176">
        <ele>155.106500</ele>
        <time>2026-04-06T09:08:45.654Z</time>
      </trkpt>
      <trkpt lat="50.753712" lon="17.938178">
        <ele>155.113599</ele>
        <time>2026-04-06T09:08:49.583Z</time>
      </trkpt>
      <trkpt lat="50.753657" lon="17.938213">
        <ele>155.116966</ele>
        <time>2026-04-06T09:08:51.448Z</time>
      </trkpt>
      <trkpt lat="50.753394" lon="17.938732">
        <ele>155.140856</ele>
        <time>2026-04-06T09:09:04.816Z</time>
      </trkpt>
      <trkpt lat="50.753054" lon="17.939403">
        <ele>155.171741</ele>
        <time>2026-04-06T09:09:22.515Z</time>
      </trkpt>
      <trkpt lat="50.753014" lon="17.939503">
        <ele>155.175992</ele>
        <time>2026-04-06T09:09:24.965Z</time>
      </trkpt>
      <trkpt lat="50.752287" lon="17.942993">
        <ele>156.328842</ele>
        <time>2026-04-06T09:10:42.830Z</time>
      </trkpt>
      <trkpt lat="50.752038" lon="17.943804">
        <ele>156.918150</ele>
        <time>2026-04-06T09:11:03.916Z</time>
      </trkpt>
      <trkpt lat="50.752031" lon="17.943959">
        <ele>157.019736</ele>
        <time>2026-04-06T09:11:07.619Z</time>
      </trkpt>
      <trkpt lat="50.753087" lon="17.944675">
        <ele>158.146892</ele>
        <time>2026-04-06T09:11:51.205Z</time>
      </trkpt>
      <trkpt lat="50.753076" lon="17.944715">
        <ele>158.171700</ele>
        <time>2026-04-06T09:11:52.170Z</time>
      </trkpt>
      <trkpt lat="50.753043" lon="17.944840">
        <ele>158.248741</ele>
        <time>2026-04-06T09:11:55.322Z</time>
      </trkpt>
      <trkpt lat="50.751966" lon="17.948805">
        <ele>160.182163</ele>
        <time>2026-04-06T09:13:30.689Z</time>
      </trkpt>
      <trkpt lat="50.751099" lon="17.951954">
        <ele>160.397544</ele>
        <time>2026-04-06T09:14:40.143Z</time>
      </trkpt>
      <trkpt lat="50.750802" lon="17.953084">
        <ele>159.938526</ele>
        <time>2026-04-06T09:15:04.107Z</time>
      </trkpt>
      <trkpt lat="50.750547" lon="17.954279">
        <ele>159.465434</ele>
        <time>2026-04-06T09:15:27.957Z</time>
      </trkpt>
      <trkpt lat="50.750013" lon="17.956686">
        <ele>157.353871</ele>
        <time>2026-04-06T09:16:13.827Z</time>
      </trkpt>
      <trkpt lat="50.749888" lon="17.957107">
        <ele>156.945970</ele>
        <time>2026-04-06T09:16:22.047Z</time>
      </trkpt>
      <trkpt lat="50.749399" lon="17.957676">
        <ele>156.408633</ele>
        <time>2026-04-06T09:16:39.185Z</time>
      </trkpt>
      <trkpt lat="50.747944" lon="17.959519">
        <ele>155.635995</ele>
        <time>2026-04-06T09:17:35.635Z</time>
      </trkpt>
      <trkpt lat="50.747523" lon="17.960051">
        <ele>155.869498</ele>
        <time>2026-04-06T09:17:55.322Z</time>
      </trkpt>
      <trkpt lat="50.746635" lon="17.961141">
        <ele>156.224063</ele>
        <time>2026-04-06T09:18:36.316Z</time>
      </trkpt>
      <trkpt lat="50.746376" lon="17.961441">
        <ele>156.276155</ele>
        <time>2026-04-06T09:18:46.997Z</time>
      </trkpt>
      <trkpt lat="50.746092" lon="17.961706">
        <ele>156.329658</ele>
        <time>2026-04-06T09:18:57.470Z</time>
      </trkpt>
      <trkpt lat="50.745783" lon="17.961995">
        <ele>156.387906</ele>
        <time>2026-04-06T09:19:08.566Z</time>
      </trkpt>
      <trkpt lat="50.745392" lon="17.962294">
        <ele>156.369529</ele>
        <time>2026-04-06T09:19:21.460Z</time>
      </trkpt>
      <trkpt lat="50.744922" lon="17.962565">
        <ele>156.120754</ele>
        <time>2026-04-06T09:19:36.412Z</time>
      </trkpt>
      <trkpt lat="50.743877" lon="17.963200">
        <ele>155.564041</ele>
        <time>2026-04-06T09:19:57.279Z</time>
      </trkpt>
      <trkpt lat="50.743741" lon="17.963210">
        <ele>155.542026</ele>
        <time>2026-04-06T09:19:59.868Z</time>
      </trkpt>
      <trkpt lat="50.743286" lon="17.963798">
        <ele>155.541255</ele>
        <time>2026-04-06T09:20:11.449Z</time>
      </trkpt>
      <trkpt lat="50.743013" lon="17.964008">
        <ele>155.540857</ele>
        <time>2026-04-06T09:20:17.457Z</time>
      </trkpt>
      <trkpt lat="50.742866" lon="17.964042">
        <ele>155.540662</ele>
        <time>2026-04-06T09:20:20.505Z</time>
      </trkpt>
      <trkpt lat="50.742474" lon="17.963964">
        <ele>155.540144</ele>
        <time>2026-04-06T09:20:28.883Z</time>
      </trkpt>
      <trkpt lat="50.742426" lon="17.963983">
        <ele>155.540079</ele>
        <time>2026-04-06T09:20:29.940Z</time>
      </trkpt>
      <trkpt lat="50.742379" lon="17.964041">
        <ele>155.540001</ele>
        <time>2026-04-06T09:20:31.205Z</time>
      </trkpt>
      <trkpt lat="50.742260" lon="17.963886">
        <ele>155.539799</ele>
        <time>2026-04-06T09:20:34.000Z</time>
      </trkpt>
      <trkpt lat="50.742061" lon="17.963755">
        <ele>155.555107</ele>
        <time>2026-04-06T09:20:37.783Z</time>
      </trkpt>
      <trkpt lat="50.741363" lon="17.963574">
        <ele>155.607342</ele>
        <time>2026-04-06T09:20:49.860Z</time>
      </trkpt>
      <trkpt lat="50.741027" lon="17.963399">
        <ele>155.633469</ele>
        <time>2026-04-06T09:20:55.985Z</time>
      </trkpt>
      <trkpt lat="50.740831" lon="17.963255">
        <ele>155.649431</ele>
        <time>2026-04-06T09:20:59.952Z</time>
      </trkpt>
      <trkpt lat="50.739998" lon="17.962391">
        <ele>155.657188</ele>
        <time>2026-04-06T09:21:17.042Z</time>
      </trkpt>
      <trkpt lat="50.738658" lon="17.961150">
        <ele>155.680836</ele>
        <time>2026-04-06T09:21:43.188Z</time>
      </trkpt>
      <trkpt lat="50.738188" lon="17.960726">
        <ele>155.741370</ele>
        <time>2026-04-06T09:21:52.534Z</time>
      </trkpt>
      <trkpt lat="50.737404" lon="17.959979">
        <ele>155.809364</ele>
        <time>2026-04-06T09:22:09.674Z</time>
      </trkpt>
      <trkpt lat="50.736856" lon="17.959496">
        <ele>155.652504</ele>
        <time>2026-04-06T09:22:20.669Z</time>
      </trkpt>
      <trkpt lat="50.736687" lon="17.959366">
        <ele>155.605517</ele>
        <time>2026-04-06T09:22:23.803Z</time>
      </trkpt>
      <trkpt lat="50.736401" lon="17.959171">
        <ele>155.527650</ele>
        <time>2026-04-06T09:22:28.892Z</time>
      </trkpt>
      <trkpt lat="50.736306" lon="17.959114">
        <ele>155.502248</ele>
        <time>2026-04-06T09:22:30.499Z</time>
      </trkpt>
      <trkpt lat="50.736161" lon="17.959034">
        <ele>155.463854</ele>
        <time>2026-04-06T09:22:32.895Z</time>
      </trkpt>
      <trkpt lat="50.735954" lon="17.958918">
        <ele>155.408950</ele>
        <time>2026-04-06T09:22:36.209Z</time>
      </trkpt>
      <trkpt lat="50.735667" lon="17.958822">
        <ele>155.312474</ele>
        <time>2026-04-06T09:22:40.609Z</time>
      </trkpt>
      <trkpt lat="50.735534" lon="17.958811">
        <ele>155.263094</ele>
        <time>2026-04-06T09:22:42.607Z</time>
      </trkpt>
      <trkpt lat="50.735146" lon="17.958779">
        <ele>155.119040</ele>
        <time>2026-04-06T09:22:48.578Z</time>
      </trkpt>
      <trkpt lat="50.735149" lon="17.958871">
        <ele>155.097422</ele>
        <time>2026-04-06T09:22:50.385Z</time>
      </trkpt>
      <trkpt lat="50.735045" lon="17.958891">
        <ele>155.058578</ele>
        <time>2026-04-06T09:22:53.572Z</time>
      </trkpt>
      <trkpt lat="50.734260" lon="17.958844">
        <ele>154.767315</ele>
        <time>2026-04-06T09:23:06.773Z</time>
      </trkpt>
      <trkpt lat="50.733864" lon="17.958737">
        <ele>154.662733</ele>
        <time>2026-04-06T09:23:13.750Z</time>
      </trkpt>
      <trkpt lat="50.733536" lon="17.958534">
        <ele>154.591102</ele>
        <time>2026-04-06T09:23:19.898Z</time>
      </trkpt>
      <trkpt lat="50.733040" lon="17.958123">
        <ele>154.477215</ele>
        <time>2026-04-06T09:23:29.190Z</time>
      </trkpt>
      <trkpt lat="50.732237" lon="17.957456">
        <ele>154.366856</ele>
        <time>2026-04-06T09:23:43.640Z</time>
      </trkpt>
      <trkpt lat="50.732084" lon="17.957367">
        <ele>154.375962</ele>
        <time>2026-04-06T09:23:46.313Z</time>
      </trkpt>
      <trkpt lat="50.731752" lon="17.957273">
        <ele>154.394799</ele>
        <time>2026-04-06T09:23:51.990Z</time>
      </trkpt>
      <trkpt lat="50.731613" lon="17.957181">
        <ele>154.403215</ele>
        <time>2026-04-06T09:23:54.559Z</time>
      </trkpt>
      <trkpt lat="50.731050" lon="17.957135">
        <ele>154.434700</ele>
        <time>2026-04-06T09:24:04.680Z</time>
      </trkpt>
      <trkpt lat="50.730756" lon="17.957208">
        <ele>154.451321</ele>
        <time>2026-04-06T09:24:10.331Z</time>
      </trkpt>
      <trkpt lat="50.730440" lon="17.957179">
        <ele>154.618067</ele>
        <time>2026-04-06T09:24:16.565Z</time>
      </trkpt>
      <trkpt lat="50.730171" lon="17.957158">
        <ele>154.760066</ele>
        <time>2026-04-06T09:24:21.984Z</time>
      </trkpt>
      <trkpt lat="50.730042" lon="17.957208">
        <ele>154.830095</ele>
        <time>2026-04-06T09:24:24.662Z</time>
      </trkpt>
      <trkpt lat="50.729953" lon="17.957330">
        <ele>154.892220</ele>
        <time>2026-04-06T09:24:27.002Z</time>
      </trkpt>
      <trkpt lat="50.729668" lon="17.957950">
        <ele>155.147934</ele>
        <time>2026-04-06T09:24:36.506Z</time>
      </trkpt>
      <trkpt lat="50.729665" lon="17.958366">
        <ele>155.286774</ele>
        <time>2026-04-06T09:24:41.668Z</time>
      </trkpt>
      <trkpt lat="50.729692" lon="17.958482">
        <ele>155.328020</ele>
        <time>2026-04-06T09:24:43.174Z</time>
      </trkpt>
      <trkpt lat="50.729702" lon="17.958575">
        <ele>155.359501</ele>
        <time>2026-04-06T09:24:44.340Z</time>
      </trkpt>
      <trkpt lat="50.729683" lon="17.958599">
        <ele>155.372327</ele>
        <time>2026-04-06T09:24:44.804Z</time>
      </trkpt>
      <trkpt lat="50.729761" lon="17.958831">
        <ele>155.416846</ele>
        <time>2026-04-06T09:24:47.998Z</time>
      </trkpt>
      <trkpt lat="50.729909" lon="17.959775">
        <ele>155.509384</ele>
        <time>2026-04-06T09:24:59.493Z</time>
      </trkpt>
      <trkpt lat="50.730132" lon="17.961360">
        <ele>155.663880</ele>
        <time>2026-04-06T09:25:17.199Z</time>
      </trkpt>
      <trkpt lat="50.730270" lon="17.962608">
        <ele>155.521901</ele>
        <time>2026-04-06T09:25:30.571Z</time>
      </trkpt>
      <trkpt lat="50.730332" lon="17.962849">
        <ele>155.489856</ele>
        <time>2026-04-06T09:25:33.270Z</time>
      </trkpt>
      <trkpt lat="50.730657" lon="17.963627">
        <ele>155.375032</ele>
        <time>2026-04-06T09:25:42.895Z</time>
      </trkpt>
      <trkpt lat="50.730755" lon="17.963937">
        <ele>155.332348</ele>
        <time>2026-04-06T09:25:46.484Z</time>
      </trkpt>
      <trkpt lat="50.730806" lon="17.964191">
        <ele>155.289180</ele>
        <time>2026-04-06T09:25:49.252Z</time>
      </trkpt>
      <trkpt lat="50.730895" lon="17.965665">
        <ele>155.014584</ele>
        <time>2026-04-06T09:26:04.475Z</time>
      </trkpt>
      <trkpt lat="50.731187" lon="17.970833">
        <ele>154.665852</ele>
        <time>2026-04-06T09:26:58.216Z</time>
      </trkpt>
      <trkpt lat="50.731247" lon="17.971266">
        <ele>154.803620</ele>
        <time>2026-04-06T09:27:03.881Z</time>
      </trkpt>
      <trkpt lat="50.731622" lon="17.973212">
        <ele>155.531459</ele>
        <time>2026-04-06T09:27:32.769Z</time>
      </trkpt>
      <trkpt lat="50.732143" lon="17.975920">
        <ele>156.430291</ele>
        <time>2026-04-06T09:28:07.672Z</time>
      </trkpt>
      <trkpt lat="50.732382" lon="17.977211">
        <ele>156.449887</ele>
        <time>2026-04-06T09:28:21.470Z</time>
      </trkpt>
      <trkpt lat="50.732604" lon="17.978386">
        <ele>156.604314</ele>
        <time>2026-04-06T09:28:34.429Z</time>
      </trkpt>
      <trkpt lat="50.732750" lon="17.979163">
        <ele>156.834796</ele>
        <time>2026-04-06T09:28:44.494Z</time>
      </trkpt>
      <trkpt lat="50.732834" lon="17.979430">
        <ele>156.919583</ele>
        <time>2026-04-06T09:28:48.331Z</time>
      </trkpt>
      <trkpt lat="50.733016" lon="17.979757">
        <ele>157.043408</ele>
        <time>2026-04-06T09:28:53.901Z</time>
      </trkpt>
      <trkpt lat="50.733542" lon="17.980377">
        <ele>157.338344</ele>
        <time>2026-04-06T09:29:06.897Z</time>
      </trkpt>
      <trkpt lat="50.735801" lon="17.982618">
        <ele>158.505615</ele>
        <time>2026-04-06T09:29:57.716Z</time>
      </trkpt>
      <trkpt lat="50.736252" lon="17.983030">
        <ele>158.723312</ele>
        <time>2026-04-06T09:30:08.197Z</time>
      </trkpt>
      <trkpt lat="50.736823" lon="17.983914">
        <ele>158.576674</ele>
        <time>2026-04-06T09:30:22.335Z</time>
      </trkpt>
      <trkpt lat="50.736905" lon="17.984093">
        <ele>158.511937</ele>
        <time>2026-04-06T09:30:24.552Z</time>
      </trkpt>
      <trkpt lat="50.737222" lon="17.984790">
        <ele>158.260485</ele>
        <time>2026-04-06T09:30:32.839Z</time>
      </trkpt>
      <trkpt lat="50.737521" lon="17.985388">
        <ele>158.037216</ele>
        <time>2026-04-06T09:30:39.990Z</time>
      </trkpt>
      <trkpt lat="50.737634" lon="17.985543">
        <ele>157.983199</ele>
        <time>2026-04-06T09:30:42.202Z</time>
      </trkpt>
      <trkpt lat="50.737790" lon="17.985704">
        <ele>157.942686</ele>
        <time>2026-04-06T09:30:44.996Z</time>
      </trkpt>
      <trkpt lat="50.739812" lon="17.987011">
        <ele>157.717922</ele>
        <time>2026-04-06T09:31:22.126Z</time>
      </trkpt>
      <trkpt lat="50.741157" lon="17.987529">
        <ele>157.948811</ele>
        <time>2026-04-06T09:31:47.898Z</time>
      </trkpt>
      <trkpt lat="50.742167" lon="17.987924">
        <ele>158.066180</ele>
        <time>2026-04-06T09:32:06.644Z</time>
      </trkpt>
      <trkpt lat="50.742223" lon="17.988047">
        <ele>158.076996</ele>
        <time>2026-04-06T09:32:08.311Z</time>
      </trkpt>
      <trkpt lat="50.742238" lon="17.988165">
        <ele>158.085587</ele>
        <time>2026-04-06T09:32:09.645Z</time>
      </trkpt>
      <trkpt lat="50.742281" lon="17.989046">
        <ele>158.023853</ele>
        <time>2026-04-06T09:32:19.070Z</time>
      </trkpt>
      <trkpt lat="50.742306" lon="17.989233">
        <ele>157.959371</ele>
        <time>2026-04-06T09:32:21.050Z</time>
      </trkpt>
      <trkpt lat="50.742403" lon="17.989683">
        <ele>157.798987</ele>
        <time>2026-04-06T09:32:25.826Z</time>
      </trkpt>
      <trkpt lat="50.742633" lon="17.989848">
        <ele>157.664321</ele>
        <time>2026-04-06T09:32:29.708Z</time>
      </trkpt>
      <trkpt lat="50.742959" lon="17.990058">
        <ele>157.476633</ele>
        <time>2026-04-06T09:32:35.001Z</time>
      </trkpt>
      <trkpt lat="50.743162" lon="17.990109">
        <ele>157.367047</ele>
        <time>2026-04-06T09:32:38.112Z</time>
      </trkpt>
      <trkpt lat="50.743335" lon="17.990038">
        <ele>157.271754</ele>
        <time>2026-04-06T09:32:40.855Z</time>
      </trkpt>
      <trkpt lat="50.743435" lon="17.989935">
        <ele>157.208116</ele>
        <time>2026-04-06T09:32:42.740Z</time>
      </trkpt>
      <trkpt lat="50.743941" lon="17.989454">
        <ele>157.151091</ele>
        <time>2026-04-06T09:32:52.220Z</time>
      </trkpt>
      <trkpt lat="50.744018" lon="17.989406">
        <ele>157.148383</ele>
        <time>2026-04-06T09:32:53.597Z</time>
      </trkpt>
      <trkpt lat="50.744560" lon="17.989218">
        <ele>157.130231</ele>
        <time>2026-04-06T09:33:02.984Z</time>
      </trkpt>
      <trkpt lat="50.744677" lon="17.989249">
        <ele>157.126350</ele>
        <time>2026-04-06T09:33:05.106Z</time>
      </trkpt>
      <trkpt lat="50.744742" lon="17.989372">
        <ele>157.123033</ele>
        <time>2026-04-06T09:33:06.977Z</time>
      </trkpt>
      <trkpt lat="50.745429" lon="17.991533">
        <ele>157.848819</ele>
        <time>2026-04-06T09:33:36.522Z</time>
      </trkpt>
      <trkpt lat="50.745708" lon="17.992107">
        <ele>158.155551</ele>
        <time>2026-04-06T09:33:46.035Z</time>
      </trkpt>
      <trkpt lat="50.745973" lon="17.992568">
        <ele>158.501938</ele>
        <time>2026-04-06T09:33:54.688Z</time>
      </trkpt>
      <trkpt lat="50.746460" lon="17.993100">
        <ele>159.207441</ele>
        <time>2026-04-06T09:34:08.338Z</time>
      </trkpt>
      <trkpt lat="50.747075" lon="17.993633">
        <ele>160.043296</ele>
        <time>2026-04-06T09:34:24.516Z</time>
      </trkpt>
      <trkpt lat="50.747322" lon="17.993776">
        <ele>160.356772</ele>
        <time>2026-04-06T09:34:30.519Z</time>
      </trkpt>
      <trkpt lat="50.748430" lon="17.994043">
        <ele>161.164927</ele>
        <time>2026-04-06T09:34:53.532Z</time>
      </trkpt>
      <trkpt lat="50.748601" lon="17.994053">
        <ele>161.281768</ele>
        <time>2026-04-06T09:34:56.744Z</time>
      </trkpt>
      <trkpt lat="50.749389" lon="17.994063">
        <ele>161.832986</ele>
        <time>2026-04-06T09:35:11.656Z</time>
      </trkpt>
      <trkpt lat="50.750882" lon="17.994339">
        <ele>162.959625</ele>
        <time>2026-04-06T09:35:43.320Z</time>
      </trkpt>
      <trkpt lat="50.752343" lon="17.994660">
        <ele>163.590040</ele>
        <time>2026-04-06T09:36:12.820Z</time>
      </trkpt>
      <trkpt lat="50.752443" lon="17.996288">
        <ele>163.681066</ele>
        <time>2026-04-06T09:36:46.585Z</time>
      </trkpt>
      <trkpt lat="50.752550" lon="17.996656">
        <ele>163.647784</ele>
        <time>2026-04-06T09:36:54.786Z</time>
      </trkpt>
      <trkpt lat="50.753197" lon="17.998091">
        <ele>163.674473</ele>
        <time>2026-04-06T09:37:32.356Z</time>
      </trkpt>
      <trkpt lat="50.753504" lon="17.998620">
        <ele>164.035831</ele>
        <time>2026-04-06T09:37:49.092Z</time>
      </trkpt>
      <trkpt lat="50.754615" lon="18.001625">
        <ele>165.832231</ele>
        <time>2026-04-06T09:39:13.501Z</time>
      </trkpt>
      <trkpt lat="50.755247" lon="18.003973">
        <ele>166.643614</ele>
        <time>2026-04-06T09:40:12.290Z</time>
      </trkpt>
      <trkpt lat="50.755499" lon="18.005106">
        <ele>166.800957</ele>
        <time>2026-04-06T09:40:38.265Z</time>
      </trkpt>
      <trkpt lat="50.755668" lon="18.006352">
        <ele>166.272565</ele>
        <time>2026-04-06T09:41:03.937Z</time>
      </trkpt>
      <trkpt lat="50.755659" lon="18.006740">
        <ele>166.050469</ele>
        <time>2026-04-06T09:41:11.586Z</time>
      </trkpt>
      <trkpt lat="50.755632" lon="18.007842">
        <ele>165.419621</ele>
        <time>2026-04-06T09:41:33.194Z</time>
      </trkpt>
      <trkpt lat="50.755367" lon="18.009062">
        <ele>164.617890</ele>
        <time>2026-04-06T09:41:58.195Z</time>
      </trkpt>
      <trkpt lat="50.755249" lon="18.009436">
        <ele>164.350024</ele>
        <time>2026-04-06T09:42:06.390Z</time>
      </trkpt>
      <trkpt lat="50.755221" lon="18.009562">
        <ele>164.264430</ele>
        <time>2026-04-06T09:42:09.029Z</time>
      </trkpt>
      <trkpt lat="50.754478" lon="18.010847">
        <ele>163.299445</ele>
        <time>2026-04-06T09:42:43.564Z</time>
      </trkpt>
      <trkpt lat="50.754120" lon="18.011458">
        <ele>163.099522</ele>
        <time>2026-04-06T09:42:56.643Z</time>
      </trkpt>
      <trkpt lat="50.754007" lon="18.011700">
        <ele>163.027315</ele>
        <time>2026-04-06T09:43:02.844Z</time>
      </trkpt>
      <trkpt lat="50.753878" lon="18.012196">
        <ele>162.898573</ele>
        <time>2026-04-06T09:43:09.380Z</time>
      </trkpt>
      <trkpt lat="50.753864" lon="18.012390">
        <ele>162.851698</ele>
        <time>2026-04-06T09:43:11.821Z</time>
      </trkpt>
      <trkpt lat="50.753876" lon="18.013030">
        <ele>162.709348</ele>
        <time>2026-04-06T09:43:19.937Z</time>
      </trkpt>
      <trkpt lat="50.753909" lon="18.013325">
        <ele>162.725832</ele>
        <time>2026-04-06T09:43:23.803Z</time>
      </trkpt>
      <trkpt lat="50.754051" lon="18.013778">
        <ele>162.753651</ele>
        <time>2026-04-06T09:43:30.210Z</time>
      </trkpt>
      <trkpt lat="50.754388" lon="18.014461">
        <ele>162.801313</ele>
        <time>2026-04-06T09:43:41.238Z</time>
      </trkpt>
      <trkpt lat="50.754481" lon="18.014756">
        <ele>162.819450</ele>
        <time>2026-04-06T09:43:45.453Z</time>
      </trkpt>
      <trkpt lat="50.754545" lon="18.015467">
        <ele>162.858967</ele>
        <time>2026-04-06T09:43:54.680Z</time>
      </trkpt>
      <trkpt lat="50.754530" lon="18.015928">
        <ele>162.906497</ele>
        <time>2026-04-06T09:44:00.654Z</time>
      </trkpt>
      <trkpt lat="50.754369" lon="18.017788">
        <ele>163.120254</ele>
        <time>2026-04-06T09:44:25.487Z</time>
      </trkpt>
      <trkpt lat="50.754336" lon="18.018188">
        <ele>163.166184</ele>
        <time>2026-04-06T09:44:30.819Z</time>
      </trkpt>
      <trkpt lat="50.754234" lon="18.019420">
        <ele>163.318282</ele>
        <time>2026-04-06T09:44:46.966Z</time>
      </trkpt>
      <trkpt lat="50.754093" lon="18.020561">
        <ele>163.462347</ele>
        <time>2026-04-06T09:45:02.161Z</time>
      </trkpt>
      <trkpt lat="50.753964" lon="18.021016">
        <ele>163.524134</ele>
        <time>2026-04-06T09:45:08.748Z</time>
      </trkpt>
      <trkpt lat="50.753911" lon="18.021013">
        <ele>163.534522</ele>
        <time>2026-04-06T09:45:09.706Z</time>
      </trkpt>
      <trkpt lat="50.753803" lon="18.021025">
        <ele>163.573229</ele>
        <time>2026-04-06T09:45:11.682Z</time>
      </trkpt>
      <trkpt lat="50.754149" lon="18.024044">
        <ele>164.312176</ele>
        <time>2026-04-06T09:45:54.070Z</time>
      </trkpt>
      <trkpt lat="50.754354" lon="18.026056">
        <ele>164.516845</ele>
        <time>2026-04-06T09:46:21.436Z</time>
      </trkpt>
      <trkpt lat="50.754656" lon="18.028715">
        <ele>163.710726</ele>
        <time>2026-04-06T09:46:53.037Z</time>
      </trkpt>
      <trkpt lat="50.754630" lon="18.028818">
        <ele>163.668781</ele>
        <time>2026-04-06T09:46:54.284Z</time>
      </trkpt>
      <trkpt lat="50.754587" lon="18.028848">
        <ele>163.640679</ele>
        <time>2026-04-06T09:46:55.103Z</time>
      </trkpt>
      <trkpt lat="50.753766" lon="18.029000">
        <ele>163.271195</ele>
        <time>2026-04-06T09:47:09.588Z</time>
      </trkpt>
      <trkpt lat="50.753290" lon="18.029088">
        <ele>163.089693</ele>
        <time>2026-04-06T09:47:18.535Z</time>
      </trkpt>
      <trkpt lat="50.753176" lon="18.029167">
        <ele>163.042550</ele>
        <time>2026-04-06T09:47:20.944Z</time>
      </trkpt>
      <trkpt lat="50.753030" lon="18.029432">
        <ele>162.958353</ele>
        <time>2026-04-06T09:47:25.290Z</time>
      </trkpt>
      <trkpt lat="50.752983" lon="18.029743">
        <ele>162.881739</ele>
        <time>2026-04-06T09:47:29.277Z</time>
      </trkpt>
      <trkpt lat="50.752967" lon="18.030793">
        <ele>162.920275</ele>
        <time>2026-04-06T09:47:43.370Z</time>
      </trkpt>
      <trkpt lat="50.753066" lon="18.032212">
        <ele>163.143919</ele>
        <time>2026-04-06T09:48:03.026Z</time>
      </trkpt>
      <trkpt lat="50.752982" lon="18.033027">
        <ele>163.276310</ele>
        <time>2026-04-06T09:48:13.543Z</time>
      </trkpt>
      <trkpt lat="50.752883" lon="18.033536">
        <ele>163.371044</ele>
        <time>2026-04-06T09:48:20.356Z</time>
      </trkpt>
      <trkpt lat="50.752695" lon="18.034328">
        <ele>163.521533</ele>
        <time>2026-04-06T09:48:31.512Z</time>
      </trkpt>
      <trkpt lat="50.752428" lon="18.035129">
        <ele>163.682601</ele>
        <time>2026-04-06T09:48:43.884Z</time>
      </trkpt>
      <trkpt lat="50.752382" lon="18.035573">
        <ele>163.764662</ele>
        <time>2026-04-06T09:48:50.100Z</time>
      </trkpt>
      <trkpt lat="50.752392" lon="18.037220">
        <ele>164.157072</ele>
        <time>2026-04-06T09:49:12.710Z</time>
      </trkpt>
      <trkpt lat="50.752393" lon="18.037307">
        <ele>164.177803</ele>
        <time>2026-04-06T09:49:13.871Z</time>
      </trkpt>
      <trkpt lat="50.752413" lon="18.039072">
        <ele>164.493634</ele>
        <time>2026-04-06T09:49:37.854Z</time>
      </trkpt>
      <trkpt lat="50.752423" lon="18.040036">
        <ele>164.576962</ele>
        <time>2026-04-06T09:49:50.534Z</time>
      </trkpt>
      <trkpt lat="50.752448" lon="18.040511">
        <ele>164.618157</ele>
        <time>2026-04-06T09:49:56.561Z</time>
      </trkpt>
      <trkpt lat="50.752607" lon="18.041810">
        <ele>164.677243</ele>
        <time>2026-04-06T09:50:13.010Z</time>
      </trkpt>
      <trkpt lat="50.752733" lon="18.042295">
        <ele>164.675122</ele>
        <time>2026-04-06T09:50:19.461Z</time>
      </trkpt>
      <trkpt lat="50.752865" lon="18.042818">
        <ele>164.672844</ele>
        <time>2026-04-06T09:50:26.461Z</time>
      </trkpt>
      <trkpt lat="50.753120" lon="18.043442">
        <ele>164.669839</ele>
        <time>2026-04-06T09:50:35.684Z</time>
      </trkpt>
      <trkpt lat="50.753684" lon="18.044385">
        <ele>165.242302</ele>
        <time>2026-04-06T09:50:52.489Z</time>
      </trkpt>
      <trkpt lat="50.754017" lon="18.044880">
        <ele>165.705352</ele>
        <time>2026-04-06T09:51:03.234Z</time>
      </trkpt>
      <trkpt lat="50.755153" lon="18.046309">
        <ele>167.450741</ele>
        <time>2026-04-06T09:51:43.973Z</time>
      </trkpt>
      <trkpt lat="50.755242" lon="18.046435">
        <ele>167.620252</ele>
        <time>2026-04-06T09:51:47.365Z</time>
      </trkpt>
      <trkpt lat="50.755295" lon="18.046591">
        <ele>167.779183</ele>
        <time>2026-04-06T09:51:50.457Z</time>
      </trkpt>
      <trkpt lat="50.755354" lon="18.046577">
        <ele>167.863828</ele>
        <time>2026-04-06T09:51:52.893Z</time>
      </trkpt>
      <trkpt lat="50.755923" lon="18.047224">
        <ele>168.858270</ele>
        <time>2026-04-06T09:52:19.087Z</time>
      </trkpt>
      <trkpt lat="50.756831" lon="18.048329">
        <ele>169.728901</ele>
        <time>2026-04-06T09:52:58.268Z</time>
      </trkpt>
      <trkpt lat="50.757377" lon="18.049082">
        <ele>170.218576</ele>
        <time>2026-04-06T09:53:23.435Z</time>
      </trkpt>
      <trkpt lat="50.757535" lon="18.049422">
        <ele>170.363661</ele>
        <time>2026-04-06T09:53:32.850Z</time>
      </trkpt>
      <trkpt lat="50.757812" lon="18.050357">
        <ele>170.694940</ele>
        <time>2026-04-06T09:53:55.826Z</time>
      </trkpt>
      <trkpt lat="50.758146" lon="18.051666">
        <ele>171.147829</ele>
        <time>2026-04-06T09:54:25.965Z</time>
      </trkpt>
      <trkpt lat="50.758219" lon="18.051880">
        <ele>171.168609</ele>
        <time>2026-04-06T09:54:30.862Z</time>
      </trkpt>
      <trkpt lat="50.758756" lon="18.053000">
        <ele>171.158736</ele>
        <time>2026-04-06T09:54:58.376Z</time>
      </trkpt>
      <trkpt lat="50.759046" lon="18.053616">
        <ele>171.153342</ele>
        <time>2026-04-06T09:55:13.511Z</time>
      </trkpt>
      <trkpt lat="50.760390" lon="18.056367">
        <ele>171.819842</ele>
        <time>2026-04-06T09:56:26.606Z</time>
      </trkpt>
      <trkpt lat="50.761921" lon="18.059590">
        <ele>173.314485</ele>
        <time>2026-04-06T09:57:56.538Z</time>
      </trkpt>
      <trkpt lat="50.759761" lon="18.061980">
        <ele>173.345336</ele>
        <time>2026-04-06T09:59:19.956Z</time>
      </trkpt>
      <trkpt lat="50.759763" lon="18.062110">
        <ele>173.331503</ele>
        <time>2026-04-06T09:59:22.463Z</time>
      </trkpt>
      <trkpt lat="50.759832" lon="18.062431">
        <ele>173.076133</ele>
        <time>2026-04-06T09:59:28.968Z</time>
      </trkpt>
      <trkpt lat="50.759992" lon="18.062844">
        <ele>172.637490</ele>
        <time>2026-04-06T09:59:38.069Z</time>
      </trkpt>
      <trkpt lat="50.759927" lon="18.063729">
        <ele>171.830536</ele>
        <time>2026-04-06T09:59:54.050Z</time>
      </trkpt>
      <trkpt lat="50.760155" lon="18.064228">
        <ele>171.273008</ele>
        <time>2026-04-06T10:00:04.705Z</time>
      </trkpt>
      <trkpt lat="50.760536" lon="18.065191">
        <ele>170.512088</ele>
        <time>2026-04-06T10:00:24.068Z</time>
      </trkpt>
      <trkpt lat="50.760822" lon="18.065638">
        <ele>170.241630</ele>
        <time>2026-04-06T10:00:35.335Z</time>
      </trkpt>
      <trkpt lat="50.761172" lon="18.066185">
        <ele>169.910660</ele>
        <time>2026-04-06T10:00:50.520Z</time>
      </trkpt>
      <trkpt lat="50.761699" lon="18.066682">
        <ele>169.532346</ele>
        <time>2026-04-06T10:01:11.954Z</time>
      </trkpt>
      <trkpt lat="50.761891" lon="18.066864">
        <ele>169.505707</ele>
        <time>2026-04-06T10:01:20.086Z</time>
      </trkpt>
      <trkpt lat="50.762503" lon="18.067168">
        <ele>169.429373</ele>
        <time>2026-04-06T10:01:42.836Z</time>
      </trkpt>
      <trkpt lat="50.762878" lon="18.067660">
        <ele>169.371385</ele>
        <time>2026-04-06T10:01:57.927Z</time>
      </trkpt>
      <trkpt lat="50.763581" lon="18.068317">
        <ele>168.854535</ele>
        <time>2026-04-06T10:02:20.659Z</time>
      </trkpt>
      <trkpt lat="50.763919" lon="18.068766">
        <ele>168.373864</ele>
        <time>2026-04-06T10:02:32.719Z</time>
      </trkpt>
      <trkpt lat="50.764111" lon="18.069214">
        <ele>168.001188</ele>
        <time>2026-04-06T10:02:42.326Z</time>
      </trkpt>
      <trkpt lat="50.764321" lon="18.070181">
        <ele>167.490307</ele>
        <time>2026-04-06T10:03:02.105Z</time>
      </trkpt>
      <trkpt lat="50.764547" lon="18.070630">
        <ele>168.181455</ele>
        <time>2026-04-06T10:03:15.219Z</time>
      </trkpt>
      <trkpt lat="50.764995" lon="18.071218">
        <ele>169.290229</ele>
        <time>2026-04-06T10:03:39.401Z</time>
      </trkpt>
      <trkpt lat="50.765375" lon="18.071064">
        <ele>170.037246</ele>
        <time>2026-04-06T10:03:51.706Z</time>
      </trkpt>
      <trkpt lat="50.766381" lon="18.070753">
        <ele>171.654416</ele>
        <time>2026-04-06T10:04:21.325Z</time>
      </trkpt>
      <trkpt lat="50.766654" lon="18.070623">
        <ele>172.045458</ele>
        <time>2026-04-06T10:04:27.965Z</time>
      </trkpt>
      <trkpt lat="50.766782" lon="18.070617">
        <ele>172.221091</ele>
        <time>2026-04-06T10:04:31.046Z</time>
      </trkpt>
      <trkpt lat="50.767564" lon="18.070843">
        <ele>173.258484</ele>
        <time>2026-04-06T10:04:48.092Z</time>
      </trkpt>
      <trkpt lat="50.767845" lon="18.070994">
        <ele>173.251563</ele>
        <time>2026-04-06T10:04:53.707Z</time>
      </trkpt>
      <trkpt lat="50.768393" lon="18.071012">
        <ele>173.238782</ele>
        <time>2026-04-06T10:05:04.013Z</time>
      </trkpt>
      <trkpt lat="50.768521" lon="18.071089">
        <ele>173.235589</ele>
        <time>2026-04-06T10:05:06.608Z</time>
      </trkpt>
      <trkpt lat="50.768703" lon="18.071143">
        <ele>173.231271</ele>
        <time>2026-04-06T10:05:10.174Z</time>
      </trkpt>
      <trkpt lat="50.768889" lon="18.071265">
        <ele>173.226576</ele>
        <time>2026-04-06T10:05:14.082Z</time>
      </trkpt>
      <trkpt lat="50.769052" lon="18.071412">
        <ele>173.222200</ele>
        <time>2026-04-06T10:05:17.757Z</time>
      </trkpt>
      <trkpt lat="50.769519" lon="18.071934">
        <ele>172.907368</ele>
        <time>2026-04-06T10:05:28.505Z</time>
      </trkpt>
      <trkpt lat="50.769696" lon="18.072007">
        <ele>172.752932</ele>
        <time>2026-04-06T10:05:31.648Z</time>
      </trkpt>
      <trkpt lat="50.770301" lon="18.072051">
        <ele>172.241608</ele>
        <time>2026-04-06T10:05:41.810Z</time>
      </trkpt>
      <trkpt lat="50.770765" lon="18.072361">
        <ele>171.816332</ele>
        <time>2026-04-06T10:05:50.107Z</time>
      </trkpt>
      <trkpt lat="50.771496" lon="18.072859">
        <ele>171.494118</ele>
        <time>2026-04-06T10:06:03.292Z</time>
      </trkpt>
      <trkpt lat="50.773223" lon="18.074197">
        <ele>171.131709</ele>
        <time>2026-04-06T10:06:41.974Z</time>
      </trkpt>
      <trkpt lat="50.773676" lon="18.074587">
        <ele>171.127442</ele>
        <time>2026-04-06T10:06:52.716Z</time>
      </trkpt>
      <trkpt lat="50.774337" lon="18.074799">
        <ele>170.911815</ele>
        <time>2026-04-06T10:07:04.824Z</time>
      </trkpt>
      <trkpt lat="50.774655" lon="18.074593">
        <ele>170.491630</ele>
        <time>2026-04-06T10:07:15.486Z</time>
      </trkpt>
      <trkpt lat="50.774862" lon="18.074557">
        <ele>170.237001</ele>
        <time>2026-04-06T10:07:21.847Z</time>
      </trkpt>
      <trkpt lat="50.775201" lon="18.074594">
        <ele>169.821513</ele>
        <time>2026-04-06T10:07:32.001Z</time>
      </trkpt>
      <trkpt lat="50.775316" lon="18.074666">
        <ele>169.670281</ele>
        <time>2026-04-06T10:07:35.660Z</time>
      </trkpt>
      <trkpt lat="50.776527" lon="18.075702">
        <ele>168.776812</ele>
        <time>2026-04-06T10:08:17.346Z</time>
      </trkpt>
      <trkpt lat="50.779716" lon="18.080891">
        <ele>168.555020</ele>
        <time>2026-04-06T10:10:54.548Z</time>
      </trkpt>
      <trkpt lat="50.781228" lon="18.081664">
        <ele>169.188484</ele>
        <time>2026-04-06T10:11:51.171Z</time>
      </trkpt>
      <trkpt lat="50.783292" lon="18.082920">
        <ele>170.401866</ele>
        <time>2026-04-06T10:13:11.855Z</time>
      </trkpt>
      <trkpt lat="50.783495" lon="18.083154">
        <ele>170.464824</ele>
        <time>2026-04-06T10:13:20.880Z</time>
      </trkpt>
      <trkpt lat="50.783922" lon="18.083808">
        <ele>170.613800</ele>
        <time>2026-04-06T10:13:41.544Z</time>
      </trkpt>
      <trkpt lat="50.784239" lon="18.083328">
        <ele>170.723790</ele>
        <time>2026-04-06T10:13:50.226Z</time>
      </trkpt>
      <trkpt lat="50.784970" lon="18.082338">
        <ele>170.956752</ele>
        <time>2026-04-06T10:14:09.623Z</time>
      </trkpt>
      <trkpt lat="50.785049" lon="18.082173">
        <ele>170.987745</ele>
        <time>2026-04-06T10:14:12.434Z</time>
      </trkpt>
      <trkpt lat="50.785111" lon="18.081748">
        <ele>171.053058</ele>
        <time>2026-04-06T10:14:18.375Z</time>
      </trkpt>
      <trkpt lat="50.785101" lon="18.081032">
        <ele>171.160300</ele>
        <time>2026-04-06T10:14:27.975Z</time>
      </trkpt>
      <trkpt lat="50.785118" lon="18.080744">
        <ele>171.203614</ele>
        <time>2026-04-06T10:14:31.962Z</time>
      </trkpt>
      <trkpt lat="50.785342" lon="18.079474">
        <ele>171.269008</ele>
        <time>2026-04-06T10:14:49.762Z</time>
      </trkpt>
      <trkpt lat="50.785405" lon="18.079304">
        <ele>171.274137</ele>
        <time>2026-04-06T10:14:52.123Z</time>
      </trkpt>
      <trkpt lat="50.785612" lon="18.079078">
        <ele>171.284493</ele>
        <time>2026-04-06T10:14:56.813Z</time>
      </trkpt>
      <trkpt lat="50.785815" lon="18.079018">
        <ele>171.292995</ele>
        <time>2026-04-06T10:15:00.679Z</time>
      </trkpt>
      <trkpt lat="50.786470" lon="18.079010">
        <ele>171.354536</ele>
        <time>2026-04-06T10:15:14.072Z</time>
      </trkpt>
      <trkpt lat="50.786734" lon="18.079043">
        <ele>171.445912</ele>
        <time>2026-04-06T10:15:19.499Z</time>
      </trkpt>
      <trkpt lat="50.787201" lon="18.079183">
        <ele>171.609917</ele>
        <time>2026-04-06T10:15:29.209Z</time>
      </trkpt>
      <trkpt lat="50.787763" lon="18.079518">
        <ele>171.817145</ele>
        <time>2026-04-06T10:15:42.686Z</time>
      </trkpt>
      <trkpt lat="50.788050" lon="18.079625">
        <ele>171.918886</ele>
        <time>2026-04-06T10:15:49.438Z</time>
      </trkpt>
      <trkpt lat="50.788762" lon="18.079760">
        <ele>172.146113</ele>
        <time>2026-04-06T10:16:04.816Z</time>
      </trkpt>
      <trkpt lat="50.789034" lon="18.079756">
        <ele>172.231740</ele>
        <time>2026-04-06T10:16:10.717Z</time>
      </trkpt>
      <trkpt lat="50.789244" lon="18.079696">
        <ele>172.298916</ele>
        <time>2026-04-06T10:16:15.289Z</time>
      </trkpt>
      <trkpt lat="50.789600" lon="18.079500">
        <ele>172.417576</ele>
        <time>2026-04-06T10:16:23.240Z</time>
      </trkpt>
      <trkpt lat="50.790425" lon="18.078856">
        <ele>172.385127</ele>
        <time>2026-04-06T10:16:41.839Z</time>
      </trkpt>
      <trkpt lat="50.793092" lon="18.086547">
        <ele>171.377587</ele>
        <time>2026-04-06T10:19:33.956Z</time>
      </trkpt>
      <trkpt lat="50.793578" lon="18.087840">
        <ele>171.347915</ele>
        <time>2026-04-06T10:20:04.133Z</time>
      </trkpt>
      <trkpt lat="50.793654" lon="18.087980">
        <ele>171.402405</ele>
        <time>2026-04-06T10:20:07.985Z</time>
      </trkpt>
      <trkpt lat="50.796818" lon="18.090277">
        <ele>174.459735</ele>
        <time>2026-04-06T10:22:13.268Z</time>
      </trkpt>
      <trkpt lat="50.797346" lon="18.090691">
        <ele>174.972520</ele>
        <time>2026-04-06T10:22:35.081Z</time>
      </trkpt>
      <trkpt lat="50.798147" lon="18.091233">
        <ele>175.724431</ele>
        <time>2026-04-06T10:23:06.628Z</time>
      </trkpt>
      <trkpt lat="50.798342" lon="18.091402">
        <ele>175.916330</ele>
        <time>2026-04-06T10:23:14.312Z</time>
      </trkpt>
      <trkpt lat="50.798416" lon="18.091511">
        <ele>176.003594</ele>
        <time>2026-04-06T10:23:17.777Z</time>
      </trkpt>
      <trkpt lat="50.798426" lon="18.091472">
        <ele>176.026553</ele>
        <time>2026-04-06T10:23:18.284Z</time>
      </trkpt>
      <trkpt lat="50.799341" lon="18.088300">
        <ele>176.084297</ele>
        <time>2026-04-06T10:23:56.292Z</time>
      </trkpt>
      <trkpt lat="50.799625" lon="18.087462">
        <ele>175.851413</ele>
        <time>2026-04-06T10:24:05.669Z</time>
      </trkpt>
      <trkpt lat="50.800577" lon="18.084652">
        <ele>175.406828</ele>
        <time>2026-04-06T10:24:37.894Z</time>
      </trkpt>
      <trkpt lat="50.800912" lon="18.083715">
        <ele>175.312630</ele>
        <time>2026-04-06T10:24:51.113Z</time>
      </trkpt>
      <trkpt lat="50.801356" lon="18.082697">
        <ele>174.972335</ele>
        <time>2026-04-06T10:25:05.829Z</time>
      </trkpt>
      <trkpt lat="50.801734" lon="18.081870">
        <ele>174.691542</ele>
        <time>2026-04-06T10:25:15.479Z</time>
      </trkpt>
      <trkpt lat="50.801787" lon="18.081748">
        <ele>174.650812</ele>
        <time>2026-04-06T10:25:16.825Z</time>
      </trkpt>
      <trkpt lat="50.801734" lon="18.081870">
        <ele>174.610083</ele>
        <time>2026-04-06T10:25:18.152Z</time>
      </trkpt>
      <trkpt lat="50.801795" lon="18.081938">
        <ele>174.577600</ele>
        <time>2026-04-06T10:25:19.886Z</time>
      </trkpt>
      <trkpt lat="50.801953" lon="18.082116">
        <ele>174.443016</ele>
        <time>2026-04-06T10:25:24.346Z</time>
      </trkpt>
      <trkpt lat="50.802169" lon="18.082358">
        <ele>174.241425</ele>
        <time>2026-04-06T10:25:30.397Z</time>
      </trkpt>
      <trkpt lat="50.802530" lon="18.082788">
        <ele>173.897255</ele>
        <time>2026-04-06T10:25:40.749Z</time>
      </trkpt>
      <trkpt lat="50.803194" lon="18.083729">
        <ele>173.218304</ele>
        <time>2026-04-06T10:26:03.110Z</time>
      </trkpt>
      <trkpt lat="50.804085" lon="18.085070">
        <ele>174.448330</ele>
        <time>2026-04-06T10:26:42.737Z</time>
      </trkpt>
      <trkpt lat="50.805395" lon="18.086962">
        <ele>176.406884</ele>
        <time>2026-04-06T10:27:40.094Z</time>
      </trkpt>
      <trkpt lat="50.805613" lon="18.087225">
        <ele>176.716600</ele>
        <time>2026-04-06T10:27:48.455Z</time>
      </trkpt>
      <trkpt lat="50.807354" lon="18.089792">
        <ele>178.584821</ele>
        <time>2026-04-06T10:28:59.198Z</time>
      </trkpt>
      <trkpt lat="50.807598" lon="18.090162">
        <ele>178.822390</ele>
        <time>2026-04-06T10:29:09.004Z</time>
      </trkpt>
      <trkpt lat="50.808338" lon="18.091280">
        <ele>179.541615</ele>
        <time>2026-04-06T10:29:39.044Z</time>
      </trkpt>
      <trkpt lat="50.808392" lon="18.091190">
        <ele>179.596747</ele>
        <time>2026-04-06T10:29:44.515Z</time>
      </trkpt>
      <trkpt lat="50.808431" lon="18.091125">
        <ele>179.636564</ele>
        <time>2026-04-06T10:29:48.436Z</time>
      </trkpt>
      <trkpt lat="50.808306" lon="18.090934">
        <ele>179.775683</ele>
        <time>2026-04-06T10:29:52.014Z</time>
      </trkpt>
      <trkpt lat="50.808360" lon="18.090846">
        <ele>179.843978</ele>
        <time>2026-04-06T10:29:53.657Z</time>
      </trkpt>
      <trkpt lat="50.810438" lon="18.089685">
        <ele>181.704125</ele>
        <time>2026-04-06T10:30:40.388Z</time>
      </trkpt>
      <trkpt lat="50.810633" lon="18.089576">
        <ele>181.857178</ele>
        <time>2026-04-06T10:30:44.787Z</time>
      </trkpt>
      <trkpt lat="50.811267" lon="18.089245">
        <ele>182.351260</ele>
        <time>2026-04-06T10:30:58.701Z</time>
      </trkpt>
      <trkpt lat="50.819635" lon="18.086365">
        <ele>185.755759</ele>
        <time>2026-04-06T10:33:40.244Z</time>
      </trkpt>
      <trkpt lat="50.823711" lon="18.084951">
        <ele>186.178511</ele>
        <time>2026-04-06T10:34:53.158Z</time>
      </trkpt>
      <trkpt lat="50.825145" lon="18.084454">
        <ele>185.835512</ele>
        <time>2026-04-06T10:35:18.240Z</time>
      </trkpt>
      <trkpt lat="50.825340" lon="18.084377">
        <ele>185.779261</ele>
        <time>2026-04-06T10:35:21.417Z</time>
      </trkpt>
      <trkpt lat="50.825801" lon="18.084196">
        <ele>185.525045</ele>
        <time>2026-04-06T10:35:28.599Z</time>
      </trkpt>
      <trkpt lat="50.826069" lon="18.083985">
        <ele>185.190365</ele>
        <time>2026-04-06T10:35:32.968Z</time>
      </trkpt>
      <trkpt lat="50.826748" lon="18.083249">
        <ele>184.270218</ele>
        <time>2026-04-06T10:35:44.591Z</time>
      </trkpt>
      <trkpt lat="50.827569" lon="18.082308">
        <ele>183.486332</ele>
        <time>2026-04-06T10:35:59.863Z</time>
      </trkpt>
      <trkpt lat="50.827820" lon="18.082035">
        <ele>183.366684</ele>
        <time>2026-04-06T10:36:04.803Z</time>
      </trkpt>
      <trkpt lat="50.827974" lon="18.081865">
        <ele>183.292921</ele>
        <time>2026-04-06T10:36:07.932Z</time>
      </trkpt>
      <trkpt lat="50.828108" lon="18.081715">
        <ele>183.228441</ele>
        <time>2026-04-06T10:36:10.682Z</time>
      </trkpt>
      <trkpt lat="50.828215" lon="18.081594">
        <ele>183.176778</ele>
        <time>2026-04-06T10:36:12.920Z</time>
      </trkpt>
      <trkpt lat="50.828403" lon="18.081383">
        <ele>183.086235</ele>
        <time>2026-04-06T10:36:16.908Z</time>
      </trkpt>
      <trkpt lat="50.829423" lon="18.080234">
        <ele>182.895032</ele>
        <time>2026-04-06T10:36:37.897Z</time>
      </trkpt>
      <trkpt lat="50.829613" lon="18.080062">
        <ele>182.878059</ele>
        <time>2026-04-06T10:36:41.613Z</time>
      </trkpt>
      <trkpt lat="50.830086" lon="18.079749">
        <ele>182.838305</ele>
        <time>2026-04-06T10:36:50.322Z</time>
      </trkpt>
      <trkpt lat="50.830369" lon="18.079504">
        <ele>182.826060</ele>
        <time>2026-04-06T10:36:55.830Z</time>
      </trkpt>
      <trkpt lat="50.830502" lon="18.079342">
        <ele>182.823309</ele>
        <time>2026-04-06T10:36:58.720Z</time>
      </trkpt>
      <trkpt lat="50.832867" lon="18.076214">
        <ele>182.748526</ele>
        <time>2026-04-06T10:37:51.315Z</time>
      </trkpt>
      <trkpt lat="50.834937" lon="18.073502">
        <ele>182.355643</ele>
        <time>2026-04-06T10:38:35.979Z</time>
      </trkpt>
      <trkpt lat="50.835302" lon="18.072997">
        <ele>182.301532</ele>
        <time>2026-04-06T10:38:43.948Z</time>
      </trkpt>
      <trkpt lat="50.835624" lon="18.072496">
        <ele>182.251136</ele>
        <time>2026-04-06T10:38:51.483Z</time>
      </trkpt>
      <trkpt lat="50.836208" lon="18.071374">
        <ele>182.499924</ele>
        <time>2026-04-06T10:39:07.911Z</time>
      </trkpt>
      <trkpt lat="50.836729" lon="18.070463">
        <ele>182.752082</ele>
        <time>2026-04-06T10:39:22.873Z</time>
      </trkpt>
      <trkpt lat="50.837627" lon="18.069014">
        <ele>183.474901</ele>
        <time>2026-04-06T10:39:47.994Z</time>
      </trkpt>
      <trkpt lat="50.838611" lon="18.067428">
        <ele>184.419750</ele>
        <time>2026-04-06T10:40:16.412Z</time>
      </trkpt>
      <trkpt lat="50.838798" lon="18.067126">
        <ele>184.617142</ele>
        <time>2026-04-06T10:40:21.916Z</time>
      </trkpt>
      <trkpt lat="50.840828" lon="18.063849">
        <ele>186.918894</ele>
        <time>2026-04-06T10:41:21.459Z</time>
      </trkpt>
      <trkpt lat="50.841016" lon="18.063660">
        <ele>187.170624</ele>
        <time>2026-04-06T10:41:26.245Z</time>
      </trkpt>
      <trkpt lat="50.840671" lon="18.062865">
        <ele>187.859220</ele>
        <time>2026-04-06T10:41:48.822Z</time>
      </trkpt>
      <trkpt lat="50.840697" lon="18.060772">
        <ele>189.318285</ele>
        <time>2026-04-06T10:42:38.659Z</time>
      </trkpt>
      <trkpt lat="50.839957" lon="18.060673">
        <ele>190.113620</ele>
        <time>2026-04-06T10:43:07.159Z</time>
      </trkpt>
      <trkpt lat="50.837161" lon="18.060255">
        <ele>192.312920</ele>
        <time>2026-04-06T10:44:52.945Z</time>
      </trkpt>
      <trkpt lat="50.836732" lon="18.060158">
        <ele>192.410224</ele>
        <time>2026-04-06T10:45:07.925Z</time>
      </trkpt>
      <trkpt lat="50.834749" lon="18.059849">
        <ele>192.318897</ele>
        <time>2026-04-06T10:46:13.481Z</time>
      </trkpt>
      <trkpt lat="50.833704" lon="18.059679">
        <ele>192.043134</ele>
        <time>2026-04-06T10:46:48.537Z</time>
      </trkpt>
      <trkpt lat="50.831401" lon="18.059301">
        <ele>190.988810</ele>
        <time>2026-04-06T10:48:04.123Z</time>
      </trkpt>
      <trkpt lat="50.828723" lon="18.058816">
        <ele>188.226412</ele>
        <time>2026-04-06T10:49:27.963Z</time>
      </trkpt>
      <trkpt lat="50.827865" lon="18.058688">
        <ele>186.602137</ele>
        <time>2026-04-06T10:49:52.930Z</time>
      </trkpt>
      <trkpt lat="50.827543" lon="18.058576">
        <ele>185.980775</ele>
        <time>2026-04-06T10:50:02.274Z</time>
      </trkpt>
      <trkpt lat="50.826729" lon="18.058146">
        <ele>184.933919</ele>
        <time>2026-04-06T10:50:27.661Z</time>
      </trkpt>
      <trkpt lat="50.826332" lon="18.057933">
        <ele>184.961754</ele>
        <time>2026-04-06T10:50:41.158Z</time>
      </trkpt>
      <trkpt lat="50.825774" lon="18.057803">
        <ele>184.999206</ele>
        <time>2026-04-06T10:51:01.502Z</time>
      </trkpt>
      <trkpt lat="50.825564" lon="18.057906">
        <ele>185.013804</ele>
        <time>2026-04-06T10:51:09.772Z</time>
      </trkpt>
      <trkpt lat="50.825302" lon="18.058142">
        <ele>185.033821</ele>
        <time>2026-04-06T10:51:21.376Z</time>
      </trkpt>
      <trkpt lat="50.825112" lon="18.058268">
        <ele>185.180398</ele>
        <time>2026-04-06T10:51:29.356Z</time>
      </trkpt>
      <trkpt lat="50.824699" lon="18.058407">
        <ele>185.483209</ele>
        <time>2026-04-06T10:51:45.181Z</time>
      </trkpt>
      <trkpt lat="50.822538" lon="18.059157">
        <ele>186.530610</ele>
        <time>2026-04-06T10:52:59.069Z</time>
      </trkpt>
      <trkpt lat="50.822020" lon="18.059310">
        <ele>186.635346</ele>
        <time>2026-04-06T10:53:15.695Z</time>
      </trkpt>
      <trkpt lat="50.821853" lon="18.059300">
        <ele>186.668563</ele>
        <time>2026-04-06T10:53:20.991Z</time>
      </trkpt>
      <trkpt lat="50.821004" lon="18.059059">
        <ele>187.009758</ele>
        <time>2026-04-06T10:53:48.989Z</time>
      </trkpt>
      <trkpt lat="50.820191" lon="18.059428">
        <ele>187.357756</ele>
        <time>2026-04-06T10:54:18.373Z</time>
      </trkpt>
      <trkpt lat="50.819847" lon="18.059726">
        <ele>187.396787</ele>
        <time>2026-04-06T10:54:32.079Z</time>
      </trkpt>
      <trkpt lat="50.819567" lon="18.059780">
        <ele>187.367483</ele>
        <time>2026-04-06T10:54:41.781Z</time>
      </trkpt>
      <trkpt lat="50.819239" lon="18.059935">
        <ele>187.331922</ele>
        <time>2026-04-06T10:54:53.140Z</time>
      </trkpt>
      <trkpt lat="50.818899" lon="18.060336">
        <ele>187.287873</ele>
        <time>2026-04-06T10:55:06.444Z</time>
      </trkpt>
      <trkpt lat="50.818653" lon="18.060500">
        <ele>187.260142</ele>
        <time>2026-04-06T10:55:14.482Z</time>
      </trkpt>
      <trkpt lat="50.818345" lon="18.060548">
        <ele>187.150056</ele>
        <time>2026-04-06T10:55:23.508Z</time>
      </trkpt>
      <trkpt lat="50.817965" lon="18.060444">
        <ele>186.636820</ele>
        <time>2026-04-06T10:55:34.525Z</time>
      </trkpt>
      <trkpt lat="50.817552" lon="18.060191">
        <ele>186.047438</ele>
        <time>2026-04-06T10:55:46.914Z</time>
      </trkpt>
      <trkpt lat="50.816638" lon="18.059364">
        <ele>184.818861</ele>
        <time>2026-04-06T10:56:16.599Z</time>
      </trkpt>
      <trkpt lat="50.816575" lon="18.059307">
        <ele>184.807960</ele>
        <time>2026-04-06T10:56:18.744Z</time>
      </trkpt>
      <trkpt lat="50.816405" lon="18.059251">
        <ele>184.781874</ele>
        <time>2026-04-06T10:56:23.931Z</time>
      </trkpt>
      <trkpt lat="50.816145" lon="18.059309">
        <ele>184.742428</ele>
        <time>2026-04-06T10:56:31.972Z</time>
      </trkpt>
      <trkpt lat="50.816097" lon="18.058023">
        <ele>184.620154</ele>
        <time>2026-04-06T10:56:58.892Z</time>
      </trkpt>
      <trkpt lat="50.816237" lon="18.056365">
        <ele>184.547256</ele>
        <time>2026-04-06T10:57:34.896Z</time>
      </trkpt>
      <trkpt lat="50.816572" lon="18.055170">
        <ele>184.520720</ele>
        <time>2026-04-06T10:58:00.476Z</time>
      </trkpt>
      <trkpt lat="50.816900" lon="18.054275">
        <ele>184.379441</ele>
        <time>2026-04-06T10:58:20.094Z</time>
      </trkpt>
      <trkpt lat="50.817155" lon="18.053829">
        <ele>184.255238</ele>
        <time>2026-04-06T10:58:31.678Z</time>
      </trkpt>
      <trkpt lat="50.817710" lon="18.053271">
        <ele>184.040353</ele>
        <time>2026-04-06T10:58:52.186Z</time>
      </trkpt>
      <trkpt lat="50.818497" lon="18.052202">
        <ele>183.587862</ele>
        <time>2026-04-06T10:59:24.802Z</time>
      </trkpt>
      <trkpt lat="50.819565" lon="18.052175">
        <ele>183.061468</ele>
        <time>2026-04-06T10:59:57.326Z</time>
      </trkpt>
      <trkpt lat="50.819563" lon="18.051026">
        <ele>181.750840</ele>
        <time>2026-04-06T11:00:17.901Z</time>
      </trkpt>
      <trkpt lat="50.819566" lon="18.046780">
        <ele>176.898505</ele>
        <time>2026-04-06T11:01:29.931Z</time>
      </trkpt>
      <trkpt lat="50.817746" lon="18.046783">
        <ele>177.944568</ele>
        <time>2026-04-06T11:02:34.352Z</time>
      </trkpt>
      <trkpt lat="50.817019" lon="18.045572">
        <ele>180.006259</ele>
        <time>2026-04-06T11:03:19.766Z</time>
      </trkpt>
      <trkpt lat="50.816779" lon="18.044765">
        <ele>181.255208</ele>
        <time>2026-04-06T11:03:44.391Z</time>
      </trkpt>
      <trkpt lat="50.816667" lon="18.043823">
        <ele>182.302219</ele>
        <time>2026-04-06T11:04:09.177Z</time>
      </trkpt>
      <trkpt lat="50.816606" lon="18.043057">
        <ele>182.703928</ele>
        <time>2026-04-06T11:04:27.387Z</time>
      </trkpt>
      <trkpt lat="50.816488" lon="18.042680">
        <ele>182.922836</ele>
        <time>2026-04-06T11:04:36.748Z</time>
      </trkpt>
      <trkpt lat="50.816448" lon="18.042593">
        <ele>182.978820</ele>
        <time>2026-04-06T11:04:39.073Z</time>
      </trkpt>
      <trkpt lat="50.815904" lon="18.041379">
        <ele>183.508055</ele>
        <time>2026-04-06T11:05:09.714Z</time>
      </trkpt>
      <trkpt lat="50.815600" lon="18.040581">
        <ele>183.169237</ele>
        <time>2026-04-06T11:05:27.872Z</time>
      </trkpt>
      <trkpt lat="50.815210" lon="18.039791">
        <ele>182.804701</ele>
        <time>2026-04-06T11:05:46.800Z</time>
      </trkpt>
      <trkpt lat="50.814646" lon="18.038771">
        <ele>182.007864</ele>
        <time>2026-04-06T11:06:11.486Z</time>
      </trkpt>
      <trkpt lat="50.814287" lon="18.037919">
        <ele>181.203379</ele>
        <time>2026-04-06T11:06:29.874Z</time>
      </trkpt>
      <trkpt lat="50.814189" lon="18.037642">
        <ele>180.953985</ele>
        <time>2026-04-06T11:06:35.646Z</time>
      </trkpt>
      <trkpt lat="50.813761" lon="18.035955">
        <ele>179.564936</ele>
        <time>2026-04-06T11:07:08.889Z</time>
      </trkpt>
      <trkpt lat="50.813610" lon="18.035352">
        <ele>179.079908</ele>
        <time>2026-04-06T11:07:20.752Z</time>
      </trkpt>
      <trkpt lat="50.813528" lon="18.034603">
        <ele>178.511480</ele>
        <time>2026-04-06T11:07:34.564Z</time>
      </trkpt>
      <trkpt lat="50.813181" lon="18.033086">
        <ele>177.517446</ele>
        <time>2026-04-06T11:08:04.047Z</time>
      </trkpt>
      <trkpt lat="50.813007" lon="18.031970">
        <ele>176.859880</ele>
        <time>2026-04-06T11:08:25.535Z</time>
      </trkpt>
      <trkpt lat="50.812879" lon="18.031151">
        <ele>176.450194</ele>
        <time>2026-04-06T11:08:41.721Z</time>
      </trkpt>
      <trkpt lat="50.812849" lon="18.030578">
        <ele>176.239363</ele>
        <time>2026-04-06T11:08:52.816Z</time>
      </trkpt>
      <trkpt lat="50.813006" lon="18.029484">
        <ele>175.827992</ele>
        <time>2026-04-06T11:09:14.356Z</time>
      </trkpt>
      <trkpt lat="50.813427" lon="18.025985">
        <ele>174.370531</ele>
        <time>2026-04-06T11:10:21.584Z</time>
      </trkpt>
      <trkpt lat="50.813625" lon="18.024513">
        <ele>173.764769</ele>
        <time>2026-04-06T11:10:50.571Z</time>
      </trkpt>
      <trkpt lat="50.813837" lon="18.022930">
        <ele>173.288859</ele>
        <time>2026-04-06T11:11:08.658Z</time>
      </trkpt>
      <trkpt lat="50.813894" lon="18.022470">
        <ele>173.513661</ele>
        <time>2026-04-06T11:11:13.364Z</time>
      </trkpt>
      <trkpt lat="50.813934" lon="18.022269">
        <ele>173.614721</ele>
        <time>2026-04-06T11:11:15.585Z</time>
      </trkpt>
      <trkpt lat="50.814474" lon="18.020305">
        <ele>174.644404</ele>
        <time>2026-04-06T11:11:47.044Z</time>
      </trkpt>
      <trkpt lat="50.814556" lon="18.019846">
        <ele>174.880117</ele>
        <time>2026-04-06T11:11:55.191Z</time>
      </trkpt>
      <trkpt lat="50.814486" lon="18.018626">
        <ele>175.485475</ele>
        <time>2026-04-06T11:12:13.257Z</time>
      </trkpt>
      <trkpt lat="50.814396" lon="18.018287">
        <ele>175.667184</ele>
        <time>2026-04-06T11:12:17.648Z</time>
      </trkpt>
      <trkpt lat="50.814295" lon="18.018090">
        <ele>175.792552</ele>
        <time>2026-04-06T11:12:20.265Z</time>
      </trkpt>
      <trkpt lat="50.813729" lon="18.017421">
        <ele>175.353508</ele>
        <time>2026-04-06T11:12:30.728Z</time>
      </trkpt>
      <trkpt lat="50.813561" lon="18.017163">
        <ele>175.057412</ele>
        <time>2026-04-06T11:12:34.007Z</time>
      </trkpt>
      <trkpt lat="50.813175" lon="18.016367">
        <ele>174.255478</ele>
        <time>2026-04-06T11:12:42.762Z</time>
      </trkpt>
      <trkpt lat="50.812771" lon="18.015337">
        <ele>173.678601</ele>
        <time>2026-04-06T11:12:53.869Z</time>
      </trkpt>
      <trkpt lat="50.812670" lon="18.015148">
        <ele>173.672471</ele>
        <time>2026-04-06T11:12:56.289Z</time>
      </trkpt>
      <trkpt lat="50.812569" lon="18.015021">
        <ele>173.667415</ele>
        <time>2026-04-06T11:12:58.677Z</time>
      </trkpt>
      <trkpt lat="50.810155" lon="18.012523">
        <ele>174.331108</ele>
        <time>2026-04-06T11:14:02.487Z</time>
      </trkpt>
      <trkpt lat="50.809517" lon="18.011553">
        <ele>174.234783</ele>
        <time>2026-04-06T11:14:19.847Z</time>
      </trkpt>
      <trkpt lat="50.809030" lon="18.011284">
        <ele>174.140757</ele>
        <time>2026-04-06T11:14:29.495Z</time>
      </trkpt>
      <trkpt lat="50.808406" lon="18.011097">
        <ele>174.058812</ele>
        <time>2026-04-06T11:14:41.497Z</time>
      </trkpt>
      <trkpt lat="50.808132" lon="18.010942">
        <ele>174.081952</ele>
        <time>2026-04-06T11:14:47.113Z</time>
      </trkpt>
      <trkpt lat="50.806368" lon="18.009732">
        <ele>174.317980</ele>
        <time>2026-04-06T11:15:27.002Z</time>
      </trkpt>
      <trkpt lat="50.806259" lon="18.009691">
        <ele>174.344007</ele>
        <time>2026-04-06T11:15:29.444Z</time>
      </trkpt>
      <trkpt lat="50.806161" lon="18.009726">
        <ele>174.367346</ele>
        <time>2026-04-06T11:15:31.674Z</time>
      </trkpt>
      <trkpt lat="50.805248" lon="18.011077">
        <ele>174.435901</ele>
        <time>2026-04-06T11:15:58.083Z</time>
      </trkpt>
      <trkpt lat="50.804924" lon="18.011220">
        <ele>174.155258</ele>
        <time>2026-04-06T11:16:04.699Z</time>
      </trkpt>
      <trkpt lat="50.804753" lon="18.011226">
        <ele>174.012551</ele>
        <time>2026-04-06T11:16:07.964Z</time>
      </trkpt>
      <trkpt lat="50.804112" lon="18.011144">
        <ele>173.475997</ele>
        <time>2026-04-06T11:16:19.381Z</time>
      </trkpt>
      <trkpt lat="50.803742" lon="18.011038">
        <ele>173.162274</ele>
        <time>2026-04-06T11:16:25.654Z</time>
      </trkpt>
      <trkpt lat="50.801701" lon="18.010525">
        <ele>168.439734</ele>
        <time>2026-04-06T11:16:57.710Z</time>
      </trkpt>
      <trkpt lat="50.801663" lon="18.010520">
        <ele>168.374398</ele>
        <time>2026-04-06T11:16:58.293Z</time>
      </trkpt>
      <trkpt lat="50.800718" lon="18.010419">
        <ele>166.751514</ele>
        <time>2026-04-06T11:17:13.642Z</time>
      </trkpt>
      <trkpt lat="50.799860" lon="18.010376">
        <ele>165.580383</ele>
        <time>2026-04-06T11:17:28.818Z</time>
      </trkpt>
      <trkpt lat="50.799599" lon="18.010322">
        <ele>165.446401</ele>
        <time>2026-04-06T11:17:33.623Z</time>
      </trkpt>
      <trkpt lat="50.799362" lon="18.010190">
        <ele>165.318509</ele>
        <time>2026-04-06T11:17:38.224Z</time>
      </trkpt>
      <trkpt lat="50.798180" lon="18.009394">
        <ele>164.781038</ele>
        <time>2026-04-06T11:18:02.516Z</time>
      </trkpt>
      <trkpt lat="50.797785" lon="18.008950">
        <ele>164.760652</ele>
        <time>2026-04-06T11:18:11.937Z</time>
      </trkpt>
      <trkpt lat="50.797469" lon="18.008384">
        <ele>164.740571</ele>
        <time>2026-04-06T11:18:21.676Z</time>
      </trkpt>
      <trkpt lat="50.797259" lon="18.007830">
        <ele>164.723392</ele>
        <time>2026-04-06T11:18:30.239Z</time>
      </trkpt>
      <trkpt lat="50.797061" lon="18.007431">
        <ele>164.717177</ele>
        <time>2026-04-06T11:18:36.685Z</time>
      </trkpt>
      <trkpt lat="50.794875" lon="18.005656">
        <ele>164.737927</ele>
        <time>2026-04-06T11:19:25.237Z</time>
      </trkpt>
      <trkpt lat="50.794734" lon="18.005594">
        <ele>164.738890</ele>
        <time>2026-04-06T11:19:28.149Z</time>
      </trkpt>
      <trkpt lat="50.792881" lon="18.004820">
        <ele>164.777503</ele>
        <time>2026-04-06T11:20:06.912Z</time>
      </trkpt>
      <trkpt lat="50.791858" lon="18.004391">
        <ele>164.862857</ele>
        <time>2026-04-06T11:20:27.676Z</time>
      </trkpt>
      <trkpt lat="50.791660" lon="18.004457">
        <ele>164.901957</ele>
        <time>2026-04-06T11:20:31.688Z</time>
      </trkpt>
      <trkpt lat="50.791513" lon="18.004261">
        <ele>164.939106</ele>
        <time>2026-04-06T11:20:35.040Z</time>
      </trkpt>
      <trkpt lat="50.791460" lon="18.004199">
        <ele>164.951843</ele>
        <time>2026-04-06T11:20:36.226Z</time>
      </trkpt>
      <trkpt lat="50.790956" lon="18.003898">
        <ele>165.055941</ele>
        <time>2026-04-06T11:20:46.046Z</time>
      </trkpt>
      <trkpt lat="50.790895" lon="18.003907">
        <ele>165.067780</ele>
        <time>2026-04-06T11:20:47.197Z</time>
      </trkpt>
      <trkpt lat="50.790360" lon="18.003622">
        <ele>165.225084</ele>
        <time>2026-04-06T11:20:58.128Z</time>
      </trkpt>
      <trkpt lat="50.788612" lon="18.002747">
        <ele>166.145613</ele>
        <time>2026-04-06T11:21:33.683Z</time>
      </trkpt>
      <trkpt lat="50.786293" lon="18.001269">
        <ele>166.924353</ele>
        <time>2026-04-06T11:22:20.505Z</time>
      </trkpt>
      <trkpt lat="50.786138" lon="18.001148">
        <ele>166.952333</ele>
        <time>2026-04-06T11:22:23.557Z</time>
      </trkpt>
      <trkpt lat="50.786034" lon="18.000951">
        <ele>166.978598</ele>
        <time>2026-04-06T11:22:26.427Z</time>
      </trkpt>
      <trkpt lat="50.785999" lon="18.000731">
        <ele>167.001815</ele>
        <time>2026-04-06T11:22:28.947Z</time>
      </trkpt>
      <trkpt lat="50.786052" lon="18.000509">
        <ele>167.026100</ele>
        <time>2026-04-06T11:22:31.569Z</time>
      </trkpt>
      <trkpt lat="50.786290" lon="17.999851">
        <ele>167.044093</ele>
        <time>2026-04-06T11:22:39.709Z</time>
      </trkpt>
      <trkpt lat="50.786516" lon="17.999207">
        <ele>166.977694</ele>
        <time>2026-04-06T11:22:47.478Z</time>
      </trkpt>
      <trkpt lat="50.786925" lon="17.998002">
        <ele>166.854402</ele>
        <time>2026-04-06T11:23:01.770Z</time>
      </trkpt>
      <trkpt lat="50.787027" lon="17.997568">
        <ele>166.813552</ele>
        <time>2026-04-06T11:23:06.620Z</time>
      </trkpt>
      <trkpt lat="50.787099" lon="17.997061">
        <ele>166.781228</ele>
        <time>2026-04-06T11:23:12.077Z</time>
      </trkpt>
      <trkpt lat="50.787130" lon="17.996371">
        <ele>166.738199</ele>
        <time>2026-04-06T11:23:19.403Z</time>
      </trkpt>
      <trkpt lat="50.787085" lon="17.987594">
        <ele>166.169913</ele>
        <time>2026-04-06T11:24:52.981Z</time>
      </trkpt>
      <trkpt lat="50.787076" lon="17.985721">
        <ele>165.870689</ele>
        <time>2026-04-06T11:25:12.908Z</time>
      </trkpt>
      <trkpt lat="50.787070" lon="17.984687">
        <ele>165.479471</ele>
        <time>2026-04-06T11:25:22.912Z</time>
      </trkpt>
      <trkpt lat="50.787068" lon="17.983491">
        <ele>165.026977</ele>
        <time>2026-04-06T11:25:34.279Z</time>
      </trkpt>
      <trkpt lat="50.787053" lon="17.980789">
        <ele>164.722691</ele>
        <time>2026-04-06T11:26:01.770Z</time>
      </trkpt>
      <trkpt lat="50.787019" lon="17.974534">
        <ele>168.306949</ele>
        <time>2026-04-06T11:27:29.159Z</time>
      </trkpt>
      <trkpt lat="50.787055" lon="17.973473">
        <ele>168.315923</ele>
        <time>2026-04-06T11:27:40.506Z</time>
      </trkpt>
      <trkpt lat="50.787128" lon="17.972638">
        <ele>168.323043</ele>
        <time>2026-04-06T11:27:49.088Z</time>
      </trkpt>
      <trkpt lat="50.787231" lon="17.971987">
        <ele>168.323818</ele>
        <time>2026-04-06T11:27:55.994Z</time>
      </trkpt>
      <trkpt lat="50.787340" lon="17.971476">
        <ele>168.277773</ele>
        <time>2026-04-06T11:28:01.652Z</time>
      </trkpt>
      <trkpt lat="50.787512" lon="17.970871">
        <ele>168.221136</ele>
        <time>2026-04-06T11:28:08.809Z</time>
      </trkpt>
      <trkpt lat="50.787683" lon="17.970366">
        <ele>168.172224</ele>
        <time>2026-04-06T11:28:15.105Z</time>
      </trkpt>
      <trkpt lat="50.787983" lon="17.969681">
        <ele>168.101077</ele>
        <time>2026-04-06T11:28:24.111Z</time>
      </trkpt>
      <trkpt lat="50.789923" lon="17.966057">
        <ele>166.504748</ele>
        <time>2026-04-06T11:29:12.269Z</time>
      </trkpt>
      <trkpt lat="50.790577" lon="17.964846">
        <ele>165.401688</ele>
        <time>2026-04-06T11:29:26.465Z</time>
      </trkpt>
      <trkpt lat="50.791793" lon="17.962594">
        <ele>163.253043</ele>
        <time>2026-04-06T11:29:52.319Z</time>
      </trkpt>
      <trkpt lat="50.791438" lon="17.962578">
        <ele>163.608028</ele>
        <time>2026-04-06T11:30:03.751Z</time>
      </trkpt>
      <trkpt lat="50.784335" lon="17.962283">
        <ele>170.810465</ele>
        <time>2026-04-06T11:34:46.692Z</time>
      </trkpt>
      <trkpt lat="50.779340" lon="17.962106">
        <ele>170.800277</ele>
        <time>2026-04-06T11:37:33.700Z</time>
      </trkpt>
      <trkpt lat="50.778350" lon="17.962096">
        <ele>170.013531</ele>
        <time>2026-04-06T11:38:04.123Z</time>
      </trkpt>
      <trkpt lat="50.771655" lon="17.961664">
        <ele>165.108502</ele>
        <time>2026-04-06T11:41:38.387Z</time>
      </trkpt>
      <trkpt lat="50.770755" lon="17.961594">
        <ele>163.830216</ele>
        <time>2026-04-06T11:42:04.554Z</time>
      </trkpt>
      <trkpt lat="50.768377" lon="17.961360">
        <ele>160.838553</ele>
        <time>2026-04-06T11:43:16.906Z</time>
      </trkpt>
      <trkpt lat="50.767952" lon="17.961277">
        <ele>160.664628</ele>
        <time>2026-04-06T11:43:30.367Z</time>
      </trkpt>
      <trkpt lat="50.767052" lon="17.961241">
        <ele>160.298976</ele>
        <time>2026-04-06T11:44:00.349Z</time>
      </trkpt>
      <trkpt lat="50.764506" lon="17.961011">
        <ele>163.342546</ele>
        <time>2026-04-06T11:45:42.243Z</time>
      </trkpt>
      <trkpt lat="50.762126" lon="17.960818">
        <ele>165.990244</ele>
        <time>2026-04-06T11:47:14.076Z</time>
      </trkpt>
      <trkpt lat="50.760984" lon="17.960679">
        <ele>166.928973</ele>
        <time>2026-04-06T11:47:57.889Z</time>
      </trkpt>
      <trkpt lat="50.757545" lon="17.960333">
        <ele>168.182785</ele>
        <time>2026-04-06T11:50:00.366Z</time>
      </trkpt>
      <trkpt lat="50.755312" lon="17.960122">
        <ele>167.205122</ele>
        <time>2026-04-06T11:51:07.418Z</time>
      </trkpt>
      <trkpt lat="50.754529" lon="17.955582">
        <ele>165.726136</ele>
        <time>2026-04-06T11:52:38.478Z</time>
      </trkpt>
      <trkpt lat="50.754526" lon="17.955261">
        <ele>165.605798</ele>
        <time>2026-04-06T11:52:44.529Z</time>
      </trkpt>
      <trkpt lat="50.754749" lon="17.954543">
        <ele>165.305976</ele>
        <time>2026-04-06T11:52:59.508Z</time>
      </trkpt>
      <trkpt lat="50.755388" lon="17.952468">
        <ele>164.907310</ele>
        <time>2026-04-06T11:53:43.818Z</time>
      </trkpt>
      <trkpt lat="50.756013" lon="17.950531">
        <ele>164.979388</ele>
        <time>2026-04-06T11:54:30.545Z</time>
      </trkpt>
      <trkpt lat="50.756444" lon="17.949194">
        <ele>164.792418</ele>
        <time>2026-04-06T11:55:01.530Z</time>
      </trkpt>
      <trkpt lat="50.757079" lon="17.947197">
        <ele>163.806796</ele>
        <time>2026-04-06T11:55:42.854Z</time>
      </trkpt>
      <trkpt lat="50.757137" lon="17.947019">
        <ele>163.671128</ele>
        <time>2026-04-06T11:55:46.440Z</time>
      </trkpt>
      <trkpt lat="50.758056" lon="17.944889">
        <ele>161.819789</ele>
        <time>2026-04-06T11:56:33.712Z</time>
      </trkpt>
      <trkpt lat="50.758187" lon="17.944590">
        <ele>161.542075</ele>
        <time>2026-04-06T11:56:40.397Z</time>
      </trkpt>
      <trkpt lat="50.758240" lon="17.944470">
        <ele>161.430325</ele>
        <time>2026-04-06T11:56:43.056Z</time>
      </trkpt>
      <trkpt lat="50.758627" lon="17.943717">
        <ele>160.689530</ele>
        <time>2026-04-06T11:57:00.582Z</time>
      </trkpt>
      <trkpt lat="50.758773" lon="17.943477">
        <ele>160.456230</ele>
        <time>2026-04-06T11:57:06.556Z</time>
      </trkpt>
      <trkpt lat="50.759393" lon="17.942455">
        <ele>159.536202</ele>
        <time>2026-04-06T11:57:32.268Z</time>
      </trkpt>
      <trkpt lat="50.759608" lon="17.942028">
        <ele>159.181612</ele>
        <time>2026-04-06T11:57:42.435Z</time>
      </trkpt>
      <trkpt lat="50.760238" lon="17.940322">
        <ele>158.407540</ele>
        <time>2026-04-06T11:58:20.270Z</time>
      </trkpt>
      <trkpt lat="50.761187" lon="17.938045">
        <ele>157.886673</ele>
        <time>2026-04-06T11:59:13.744Z</time>
      </trkpt>
      <trkpt lat="50.761192" lon="17.938034">
        <ele>157.885182</ele>
        <time>2026-04-06T11:59:13.885Z</time>
      </trkpt>
      <trkpt lat="50.762305" lon="17.935137">
        <ele>157.693302</ele>
        <time>2026-04-06T11:59:49.955Z</time>
      </trkpt>
      <trkpt lat="50.762346" lon="17.935031">
        <ele>157.692708</ele>
        <time>2026-04-06T11:59:51.307Z</time>
      </trkpt>
      <trkpt lat="50.763505" lon="17.931989">
        <ele>157.861249</ele>
        <time>2026-04-06T12:00:30.979Z</time>
      </trkpt>
      <trkpt lat="50.763674" lon="17.931548">
        <ele>157.880995</ele>
        <time>2026-04-06T12:00:36.703Z</time>
      </trkpt>
      <trkpt lat="50.763756" lon="17.931327">
        <ele>157.880995</ele>
        <time>2026-04-06T12:00:39.543Z</time>
      </trkpt>
      <trkpt lat="50.763885" lon="17.931007">
        <ele>157.880995</ele>
        <time>2026-04-06T12:00:43.735Z</time>
      </trkpt>
      <trkpt lat="50.763766" lon="17.930895">
        <ele>157.880995</ele>
        <time>2026-04-06T12:00:46.153Z</time>
      </trkpt>
      <trkpt lat="50.763693" lon="17.930816">
        <ele>157.880995</ele>
        <time>2026-04-06T12:00:47.672Z</time>
      </trkpt>
      <trkpt lat="50.763655" lon="17.930905">
        <ele>157.880995</ele>
        <time>2026-04-06T12:00:49.276Z</time>
      </trkpt>
      <trkpt lat="50.763625" lon="17.930974">
        <ele>157.880995</ele>
        <time>2026-04-06T12:00:50.504Z</time>
      </trkpt>
      <trkpt lat="50.763675" lon="17.931022">
        <ele>157.880995</ele>
        <time>2026-04-06T12:00:51.888Z</time>
      </trkpt>
    </trkseg>
  </trk>
</gpx>