<?xml version="1.0" encoding="utf-8" ?><gpx version="1.1" creator="Traseo.pl" xmlns="http://www.topografix.com/GPX/1/1" xmlns:xsi="http://www.w3.org/2001/XMLSchema-instance" xsi:schemaLocation="http://www.topografix.com/GPX/1/1 http://www.topografix.com/GPX/1/1/gpx.xsd"><metadata><name>Gravel Bory Stobrawskie 2024</name><copyright author="Traseo" /><link href="https://www.traseo.pl"><text>Gravel Bory Stobrawskie 2024</text></link></metadata><trk><name>Gravel Bory Stobrawskie 2024</name><trkseg><trkpt lat="50.9263267" lon="18.0548776"><ele>173.000</ele></trkpt><trkpt lat="50.9262410" lon="18.0548736"><ele>173.400</ele></trkpt><trkpt lat="50.9259981" lon="18.0555139"><ele>172.400</ele></trkpt><trkpt lat="50.9259390" lon="18.0555510"><ele>172.600</ele></trkpt><trkpt lat="50.9253511" lon="18.0551306"><ele>173.800</ele></trkpt><trkpt lat="50.9252054" lon="18.0550918"><ele>173.200</ele></trkpt><trkpt lat="50.9250853" lon="18.0554406"><ele>172.600</ele></trkpt><trkpt lat="50.9249157" lon="18.0556372"><ele>172.800</ele></trkpt><trkpt lat="50.9245727" lon="18.0565105"><ele>173.600</ele></trkpt><trkpt lat="50.9242705" lon="18.0570923"><ele>173.400</ele></trkpt><trkpt lat="50.9237677" lon="18.0576394"><ele>173.800</ele></trkpt><trkpt lat="50.9234423" lon="18.0583967"><ele>174.200</ele></trkpt><trkpt lat="50.9231352" lon="18.0588954"><ele>173.800</ele></trkpt><trkpt lat="50.9229016" lon="18.0590996"><ele>174.000</ele></trkpt><trkpt lat="50.9218291" lon="18.0597562"><ele>175.400</ele></trkpt><trkpt lat="50.9216627" lon="18.0598998"><ele>175.400</ele></trkpt><trkpt lat="50.9214057" lon="18.0606562"><ele>176.000</ele></trkpt><trkpt lat="50.9212264" lon="18.0611068"><ele>176.400</ele></trkpt><trkpt lat="50.9207800" lon="18.0624694"><ele>176.200</ele></trkpt><trkpt lat="50.9203506" lon="18.0638481"><ele>177.000</ele></trkpt><trkpt lat="50.9190249" lon="18.0672706"><ele>174.800</ele></trkpt><trkpt lat="50.9174420" lon="18.0668117"><ele>175.800</ele></trkpt><trkpt lat="50.9152202" lon="18.0662299"><ele>177.800</ele></trkpt><trkpt lat="50.9147636" lon="18.0660689"><ele>177.800</ele></trkpt><trkpt lat="50.9140847" lon="18.0659114"><ele>177.800</ele></trkpt><trkpt lat="50.9129615" lon="18.0655343"><ele>179.000</ele></trkpt><trkpt lat="50.9104802" lon="18.0648669"><ele>178.000</ele></trkpt><trkpt lat="50.9096901" lon="18.0646742"><ele>177.800</ele></trkpt><trkpt lat="50.9087470" lon="18.0644095"><ele>178.000</ele></trkpt><trkpt lat="50.9072080" lon="18.0639582"><ele>175.800</ele></trkpt><trkpt lat="50.9071200" lon="18.0640155"><ele>175.600</ele></trkpt><trkpt lat="50.9070653" lon="18.0641610"><ele>175.600</ele></trkpt><trkpt lat="50.9069213" lon="18.0654121"><ele>176.000</ele></trkpt><trkpt lat="50.9066931" lon="18.0677963"><ele>176.800</ele></trkpt><trkpt lat="50.9063502" lon="18.0710170"><ele>177.400</ele></trkpt><trkpt lat="50.9062771" lon="18.0717659"><ele>177.400</ele></trkpt><trkpt lat="50.9061925" lon="18.0724526"><ele>177.800</ele></trkpt><trkpt lat="50.9061350" lon="18.0727154"><ele>177.800</ele></trkpt><trkpt lat="50.9060166" lon="18.0726833"><ele>177.600</ele></trkpt><trkpt lat="50.9057790" lon="18.0726446"><ele>176.600</ele></trkpt><trkpt lat="50.9039837" lon="18.0720918"><ele>176.800</ele></trkpt><trkpt lat="50.9025316" lon="18.0717168"><ele>177.000</ele></trkpt><trkpt lat="50.9018222" lon="18.0714499"><ele>178.400</ele></trkpt><trkpt lat="50.8995341" lon="18.0708623"><ele>178.400</ele></trkpt><trkpt lat="50.8994357" lon="18.0709154"><ele>178.400</ele></trkpt><trkpt lat="50.8993173" lon="18.0712082"><ele>178.200</ele></trkpt><trkpt lat="50.8992148" lon="18.0717958"><ele>178.200</ele></trkpt><trkpt lat="50.8989427" lon="18.0743945"><ele>179.600</ele></trkpt><trkpt lat="50.8988266" lon="18.0755644"><ele>179.000</ele></trkpt><trkpt lat="50.8987126" lon="18.0764115"><ele>179.800</ele></trkpt><trkpt lat="50.8985887" lon="18.0775964"><ele>180.200</ele></trkpt><trkpt lat="50.8984006" lon="18.0796403"><ele>180.400</ele></trkpt><trkpt lat="50.8981407" lon="18.0814909"><ele>180.200</ele></trkpt><trkpt lat="50.8980662" lon="18.0825780"><ele>181.400</ele></trkpt><trkpt lat="50.8979853" lon="18.0830365"><ele>181.800</ele></trkpt><trkpt lat="50.8979799" lon="18.0834124"><ele>181.800</ele></trkpt><trkpt lat="50.8978218" lon="18.0844619"><ele>181.600</ele></trkpt><trkpt lat="50.8977885" lon="18.0849486"><ele>182.600</ele></trkpt><trkpt lat="50.8975885" lon="18.0863551"><ele>182.800</ele></trkpt><trkpt lat="50.8973840" lon="18.0887033"><ele>182.400</ele></trkpt><trkpt lat="50.8972592" lon="18.0893800"><ele>182.400</ele></trkpt><trkpt lat="50.8969875" lon="18.0917533"><ele>182.200</ele></trkpt><trkpt lat="50.8969764" lon="18.0922010"><ele>182.400</ele></trkpt><trkpt lat="50.8967306" lon="18.0945909"><ele>183.000</ele></trkpt><trkpt lat="50.8964800" lon="18.0965328"><ele>182.000</ele></trkpt><trkpt lat="50.8963805" lon="18.0976664"><ele>182.800</ele></trkpt><trkpt lat="50.8963245" lon="18.0977998"><ele>183.000</ele></trkpt><trkpt lat="50.8961465" lon="18.0975881"><ele>183.000</ele></trkpt><trkpt lat="50.8958515" lon="18.0969856"><ele>183.400</ele></trkpt><trkpt lat="50.8957221" lon="18.0968476"><ele>183.200</ele></trkpt><trkpt lat="50.8955590" lon="18.0968241"><ele>183.400</ele></trkpt><trkpt lat="50.8949171" lon="18.0969687"><ele>184.400</ele></trkpt><trkpt lat="50.8947108" lon="18.0969249"><ele>185.400</ele></trkpt><trkpt lat="50.8945162" lon="18.0968087"><ele>186.000</ele></trkpt><trkpt lat="50.8941005" lon="18.0963911"><ele>185.800</ele></trkpt><trkpt lat="50.8920714" lon="18.0937452"><ele>186.600</ele></trkpt><trkpt lat="50.8907546" lon="18.0921423"><ele>187.200</ele></trkpt><trkpt lat="50.8900725" lon="18.0911845"><ele>186.800</ele></trkpt><trkpt lat="50.8896631" lon="18.0905075"><ele>187.400</ele></trkpt><trkpt lat="50.8892138" lon="18.0898638"><ele>187.000</ele></trkpt><trkpt lat="50.8878255" lon="18.0874557"><ele>187.200</ele></trkpt><trkpt lat="50.8869082" lon="18.0860289"><ele>186.600</ele></trkpt><trkpt lat="50.8858753" lon="18.0843043"><ele>185.600</ele></trkpt><trkpt lat="50.8856739" lon="18.0839089"><ele>185.200</ele></trkpt><trkpt lat="50.8852344" lon="18.0825633"><ele>184.200</ele></trkpt><trkpt lat="50.8843578" lon="18.0802181"><ele>182.200</ele></trkpt><trkpt lat="50.8817508" lon="18.0753471"><ele>183.000</ele></trkpt><trkpt lat="50.8812411" lon="18.0745142"><ele>183.000</ele></trkpt><trkpt lat="50.8798444" lon="18.0726552"><ele>185.600</ele></trkpt><trkpt lat="50.8797560" lon="18.0726060"><ele>185.600</ele></trkpt><trkpt lat="50.8795469" lon="18.0726619"><ele>184.800</ele></trkpt><trkpt lat="50.8792857" lon="18.0728792"><ele>185.600</ele></trkpt><trkpt lat="50.8784599" lon="18.0738069"><ele>186.200</ele></trkpt><trkpt lat="50.8782410" lon="18.0739065"><ele>186.400</ele></trkpt><trkpt lat="50.8772452" lon="18.0736199"><ele>186.200</ele></trkpt><trkpt lat="50.8766601" lon="18.0735527"><ele>186.600</ele></trkpt><trkpt lat="50.8752476" lon="18.0732304"><ele>191.800</ele></trkpt><trkpt lat="50.8749559" lon="18.0732878"><ele>192.000</ele></trkpt><trkpt lat="50.8730057" lon="18.0728720"><ele>188.000</ele></trkpt><trkpt lat="50.8723614" lon="18.0725850"><ele>187.600</ele></trkpt><trkpt lat="50.8718048" lon="18.0725178"><ele>184.600</ele></trkpt><trkpt lat="50.8716642" lon="18.0725529"><ele>184.400</ele></trkpt><trkpt lat="50.8709578" lon="18.0731197"><ele>184.400</ele></trkpt><trkpt lat="50.8707675" lon="18.0731529"><ele>184.200</ele></trkpt><trkpt lat="50.8706258" lon="18.0730864"><ele>183.600</ele></trkpt><trkpt lat="50.8702884" lon="18.0727463"><ele>182.600</ele></trkpt><trkpt lat="50.8702139" lon="18.0726046"><ele>182.000</ele></trkpt><trkpt lat="50.8700429" lon="18.0716680"><ele>181.600</ele></trkpt><trkpt lat="50.8698149" lon="18.0708682"><ele>180.800</ele></trkpt><trkpt lat="50.8697166" lon="18.0707491"><ele>180.800</ele></trkpt><trkpt lat="50.8688219" lon="18.0702726"><ele>178.800</ele></trkpt><trkpt lat="50.8685644" lon="18.0702023"><ele>178.800</ele></trkpt><trkpt lat="50.8679795" lon="18.0702342"><ele>178.600</ele></trkpt><trkpt lat="50.8662650" lon="18.0705452"><ele>181.400</ele></trkpt><trkpt lat="50.8656440" lon="18.0707605"><ele>182.400</ele></trkpt><trkpt lat="50.8655462" lon="18.0709480"><ele>181.800</ele></trkpt><trkpt lat="50.8653926" lon="18.0725082"><ele>180.400</ele></trkpt><trkpt lat="50.8649858" lon="18.0737132"><ele>179.000</ele></trkpt><trkpt lat="50.8648250" lon="18.0746896"><ele>177.800</ele></trkpt><trkpt lat="50.8645960" lon="18.0754173"><ele>177.400</ele></trkpt><trkpt lat="50.8645109" lon="18.0755908"><ele>177.200</ele></trkpt><trkpt lat="50.8641778" lon="18.0760424"><ele>177.200</ele></trkpt><trkpt lat="50.8640598" lon="18.0761193"><ele>177.600</ele></trkpt><trkpt lat="50.8637903" lon="18.0761532"><ele>177.200</ele></trkpt><trkpt lat="50.8632289" lon="18.0765206"><ele>177.600</ele></trkpt><trkpt lat="50.8627904" lon="18.0764887"><ele>178.200</ele></trkpt><trkpt lat="50.8627456" lon="18.0764271"><ele>178.200</ele></trkpt><trkpt lat="50.8621373" lon="18.0739391"><ele>180.000</ele></trkpt><trkpt lat="50.8618728" lon="18.0733563"><ele>178.800</ele></trkpt><trkpt lat="50.8617220" lon="18.0732220"><ele>178.600</ele></trkpt><trkpt lat="50.8614798" lon="18.0732471"><ele>178.600</ele></trkpt><trkpt lat="50.8582367" lon="18.0747034"><ele>179.800</ele></trkpt><trkpt lat="50.8580706" lon="18.0748637"><ele>179.400</ele></trkpt><trkpt lat="50.8578825" lon="18.0751528"><ele>178.800</ele></trkpt><trkpt lat="50.8575479" lon="18.0758912"><ele>180.000</ele></trkpt><trkpt lat="50.8574693" lon="18.0759126"><ele>180.000</ele></trkpt><trkpt lat="50.8571495" lon="18.0754923"><ele>176.800</ele></trkpt><trkpt lat="50.8571103" lon="18.0753193"><ele>176.800</ele></trkpt><trkpt lat="50.8571342" lon="18.0751320"><ele>177.000</ele></trkpt><trkpt lat="50.8573179" lon="18.0744861"><ele>176.600</ele></trkpt><trkpt lat="50.8577369" lon="18.0739453"><ele>176.200</ele></trkpt><trkpt lat="50.8577680" lon="18.0738380"><ele>176.200</ele></trkpt><trkpt lat="50.8568332" lon="18.0722206"><ele>177.200</ele></trkpt><trkpt lat="50.8563641" lon="18.0709581"><ele>175.800</ele></trkpt><trkpt lat="50.8559279" lon="18.0699160"><ele>173.600</ele></trkpt><trkpt lat="50.8557586" lon="18.0696416"><ele>173.200</ele></trkpt><trkpt lat="50.8551034" lon="18.0690086"><ele>173.200</ele></trkpt><trkpt lat="50.8545800" lon="18.0682568"><ele>175.000</ele></trkpt><trkpt lat="50.8527601" lon="18.0675840"><ele>176.400</ele></trkpt><trkpt lat="50.8522717" lon="18.0678344"><ele>176.000</ele></trkpt><trkpt lat="50.8518203" lon="18.0678669"><ele>175.600</ele></trkpt><trkpt lat="50.8511829" lon="18.0682298"><ele>175.600</ele></trkpt><trkpt lat="50.8508733" lon="18.0683169"><ele>175.600</ele></trkpt><trkpt lat="50.8504936" lon="18.0681362"><ele>176.000</ele></trkpt><trkpt lat="50.8502006" lon="18.0678683"><ele>176.400</ele></trkpt><trkpt lat="50.8496122" lon="18.0676263"><ele>177.200</ele></trkpt><trkpt lat="50.8489940" lon="18.0668654"><ele>179.000</ele></trkpt><trkpt lat="50.8481578" lon="18.0659706"><ele>180.800</ele></trkpt><trkpt lat="50.8476255" lon="18.0653306"><ele>181.200</ele></trkpt><trkpt lat="50.8474965" lon="18.0653334"><ele>182.200</ele></trkpt><trkpt lat="50.8469758" lon="18.0663146"><ele>183.400</ele></trkpt><trkpt lat="50.8468828" lon="18.0663357"><ele>184.000</ele></trkpt><trkpt lat="50.8455123" lon="18.0643553"><ele>185.600</ele></trkpt><trkpt lat="50.8438248" lon="18.0617257"><ele>187.600</ele></trkpt><trkpt lat="50.8422805" lon="18.0611444"><ele>185.600</ele></trkpt><trkpt lat="50.8413052" lon="18.0608326"><ele>187.600</ele></trkpt><trkpt lat="50.8408253" lon="18.0608011"><ele>187.200</ele></trkpt><trkpt lat="50.8407319" lon="18.0608634"><ele>187.200</ele></trkpt><trkpt lat="50.8406841" lon="18.0609931"><ele>186.800</ele></trkpt><trkpt lat="50.8406613" lon="18.0628476"><ele>186.800</ele></trkpt><trkpt lat="50.8407934" lon="18.0631319"><ele>187.200</ele></trkpt><trkpt lat="50.8410136" lon="18.0636362"><ele>188.200</ele></trkpt><trkpt lat="50.8409292" lon="18.0636632"><ele>188.600</ele></trkpt><trkpt lat="50.8363644" lon="18.0710755"><ele>186.200</ele></trkpt><trkpt lat="50.8354965" lon="18.0727279"><ele>184.200</ele></trkpt><trkpt lat="50.8329060" lon="18.0761808"><ele>184.400</ele></trkpt><trkpt lat="50.8328072" lon="18.0761577"><ele>184.400</ele></trkpt><trkpt lat="50.8321904" lon="18.0750225"><ele>185.000</ele></trkpt><trkpt lat="50.8312889" lon="18.0729847"><ele>185.400</ele></trkpt><trkpt lat="50.8304314" lon="18.0713050"><ele>186.200</ele></trkpt><trkpt lat="50.8298901" lon="18.0704025"><ele>184.600</ele></trkpt><trkpt lat="50.8297118" lon="18.0699825"><ele>185.400</ele></trkpt><trkpt lat="50.8295930" lon="18.0694023"><ele>185.800</ele></trkpt><trkpt lat="50.8294847" lon="18.0682645"><ele>184.200</ele></trkpt><trkpt lat="50.8294519" lon="18.0660501"><ele>185.200</ele></trkpt><trkpt lat="50.8296114" lon="18.0645039"><ele>184.600</ele></trkpt><trkpt lat="50.8296798" lon="18.0624389"><ele>185.000</ele></trkpt><trkpt lat="50.8295514" lon="18.0611358"><ele>185.000</ele></trkpt><trkpt lat="50.8294626" lon="18.0605686"><ele>183.200</ele></trkpt><trkpt lat="50.8293106" lon="18.0600421"><ele>184.400</ele></trkpt><trkpt lat="50.8289299" lon="18.0592022"><ele>185.800</ele></trkpt><trkpt lat="50.8287303" lon="18.0589675"><ele>185.000</ele></trkpt><trkpt lat="50.8285737" lon="18.0588782"><ele>184.800</ele></trkpt><trkpt lat="50.8274360" lon="18.0585475"><ele>186.400</ele></trkpt><trkpt lat="50.8268287" lon="18.0581781"><ele>185.400</ele></trkpt><trkpt lat="50.8267679" lon="18.0579726"><ele>183.800</ele></trkpt><trkpt lat="50.8267666" lon="18.0558825"><ele>183.800</ele></trkpt><trkpt lat="50.8267399" lon="18.0554474"><ele>183.800</ele></trkpt><trkpt lat="50.8267501" lon="18.0535389"><ele>184.400</ele></trkpt><trkpt lat="50.8267489" lon="18.0529042"><ele>183.400</ele></trkpt><trkpt lat="50.8267264" lon="18.0520785"><ele>183.000</ele></trkpt><trkpt lat="50.8267264" lon="18.0492354"><ele>181.800</ele></trkpt><trkpt lat="50.8267365" lon="18.0485005"><ele>181.200</ele></trkpt><trkpt lat="50.8267230" lon="18.0448795"><ele>181.600</ele></trkpt><trkpt lat="50.8267280" lon="18.0421409"><ele>179.800</ele></trkpt><trkpt lat="50.8267145" lon="18.0413846"><ele>180.600</ele></trkpt><trkpt lat="50.8267196" lon="18.0387801"><ele>179.800</ele></trkpt><trkpt lat="50.8267162" lon="18.0372727"><ele>178.800</ele></trkpt><trkpt lat="50.8267406" lon="18.0355938"><ele>178.400</ele></trkpt><trkpt lat="50.8267030" lon="18.0351038"><ele>178.200</ele></trkpt><trkpt lat="50.8267094" lon="18.0347622"><ele>178.000</ele></trkpt><trkpt lat="50.8267094" lon="18.0319137"><ele>177.800</ele></trkpt><trkpt lat="50.8266891" lon="18.0309374"><ele>178.400</ele></trkpt><trkpt lat="50.8267075" lon="18.0305094"><ele>176.800</ele></trkpt><trkpt lat="50.8266128" lon="18.0304663"><ele>177.000</ele></trkpt><trkpt lat="50.8227582" lon="18.0304814"><ele>177.200</ele></trkpt><trkpt lat="50.8217395" lon="18.0305107"><ele>177.200</ele></trkpt><trkpt lat="50.8204944" lon="18.0304814"><ele>176.800</ele></trkpt><trkpt lat="50.8197562" lon="18.0305437"><ele>177.200</ele></trkpt><trkpt lat="50.8196601" lon="18.0305033"><ele>177.400</ele></trkpt><trkpt lat="50.8195784" lon="18.0305861"><ele>176.600</ele></trkpt><trkpt lat="50.8194181" lon="18.0305465"><ele>178.000</ele></trkpt><trkpt lat="50.8170375" lon="18.0305458"><ele>178.200</ele></trkpt><trkpt lat="50.8129041" lon="18.0305678"><ele>177.000</ele></trkpt><trkpt lat="50.8128567" lon="18.0304546"><ele>178.200</ele></trkpt><trkpt lat="50.8129415" lon="18.0300039"><ele>178.200</ele></trkpt><trkpt lat="50.8129889" lon="18.0295104"><ele>178.200</ele></trkpt><trkpt lat="50.8130804" lon="18.0287755"><ele>176.000</ele></trkpt><trkpt lat="50.8132533" lon="18.0275041"><ele>175.800</ele></trkpt><trkpt lat="50.8133313" lon="18.0267370"><ele>177.000</ele></trkpt><trkpt lat="50.8133753" lon="18.0264044"><ele>178.000</ele></trkpt><trkpt lat="50.8134024" lon="18.0261255"><ele>178.400</ele></trkpt><trkpt lat="50.8134499" lon="18.0258733"><ele>178.000</ele></trkpt><trkpt lat="50.8134635" lon="18.0256480"><ele>178.200</ele></trkpt><trkpt lat="50.8136636" lon="18.0243669"><ele>177.000</ele></trkpt><trkpt lat="50.8139273" lon="18.0226322"><ele>177.600</ele></trkpt><trkpt lat="50.8140936" lon="18.0219035"><ele>176.600</ele></trkpt><trkpt lat="50.8145294" lon="18.0202246"><ele>174.800</ele></trkpt><trkpt lat="50.8145430" lon="18.0196667"><ele>174.600</ele></trkpt><trkpt lat="50.8145091" lon="18.0189479"><ele>173.800</ele></trkpt><trkpt lat="50.8144478" lon="18.0183414"><ele>175.200</ele></trkpt><trkpt lat="50.8141820" lon="18.0179233"><ele>174.600</ele></trkpt><trkpt lat="50.8138363" lon="18.0175585"><ele>175.600</ele></trkpt><trkpt lat="50.8135685" lon="18.0171884"><ele>175.600</ele></trkpt><trkpt lat="50.8133516" lon="18.0167991"><ele>174.800</ele></trkpt><trkpt lat="50.8130872" lon="18.0161477"><ele>178.400</ele></trkpt><trkpt lat="50.8128942" lon="18.0157098"><ele>177.000</ele></trkpt><trkpt lat="50.8127146" lon="18.0152651"><ele>174.200</ele></trkpt><trkpt lat="50.8122956" lon="18.0147709"><ele>174.000</ele></trkpt><trkpt lat="50.8102806" lon="18.0126822"><ele>177.800</ele></trkpt><trkpt lat="50.8096372" lon="18.0117317"><ele>172.000</ele></trkpt><trkpt lat="50.8095128" lon="18.0115584"><ele>172.000</ele></trkpt><trkpt lat="50.8093818" lon="18.0114701"><ele>172.000</ele></trkpt><trkpt lat="50.8083873" lon="18.0110667"><ele>172.600</ele></trkpt><trkpt lat="50.8075638" lon="18.0105881"><ele>172.200</ele></trkpt><trkpt lat="50.8062868" lon="18.0097366"><ele>173.000</ele></trkpt><trkpt lat="50.8061224" lon="18.0097962"><ele>172.200</ele></trkpt><trkpt lat="50.8058686" lon="18.0101020"><ele>172.000</ele></trkpt><trkpt lat="50.8056332" lon="18.0105261"><ele>171.400</ele></trkpt><trkpt lat="50.8052076" lon="18.0111024"><ele>176.600</ele></trkpt><trkpt lat="50.8048788" lon="18.0112151"><ele>176.400</ele></trkpt><trkpt lat="50.8043025" lon="18.0111507"><ele>176.800</ele></trkpt><trkpt lat="50.8038448" lon="18.0110273"><ele>176.000</ele></trkpt><trkpt lat="50.8037838" lon="18.0106947"><ele>175.200</ele></trkpt><trkpt lat="50.8039194" lon="18.0096701"><ele>174.800</ele></trkpt><trkpt lat="50.8036430" lon="18.0085648"><ele>174.600</ele></trkpt><trkpt lat="50.8034634" lon="18.0076531"><ele>174.600</ele></trkpt><trkpt lat="50.8031171" lon="18.0065133"><ele>174.600</ele></trkpt><trkpt lat="50.8028989" lon="18.0056817"><ele>174.600</ele></trkpt><trkpt lat="50.8027226" lon="18.0051291"><ele>173.800</ele></trkpt><trkpt lat="50.8026511" lon="18.0047317"><ele>173.600</ele></trkpt><trkpt lat="50.8026141" lon="18.0041904"><ele>173.600</ele></trkpt><trkpt lat="50.8026718" lon="18.0037612"><ele>174.000</ele></trkpt><trkpt lat="50.8027667" lon="18.0032355"><ele>174.000</ele></trkpt><trkpt lat="50.8027972" lon="18.0027098"><ele>173.800</ele></trkpt><trkpt lat="50.8026209" lon="18.0018944"><ele>173.400</ele></trkpt><trkpt lat="50.8026446" lon="18.0014331"><ele>173.600</ele></trkpt><trkpt lat="50.8026752" lon="18.0006552"><ele>173.400</ele></trkpt><trkpt lat="50.8026345" lon="17.9999632"><ele>173.400</ele></trkpt><trkpt lat="50.8026752" lon="17.9989762"><ele>173.800</ele></trkpt><trkpt lat="50.8026548" lon="17.9983646"><ele>173.200</ele></trkpt><trkpt lat="50.8045195" lon="17.9982731"><ele>175.800</ele></trkpt><trkpt lat="50.8060833" lon="17.9983039"><ele>175.000</ele></trkpt><trkpt lat="50.8071558" lon="17.9982363"><ele>175.400</ele></trkpt><trkpt lat="50.8097376" lon="17.9982588"><ele>176.800</ele></trkpt><trkpt lat="50.8097684" lon="17.9982236"><ele>177.400</ele></trkpt><trkpt lat="50.8093395" lon="17.9962821"><ele>177.200</ele></trkpt><trkpt lat="50.8092405" lon="17.9953630"><ele>176.600</ele></trkpt><trkpt lat="50.8092190" lon="17.9914062"><ele>176.800</ele></trkpt><trkpt lat="50.8092782" lon="17.9909067"><ele>177.000</ele></trkpt><trkpt lat="50.8093763" lon="17.9887278"><ele>175.200</ele></trkpt><trkpt lat="50.8095103" lon="17.9883947"><ele>177.000</ele></trkpt><trkpt lat="50.8098137" lon="17.9869995"><ele>177.400</ele></trkpt><trkpt lat="50.8101111" lon="17.9837761"><ele>176.400</ele></trkpt><trkpt lat="50.8101111" lon="17.9828212"><ele>176.600</ele></trkpt><trkpt lat="50.8101686" lon="17.9810010"><ele>175.600</ele></trkpt><trkpt lat="50.8101382" lon="17.9787979"><ele>175.600</ele></trkpt><trkpt lat="50.8102725" lon="17.9774492"><ele>175.400</ele></trkpt><trkpt lat="50.8101811" lon="17.9762687"><ele>176.400</ele></trkpt><trkpt lat="50.8101625" lon="17.9749556"><ele>175.000</ele></trkpt><trkpt lat="50.8102122" lon="17.9736559"><ele>173.800</ele></trkpt><trkpt lat="50.8100689" lon="17.9713445"><ele>174.000</ele></trkpt><trkpt lat="50.8100959" lon="17.9701534"><ele>175.600</ele></trkpt><trkpt lat="50.8100685" lon="17.9695378"><ele>175.000</ele></trkpt><trkpt lat="50.8099884" lon="17.9688074"><ele>174.200</ele></trkpt><trkpt lat="50.8099915" lon="17.9679664"><ele>173.200</ele></trkpt><trkpt lat="50.8099441" lon="17.9669742"><ele>173.000</ele></trkpt><trkpt lat="50.8100003" lon="17.9652825"><ele>172.800</ele></trkpt><trkpt lat="50.8098886" lon="17.9643240"><ele>173.400</ele></trkpt><trkpt lat="50.8098286" lon="17.9628282"><ele>174.000</ele></trkpt><trkpt lat="50.8098463" lon="17.9617957"><ele>174.200</ele></trkpt><trkpt lat="50.8098119" lon="17.9609822"><ele>174.200</ele></trkpt><trkpt lat="50.8098287" lon="17.9600786"><ele>173.800</ele></trkpt><trkpt lat="50.8097801" lon="17.9592995"><ele>173.600</ele></trkpt><trkpt lat="50.8095890" lon="17.9578214"><ele>171.800</ele></trkpt><trkpt lat="50.8094981" lon="17.9563512"><ele>172.200</ele></trkpt><trkpt lat="50.8093684" lon="17.9554594"><ele>173.400</ele></trkpt><trkpt lat="50.8092844" lon="17.9525010"><ele>171.600</ele></trkpt><trkpt lat="50.8093573" lon="17.9514149"><ele>170.800</ele></trkpt><trkpt lat="50.8097158" lon="17.9491694"><ele>169.400</ele></trkpt><trkpt lat="50.8097804" lon="17.9485415"><ele>169.200</ele></trkpt><trkpt lat="50.8100800" lon="17.9437647"><ele>171.000</ele></trkpt><trkpt lat="50.8098889" lon="17.9418750"><ele>169.400</ele></trkpt><trkpt lat="50.8099002" lon="17.9413022"><ele>169.600</ele></trkpt><trkpt lat="50.8100342" lon="17.9398136"><ele>171.200</ele></trkpt><trkpt lat="50.8101863" lon="17.9386206"><ele>170.400</ele></trkpt><trkpt lat="50.8101779" lon="17.9384183"><ele>169.800</ele></trkpt><trkpt lat="50.8101160" lon="17.9382305"><ele>169.600</ele></trkpt><trkpt lat="50.8098827" lon="17.9378507"><ele>170.600</ele></trkpt><trkpt lat="50.8090454" lon="17.9369049"><ele>171.000</ele></trkpt><trkpt lat="50.8085573" lon="17.9365540"><ele>171.400</ele></trkpt><trkpt lat="50.8085120" lon="17.9364021"><ele>171.400</ele></trkpt><trkpt lat="50.8087001" lon="17.9358339"><ele>170.000</ele></trkpt><trkpt lat="50.8089798" lon="17.9353481"><ele>170.400</ele></trkpt><trkpt lat="50.8091596" lon="17.9347352"><ele>171.400</ele></trkpt><trkpt lat="50.8097099" lon="17.9332961"><ele>171.600</ele></trkpt><trkpt lat="50.8099127" lon="17.9325845"><ele>170.400</ele></trkpt><trkpt lat="50.8100163" lon="17.9318053"><ele>170.200</ele></trkpt><trkpt lat="50.8100111" lon="17.9298936"><ele>170.200</ele></trkpt><trkpt lat="50.8099285" lon="17.9286051"><ele>168.800</ele></trkpt><trkpt lat="50.8099214" lon="17.9277662"><ele>168.000</ele></trkpt><trkpt lat="50.8100301" lon="17.9272168"><ele>168.600</ele></trkpt><trkpt lat="50.8101583" lon="17.9271449"><ele>169.200</ele></trkpt><trkpt lat="50.8115989" lon="17.9276538"><ele>168.800</ele></trkpt><trkpt lat="50.8128903" lon="17.9278996"><ele>169.000</ele></trkpt><trkpt lat="50.8181800" lon="17.9287119"><ele>170.400</ele></trkpt><trkpt lat="50.8197877" lon="17.9286372"><ele>171.000</ele></trkpt><trkpt lat="50.8202863" lon="17.9285526"><ele>170.800</ele></trkpt><trkpt lat="50.8206832" lon="17.9285637"><ele>171.200</ele></trkpt><trkpt lat="50.8219935" lon="17.9284580"><ele>171.800</ele></trkpt><trkpt lat="50.8238318" lon="17.9284875"><ele>172.400</ele></trkpt><trkpt lat="50.8262297" lon="17.9283834"><ele>172.400</ele></trkpt><trkpt lat="50.8270862" lon="17.9284052"><ele>171.800</ele></trkpt><trkpt lat="50.8275496" lon="17.9283171"><ele>171.600</ele></trkpt><trkpt lat="50.8281922" lon="17.9283482"><ele>171.400</ele></trkpt><trkpt lat="50.8305031" lon="17.9282995"><ele>171.600</ele></trkpt><trkpt lat="50.8313223" lon="17.9284000"><ele>171.800</ele></trkpt><trkpt lat="50.8329564" lon="17.9283258"><ele>171.600</ele></trkpt><trkpt lat="50.8333118" lon="17.9282670"><ele>171.600</ele></trkpt><trkpt lat="50.8358535" lon="17.9282824"><ele>171.400</ele></trkpt><trkpt lat="50.8365650" lon="17.9282419"><ele>171.000</ele></trkpt><trkpt lat="50.8383429" lon="17.9282802"><ele>171.600</ele></trkpt><trkpt lat="50.8384502" lon="17.9283655"><ele>171.400</ele></trkpt><trkpt lat="50.8385691" lon="17.9286160"><ele>171.400</ele></trkpt><trkpt lat="50.8389775" lon="17.9298821"><ele>172.600</ele></trkpt><trkpt lat="50.8392038" lon="17.9309365"><ele>173.400</ele></trkpt><trkpt lat="50.8392760" lon="17.9310787"><ele>173.800</ele></trkpt><trkpt lat="50.8427313" lon="17.9331669"><ele>175.200</ele></trkpt><trkpt lat="50.8428250" lon="17.9331235"><ele>175.000</ele></trkpt><trkpt lat="50.8428912" lon="17.9330116"><ele>174.800</ele></trkpt><trkpt lat="50.8433713" lon="17.9302518"><ele>174.000</ele></trkpt><trkpt lat="50.8437123" lon="17.9288862"><ele>175.200</ele></trkpt><trkpt lat="50.8441215" lon="17.9275451"><ele>175.200</ele></trkpt><trkpt lat="50.8450186" lon="17.9255442"><ele>174.600</ele></trkpt><trkpt lat="50.8452787" lon="17.9251047"><ele>173.800</ele></trkpt><trkpt lat="50.8466141" lon="17.9234181"><ele>173.200</ele></trkpt><trkpt lat="50.8467310" lon="17.9231083"><ele>173.000</ele></trkpt><trkpt lat="50.8469904" lon="17.9220293"><ele>173.200</ele></trkpt><trkpt lat="50.8469807" lon="17.9218403"><ele>173.200</ele></trkpt><trkpt lat="50.8467291" lon="17.9214757"><ele>172.800</ele></trkpt><trkpt lat="50.8466903" lon="17.9212728"><ele>173.200</ele></trkpt><trkpt lat="50.8466568" lon="17.9203375"><ele>172.400</ele></trkpt><trkpt lat="50.8466875" lon="17.9190076"><ele>172.400</ele></trkpt><trkpt lat="50.8466171" lon="17.9172008"><ele>171.600</ele></trkpt><trkpt lat="50.8466393" lon="17.9164360"><ele>171.800</ele></trkpt><trkpt lat="50.8466075" lon="17.9158955"><ele>172.000</ele></trkpt><trkpt lat="50.8467119" lon="17.9083493"><ele>172.600</ele></trkpt><trkpt lat="50.8467008" lon="17.9071810"><ele>172.200</ele></trkpt><trkpt lat="50.8466464" lon="17.9061294"><ele>172.400</ele></trkpt><trkpt lat="50.8466566" lon="17.9043456"><ele>173.200</ele></trkpt><trkpt lat="50.8466213" lon="17.9035165"><ele>172.800</ele></trkpt><trkpt lat="50.8467096" lon="17.8967973"><ele>171.800</ele></trkpt><trkpt lat="50.8466712" lon="17.8957035"><ele>171.800</ele></trkpt><trkpt lat="50.8466843" lon="17.8951701"><ele>172.400</ele></trkpt><trkpt lat="50.8466448" lon="17.8939949"><ele>171.000</ele></trkpt><trkpt lat="50.8466819" lon="17.8933708"><ele>170.200</ele></trkpt><trkpt lat="50.8465270" lon="17.8928159"><ele>170.400</ele></trkpt><trkpt lat="50.8452467" lon="17.8892076"><ele>168.800</ele></trkpt><trkpt lat="50.8451133" lon="17.8887403"><ele>169.600</ele></trkpt><trkpt lat="50.8450619" lon="17.8881736"><ele>171.400</ele></trkpt><trkpt lat="50.8452058" lon="17.8856662"><ele>170.800</ele></trkpt><trkpt lat="50.8452081" lon="17.8847598"><ele>171.000</ele></trkpt><trkpt lat="50.8453058" lon="17.8835140"><ele>171.000</ele></trkpt><trkpt lat="50.8453209" lon="17.8821966"><ele>171.800</ele></trkpt><trkpt lat="50.8453855" lon="17.8817455"><ele>171.800</ele></trkpt><trkpt lat="50.8454148" lon="17.8789221"><ele>171.200</ele></trkpt><trkpt lat="50.8454996" lon="17.8768587"><ele>168.200</ele></trkpt><trkpt lat="50.8455198" lon="17.8734992"><ele>171.000</ele></trkpt><trkpt lat="50.8454652" lon="17.8728709"><ele>170.800</ele></trkpt><trkpt lat="50.8447681" lon="17.8685591"><ele>169.400</ele></trkpt><trkpt lat="50.8446866" lon="17.8678821"><ele>169.400</ele></trkpt><trkpt lat="50.8446752" lon="17.8660914"><ele>170.400</ele></trkpt><trkpt lat="50.8445506" lon="17.8651886"><ele>169.600</ele></trkpt><trkpt lat="50.8441854" lon="17.8637166"><ele>170.000</ele></trkpt><trkpt lat="50.8439256" lon="17.8624739"><ele>169.600</ele></trkpt><trkpt lat="50.8431098" lon="17.8592304"><ele>169.800</ele></trkpt><trkpt lat="50.8425639" lon="17.8565466"><ele>170.800</ele></trkpt><trkpt lat="50.8422089" lon="17.8552570"><ele>170.800</ele></trkpt><trkpt lat="50.8421485" lon="17.8551351"><ele>170.600</ele></trkpt><trkpt lat="50.8420565" lon="17.8550923"><ele>170.600</ele></trkpt><trkpt lat="50.8411814" lon="17.8550647"><ele>171.600</ele></trkpt><trkpt lat="50.8387990" lon="17.8551260"><ele>169.400</ele></trkpt><trkpt lat="50.8371941" lon="17.8550923"><ele>169.000</ele></trkpt><trkpt lat="50.8362537" lon="17.8551765"><ele>170.000</ele></trkpt><trkpt lat="50.8347106" lon="17.8551565"><ele>169.600</ele></trkpt><trkpt lat="50.8330982" lon="17.8552400"><ele>168.400</ele></trkpt><trkpt lat="50.8291647" lon="17.8552030"><ele>167.600</ele></trkpt><trkpt lat="50.8287227" lon="17.8551586"><ele>167.000</ele></trkpt><trkpt lat="50.8274779" lon="17.8552062"><ele>167.200</ele></trkpt><trkpt lat="50.8273267" lon="17.8552562"><ele>167.200</ele></trkpt><trkpt lat="50.8259214" lon="17.8552445"><ele>168.400</ele></trkpt><trkpt lat="50.8255439" lon="17.8553237"><ele>168.000</ele></trkpt><trkpt lat="50.8230135" lon="17.8554663"><ele>168.400</ele></trkpt><trkpt lat="50.8206340" lon="17.8554170"><ele>168.600</ele></trkpt><trkpt lat="50.8189876" lon="17.8554831"><ele>166.000</ele></trkpt><trkpt lat="50.8189807" lon="17.8554347"><ele>165.200</ele></trkpt><trkpt lat="50.8191828" lon="17.8552493"><ele>164.600</ele></trkpt><trkpt lat="50.8200166" lon="17.8540283"><ele>164.400</ele></trkpt><trkpt lat="50.8201545" lon="17.8536363"><ele>164.600</ele></trkpt><trkpt lat="50.8205837" lon="17.8530451"><ele>165.600</ele></trkpt><trkpt lat="50.8206399" lon="17.8528657"><ele>165.600</ele></trkpt><trkpt lat="50.8220484" lon="17.8506207"><ele>166.400</ele></trkpt><trkpt lat="50.8221902" lon="17.8503373"><ele>166.600</ele></trkpt><trkpt lat="50.8228422" lon="17.8494073"><ele>167.400</ele></trkpt><trkpt lat="50.8233658" lon="17.8484735"><ele>168.000</ele></trkpt><trkpt lat="50.8235954" lon="17.8481455"><ele>167.600</ele></trkpt><trkpt lat="50.8243074" lon="17.8469144"><ele>167.000</ele></trkpt><trkpt lat="50.8248109" lon="17.8461533"><ele>166.600</ele></trkpt><trkpt lat="50.8253293" lon="17.8451583"><ele>166.400</ele></trkpt><trkpt lat="50.8257448" lon="17.8445253"><ele>166.400</ele></trkpt><trkpt lat="50.8259067" lon="17.8442073"><ele>166.400</ele></trkpt><trkpt lat="50.8262817" lon="17.8436986"><ele>167.400</ele></trkpt><trkpt lat="50.8267327" lon="17.8428714"><ele>166.400</ele></trkpt><trkpt lat="50.8270733" lon="17.8423622"><ele>167.200</ele></trkpt><trkpt lat="50.8280453" lon="17.8406563"><ele>167.000</ele></trkpt><trkpt lat="50.8294306" lon="17.8385122"><ele>165.800</ele></trkpt><trkpt lat="50.8294592" lon="17.8383385"><ele>166.000</ele></trkpt><trkpt lat="50.8294218" lon="17.8381733"><ele>166.200</ele></trkpt><trkpt lat="50.8291165" lon="17.8376741"><ele>167.200</ele></trkpt><trkpt lat="50.8283911" lon="17.8366711"><ele>167.600</ele></trkpt><trkpt lat="50.8262793" lon="17.8331992"><ele>166.200</ele></trkpt><trkpt lat="50.8255700" lon="17.8321691"><ele>166.000</ele></trkpt><trkpt lat="50.8254720" lon="17.8317974"><ele>166.200</ele></trkpt><trkpt lat="50.8254266" lon="17.8306001"><ele>165.400</ele></trkpt><trkpt lat="50.8255042" lon="17.8288073"><ele>166.000</ele></trkpt><trkpt lat="50.8254416" lon="17.8278605"><ele>166.000</ele></trkpt><trkpt lat="50.8254706" lon="17.8275129"><ele>165.400</ele></trkpt><trkpt lat="50.8254310" lon="17.8263615"><ele>165.800</ele></trkpt><trkpt lat="50.8254590" lon="17.8244613"><ele>166.200</ele></trkpt><trkpt lat="50.8253851" lon="17.8240394"><ele>165.200</ele></trkpt><trkpt lat="50.8253584" lon="17.8227929"><ele>165.200</ele></trkpt><trkpt lat="50.8253966" lon="17.8217412"><ele>165.200</ele></trkpt><trkpt lat="50.8253546" lon="17.8208658"><ele>164.600</ele></trkpt><trkpt lat="50.8254075" lon="17.8204357"><ele>164.800</ele></trkpt><trkpt lat="50.8253810" lon="17.8190624"><ele>164.200</ele></trkpt><trkpt lat="50.8253495" lon="17.8188794"><ele>164.400</ele></trkpt><trkpt lat="50.8252488" lon="17.8186965"><ele>164.600</ele></trkpt><trkpt lat="50.8249237" lon="17.8184137"><ele>164.600</ele></trkpt><trkpt lat="50.8242176" lon="17.8175515"><ele>163.800</ele></trkpt><trkpt lat="50.8229675" lon="17.8155542"><ele>161.600</ele></trkpt><trkpt lat="50.8226511" lon="17.8151281"><ele>161.600</ele></trkpt><trkpt lat="50.8222005" lon="17.8141132"><ele>162.800</ele></trkpt><trkpt lat="50.8216873" lon="17.8119026"><ele>160.600</ele></trkpt><trkpt lat="50.8213964" lon="17.8111552"><ele>160.000</ele></trkpt><trkpt lat="50.8209255" lon="17.8103114"><ele>158.800</ele></trkpt><trkpt lat="50.8207361" lon="17.8100395"><ele>158.200</ele></trkpt><trkpt lat="50.8208316" lon="17.8096944"><ele>159.200</ele></trkpt><trkpt lat="50.8209370" lon="17.8090135"><ele>158.400</ele></trkpt><trkpt lat="50.8210488" lon="17.8085773"><ele>159.600</ele></trkpt><trkpt lat="50.8210900" lon="17.8081989"><ele>159.200</ele></trkpt><trkpt lat="50.8211614" lon="17.8079406"><ele>159.000</ele></trkpt><trkpt lat="50.8212557" lon="17.8072918"><ele>158.800</ele></trkpt><trkpt lat="50.8215747" lon="17.8059425"><ele>158.600</ele></trkpt><trkpt lat="50.8223983" lon="17.8018942"><ele>158.200</ele></trkpt><trkpt lat="50.8225470" lon="17.8013580"><ele>157.200</ele></trkpt><trkpt lat="50.8229479" lon="17.7994148"><ele>158.600</ele></trkpt><trkpt lat="50.8235716" lon="17.7953201"><ele>157.600</ele></trkpt><trkpt lat="50.8240097" lon="17.7920691"><ele>156.400</ele></trkpt><trkpt lat="50.8240324" lon="17.7918587"><ele>157.200</ele></trkpt><trkpt lat="50.8243069" lon="17.7900804"><ele>154.400</ele></trkpt><trkpt lat="50.8246738" lon="17.7877572"><ele>157.000</ele></trkpt><trkpt lat="50.8248417" lon="17.7870765"><ele>156.800</ele></trkpt><trkpt lat="50.8248822" lon="17.7865468"><ele>156.600</ele></trkpt><trkpt lat="50.8249122" lon="17.7865385"><ele>156.400</ele></trkpt><trkpt lat="50.8250354" lon="17.7868039"><ele>157.600</ele></trkpt><trkpt lat="50.8251857" lon="17.7870085"><ele>157.800</ele></trkpt><trkpt lat="50.8252816" lon="17.7870581"><ele>157.200</ele></trkpt><trkpt lat="50.8265052" lon="17.7869843"><ele>157.800</ele></trkpt><trkpt lat="50.8271542" lon="17.7870136"><ele>160.000</ele></trkpt><trkpt lat="50.8293385" lon="17.7869562"><ele>159.800</ele></trkpt><trkpt lat="50.8295598" lon="17.7869886"><ele>158.800</ele></trkpt><trkpt lat="50.8305305" lon="17.7868968"><ele>158.600</ele></trkpt><trkpt lat="50.8318641" lon="17.7868938"><ele>158.200</ele></trkpt><trkpt lat="50.8324797" lon="17.7869616"><ele>159.000</ele></trkpt><trkpt lat="50.8340037" lon="17.7869617"><ele>158.000</ele></trkpt><trkpt lat="50.8353481" lon="17.7868793"><ele>158.200</ele></trkpt><trkpt lat="50.8368195" lon="17.7869713"><ele>157.600</ele></trkpt><trkpt lat="50.8383348" lon="17.7868357"><ele>159.000</ele></trkpt><trkpt lat="50.8393571" lon="17.7868832"><ele>159.000</ele></trkpt><trkpt lat="50.8418433" lon="17.7867230"><ele>159.400</ele></trkpt><trkpt lat="50.8441516" lon="17.7867022"><ele>157.800</ele></trkpt><trkpt lat="50.8455814" lon="17.7867759"><ele>156.600</ele></trkpt><trkpt lat="50.8462126" lon="17.7867590"><ele>157.000</ele></trkpt><trkpt lat="50.8470349" lon="17.7867538"><ele>159.000</ele></trkpt><trkpt lat="50.8474037" lon="17.7867008"><ele>160.800</ele></trkpt><trkpt lat="50.8478575" lon="17.7867008"><ele>159.600</ele></trkpt><trkpt lat="50.8486688" lon="17.7866531"><ele>159.000</ele></trkpt><trkpt lat="50.8518985" lon="17.7865623"><ele>159.400</ele></trkpt><trkpt lat="50.8521994" lon="17.7866042"><ele>160.000</ele></trkpt><trkpt lat="50.8555236" lon="17.7865138"><ele>162.200</ele></trkpt><trkpt lat="50.8580872" lon="17.7863732"><ele>163.000</ele></trkpt><trkpt lat="50.8590665" lon="17.7863949"><ele>162.600</ele></trkpt><trkpt lat="50.8591384" lon="17.7864832"><ele>162.400</ele></trkpt><trkpt lat="50.8592989" lon="17.7889106"><ele>162.400</ele></trkpt><trkpt lat="50.8592703" lon="17.7930415"><ele>163.800</ele></trkpt><trkpt lat="50.8593109" lon="17.7938247"><ele>163.600</ele></trkpt><trkpt lat="50.8593562" lon="17.7955339"><ele>163.400</ele></trkpt><trkpt lat="50.8594477" lon="17.7963508"><ele>164.000</ele></trkpt><trkpt lat="50.8594628" lon="17.7969830"><ele>164.000</ele></trkpt><trkpt lat="50.8595627" lon="17.7971479"><ele>163.800</ele></trkpt><trkpt lat="50.8605756" lon="17.7974083"><ele>163.600</ele></trkpt><trkpt lat="50.8614643" lon="17.7978370"><ele>163.600</ele></trkpt><trkpt lat="50.8634825" lon="17.7991677"><ele>163.000</ele></trkpt><trkpt lat="50.8644844" lon="17.7997593"><ele>162.200</ele></trkpt><trkpt lat="50.8651360" lon="17.8000858"><ele>161.400</ele></trkpt><trkpt lat="50.8656088" lon="17.8003505"><ele>161.400</ele></trkpt><trkpt lat="50.8675591" lon="17.8005638"><ele>161.800</ele></trkpt><trkpt lat="50.8692166" lon="17.8002157"><ele>162.200</ele></trkpt><trkpt lat="50.8699173" lon="17.7999913"><ele>162.200</ele></trkpt><trkpt lat="50.8706839" lon="17.7998441"><ele>160.800</ele></trkpt><trkpt lat="50.8709146" lon="17.7997532"><ele>161.200</ele></trkpt><trkpt lat="50.8711888" lon="17.7997840"><ele>161.400</ele></trkpt><trkpt lat="50.8717170" lon="17.8000023"><ele>160.600</ele></trkpt><trkpt lat="50.8722238" lon="17.8001056"><ele>160.000</ele></trkpt><trkpt lat="50.8729264" lon="17.8003559"><ele>159.400</ele></trkpt><trkpt lat="50.8735120" lon="17.8005973"><ele>160.000</ele></trkpt><trkpt lat="50.8737490" lon="17.8007475"><ele>160.000</ele></trkpt><trkpt lat="50.8740164" lon="17.8008655"><ele>160.000</ele></trkpt><trkpt lat="50.8744429" lon="17.8011552"><ele>159.800</ele></trkpt><trkpt lat="50.8746490" lon="17.8011291"><ele>159.800</ele></trkpt><trkpt lat="50.8748424" lon="17.8013537"><ele>160.200</ele></trkpt><trkpt lat="50.8750015" lon="17.8020725"><ele>160.000</ele></trkpt><trkpt lat="50.8751369" lon="17.8024534"><ele>160.000</ele></trkpt><trkpt lat="50.8754077" lon="17.8028718"><ele>160.200</ele></trkpt><trkpt lat="50.8755905" lon="17.8031400"><ele>160.200</ele></trkpt><trkpt lat="50.8757541" lon="17.8034864"><ele>160.200</ele></trkpt><trkpt lat="50.8758476" lon="17.8037451"><ele>159.600</ele></trkpt><trkpt lat="50.8759591" lon="17.8044227"><ele>160.000</ele></trkpt><trkpt lat="50.8761154" lon="17.8062553"><ele>158.400</ele></trkpt><trkpt lat="50.8761930" lon="17.8069273"><ele>159.000</ele></trkpt><trkpt lat="50.8763216" lon="17.8084347"><ele>159.800</ele></trkpt><trkpt lat="50.8765450" lon="17.8092340"><ele>158.800</ele></trkpt><trkpt lat="50.8765755" lon="17.8095183"><ele>158.600</ele></trkpt><trkpt lat="50.8765687" lon="17.8100172"><ele>158.600</ele></trkpt><trkpt lat="50.8764604" lon="17.8108433"><ele>158.800</ele></trkpt><trkpt lat="50.8763893" lon="17.8115514"><ele>158.800</ele></trkpt><trkpt lat="50.8763825" lon="17.8117821"><ele>158.800</ele></trkpt><trkpt lat="50.8764333" lon="17.8119967"><ele>158.600</ele></trkpt><trkpt lat="50.8773811" lon="17.8139010"><ele>159.600</ele></trkpt><trkpt lat="50.8774894" lon="17.8144911"><ele>159.400</ele></trkpt><trkpt lat="50.8776011" lon="17.8149954"><ele>159.400</ele></trkpt><trkpt lat="50.8776586" lon="17.8153012"><ele>159.200</ele></trkpt><trkpt lat="50.8781150" lon="17.8163100"><ele>159.800</ele></trkpt><trkpt lat="50.8789507" lon="17.8177793"><ele>160.000</ele></trkpt><trkpt lat="50.8793675" lon="17.8188808"><ele>160.200</ele></trkpt><trkpt lat="50.8794938" lon="17.8194233"><ele>161.000</ele></trkpt><trkpt lat="50.8795136" lon="17.8199134"><ele>161.400</ele></trkpt><trkpt lat="50.8794506" lon="17.8204144"><ele>161.400</ele></trkpt><trkpt lat="50.8793394" lon="17.8207943"><ele>161.200</ele></trkpt><trkpt lat="50.8791699" lon="17.8216285"><ele>160.800</ele></trkpt><trkpt lat="50.8791530" lon="17.8225351"><ele>160.800</ele></trkpt><trkpt lat="50.8791530" lon="17.8232164"><ele>160.000</ele></trkpt><trkpt lat="50.8791869" lon="17.8249276"><ele>162.000</ele></trkpt><trkpt lat="50.8794170" lon="17.8261346"><ele>160.400</ele></trkpt><trkpt lat="50.8796201" lon="17.8271109"><ele>161.800</ele></trkpt><trkpt lat="50.8798181" lon="17.8277654"><ele>161.400</ele></trkpt><trkpt lat="50.8801024" lon="17.8281409"><ele>161.400</ele></trkpt><trkpt lat="50.8805341" lon="17.8284884"><ele>162.400</ele></trkpt><trkpt lat="50.8811428" lon="17.8290003"><ele>162.800</ele></trkpt><trkpt lat="50.8816543" lon="17.8292969"><ele>162.600</ele></trkpt><trkpt lat="50.8821275" lon="17.8294841"><ele>163.000</ele></trkpt><trkpt lat="50.8823413" lon="17.8298173"><ele>163.000</ele></trkpt><trkpt lat="50.8828151" lon="17.8308043"><ele>163.600</ele></trkpt><trkpt lat="50.8830758" lon="17.8313193"><ele>163.200</ele></trkpt><trkpt lat="50.8832382" lon="17.8317163"><ele>163.200</ele></trkpt><trkpt lat="50.8833364" lon="17.8323654"><ele>163.400</ele></trkpt><trkpt lat="50.8835329" lon="17.8331587"><ele>163.400</ele></trkpt><trkpt lat="50.8836377" lon="17.8331804"><ele>163.600</ele></trkpt><trkpt lat="50.8844938" lon="17.8328696"><ele>163.400</ele></trkpt><trkpt lat="50.8845765" lon="17.8326494"><ele>162.800</ele></trkpt><trkpt lat="50.8854786" lon="17.8301177"><ele>163.600</ele></trkpt><trkpt lat="50.8856445" lon="17.8296617"><ele>163.200</ele></trkpt><trkpt lat="50.8862063" lon="17.8278056"><ele>163.200</ele></trkpt><trkpt lat="50.8866360" lon="17.8264592"><ele>163.800</ele></trkpt><trkpt lat="50.8870726" lon="17.8260836"><ele>163.000</ele></trkpt><trkpt lat="50.8878293" lon="17.8255307"><ele>164.200</ele></trkpt><trkpt lat="50.8885147" lon="17.8248234"><ele>163.400</ele></trkpt><trkpt lat="50.8887511" lon="17.8247157"><ele>163.400</ele></trkpt><trkpt lat="50.8890557" lon="17.8247855"><ele>163.400</ele></trkpt><trkpt lat="50.8892621" lon="17.8250215"><ele>163.800</ele></trkpt><trkpt lat="50.8897054" lon="17.8259603"><ele>163.800</ele></trkpt><trkpt lat="50.8899423" lon="17.8261641"><ele>164.200</ele></trkpt><trkpt lat="50.8902062" lon="17.8263787"><ele>164.200</ele></trkpt><trkpt lat="50.8904887" lon="17.8264411"><ele>163.200</ele></trkpt><trkpt lat="50.8909174" lon="17.8264920"><ele>163.600</ele></trkpt><trkpt lat="50.8913415" lon="17.8265101"><ele>164.400</ele></trkpt><trkpt lat="50.8915310" lon="17.8262848"><ele>163.800</ele></trkpt><trkpt lat="50.8918211" lon="17.8261551"><ele>163.200</ele></trkpt><trkpt lat="50.8919448" lon="17.8262150"><ele>163.200</ele></trkpt><trkpt lat="50.8934598" lon="17.8276677"><ele>163.400</ele></trkpt><trkpt lat="50.8953023" lon="17.8296326"><ele>164.000</ele></trkpt><trkpt lat="50.8958925" lon="17.8303318"><ele>164.400</ele></trkpt><trkpt lat="50.8963402" lon="17.8307496"><ele>165.000</ele></trkpt><trkpt lat="50.8965751" lon="17.8309038"><ele>165.200</ele></trkpt><trkpt lat="50.8971944" lon="17.8316052"><ele>163.600</ele></trkpt><trkpt lat="50.8985115" lon="17.8329067"><ele>164.000</ele></trkpt><trkpt lat="50.8990850" lon="17.8335845"><ele>165.000</ele></trkpt><trkpt lat="50.9002618" lon="17.8348157"><ele>166.200</ele></trkpt><trkpt lat="50.9004214" lon="17.8348495"><ele>166.400</ele></trkpt><trkpt lat="50.9007028" lon="17.8348169"><ele>167.400</ele></trkpt><trkpt lat="50.9009431" lon="17.8350372"><ele>166.800</ele></trkpt><trkpt lat="50.9010090" lon="17.8351705"><ele>166.000</ele></trkpt><trkpt lat="50.9010903" lon="17.8356155"><ele>165.400</ele></trkpt><trkpt lat="50.9012701" lon="17.8359197"><ele>166.000</ele></trkpt><trkpt lat="50.9020825" lon="17.8367571"><ele>167.200</ele></trkpt><trkpt lat="50.9021398" lon="17.8369208"><ele>167.600</ele></trkpt><trkpt lat="50.9021336" lon="17.8372928"><ele>167.800</ele></trkpt><trkpt lat="50.9021801" lon="17.8375583"><ele>167.800</ele></trkpt><trkpt lat="50.9022502" lon="17.8377102"><ele>167.600</ele></trkpt><trkpt lat="50.9024954" lon="17.8379801"><ele>167.800</ele></trkpt><trkpt lat="50.9025614" lon="17.8381351"><ele>167.800</ele></trkpt><trkpt lat="50.9025948" lon="17.8391886"><ele>168.000</ele></trkpt><trkpt lat="50.9028543" lon="17.8430584"><ele>169.400</ele></trkpt><trkpt lat="50.9029365" lon="17.8437758"><ele>169.400</ele></trkpt><trkpt lat="50.9030706" lon="17.8466156"><ele>170.000</ele></trkpt><trkpt lat="50.9031848" lon="17.8481915"><ele>169.600</ele></trkpt><trkpt lat="50.9034518" lon="17.8531194"><ele>170.000</ele></trkpt><trkpt lat="50.9036788" lon="17.8558300"><ele>169.200</ele></trkpt><trkpt lat="50.9038369" lon="17.8561030"><ele>168.800</ele></trkpt><trkpt lat="50.9039509" lon="17.8561796"><ele>168.600</ele></trkpt><trkpt lat="50.9046497" lon="17.8563645"><ele>169.400</ele></trkpt><trkpt lat="50.9052353" lon="17.8568554"><ele>169.600</ele></trkpt><trkpt lat="50.9055880" lon="17.8572601"><ele>169.400</ele></trkpt><trkpt lat="50.9063385" lon="17.8579721"><ele>168.800</ele></trkpt><trkpt lat="50.9072167" lon="17.8590465"><ele>168.800</ele></trkpt><trkpt lat="50.9078493" lon="17.8594406"><ele>168.200</ele></trkpt><trkpt lat="50.9081396" lon="17.8595326"><ele>168.800</ele></trkpt><trkpt lat="50.9094751" lon="17.8596831"><ele>168.800</ele></trkpt><trkpt lat="50.9101151" lon="17.8599662"><ele>170.200</ele></trkpt><trkpt lat="50.9107472" lon="17.8602308"><ele>170.200</ele></trkpt><trkpt lat="50.9113357" lon="17.8605742"><ele>168.800</ele></trkpt><trkpt lat="50.9116807" lon="17.8610784"><ele>169.000</ele></trkpt><trkpt lat="50.9123830" lon="17.8619456"><ele>169.600</ele></trkpt><trkpt lat="50.9127448" lon="17.8623514"><ele>169.200</ele></trkpt><trkpt lat="50.9136556" lon="17.8632156"><ele>169.400</ele></trkpt><trkpt lat="50.9137541" lon="17.8634797"><ele>169.200</ele></trkpt><trkpt lat="50.9140105" lon="17.8654281"><ele>168.800</ele></trkpt><trkpt lat="50.9139799" lon="17.8656112"><ele>168.800</ele></trkpt><trkpt lat="50.9134341" lon="17.8664211"><ele>169.800</ele></trkpt><trkpt lat="50.9129014" lon="17.8673546"><ele>170.600</ele></trkpt><trkpt lat="50.9126398" lon="17.8676552"><ele>169.200</ele></trkpt><trkpt lat="50.9122820" lon="17.8679359"><ele>169.400</ele></trkpt><trkpt lat="50.9118697" lon="17.8681808"><ele>170.800</ele></trkpt><trkpt lat="50.9116436" lon="17.8684060"><ele>170.400</ele></trkpt><trkpt lat="50.9114516" lon="17.8686920"><ele>169.600</ele></trkpt><trkpt lat="50.9108894" lon="17.8697299"><ele>169.200</ele></trkpt><trkpt lat="50.9100190" lon="17.8716563"><ele>169.400</ele></trkpt><trkpt lat="50.9094260" lon="17.8725820"><ele>171.000</ele></trkpt><trkpt lat="50.9091694" lon="17.8728833"><ele>169.600</ele></trkpt><trkpt lat="50.9069218" lon="17.8751091"><ele>171.400</ele></trkpt><trkpt lat="50.9056324" lon="17.8759497"><ele>171.200</ele></trkpt><trkpt lat="50.9034341" lon="17.8786623"><ele>171.400</ele></trkpt><trkpt lat="50.9027210" lon="17.8796183"><ele>173.800</ele></trkpt><trkpt lat="50.9014325" lon="17.8810773"><ele>172.200</ele></trkpt><trkpt lat="50.9009669" lon="17.8814647"><ele>172.600</ele></trkpt><trkpt lat="50.9008146" lon="17.8816847"><ele>173.000</ele></trkpt><trkpt lat="50.9000443" lon="17.8833433"><ele>172.000</ele></trkpt><trkpt lat="50.8997827" lon="17.8841481"><ele>171.800</ele></trkpt><trkpt lat="50.8991333" lon="17.8871444"><ele>169.600</ele></trkpt><trkpt lat="50.8990496" lon="17.8873872"><ele>170.000</ele></trkpt><trkpt lat="50.8988517" lon="17.8877477"><ele>170.000</ele></trkpt><trkpt lat="50.8985133" lon="17.8881832"><ele>170.200</ele></trkpt><trkpt lat="50.8975700" lon="17.8898775"><ele>170.200</ele></trkpt><trkpt lat="50.8975189" lon="17.8900326"><ele>170.400</ele></trkpt><trkpt lat="50.8973281" lon="17.8917261"><ele>169.400</ele></trkpt><trkpt lat="50.8972534" lon="17.8928351"><ele>169.400</ele></trkpt><trkpt lat="50.8967616" lon="17.8974226"><ele>169.400</ele></trkpt><trkpt lat="50.8964835" lon="17.8995385"><ele>168.800</ele></trkpt><trkpt lat="50.8963929" lon="17.9007596"><ele>169.400</ele></trkpt><trkpt lat="50.8962343" lon="17.9017944"><ele>169.600</ele></trkpt><trkpt lat="50.8961463" lon="17.9026741"><ele>170.000</ele></trkpt><trkpt lat="50.8960739" lon="17.9036311"><ele>170.600</ele></trkpt><trkpt lat="50.8956726" lon="17.9071802"><ele>170.200</ele></trkpt><trkpt lat="50.8955507" lon="17.9086574"><ele>172.000</ele></trkpt><trkpt lat="50.8954290" lon="17.9093045"><ele>171.400</ele></trkpt><trkpt lat="50.8951966" lon="17.9112672"><ele>171.200</ele></trkpt><trkpt lat="50.8951167" lon="17.9122313"><ele>171.200</ele></trkpt><trkpt lat="50.8950788" lon="17.9125447"><ele>171.000</ele></trkpt><trkpt lat="50.8950556" lon="17.9129340"><ele>170.800</ele></trkpt><trkpt lat="50.8948758" lon="17.9145027"><ele>171.800</ele></trkpt><trkpt lat="50.8949842" lon="17.9147261"><ele>171.600</ele></trkpt><trkpt lat="50.8967976" lon="17.9173619"><ele>172.800</ele></trkpt><trkpt lat="50.8972442" lon="17.9180915"><ele>173.600</ele></trkpt><trkpt lat="50.8984017" lon="17.9197853"><ele>173.200</ele></trkpt><trkpt lat="50.8986173" lon="17.9200370"><ele>173.400</ele></trkpt><trkpt lat="50.8990531" lon="17.9207306"><ele>174.800</ele></trkpt><trkpt lat="50.8998528" lon="17.9218841"><ele>175.000</ele></trkpt><trkpt lat="50.9007618" lon="17.9232642"><ele>176.400</ele></trkpt><trkpt lat="50.9016252" lon="17.9244196"><ele>176.200</ele></trkpt><trkpt lat="50.9024492" lon="17.9256481"><ele>177.000</ele></trkpt><trkpt lat="50.9032596" lon="17.9268730"><ele>177.400</ele></trkpt><trkpt lat="50.9033577" lon="17.9270715"><ele>177.200</ele></trkpt><trkpt lat="50.9037129" lon="17.9275436"><ele>176.400</ele></trkpt><trkpt lat="50.9042271" lon="17.9283429"><ele>177.000</ele></trkpt><trkpt lat="50.9054689" lon="17.9301468"><ele>176.200</ele></trkpt><trkpt lat="50.9059834" lon="17.9309164"><ele>174.800</ele></trkpt><trkpt lat="50.9063616" lon="17.9315186"><ele>175.800</ele></trkpt><trkpt lat="50.9068555" lon="17.9321891"><ele>175.600</ele></trkpt><trkpt lat="50.9070585" lon="17.9325647"><ele>175.200</ele></trkpt><trkpt lat="50.9076910" lon="17.9325700"><ele>175.200</ele></trkpt><trkpt lat="50.9078805" lon="17.9325003"><ele>175.400</ele></trkpt><trkpt lat="50.9086568" lon="17.9322405"><ele>176.200</ele></trkpt><trkpt lat="50.9087281" lon="17.9325940"><ele>177.600</ele></trkpt><trkpt lat="50.9088034" lon="17.9326607"><ele>177.600</ele></trkpt><trkpt lat="50.9088390" lon="17.9329144"><ele>176.400</ele></trkpt><trkpt lat="50.9087295" lon="17.9332406"><ele>176.800</ele></trkpt><trkpt lat="50.9084048" lon="17.9345334"><ele>175.600</ele></trkpt><trkpt lat="50.9082627" lon="17.9350430"><ele>176.200</ele></trkpt><trkpt lat="50.9080575" lon="17.9359365"><ele>176.800</ele></trkpt><trkpt lat="50.9077913" lon="17.9372432"><ele>176.800</ele></trkpt><trkpt lat="50.9074813" lon="17.9384789"><ele>176.000</ele></trkpt><trkpt lat="50.9072276" lon="17.9396323"><ele>176.400</ele></trkpt><trkpt lat="50.9069063" lon="17.9405657"><ele>176.400</ele></trkpt><trkpt lat="50.9065883" lon="17.9415098"><ele>176.800</ele></trkpt><trkpt lat="50.9063718" lon="17.9421375"><ele>177.400</ele></trkpt><trkpt lat="50.9061215" lon="17.9425505"><ele>177.000</ele></trkpt><trkpt lat="50.9058278" lon="17.9427749"><ele>176.800</ele></trkpt><trkpt lat="50.9053159" lon="17.9428563"><ele>177.400</ele></trkpt><trkpt lat="50.9049220" lon="17.9430947"><ele>177.800</ele></trkpt><trkpt lat="50.9032832" lon="17.9442564"><ele>178.800</ele></trkpt><trkpt lat="50.9031581" lon="17.9444012"><ele>178.800</ele></trkpt><trkpt lat="50.9029517" lon="17.9448572"><ele>178.600</ele></trkpt><trkpt lat="50.9022222" lon="17.9478584"><ele>178.000</ele></trkpt><trkpt lat="50.9017304" lon="17.9495779"><ele>178.000</ele></trkpt><trkpt lat="50.9015444" lon="17.9502538"><ele>177.200</ele></trkpt><trkpt lat="50.9013346" lon="17.9509244"><ele>177.000</ele></trkpt><trkpt lat="50.9008373" lon="17.9522655"><ele>176.800</ele></trkpt><trkpt lat="50.9003230" lon="17.9537353"><ele>177.800</ele></trkpt><trkpt lat="50.8994400" lon="17.9556826"><ele>175.800</ele></trkpt><trkpt lat="50.8987616" lon="17.9570205"><ele>175.800</ele></trkpt><trkpt lat="50.8982491" lon="17.9575441"><ele>176.800</ele></trkpt><trkpt lat="50.8977824" lon="17.9579549"><ele>177.000</ele></trkpt><trkpt lat="50.8973085" lon="17.9579679"><ele>176.800</ele></trkpt><trkpt lat="50.8968315" lon="17.9577157"><ele>176.400</ele></trkpt><trkpt lat="50.8964992" lon="17.9576443"><ele>176.000</ele></trkpt><trkpt lat="50.8956946" lon="17.9582575"><ele>175.600</ele></trkpt><trkpt lat="50.8954172" lon="17.9585043"><ele>175.600</ele></trkpt><trkpt lat="50.8949604" lon="17.9587940"><ele>177.200</ele></trkpt><trkpt lat="50.8945882" lon="17.9588369"><ele>178.000</ele></trkpt><trkpt lat="50.8938760" lon="17.9588234"><ele>177.600</ele></trkpt><trkpt lat="50.8932612" lon="17.9587966"><ele>177.600</ele></trkpt><trkpt lat="50.8931536" lon="17.9587054"><ele>177.400</ele></trkpt><trkpt lat="50.8923013" lon="17.9568869"><ele>175.800</ele></trkpt><trkpt lat="50.8921380" lon="17.9563976"><ele>176.800</ele></trkpt><trkpt lat="50.8919906" lon="17.9561558"><ele>176.800</ele></trkpt><trkpt lat="50.8918894" lon="17.9560765"><ele>176.600</ele></trkpt><trkpt lat="50.8916480" lon="17.9560732"><ele>176.400</ele></trkpt><trkpt lat="50.8914635" lon="17.9561856"><ele>176.000</ele></trkpt><trkpt lat="50.8911520" lon="17.9563398"><ele>174.800</ele></trkpt><trkpt lat="50.8907933" lon="17.9572732"><ele>176.800</ele></trkpt><trkpt lat="50.8905429" lon="17.9578096"><ele>176.800</ele></trkpt><trkpt lat="50.8903371" lon="17.9581124"><ele>176.400</ele></trkpt><trkpt lat="50.8893643" lon="17.9587558"><ele>175.600</ele></trkpt><trkpt lat="50.8891361" lon="17.9588217"><ele>175.600</ele></trkpt><trkpt lat="50.8886732" lon="17.9588471"><ele>176.600</ele></trkpt><trkpt lat="50.8884584" lon="17.9589576"><ele>175.800</ele></trkpt><trkpt lat="50.8870844" lon="17.9604167"><ele>176.000</ele></trkpt><trkpt lat="50.8867528" lon="17.9608995"><ele>176.400</ele></trkpt><trkpt lat="50.8864347" lon="17.9615325"><ele>175.800</ele></trkpt><trkpt lat="50.8860692" lon="17.9623694"><ele>176.000</ele></trkpt><trkpt lat="50.8852299" lon="17.9643542"><ele>176.000</ele></trkpt><trkpt lat="50.8850093" lon="17.9650115"><ele>175.200</ele></trkpt><trkpt lat="50.8845513" lon="17.9653091"><ele>175.800</ele></trkpt><trkpt lat="50.8843043" lon="17.9653734"><ele>175.400</ele></trkpt><trkpt lat="50.8840268" lon="17.9653520"><ele>176.000</ele></trkpt><trkpt lat="50.8836376" lon="17.9651320"><ele>175.400</ele></trkpt><trkpt lat="50.8829575" lon="17.9643905"><ele>176.000</ele></trkpt><trkpt lat="50.8826800" lon="17.9640226"><ele>176.000</ele></trkpt><trkpt lat="50.8823700" lon="17.9637628"><ele>176.400</ele></trkpt><trkpt lat="50.8822235" lon="17.9637422"><ele>176.400</ele></trkpt><trkpt lat="50.8820659" lon="17.9638525"><ele>176.000</ele></trkpt><trkpt lat="50.8816509" lon="17.9642040"><ele>176.800</ele></trkpt><trkpt lat="50.8801786" lon="17.9654807"><ele>175.600</ele></trkpt><trkpt lat="50.8799755" lon="17.9656792"><ele>175.800</ele></trkpt><trkpt lat="50.8796607" lon="17.9660064"><ele>175.800</ele></trkpt><trkpt lat="50.8793563" lon="17.9664694"><ele>175.000</ele></trkpt><trkpt lat="50.8784110" lon="17.9680990"><ele>173.800</ele></trkpt><trkpt lat="50.8774757" lon="17.9695968"><ele>171.200</ele></trkpt><trkpt lat="50.8770443" lon="17.9705018"><ele>173.600</ele></trkpt><trkpt lat="50.8767498" lon="17.9711080"><ele>175.400</ele></trkpt><trkpt lat="50.8759105" lon="17.9724228"><ele>174.400</ele></trkpt><trkpt lat="50.8756657" lon="17.9728853"><ele>174.000</ele></trkpt><trkpt lat="50.8750163" lon="17.9743144"><ele>173.400</ele></trkpt><trkpt lat="50.8744584" lon="17.9753834"><ele>174.600</ele></trkpt><trkpt lat="50.8744676" lon="17.9755090"><ele>174.800</ele></trkpt><trkpt lat="50.8749964" lon="17.9761506"><ele>174.200</ele></trkpt><trkpt lat="50.8751081" lon="17.9765046"><ele>174.400</ele></trkpt><trkpt lat="50.8751529" lon="17.9773576"><ele>173.200</ele></trkpt><trkpt lat="50.8752229" lon="17.9775972"><ele>173.000</ele></trkpt><trkpt lat="50.8758118" lon="17.9789085"><ele>173.000</ele></trkpt><trkpt lat="50.8761079" lon="17.9793871"><ele>173.600</ele></trkpt><trkpt lat="50.8766191" lon="17.9800725"><ele>173.400</ele></trkpt><trkpt lat="50.8768315" lon="17.9802537"><ele>173.400</ele></trkpt><trkpt lat="50.8778984" lon="17.9807573"><ele>172.800</ele></trkpt><trkpt lat="50.8788585" lon="17.9814184"><ele>172.600</ele></trkpt><trkpt lat="50.8793122" lon="17.9816746"><ele>172.600</ele></trkpt><trkpt lat="50.8794746" lon="17.9817081"><ele>172.600</ele></trkpt><trkpt lat="50.8797011" lon="17.9816418"><ele>172.800</ele></trkpt><trkpt lat="50.8808195" lon="17.9813854"><ele>173.000</ele></trkpt><trkpt lat="50.8809163" lon="17.9814483"><ele>173.000</ele></trkpt><trkpt lat="50.8809300" lon="17.9816384"><ele>173.200</ele></trkpt><trkpt lat="50.8810078" lon="17.9819119"><ele>172.600</ele></trkpt><trkpt lat="50.8813869" lon="17.9838431"><ele>174.400</ele></trkpt><trkpt lat="50.8816780" lon="17.9853720"><ele>175.400</ele></trkpt><trkpt lat="50.8816983" lon="17.9857958"><ele>175.400</ele></trkpt><trkpt lat="50.8816543" lon="17.9863376"><ele>174.000</ele></trkpt><trkpt lat="50.8815984" lon="17.9873622"><ele>173.600</ele></trkpt><trkpt lat="50.8816289" lon="17.9876948"><ele>173.600</ele></trkpt><trkpt lat="50.8817135" lon="17.9879415"><ele>173.400</ele></trkpt><trkpt lat="50.8818455" lon="17.9884136"><ele>174.200</ele></trkpt><trkpt lat="50.8819707" lon="17.9895348"><ele>174.400</ele></trkpt><trkpt lat="50.8822110" lon="17.9915411"><ele>176.000</ele></trkpt><trkpt lat="50.8823058" lon="17.9920185"><ele>175.000</ele></trkpt><trkpt lat="50.8824310" lon="17.9923243"><ele>175.200</ele></trkpt><trkpt lat="50.8825732" lon="17.9927159"><ele>174.800</ele></trkpt><trkpt lat="50.8827593" lon="17.9932577"><ele>175.200</ele></trkpt><trkpt lat="50.8830131" lon="17.9943359"><ele>177.600</ele></trkpt><trkpt lat="50.8831654" lon="17.9949367"><ele>177.600</ele></trkpt><trkpt lat="50.8831756" lon="17.9952854"><ele>176.600</ele></trkpt><trkpt lat="50.8831181" lon="17.9968840"><ele>177.400</ele></trkpt><trkpt lat="50.8829979" lon="17.9982305"><ele>176.400</ele></trkpt><trkpt lat="50.8829404" lon="17.9987723"><ele>178.000</ele></trkpt><trkpt lat="50.8830318" lon="17.9997433"><ele>177.800</ele></trkpt><trkpt lat="50.8829979" lon="18.0003012"><ele>177.800</ele></trkpt><trkpt lat="50.8828912" lon="18.0007243"><ele>177.200</ele></trkpt><trkpt lat="50.8827852" lon="18.0013164"><ele>176.800</ele></trkpt><trkpt lat="50.8825681" lon="18.0021251"><ele>176.800</ele></trkpt><trkpt lat="50.8823341" lon="18.0028157"><ele>178.200</ele></trkpt><trkpt lat="50.8822432" lon="18.0030370"><ele>178.200</ele></trkpt><trkpt lat="50.8820367" lon="18.0042118"><ele>178.200</ele></trkpt><trkpt lat="50.8819589" lon="18.0058587"><ele>178.200</ele></trkpt><trkpt lat="50.8818675" lon="18.0065453"><ele>178.600</ele></trkpt><trkpt lat="50.8812591" lon="18.0103272"><ele>178.000</ele></trkpt><trkpt lat="50.8812109" lon="18.0105901"><ele>177.800</ele></trkpt><trkpt lat="50.8809401" lon="18.0114860"><ele>177.800</ele></trkpt><trkpt lat="50.8808724" lon="18.0118186"><ele>178.200</ele></trkpt><trkpt lat="50.8808047" lon="18.0122638"><ele>178.400</ele></trkpt><trkpt lat="50.8810383" lon="18.0126501"><ele>179.200</ele></trkpt><trkpt lat="50.8818844" lon="18.0139053"><ele>177.800</ele></trkpt><trkpt lat="50.8820164" lon="18.0140716"><ele>178.200</ele></trkpt><trkpt lat="50.8821512" lon="18.0143311"><ele>176.600</ele></trkpt><trkpt lat="50.8821687" lon="18.0143238"><ele>177.600</ele></trkpt><trkpt lat="50.8822432" lon="18.0144525"><ele>177.600</ele></trkpt><trkpt lat="50.8831502" lon="18.0158204"><ele>178.800</ele></trkpt><trkpt lat="50.8834007" lon="18.0161798"><ele>178.600</ele></trkpt><trkpt lat="50.8836038" lon="18.0163538"><ele>178.200</ele></trkpt><trkpt lat="50.8840268" lon="18.0164534"><ele>178.600</ele></trkpt><trkpt lat="50.8842569" lon="18.0165661"><ele>179.200</ele></trkpt><trkpt lat="50.8848610" lon="18.0171278"><ele>179.800</ele></trkpt><trkpt lat="50.8852340" lon="18.0177173"><ele>180.800</ele></trkpt><trkpt lat="50.8857702" lon="18.0183913"><ele>179.600</ele></trkpt><trkpt lat="50.8869282" lon="18.0197050"><ele>180.600</ele></trkpt><trkpt lat="50.8874671" lon="18.0204958"><ele>181.000</ele></trkpt><trkpt lat="50.8876552" lon="18.0206522"><ele>181.600</ele></trkpt><trkpt lat="50.8889525" lon="18.0223034"><ele>182.600</ele></trkpt><trkpt lat="50.8902102" lon="18.0226048"><ele>181.000</ele></trkpt><trkpt lat="50.8908326" lon="18.0229419"><ele>181.600</ele></trkpt><trkpt lat="50.8909997" lon="18.0230114"><ele>181.200</ele></trkpt><trkpt lat="50.8911216" lon="18.0230436"><ele>181.400</ele></trkpt><trkpt lat="50.8912535" lon="18.0230704"><ele>182.400</ele></trkpt><trkpt lat="50.8914769" lon="18.0225876"><ele>182.200</ele></trkpt><trkpt lat="50.8919100" lon="18.0217186"><ele>183.000</ele></trkpt><trkpt lat="50.8922355" lon="18.0211553"><ele>183.200</ele></trkpt><trkpt lat="50.8923473" lon="18.0210450"><ele>183.200</ele></trkpt><trkpt lat="50.8926059" lon="18.0209586"><ele>182.600</ele></trkpt><trkpt lat="50.8933394" lon="18.0210084"><ele>182.600</ele></trkpt><trkpt lat="50.8936117" lon="18.0209786"><ele>182.800</ele></trkpt><trkpt lat="50.8939368" lon="18.0208496"><ele>182.200</ele></trkpt><trkpt lat="50.8945865" lon="18.0202112"><ele>181.400</ele></trkpt><trkpt lat="50.8946745" lon="18.0199966"><ele>181.400</ele></trkpt><trkpt lat="50.8947997" lon="18.0194602"><ele>181.400</ele></trkpt><trkpt lat="50.8949667" lon="18.0189310"><ele>181.600</ele></trkpt><trkpt lat="50.8954696" lon="18.0171052"><ele>183.800</ele></trkpt><trkpt lat="50.8957471" lon="18.0161342"><ele>181.800</ele></trkpt><trkpt lat="50.8958925" lon="18.0154530"><ele>181.800</ele></trkpt><trkpt lat="50.8960347" lon="18.0147073"><ele>181.800</ele></trkpt><trkpt lat="50.8963290" lon="18.0134226"><ele>182.600</ele></trkpt><trkpt lat="50.8966572" lon="18.0118320"><ele>181.800</ele></trkpt><trkpt lat="50.8983861" lon="18.0117622"><ele>181.200</ele></trkpt><trkpt lat="50.8991411" lon="18.0117459"><ele>180.000</ele></trkpt><trkpt lat="50.8999221" lon="18.0116979"><ele>180.600</ele></trkpt><trkpt lat="50.9019522" lon="18.0116626"><ele>178.600</ele></trkpt><trkpt lat="50.9033154" lon="18.0115959"><ele>178.200</ele></trkpt><trkpt lat="50.9045922" lon="18.0115463"><ele>177.600</ele></trkpt><trkpt lat="50.9051320" lon="18.0115316"><ele>176.800</ele></trkpt><trkpt lat="50.9057274" lon="18.0115048"><ele>177.000</ele></trkpt><trkpt lat="50.9060531" lon="18.0114746"><ele>176.800</ele></trkpt><trkpt lat="50.9085105" lon="18.0113140"><ele>176.800</ele></trkpt><trkpt lat="50.9098576" lon="18.0112741"><ele>176.600</ele></trkpt><trkpt lat="50.9116534" lon="18.0111740"><ele>178.800</ele></trkpt><trkpt lat="50.9121508" lon="18.0111936"><ele>179.400</ele></trkpt><trkpt lat="50.9124485" lon="18.0111883"><ele>179.000</ele></trkpt><trkpt lat="50.9126718" lon="18.0111595"><ele>179.000</ele></trkpt><trkpt lat="50.9127942" lon="18.0114722"><ele>178.400</ele></trkpt><trkpt lat="50.9127978" lon="18.0118578"><ele>178.200</ele></trkpt><trkpt lat="50.9126842" lon="18.0126977"><ele>177.400</ele></trkpt><trkpt lat="50.9126113" lon="18.0135628"><ele>178.600</ele></trkpt><trkpt lat="50.9125620" lon="18.0136859"><ele>177.800</ele></trkpt><trkpt lat="50.9124417" lon="18.0152098"><ele>179.000</ele></trkpt><trkpt lat="50.9123097" lon="18.0159127"><ele>178.200</ele></trkpt><trkpt lat="50.9120392" lon="18.0187843"><ele>175.400</ele></trkpt><trkpt lat="50.9116246" lon="18.0226577"><ele>178.800</ele></trkpt><trkpt lat="50.9112274" lon="18.0264090"><ele>177.600</ele></trkpt><trkpt lat="50.9110989" lon="18.0273673"><ele>178.600</ele></trkpt><trkpt lat="50.9110552" lon="18.0279343"><ele>178.400</ele></trkpt><trkpt lat="50.9109535" lon="18.0287353"><ele>178.800</ele></trkpt><trkpt lat="50.9108791" lon="18.0294380"><ele>178.600</ele></trkpt><trkpt lat="50.9107201" lon="18.0308488"><ele>178.600</ele></trkpt><trkpt lat="50.9104840" lon="18.0327456"><ele>179.000</ele></trkpt><trkpt lat="50.9102584" lon="18.0348990"><ele>182.200</ele></trkpt><trkpt lat="50.9101502" lon="18.0359719"><ele>184.800</ele></trkpt><trkpt lat="50.9098457" lon="18.0385253"><ele>184.400</ele></trkpt><trkpt lat="50.9095405" lon="18.0414612"><ele>180.400</ele></trkpt><trkpt lat="50.9095705" lon="18.0416446"><ele>179.400</ele></trkpt><trkpt lat="50.9100612" lon="18.0415898"><ele>179.800</ele></trkpt><trkpt lat="50.9103597" lon="18.0414401"><ele>179.600</ele></trkpt><trkpt lat="50.9118367" lon="18.0403623"><ele>181.000</ele></trkpt><trkpt lat="50.9123534" lon="18.0400416"><ele>180.400</ele></trkpt><trkpt lat="50.9132939" lon="18.0396222"><ele>180.400</ele></trkpt><trkpt lat="50.9134673" lon="18.0394968"><ele>180.800</ele></trkpt><trkpt lat="50.9141270" lon="18.0388131"><ele>181.200</ele></trkpt><trkpt lat="50.9160838" lon="18.0372477"><ele>182.400</ele></trkpt><trkpt lat="50.9165054" lon="18.0371172"><ele>182.800</ele></trkpt><trkpt lat="50.9171692" lon="18.0369969"><ele>181.000</ele></trkpt><trkpt lat="50.9174962" lon="18.0370077"><ele>181.600</ele></trkpt><trkpt lat="50.9182374" lon="18.0369061"><ele>181.000</ele></trkpt><trkpt lat="50.9185582" lon="18.0368919"><ele>181.000</ele></trkpt><trkpt lat="50.9190317" lon="18.0368436"><ele>180.800</ele></trkpt><trkpt lat="50.9220821" lon="18.0368411"><ele>179.000</ele></trkpt><trkpt lat="50.9234312" lon="18.0367846"><ele>176.800</ele></trkpt><trkpt lat="50.9254105" lon="18.0367257"><ele>177.000</ele></trkpt><trkpt lat="50.9262885" lon="18.0367095"><ele>177.000</ele></trkpt><trkpt lat="50.9268464" lon="18.0366826"><ele>177.000</ele></trkpt><trkpt lat="50.9274517" lon="18.0366612"><ele>177.600</ele></trkpt><trkpt lat="50.9275497" lon="18.0366719"><ele>177.800</ele></trkpt><trkpt lat="50.9276004" lon="18.0368329"><ele>177.800</ele></trkpt><trkpt lat="50.9276848" lon="18.0379639"><ele>177.800</ele></trkpt><trkpt lat="50.9277212" lon="18.0387918"><ele>176.600</ele></trkpt><trkpt lat="50.9277965" lon="18.0397404"><ele>177.200</ele></trkpt><trkpt lat="50.9278675" lon="18.0408401"><ele>176.000</ele></trkpt><trkpt lat="50.9279138" lon="18.0414650"><ele>176.000</ele></trkpt><trkpt lat="50.9280535" lon="18.0437744"><ele>177.600</ele></trkpt><trkpt lat="50.9280960" lon="18.0444023"><ele>177.200</ele></trkpt><trkpt lat="50.9281482" lon="18.0452979"><ele>177.200</ele></trkpt><trkpt lat="50.9281583" lon="18.0460704"><ele>177.200</ele></trkpt><trkpt lat="50.9281110" lon="18.0466283"><ele>177.200</ele></trkpt><trkpt lat="50.9280941" lon="18.0472130"><ele>178.000</ele></trkpt><trkpt lat="50.9280351" lon="18.0480048"><ele>178.800</ele></trkpt><trkpt lat="50.9279453" lon="18.0486614"><ele>178.600</ele></trkpt><trkpt lat="50.9278838" lon="18.0493518"><ele>178.000</ele></trkpt><trkpt lat="50.9276346" lon="18.0502895"><ele>178.200</ele></trkpt><trkpt lat="50.9268914" lon="18.0521021"><ele>177.400</ele></trkpt><trkpt lat="50.9263702" lon="18.0535620"><ele>177.600</ele></trkpt><trkpt lat="50.9259686" lon="18.0548406"><ele>177.800</ele></trkpt><trkpt lat="50.9259251" lon="18.0551282"><ele>178.000</ele></trkpt><trkpt lat="50.9259501" lon="18.0552162"><ele>177.600</ele></trkpt><trkpt lat="50.9260019" lon="18.0552415"><ele>177.000</ele></trkpt><trkpt lat="50.9261381" lon="18.0551361"><ele>176.600</ele></trkpt><trkpt lat="50.9262655" lon="18.0547989"><ele>177.600</ele></trkpt><trkpt lat="50.9264072" lon="18.0546275"><ele>176.000</ele></trkpt></trkseg></trk></gpx>